{"type":"FeatureCollection","features":[{"type":"Feature","geometry":{"type":"Polygon","coordinates":[[[139.6698647626203,35.8546944240856],[139.67330543124098,35.856276312153305],[139.67330399079063,35.85627784091296],[139.6724576979961,35.85724287318113],[139.67076535271738,35.85864553517623],[139.66948304607698,35.85920064877473],[139.66777674326795,35.85997690226619],[139.6648306237405,35.85833946217607],[139.6662593931417,35.8574914835262],[139.66694971650156,35.85495067787255],[139.6677331263153,35.85485719762023],[139.66748139788047,35.85404132391287],[139.66908664001832,35.85528797231518],[139.6698647626203,35.8546944240856]]]},"properties":{"KEY_CODE":"11108001001","PREF":"11","CITY":"108","CITY_NAME":"さいたま市南区","S_NAME":"大谷場一丁目","SETAI":"1114"}},{"type":"Feature","geometry":{"type":"Polygon","coordinates":[[[139.67277190878684,35.852692184048294],[139.6756339731851,35.85253231554527],[139.6758407194969,35.85256439286072],[139.6759543696462,35.85371050112974],[139.67330543124098,35.856276312153305],[139.6698647626203,35.8546944240856],[139.67057368467306,35.85420828297694],[139.67135818715508,35.853678089231444],[139.67277190878684,35.852692184048294]]]},"properties":{"KEY_CODE":"11108001002","PREF":"11","CITY":"108","CITY_NAME":"さいたま市南区","S_NAME":"大谷場二丁目","SETAI":"845"}},{"type":"Feature","geometry":{"type":"Polygon","coordinates":[[[139.66683085386478,35.849529518340674],[139.67162010580742,35.8519502153364],[139.67277190878684,35.852692184048294],[139.67135818715508,35.853678089231444],[139.67057368467306,35.85420828297694],[139.6698647626203,35.8546944240856],[139.66908664001832,35.85528797231518],[139.66748139788047,35.85404132391287],[139.6668272623281,35.853468631505415],[139.66689427247294,35.852766579996086],[139.6657888034101,35.851135711919184],[139.6655061003259,35.850898633541654],[139.66683085386478,35.849529518340674]]]},"properties":{"KEY_CODE":"11108002001","PREF":"11","CITY":"108","CITY_NAME":"さいたま市南区","S_NAME":"南浦和一丁目","SETAI":"1530"}},{"type":"Feature","geometry":{"type":"Polygon","coordinates":[[[139.6756339731851,35.85253231554527],[139.67277190878684,35.852692184048294],[139.67162010580742,35.8519502153364],[139.66683085386478,35.849529518340674],[139.6688647195441,35.84748434869624],[139.67055204673034,35.84578716341895],[139.6722089954354,35.846970388217116],[139.67315139161846,35.850405172330355],[139.6756339731851,35.85253231554527]]]},"properties":{"KEY_CODE":"11108002002","PREF":"11","CITY":"108","CITY_NAME":"さいたま市南区","S_NAME":"南浦和二丁目","SETAI":"2135"}},{"type":"Feature","geometry":{"type":"Polygon","coordinates":[[[139.67692899109485,35.84627921670474],[139.67639310752296,35.847618474353474],[139.6774723881229,35.84777642709279],[139.67574706468682,35.849091346671166],[139.67609533385811,35.84949621544204],[139.67529443435535,35.850288449804275],[139.67601680480885,35.851589203814584],[139.6758407194969,35.85256439286072],[139.6756339731851,35.85253231554527],[139.67315139161846,35.850405172330355],[139.6722089954354,35.846970388217116],[139.67055204673034,35.84578716341895],[139.67104047653896,35.845293421443046],[139.6714277008256,35.844920887020784],[139.67435590525358,35.842596929702985],[139.67506304837698,35.84187767366382],[139.67516699199678,35.84260636556759],[139.67783137691657,35.844166130063286],[139.67728602262616,35.84548183033107],[139.6768036841576,35.84550496575058],[139.67692899109485,35.84627921670474]]]},"properties":{"KEY_CODE":"11108002003","PREF":"11","CITY":"108","CITY_NAME":"さいたま市南区","S_NAME":"南浦和三丁目","SETAI":"3815"}},{"type":"Feature","geometry":{"type":"Polygon","coordinates":[[[139.67913029458856,35.840209694119984],[139.6774662481467,35.8417491731808],[139.6763121015013,35.841300438100625],[139.67527680630184,35.841658193725976],[139.67737784443707,35.83952121371737],[139.6779423661671,35.83896408803389],[139.67847208253744,35.839914234432875],[139.67913029458856,35.840209694119984]]]},"properties":{"KEY_CODE":"11108002004","PREF":"11","CITY":"108","CITY_NAME":"さいたま市南区","S_NAME":"南浦和四丁目","SETAI":"131"}},{"type":"Feature","geometry":{"type":"Polygon","coordinates":[[[139.67396478166037,35.86075076192674],[139.67085834384534,35.863865356208706],[139.66657472639767,35.86157461584795],[139.66777674326795,35.85997690226619],[139.66948304607698,35.85920064877473],[139.67075787899276,35.860082067083226],[139.6725371235911,35.86062243217727],[139.67396478166037,35.86075076192674]]]},"properties":{"KEY_CODE":"11108003002","PREF":"11","CITY":"108","CITY_NAME":"さいたま市南区","S_NAME":"太田窪二丁目","SETAI":"1018"}},{"type":"Feature","geometry":{"type":"Polygon","coordinates":[[[139.67497670338554,35.86019361153592],[139.67396478166037,35.86075076192674],[139.6725371235911,35.86062243217727],[139.67075787899276,35.860082067083226],[139.66948304607698,35.85920064877473],[139.67076535271738,35.85864553517623],[139.6724576979961,35.85724287318113],[139.67330399079063,35.85627784091296],[139.67736810153013,35.858348768589984],[139.67497670338554,35.86019361153592]]]},"properties":{"KEY_CODE":"11108003004","PREF":"11","CITY":"108","CITY_NAME":"さいたま市南区","S_NAME":"太田窪四丁目","SETAI":"742"}},{"type":"Feature","geometry":{"type":"Polygon","coordinates":[[[139.67742555389955,35.85292299506837],[139.67778462428916,35.8530814501401],[139.68100861975245,35.85390176198842],[139.68035469278408,35.85438578455469],[139.67821481829858,35.8569693705534],[139.67736810153013,35.858348768589984],[139.67330399079063,35.85627784091296],[139.67330543124098,35.856276312153305],[139.6759543696462,35.85371050112974],[139.6758407194969,35.85256439286072],[139.67742555389955,35.85292299506837]]]},"properties":{"KEY_CODE":"11108003005","PREF":"11","CITY":"108","CITY_NAME":"さいたま市南区","S_NAME":"太田窪五丁目","SETAI":"1314"}},{"type":"Feature","geometry":{"type":"Polygon","coordinates":[[[139.69558199249252,35.8511240038732],[139.69343779608792,35.84956659321744],[139.69309750105555,35.85339217532487],[139.69265029393281,35.85208590667587],[139.69279420250325,35.85046502854953],[139.6917231937215,35.84827886313675],[139.6956719198056,35.848476700284586],[139.69558199249252,35.8511240038732]]]},"properties":{"KEY_CODE":"11108004001","PREF":"11","CITY":"108","CITY_NAME":"さいたま市南区","S_NAME":"大字太田窪","SETAI":"0"}},{"type":"Feature","geometry":{"type":"Polygon","coordinates":[[[139.67831390691225,35.85880417030498],[139.6760150417798,35.85965109022776],[139.67553160475805,35.860667529300144],[139.67497670338554,35.86019361153592],[139.67736810153013,35.858348768589984],[139.67821481829858,35.8569693705534],[139.68035469278408,35.85438578455469],[139.68100861975245,35.85390176198842],[139.6841709952818,35.852189600210764],[139.68511678413554,35.85120289002234],[139.68558204954246,35.85075775199855],[139.68669361486144,35.84984395092408],[139.6870215320254,35.848334255057075],[139.6880640233493,35.84824120988195],[139.68824914887696,35.847497106642486],[139.69106941809196,35.84780733287838],[139.68983004583208,35.8499575578946],[139.6892744873699,35.850086878693745],[139.68838104669473,35.851247645762605],[139.6897172957011,35.85176801781691],[139.69072158221624,35.85250620974729],[139.69162424055793,35.852065885729395],[139.69226121921014,35.85253829065919],[139.69139011431048,35.85304130880582],[139.69034937445417,35.852992144454035],[139.689967493954,35.852451794104084],[139.68835772182845,35.85378802846044],[139.6892640280767,35.85507844414204],[139.68814158178293,35.85634953888153],[139.68730293961954,35.85613537193871],[139.68649822117493,35.85500477468183],[139.68389558561267,35.85505885459341],[139.68153163781136,35.854138379247324],[139.68111536807916,35.85470535338972],[139.68086892721567,35.85546825674558],[139.67991536534402,35.855765438193195],[139.68051205096148,35.85690592350368],[139.68025445586977,35.85757411895762],[139.68002639373103,35.85801918318493],[139.6781288934376,35.85850531377503],[139.67831390691225,35.85880417030498]]]},"properties":{"KEY_CODE":"11108004001","PREF":"11","CITY":"108","CITY_NAME":"さいたま市南区","S_NAME":"大字太田窪","SETAI":"2125"}},{"type":"Feature","geometry":{"type":"Polygon","coordinates":[[[139.68468923952216,35.85694171869455],[139.6833614906976,35.85670205333245],[139.68399293369637,35.85605781268558],[139.68471043964047,35.85632369609932],[139.68468923952216,35.85694171869455]]]},"properties":{"KEY_CODE":"11108004001","PREF":"11","CITY":"108","CITY_NAME":"さいたま市南区","S_NAME":"大字太田窪","SETAI":"0"}},{"type":"Feature","geometry":{"type":"Polygon","coordinates":[[[139.68511678413554,35.85120289002234],[139.6841709952818,35.852189600210764],[139.68100861975245,35.85390176198842],[139.67778462428916,35.8530814501401],[139.67742555389955,35.85292299506837],[139.6758407194969,35.85256439286072],[139.67601680480885,35.851589203814584],[139.67776544725987,35.85133609302155],[139.68067521671654,35.84993708973753],[139.6831709929162,35.84927634061874],[139.68480075817516,35.849270850456136],[139.6870215320254,35.848334255057075],[139.68669361486144,35.84984395092408],[139.68558204954246,35.85075775199855],[139.68511678413554,35.85120289002234]]]},"properties":{"KEY_CODE":"11108004002","PREF":"11","CITY":"108","CITY_NAME":"さいたま市南区","S_NAME":"大字太田窪","SETAI":"1582"}},{"type":"Feature","geometry":{"type":"Polygon","coordinates":[[[139.68782714401922,35.86453569983494],[139.68792582342198,35.86488878061427],[139.68841994689043,35.86675918102083],[139.68759686646965,35.86699769110462],[139.68760947487897,35.865548541478674],[139.6871154502841,35.864558098166626],[139.6875775437691,35.86418154266768],[139.68782714401922,35.86453569983494]]]},"properties":{"KEY_CODE":"11108005001","PREF":"11","CITY":"108","CITY_NAME":"さいたま市南区","S_NAME":"大字大谷口","SETAI":"0"}},{"type":"Feature","geometry":{"type":"Polygon","coordinates":[[[139.69384797124079,35.86406382771942],[139.69338366505704,35.86375378216076],[139.69210755948637,35.86441128560268],[139.69131928073853,35.86373911005514],[139.6906754376418,35.86418591206132],[139.68920055687113,35.8634216176757],[139.6890966871406,35.86348516076793],[139.68897751413581,35.861303894935695],[139.68733174575593,35.86150483231278],[139.6867084098668,35.861051526620585],[139.68722464849336,35.86051587240296],[139.68596254788199,35.859804721545146],[139.6870135045137,35.85934125199716],[139.68716080442974,35.85871960235464],[139.68645314406763,35.857955596453415],[139.68385909057585,35.859342041042346],[139.6828540563452,35.86115681140551],[139.68212791226588,35.86168752563998],[139.681851486108,35.86188537971955],[139.67904714349592,35.86083227805185],[139.67721354568334,35.86206558575386],[139.67662041683576,35.861709521121675],[139.67553160475805,35.860667529300144],[139.6760150417798,35.85965109022776],[139.67831390691225,35.85880417030498],[139.6781288934376,35.85850531377503],[139.68002639373103,35.85801918318493],[139.68025445586977,35.85757411895762],[139.6821177848717,35.85815410178638],[139.68327195601137,35.857096182679996],[139.68468923952216,35.85694171869455],[139.68471043964047,35.85632369609932],[139.68477692949557,35.85617036571754],[139.68856201682667,35.857675262279244],[139.695173040466,35.860318312650946],[139.6946029384017,35.861764756152766],[139.6942236634101,35.86369290461871],[139.69384797124079,35.86406382771942]]]},"properties":{"KEY_CODE":"11108005001","PREF":"11","CITY":"108","CITY_NAME":"さいたま市南区","S_NAME":"大字大谷口","SETAI":"2859"}},{"type":"Feature","geometry":{"type":"Polygon","coordinates":[[[139.69814814349854,35.857487218104055],[139.69721957536032,35.858953552914556],[139.695173040466,35.860318312650946],[139.68856201682667,35.857675262279244],[139.68730293961954,35.85613537193871],[139.68814158178293,35.85634953888153],[139.6892640280767,35.85507844414204],[139.68835772182845,35.85378802846044],[139.689967493954,35.852451794104084],[139.69034937445417,35.852992144454035],[139.69139011431048,35.85304130880582],[139.69226121921014,35.85253829065919],[139.69265029393281,35.85208590667587],[139.69309750105555,35.85339217532487],[139.6938020303132,35.8540560074085],[139.69475529947618,35.85450036241769],[139.6951370902602,35.85473675845473],[139.69722157684095,35.85622125075219],[139.69757346117518,35.857317844820635],[139.69814814349854,35.857487218104055]]]},"properties":{"KEY_CODE":"11108005002","PREF":"11","CITY":"108","CITY_NAME":"さいたま市南区","S_NAME":"大字大谷口","SETAI":"1941"}},{"type":"Feature","geometry":{"type":"Polygon","coordinates":[[[139.6897172957011,35.85176801781691],[139.6910338905881,35.851394428106794],[139.69162424055793,35.852065885729395],[139.69072158221624,35.85250620974729],[139.6897172957011,35.85176801781691]]]},"properties":{"KEY_CODE":"11108005002","PREF":"11","CITY":"108","CITY_NAME":"さいたま市南区","S_NAME":"大字大谷口","SETAI":"0"}},{"type":"Feature","geometry":{"type":"Polygon","coordinates":[[[139.68111536807916,35.85470535338972],[139.68153163781136,35.854138379247324],[139.68389558561267,35.85505885459341],[139.68349343135284,35.85566423740319],[139.68111536807916,35.85470535338972]]]},"properties":{"KEY_CODE":"11108005002","PREF":"11","CITY":"108","CITY_NAME":"さいたま市南区","S_NAME":"大字大谷口","SETAI":"0"}},{"type":"Feature","geometry":{"type":"Polygon","coordinates":[[[139.68533461254412,35.86410593458237],[139.68465559482345,35.86459599414819],[139.68329653920648,35.864793781181184],[139.68368363575829,35.86421696257312],[139.68533461254412,35.86410593458237]]]},"properties":{"KEY_CODE":"11108005003","PREF":"11","CITY":"108","CITY_NAME":"さいたま市南区","S_NAME":"大字大谷口","SETAI":"0"}},{"type":"Feature","geometry":{"type":"Polygon","coordinates":[[[139.68468923952216,35.85694171869455],[139.68327195601137,35.857096182679996],[139.6821177848717,35.85815410178638],[139.68025445586977,35.85757411895762],[139.68051205096148,35.85690592350368],[139.67991536534402,35.855765438193195],[139.68086892721567,35.85546825674558],[139.68111536807916,35.85470535338972],[139.68349343135284,35.85566423740319],[139.68389558561267,35.85505885459341],[139.68649822117493,35.85500477468183],[139.68730293961954,35.85613537193871],[139.68856201682667,35.857675262279244],[139.68477692949557,35.85617036571754],[139.68471043964047,35.85632369609932],[139.68399293369637,35.85605781268558],[139.6833614906976,35.85670205333245],[139.68468923952216,35.85694171869455]]]},"properties":{"KEY_CODE":"11108005003","PREF":"11","CITY":"108","CITY_NAME":"さいたま市南区","S_NAME":"大字大谷口","SETAI":"0"}},{"type":"Feature","geometry":{"type":"Polygon","coordinates":[[[139.68162910996222,35.86650074090414],[139.67967356504235,35.8668382779459],[139.67907840748757,35.86693559199647],[139.6770464445226,35.86687478498821],[139.67562913905408,35.86643473494028],[139.67461468776887,35.86588937445062],[139.67417532117045,35.86465758830168],[139.67662041683576,35.861709521121675],[139.67721354568334,35.86206558575386],[139.67904714349592,35.86083227805185],[139.681851486108,35.86188537971955],[139.68212791226588,35.86168752563998],[139.68223523078902,35.863131770500665],[139.68184239323634,35.863586184658516],[139.68398689619943,35.86369995707646],[139.6830925849362,35.86473007610319],[139.68189836407004,35.866101786686094],[139.6828857098405,35.86666726199797],[139.68162910996222,35.86650074090414]]]},"properties":{"KEY_CODE":"11108005003","PREF":"11","CITY":"108","CITY_NAME":"さいたま市南区","S_NAME":"大字大谷口","SETAI":"2012"}},{"type":"Feature","geometry":{"type":"Polygon","coordinates":[[[139.696801059095,35.85432803653255],[139.69619915414665,35.85495634947222],[139.69598477388456,35.85433193658934],[139.69497360322956,35.85369338719428],[139.6938020303132,35.8540560074085],[139.69309750105555,35.85339217532487],[139.69343779608792,35.84956659321744],[139.69558199249252,35.8511240038732],[139.69622807656347,35.85159125705379],[139.69556456907088,35.85242910603893],[139.69647967983263,35.85297607202991],[139.69572427227862,35.853744968827904],[139.69684686467127,35.853457251781826],[139.69800464426842,35.853963658010905],[139.69788520700837,35.85407601682972],[139.69766032099716,35.85435201767353],[139.6973377223312,35.854655337073346],[139.69729966066103,35.85463237127435],[139.696801059095,35.85432803653255]]]},"properties":{"KEY_CODE":"111080060","PREF":"11","CITY":"108","CITY_NAME":"さいたま市南区","S_NAME":"大字円正寺","SETAI":"1035"}},{"type":"Feature","geometry":{"type":"Polygon","coordinates":[[[139.69226121921014,35.85253829065919],[139.69162424055793,35.852065885729395],[139.6910338905881,35.851394428106794],[139.6897172957011,35.85176801781691],[139.68838104669473,35.851247645762605],[139.6892744873699,35.850086878693745],[139.68983004583208,35.8499575578946],[139.69106941809196,35.84780733287838],[139.69149434958322,35.84803532638837],[139.6917231937215,35.84827886313675],[139.69279420250325,35.85046502854953],[139.69265029393281,35.85208590667587],[139.69226121921014,35.85253829065919]]]},"properties":{"KEY_CODE":"111080060","PREF":"11","CITY":"108","CITY_NAME":"さいたま市南区","S_NAME":"大字円正寺","SETAI":"0"}},{"type":"Feature","geometry":{"type":"Polygon","coordinates":[[[139.68533461254412,35.86410593458237],[139.68368363575829,35.86421696257312],[139.68329653920648,35.864793781181184],[139.6830925849362,35.86473007610319],[139.68398689619943,35.86369995707646],[139.68184239323634,35.863586184658516],[139.68223523078902,35.863131770500665],[139.68212791226588,35.86168752563998],[139.6828540563452,35.86115681140551],[139.68385909057585,35.859342041042346],[139.68645314406763,35.857955596453415],[139.68716080442974,35.85871960235464],[139.6870135045137,35.85934125199716],[139.68596254788199,35.859804721545146],[139.68722464849336,35.86051587240296],[139.6867084098668,35.861051526620585],[139.68733174575593,35.86150483231278],[139.68897751413581,35.861303894935695],[139.6890966871406,35.86348516076793],[139.68905378947773,35.863879989329476],[139.6875775437691,35.86418154266768],[139.6871154502841,35.864558098166626],[139.68533461254412,35.86410593458237]]]},"properties":{"KEY_CODE":"111080070","PREF":"11","CITY":"108","CITY_NAME":"さいたま市南区","S_NAME":"大字広ケ谷戸","SETAI":"889"}},{"type":"Feature","geometry":{"type":"Polygon","coordinates":[[[139.65751250717986,35.847996406354895],[139.65539138224284,35.84759461228228],[139.6549998283873,35.84753986329309],[139.65447704336998,35.84755008848211],[139.65297253652696,35.847605069837904],[139.65385343256403,35.84622724470204],[139.65579728140892,35.84484466891791],[139.6559418887797,35.845027404605936],[139.65596350030282,35.84506619970811],[139.65605513120116,35.845328711825815],[139.65661628507124,35.845180639848046],[139.65783019221678,35.84495392935083],[139.6582707068238,35.844940682601546],[139.6587742069253,35.84528718375841],[139.6584363507139,35.846238685758415],[139.65813842736873,35.84664864624346],[139.6577964078245,35.84727187093685],[139.65751250717986,35.847996406354895]]]},"properties":{"KEY_CODE":"11108008001","PREF":"11","CITY":"108","CITY_NAME":"さいたま市南区","S_NAME":"白幡一丁目","SETAI":"566"}},{"type":"Feature","geometry":{"type":"Polygon","coordinates":[[[139.6554982884982,35.850384254336234],[139.6502394177518,35.85040112482513],[139.64999581752153,35.84902305796701],[139.65071177082405,35.84766745603574],[139.65297253652696,35.847605069837904],[139.65447704336998,35.84755008848211],[139.6549998283873,35.84753986329309],[139.65539138224284,35.84759461228228],[139.65751250717986,35.847996406354895],[139.65691932223126,35.84915511966217],[139.6554982884982,35.850384254336234]]]},"properties":{"KEY_CODE":"11108008002","PREF":"11","CITY":"108","CITY_NAME":"さいたま市南区","S_NAME":"白幡二丁目","SETAI":"501"}},{"type":"Feature","geometry":{"type":"Polygon","coordinates":[[[139.65297253652696,35.847605069837904],[139.65071177082405,35.84766745603574],[139.6507545620295,35.846530564484574],[139.65085765394633,35.846328467361396],[139.6511024222321,35.845890418710546],[139.65230699316552,35.84467479325851],[139.65439693962372,35.84329337422394],[139.6546535629897,35.843630049687256],[139.65489918456623,35.84388918253177],[139.65579728140892,35.84484466891791],[139.65385343256403,35.84622724470204],[139.65297253652696,35.847605069837904]]]},"properties":{"KEY_CODE":"11108008003","PREF":"11","CITY":"108","CITY_NAME":"さいたま市南区","S_NAME":"白幡三丁目","SETAI":"1543"}},{"type":"Feature","geometry":{"type":"Polygon","coordinates":[[[139.65439693962372,35.84329337422394],[139.65230699316552,35.84467479325851],[139.6511024222321,35.845890418710546],[139.65090323502142,35.84566207081949],[139.65112071367585,35.84196166867808],[139.65563379031283,35.838925481849984],[139.6568230759291,35.840432757936796],[139.65755415543296,35.84066402374431],[139.65789265616928,35.840973596806236],[139.65439693962372,35.84329337422394]]]},"properties":{"KEY_CODE":"11108008004","PREF":"11","CITY":"108","CITY_NAME":"さいたま市南区","S_NAME":"白幡四丁目","SETAI":"2116"}},{"type":"Feature","geometry":{"type":"Polygon","coordinates":[[[139.65138024075125,35.838105491310316],[139.65112071367585,35.84196166867808],[139.65090323502142,35.84566207081949],[139.6511024222321,35.845890418710546],[139.65085765394633,35.846328467361396],[139.64697797492985,35.84478708696102],[139.64814907328915,35.842269451072276],[139.6507416135738,35.838459745125384],[139.65138024075125,35.838105491310316]]]},"properties":{"KEY_CODE":"11108008005","PREF":"11","CITY":"108","CITY_NAME":"さいたま市南区","S_NAME":"白幡五丁目","SETAI":"1172"}},{"type":"Feature","geometry":{"type":"Polygon","coordinates":[[[139.65347019614546,35.83522684971053],[139.65563379031283,35.838925481849984],[139.65112071367585,35.84196166867808],[139.65138024075125,35.838105491310316],[139.65183850559012,35.837183484343036],[139.65268729461914,35.836107286999066],[139.65343412128743,35.83527159888723],[139.65347019614546,35.83522684971053]]]},"properties":{"KEY_CODE":"11108008006","PREF":"11","CITY":"108","CITY_NAME":"さいたま市南区","S_NAME":"白幡六丁目","SETAI":"1172"}},{"type":"Feature","geometry":{"type":"Polygon","coordinates":[[[139.66831938993832,35.83599292097107],[139.66824135898813,35.838927675547616],[139.66719882208906,35.83936025118958],[139.66590637207133,35.83923976343813],[139.66507266192806,35.83911351049227],[139.66416782768925,35.83885906325604],[139.66338484807554,35.8385641130609],[139.66157341444548,35.838581027248594],[139.66628116981718,35.8354498637705],[139.66831938993832,35.83599292097107]]]},"properties":{"KEY_CODE":"11108009001","PREF":"11","CITY":"108","CITY_NAME":"さいたま市南区","S_NAME":"辻一丁目","SETAI":"1189"}},{"type":"Feature","geometry":{"type":"Polygon","coordinates":[[[139.66157341444548,35.838581027248594],[139.66018047873683,35.8394774999644],[139.66013322229713,35.83947005664424],[139.65929007632354,35.837585209667346],[139.65980257681153,35.83708226635015],[139.65991696255023,35.83645275604193],[139.66036497769508,35.83505316880635],[139.6617452322687,35.83270722245559],[139.66300857682705,35.83354887641349],[139.66628116981718,35.8354498637705],[139.66157341444548,35.838581027248594]]]},"properties":{"KEY_CODE":"11108009002","PREF":"11","CITY":"108","CITY_NAME":"さいたま市南区","S_NAME":"辻二丁目","SETAI":"1055"}},{"type":"Feature","geometry":{"type":"Polygon","coordinates":[[[139.658685426748,35.8404361951993],[139.65850714211055,35.84056554058828],[139.658222907452,35.8407531430225],[139.65789265616928,35.840973596806236],[139.65755415543296,35.84066402374431],[139.6568230759291,35.840432757936796],[139.65563379031283,35.838925481849984],[139.65611657994836,35.83875314244763],[139.65922143605223,35.83749055785861],[139.65929007632354,35.837585209667346],[139.66013322229713,35.83947005664424],[139.658685426748,35.8404361951993]]]},"properties":{"KEY_CODE":"11108009003","PREF":"11","CITY":"108","CITY_NAME":"さいたま市南区","S_NAME":"辻三丁目","SETAI":"908"}},{"type":"Feature","geometry":{"type":"Polygon","coordinates":[[[139.65435444233654,35.834115008949475],[139.65736313110298,35.83563469870437],[139.65845021193104,35.836144447997604],[139.65922143605223,35.83749055785861],[139.65611657994836,35.83875314244763],[139.65563379031283,35.838925481849984],[139.65347019614546,35.83522684971053],[139.65435444233654,35.834115008949475]]]},"properties":{"KEY_CODE":"11108009004","PREF":"11","CITY":"108","CITY_NAME":"さいたま市南区","S_NAME":"辻四丁目","SETAI":"1052"}},{"type":"Feature","geometry":{"type":"Polygon","coordinates":[[[139.6601820574074,35.8318663782385],[139.6617452322687,35.83270722245559],[139.66036497769508,35.83505316880635],[139.65991696255023,35.83645275604193],[139.65980257681153,35.83708226635015],[139.65929007632354,35.837585209667346],[139.65922143605223,35.83749055785861],[139.65845021193104,35.836144447997604],[139.65736313110298,35.83563469870437],[139.6601820574074,35.8318663782385]]]},"properties":{"KEY_CODE":"11108009005","PREF":"11","CITY":"108","CITY_NAME":"さいたま市南区","S_NAME":"辻五丁目","SETAI":"701"}},{"type":"Feature","geometry":{"type":"Polygon","coordinates":[[[139.65735588247742,35.83044042045215],[139.6601820574074,35.8318663782385],[139.65736313110298,35.83563469870437],[139.65435444233654,35.834115008949475],[139.65526878432888,35.83299074199284],[139.65563244334788,35.83252729927759],[139.65735588247742,35.83044042045215]]]},"properties":{"KEY_CODE":"11108009006","PREF":"11","CITY":"108","CITY_NAME":"さいたま市南区","S_NAME":"辻六丁目","SETAI":"277"}},{"type":"Feature","geometry":{"type":"Polygon","coordinates":[[[139.66776366645365,35.8327697755575],[139.66832776483966,35.834086963350465],[139.66833732785966,35.835562554541525],[139.66831938993832,35.83599292097107],[139.66628116981718,35.8354498637705],[139.66300857682705,35.83354887641349],[139.6661940326721,35.83154999785187],[139.66776366645365,35.8327697755575]]]},"properties":{"KEY_CODE":"11108009007","PREF":"11","CITY":"108","CITY_NAME":"さいたま市南区","S_NAME":"辻七丁目","SETAI":"816"}},{"type":"Feature","geometry":{"type":"Polygon","coordinates":[[[139.6661940326721,35.83154999785187],[139.66300857682705,35.83354887641349],[139.6617452322687,35.83270722245559],[139.6601820574074,35.8318663782385],[139.65735588247742,35.83044042045215],[139.6580334607275,35.82954400841213],[139.65949452744448,35.83027191629367],[139.660007915471,35.82906811035675],[139.65999197936043,35.82879629442336],[139.66243626968983,35.82866252840299],[139.66312493697916,35.82927368453954],[139.66390145378955,35.82983042011187],[139.6661940326721,35.83154999785187]]]},"properties":{"KEY_CODE":"11108009008","PREF":"11","CITY":"108","CITY_NAME":"さいたま市南区","S_NAME":"辻八丁目","SETAI":"1445"}},{"type":"Feature","geometry":{"type":"Polygon","coordinates":[[[139.67107336933083,35.84078079522989],[139.6723676966337,35.84124670966851],[139.67314912854116,35.841679660629204],[139.67435590525358,35.842596929702985],[139.6714277008256,35.844920887020784],[139.67104047653896,35.845293421443046],[139.67055204673034,35.84578716341895],[139.66941896215525,35.84515072011069],[139.6701194790866,35.84429368253672],[139.67038441616737,35.842388243754364],[139.67107336933083,35.84078079522989]]]},"properties":{"KEY_CODE":"11108010001","PREF":"11","CITY":"108","CITY_NAME":"さいたま市南区","S_NAME":"文蔵一丁目","SETAI":"1035"}},{"type":"Feature","geometry":{"type":"Polygon","coordinates":[[[139.66718767958827,35.84045744685568],[139.67107336933083,35.84078079522989],[139.67038441616737,35.842388243754364],[139.6701194790866,35.84429368253672],[139.66941896215525,35.84515072011069],[139.66542968602565,35.8439280873141],[139.6661691488214,35.84288346255929],[139.66718767958827,35.84045744685568]]]},"properties":{"KEY_CODE":"11108010002","PREF":"11","CITY":"108","CITY_NAME":"さいたま市南区","S_NAME":"文蔵二丁目","SETAI":"1620"}},{"type":"Feature","geometry":{"type":"Polygon","coordinates":[[[139.67506304837698,35.84187767366382],[139.67435590525358,35.842596929702985],[139.67314912854116,35.841679660629204],[139.6723676966337,35.84124670966851],[139.67107336933083,35.84078079522989],[139.6719672318549,35.83811266783734],[139.67245028015455,35.83669701558462],[139.6725903241176,35.83625031456356],[139.67319493066412,35.83629915339931],[139.67437157755626,35.836520626565125],[139.67606697875496,35.83694565017664],[139.6756209448813,35.83892820391424],[139.67737784443707,35.83952121371737],[139.67527680630184,35.841658193725976],[139.67506304837698,35.84187767366382]]]},"properties":{"KEY_CODE":"11108010003","PREF":"11","CITY":"108","CITY_NAME":"さいたま市南区","S_NAME":"文蔵三丁目","SETAI":"1995"}},{"type":"Feature","geometry":{"type":"Polygon","coordinates":[[[139.67107336933083,35.84078079522989],[139.66718767958827,35.84045744685568],[139.66719882208906,35.83936025118958],[139.66824135898813,35.838927675547616],[139.66831938993832,35.83599292097107],[139.6725903241176,35.83625031456356],[139.67245028015455,35.83669701558462],[139.6719672318549,35.83811266783734],[139.67107336933083,35.84078079522989]]]},"properties":{"KEY_CODE":"11108010004","PREF":"11","CITY":"108","CITY_NAME":"さいたま市南区","S_NAME":"文蔵四丁目","SETAI":"1297"}},{"type":"Feature","geometry":{"type":"Polygon","coordinates":[[[139.67633222627418,35.83535504009229],[139.67606697875496,35.83694565017664],[139.67437157755626,35.836520626565125],[139.67319493066412,35.83629915339931],[139.6725903241176,35.83625031456356],[139.66831938993832,35.83599292097107],[139.66833732785966,35.835562554541525],[139.67177983910182,35.83466377725033],[139.67453210969188,35.833449608780086],[139.67553747541982,35.83319688842642],[139.67690699306738,35.83295137241422],[139.67633222627418,35.83535504009229]]]},"properties":{"KEY_CODE":"11108010005","PREF":"11","CITY":"108","CITY_NAME":"さいたま市南区","S_NAME":"文蔵五丁目","SETAI":"1277"}},{"type":"Feature","geometry":{"type":"Polygon","coordinates":[[[139.6507545620295,35.846530564484574],[139.65071177082405,35.84766745603574],[139.64999581752153,35.84902305796701],[139.6502394177518,35.85040112482513],[139.64925166010573,35.85040411892691],[139.64962412256008,35.85221080008036],[139.650052445839,35.85419763272223],[139.64988849526898,35.854426235209615],[139.64789091767474,35.85459124331066],[139.64744483262618,35.85540743614308],[139.6478097047811,35.852238195032534],[139.648304178349,35.850791590747484],[139.6501102051837,35.847615874983816],[139.6507545620295,35.846530564484574]]]},"properties":{"KEY_CODE":"11108011001","PREF":"11","CITY":"108","CITY_NAME":"さいたま市南区","S_NAME":"別所一丁目","SETAI":"725"}},{"type":"Feature","geometry":{"type":"Polygon","coordinates":[[[139.6501102051837,35.847615874983816],[139.648304178349,35.850791590747484],[139.6478097047811,35.852238195032534],[139.64456478659574,35.85188277421689],[139.64241784631383,35.851842252285216],[139.64278811495572,35.850292633367026],[139.6444984724832,35.84898857148765],[139.64908319777524,35.84775256697845],[139.6501102051837,35.847615874983816]]]},"properties":{"KEY_CODE":"11108011002","PREF":"11","CITY":"108","CITY_NAME":"さいたま市南区","S_NAME":"別所二丁目","SETAI":"1276"}},{"type":"Feature","geometry":{"type":"Polygon","coordinates":[[[139.64241784631383,35.851842252285216],[139.64456478659574,35.85188277421689],[139.6478097047811,35.852238195032534],[139.64744483262618,35.85540743614308],[139.64736337574564,35.85614811886662],[139.64523761882964,35.85505365449451],[139.64224837873905,35.85450352083432],[139.6425524146897,35.85315841471931],[139.64241784631383,35.851842252285216]]]},"properties":{"KEY_CODE":"11108011003","PREF":"11","CITY":"108","CITY_NAME":"さいたま市南区","S_NAME":"別所三丁目","SETAI":"1260"}},{"type":"Feature","geometry":{"type":"Polygon","coordinates":[[[139.64291962937344,35.8585415645555],[139.64020368095504,35.85833866422256],[139.6395725464133,35.85748615338444],[139.64001431674976,35.85670532379994],[139.63964908594215,35.85469079897197],[139.64224837873905,35.85450352083432],[139.64523761882964,35.85505365449451],[139.64530474981697,35.85682757014171],[139.64444008113702,35.856708952636055],[139.64434049543064,35.85762202585922],[139.64302846448373,35.85752080465351],[139.64291962937344,35.8585415645555]]]},"properties":{"KEY_CODE":"11108011004","PREF":"11","CITY":"108","CITY_NAME":"さいたま市南区","S_NAME":"別所四丁目","SETAI":"292"}},{"type":"Feature","geometry":{"type":"Polygon","coordinates":[[[139.64224837873905,35.85450352083432],[139.63964908594215,35.85469079897197],[139.63935839462124,35.85467140391532],[139.63954292386856,35.854098636017746],[139.64063131524867,35.853934539626806],[139.64049735284124,35.85197014223607],[139.64144093435618,35.851836646226715],[139.64161704809558,35.8506991689089],[139.64259838068762,35.84959335699881],[139.64242583525967,35.84887903904331],[139.6444984724832,35.84898857148765],[139.64278811495572,35.850292633367026],[139.64241784631383,35.851842252285216],[139.6425524146897,35.85315841471931],[139.64224837873905,35.85450352083432]]]},"properties":{"KEY_CODE":"11108011005","PREF":"11","CITY":"108","CITY_NAME":"さいたま市南区","S_NAME":"別所五丁目","SETAI":"727"}},{"type":"Feature","geometry":{"type":"Polygon","coordinates":[[[139.6421208524884,35.846561137113596],[139.64908319777524,35.84775256697845],[139.6444984724832,35.84898857148765],[139.64242583525967,35.84887903904331],[139.6421208524884,35.846561137113596]]]},"properties":{"KEY_CODE":"11108011006","PREF":"11","CITY":"108","CITY_NAME":"さいたま市南区","S_NAME":"別所六丁目","SETAI":"888"}},{"type":"Feature","geometry":{"type":"Polygon","coordinates":[[[139.6501102051837,35.847615874983816],[139.64908319777524,35.84775256697845],[139.6421208524884,35.846561137113596],[139.64307059466174,35.844335337954824],[139.64669476273255,35.84541135271614],[139.64697797492985,35.84478708696102],[139.65085765394633,35.846328467361396],[139.6507545620295,35.846530564484574],[139.6501102051837,35.847615874983816]]]},"properties":{"KEY_CODE":"11108011007","PREF":"11","CITY":"108","CITY_NAME":"さいたま市南区","S_NAME":"別所七丁目","SETAI":"1643"}},{"type":"Feature","geometry":{"type":"Polygon","coordinates":[[[139.66460040648303,35.84602481197142],[139.66117666249326,35.846118508612676],[139.6606771439134,35.84306593553042],[139.6644690625504,35.84291589040073],[139.6655041667922,35.84288921511302],[139.6661691488214,35.84288346255929],[139.66542968602565,35.8439280873141],[139.66547209786484,35.84591668392721],[139.66460040648303,35.84602481197142]]]},"properties":{"KEY_CODE":"11108012001","PREF":"11","CITY":"108","CITY_NAME":"さいたま市南区","S_NAME":"根岸一丁目","SETAI":"969"}},{"type":"Feature","geometry":{"type":"Polygon","coordinates":[[[139.6655041667922,35.84288921511302],[139.6644690625504,35.84291589040073],[139.66416782768925,35.83885906325604],[139.66507266192806,35.83911351049227],[139.66590637207133,35.83923976343813],[139.66719882208906,35.83936025118958],[139.66718767958827,35.84045744685568],[139.6661691488214,35.84288346255929],[139.6655041667922,35.84288921511302]]]},"properties":{"KEY_CODE":"11108012002","PREF":"11","CITY":"108","CITY_NAME":"さいたま市南区","S_NAME":"根岸二丁目","SETAI":"770"}},{"type":"Feature","geometry":{"type":"Polygon","coordinates":[[[139.6644690625504,35.84291589040073],[139.6606771439134,35.84306593553042],[139.66031571412813,35.84107460823062],[139.66018047873683,35.8394774999644],[139.66157341444548,35.838581027248594],[139.66338484807554,35.8385641130609],[139.66416782768925,35.83885906325604],[139.6644690625504,35.84291589040073]]]},"properties":{"KEY_CODE":"11108012003","PREF":"11","CITY":"108","CITY_NAME":"さいたま市南区","S_NAME":"根岸三丁目","SETAI":"1107"}},{"type":"Feature","geometry":{"type":"Polygon","coordinates":[[[139.66031571412813,35.84107460823062],[139.6606771439134,35.84306593553042],[139.66117666249326,35.846118508612676],[139.6584363507139,35.846238685758415],[139.6587742069253,35.84528718375841],[139.6587343361145,35.843373736535256],[139.66031571412813,35.84107460823062]]]},"properties":{"KEY_CODE":"11108012004","PREF":"11","CITY":"108","CITY_NAME":"さいたま市南区","S_NAME":"根岸四丁目","SETAI":"627"}},{"type":"Feature","geometry":{"type":"Polygon","coordinates":[[[139.65783019221678,35.84495392935083],[139.65661628507124,35.845180639848046],[139.65605513120116,35.845328711825815],[139.65596350030282,35.84506619970811],[139.6559418887797,35.845027404605936],[139.65579728140892,35.84484466891791],[139.65489918456623,35.84388918253177],[139.6546535629897,35.843630049687256],[139.65439693962372,35.84329337422394],[139.65789265616928,35.840973596806236],[139.658222907452,35.8407531430225],[139.65850714211055,35.84056554058828],[139.658685426748,35.8404361951993],[139.66013322229713,35.83947005664424],[139.66018047873683,35.8394774999644],[139.66031571412813,35.84107460823062],[139.6587343361145,35.843373736535256],[139.6587742069253,35.84528718375841],[139.6582707068238,35.844940682601546],[139.65783019221678,35.84495392935083]]]},"properties":{"KEY_CODE":"11108012005","PREF":"11","CITY":"108","CITY_NAME":"さいたま市南区","S_NAME":"根岸五丁目","SETAI":"1571"}},{"type":"Feature","geometry":{"type":"Polygon","coordinates":[[[139.6417282123526,35.83932031573121],[139.64217571921537,35.84071261212057],[139.64627282265488,35.8417586490942],[139.64814907328915,35.842269451072276],[139.64697797492985,35.84478708696102],[139.64669476273255,35.84541135271614],[139.64307059466174,35.844335337954824],[139.6428483793908,35.84421339277623],[139.6424448494655,35.843892778030856],[139.64108216642876,35.842817118271405],[139.6396278005974,35.84263353408002],[139.6396291731012,35.842068387968986],[139.63971057073886,35.8394158011491],[139.64112310701623,35.83942941455345],[139.64116736262008,35.839438676760125],[139.6417282123526,35.83932031573121]]]},"properties":{"KEY_CODE":"11108013001","PREF":"11","CITY":"108","CITY_NAME":"さいたま市南区","S_NAME":"沼影一丁目","SETAI":"3279"}},{"type":"Feature","geometry":{"type":"Polygon","coordinates":[[[139.64752250551405,35.83856425074595],[139.64627282265488,35.8417586490942],[139.64217571921537,35.84071261212057],[139.6417282123526,35.83932031573121],[139.64139746542472,35.83839655000166],[139.6421808665524,35.838474233028656],[139.64532697246628,35.83900141206505],[139.64563097403956,35.83828369924672],[139.64752250551405,35.83856425074595]]]},"properties":{"KEY_CODE":"11108013002","PREF":"11","CITY":"108","CITY_NAME":"さいたま市南区","S_NAME":"沼影二丁目","SETAI":"713"}},{"type":"Feature","geometry":{"type":"Polygon","coordinates":[[[139.6478516932922,35.837717215195404],[139.64844566396178,35.836283834602625],[139.65183850559012,35.837183484343036],[139.65138024075125,35.838105491310316],[139.6507416135738,35.838459745125384],[139.64814907328915,35.842269451072276],[139.64627282265488,35.8417586490942],[139.64752250551405,35.83856425074595],[139.6478516932922,35.837717215195404]]]},"properties":{"KEY_CODE":"11108013003","PREF":"11","CITY":"108","CITY_NAME":"さいたま市南区","S_NAME":"沼影三丁目","SETAI":"160"}},{"type":"Feature","geometry":{"type":"Polygon","coordinates":[[[139.63324698897426,35.84977697879646],[139.63653988384536,35.85145466131961],[139.63702796248035,35.85178948163902],[139.63822234929165,35.8528597889339],[139.63706086386796,35.85406576643136],[139.63655092848765,35.85339064228735],[139.63439081311876,35.85275805102743],[139.6330606099537,35.85164675346533],[139.63324698897426,35.84977697879646]]]},"properties":{"KEY_CODE":"11108014001","PREF":"11","CITY":"108","CITY_NAME":"さいたま市南区","S_NAME":"関一丁目","SETAI":"296"}},{"type":"Feature","geometry":{"type":"Polygon","coordinates":[[[139.63347423108002,35.84820643603376],[139.6349833787658,35.84825633730111],[139.63482552224087,35.84936309662451],[139.63609649153267,35.84943998532664],[139.63617239751093,35.84981155781662],[139.63653988384536,35.85145466131961],[139.63324698897426,35.84977697879646],[139.63347423108002,35.84820643603376]]]},"properties":{"KEY_CODE":"11108014002","PREF":"11","CITY":"108","CITY_NAME":"さいたま市南区","S_NAME":"関二丁目","SETAI":"272"}},{"type":"Feature","geometry":{"type":"Polygon","coordinates":[[[139.63935839462124,35.85467140391532],[139.638307662122,35.85744850886804],[139.63844510999098,35.858464884023135],[139.6376910683651,35.85969288732836],[139.6370621285381,35.85957117509407],[139.63667935819475,35.860559482773816],[139.63606703519537,35.860432026592306],[139.63680481708585,35.858042190585806],[139.6375122809637,35.85500126384599],[139.63723683330474,35.854411165363224],[139.63706086386796,35.85406576643136],[139.63822234929165,35.8528597889339],[139.63954292386856,35.854098636017746],[139.63935839462124,35.85467140391532]]]},"properties":{"KEY_CODE":"11108015001","PREF":"11","CITY":"108","CITY_NAME":"さいたま市南区","S_NAME":"鹿手袋一丁目","SETAI":"564"}},{"type":"Feature","geometry":{"type":"Polygon","coordinates":[[[139.64161704809558,35.8506991689089],[139.64144093435618,35.851836646226715],[139.64049735284124,35.85197014223607],[139.64063131524867,35.853934539626806],[139.63954292386856,35.854098636017746],[139.63822234929165,35.8528597889339],[139.63702796248035,35.85178948163902],[139.6387005984816,35.85124221723609],[139.64161704809558,35.8506991689089]]]},"properties":{"KEY_CODE":"11108015002","PREF":"11","CITY":"108","CITY_NAME":"さいたま市南区","S_NAME":"鹿手袋二丁目","SETAI":"618"}},{"type":"Feature","geometry":{"type":"Polygon","coordinates":[[[139.64242583525967,35.84887903904331],[139.64259838068762,35.84959335699881],[139.64161704809558,35.8506991689089],[139.6387005984816,35.85124221723609],[139.63702796248035,35.85178948163902],[139.63653988384536,35.85145466131961],[139.63617239751093,35.84981155781662],[139.64242583525967,35.84887903904331]]]},"properties":{"KEY_CODE":"11108015003","PREF":"11","CITY":"108","CITY_NAME":"さいたま市南区","S_NAME":"鹿手袋三丁目","SETAI":"964"}},{"type":"Feature","geometry":{"type":"Polygon","coordinates":[[[139.63991875945152,35.84658789692781],[139.6408000587657,35.84632503491189],[139.6421208524884,35.846561137113596],[139.64242583525967,35.84887903904331],[139.63617239751093,35.84981155781662],[139.63609649153267,35.84943998532664],[139.63603110619866,35.84883690313673],[139.6377347032709,35.847202129066375],[139.63991875945152,35.84658789692781]]]},"properties":{"KEY_CODE":"11108015004","PREF":"11","CITY":"108","CITY_NAME":"さいたま市南区","S_NAME":"鹿手袋四丁目","SETAI":"1197"}},{"type":"Feature","geometry":{"type":"Polygon","coordinates":[[[139.6421208524884,35.846561137113596],[139.6408000587657,35.84632503491189],[139.63991875945152,35.84658789692781],[139.6396278005974,35.84263353408002],[139.64108216642876,35.842817118271405],[139.6424448494655,35.843892778030856],[139.6428483793908,35.84421339277623],[139.64307059466174,35.844335337954824],[139.6421208524884,35.846561137113596]]]},"properties":{"KEY_CODE":"11108015005","PREF":"11","CITY":"108","CITY_NAME":"さいたま市南区","S_NAME":"鹿手袋五丁目","SETAI":"1199"}},{"type":"Feature","geometry":{"type":"Polygon","coordinates":[[[139.6396278005974,35.84263353408002],[139.63991875945152,35.84658789692781],[139.6377347032709,35.847202129066375],[139.63630419849449,35.8436964052676],[139.6375124598532,35.843034994937405],[139.6396278005974,35.84263353408002]]]},"properties":{"KEY_CODE":"11108015006","PREF":"11","CITY":"108","CITY_NAME":"さいたま市南区","S_NAME":"鹿手袋六丁目","SETAI":"1020"}},{"type":"Feature","geometry":{"type":"Polygon","coordinates":[[[139.63630419849449,35.8436964052676],[139.6377347032709,35.847202129066375],[139.63603110619866,35.84883690313673],[139.63609649153267,35.84943998532664],[139.63482552224087,35.84936309662451],[139.6349833787658,35.84825633730111],[139.63347423108002,35.84820643603376],[139.63453403894133,35.845546458017644],[139.63571255113888,35.84416900552766],[139.63630419849449,35.8436964052676]]]},"properties":{"KEY_CODE":"11108015007","PREF":"11","CITY":"108","CITY_NAME":"さいたま市南区","S_NAME":"鹿手袋七丁目","SETAI":"1020"}},{"type":"Feature","geometry":{"type":"Polygon","coordinates":[[[139.62421104695167,35.83466186512311],[139.6243950279921,35.83482532139768],[139.62250684320176,35.836700716991636],[139.62119162695765,35.836259124634736],[139.62067443410731,35.836042175155356],[139.62002384686951,35.83575374482937],[139.61645263951274,35.83421928903289],[139.61681799650938,35.83298785634691],[139.6170412851009,35.83025894152478],[139.61790082412853,35.82981971371219],[139.61891493618364,35.82922041302089],[139.62421104695167,35.83466186512311]]]},"properties":{"KEY_CODE":"111080160","PREF":"11","CITY":"108","CITY_NAME":"さいたま市南区","S_NAME":"大字堤外","SETAI":"0"}},{"type":"Feature","geometry":{"type":"Polygon","coordinates":[[[139.62421104695167,35.83466186512311],[139.6245036291165,35.83468859887809],[139.6243350086659,35.835682302024814],[139.62471234113923,35.835809421370044],[139.62924716666492,35.8371575899185],[139.6283541014384,35.83922834020469],[139.6264790147112,35.83864839001778],[139.6255948178431,35.837956726585844],[139.6234163691298,35.836789821992035],[139.62250684320176,35.836700716991636],[139.6243950279921,35.83482532139768],[139.62421104695167,35.83466186512311]]]},"properties":{"KEY_CODE":"11108017001","PREF":"11","CITY":"108","CITY_NAME":"さいたま市南区","S_NAME":"松本一丁目","SETAI":"709"}},{"type":"Feature","geometry":{"type":"Polygon","coordinates":[[[139.62645659525305,35.83464939410125],[139.6271786344513,35.83442438940339],[139.6305546165621,35.835207027272126],[139.63052006447003,35.83539688456177],[139.62924716666492,35.8371575899185],[139.62471234113923,35.835809421370044],[139.6243350086659,35.835682302024814],[139.6245036291165,35.83468859887809],[139.62421104695167,35.83466186512311],[139.624783094851,35.834147975024635],[139.62537378250693,35.834330543295195],[139.62645659525305,35.83464939410125]]]},"properties":{"KEY_CODE":"11108017002","PREF":"11","CITY":"108","CITY_NAME":"さいたま市南区","S_NAME":"松本二丁目","SETAI":"504"}},{"type":"Feature","geometry":{"type":"Polygon","coordinates":[[[139.6305546165621,35.835207027272126],[139.6271786344513,35.83442438940339],[139.62645659525305,35.83464939410125],[139.62537378250693,35.834330543295195],[139.624783094851,35.834147975024635],[139.62680024869442,35.832164493211],[139.63111782859374,35.833487036601106],[139.6305546165621,35.835207027272126]]]},"properties":{"KEY_CODE":"11108017003","PREF":"11","CITY":"108","CITY_NAME":"さいたま市南区","S_NAME":"松本三丁目","SETAI":"587"}},{"type":"Feature","geometry":{"type":"Polygon","coordinates":[[[139.63150965431683,35.82967338964059],[139.631748252053,35.83210128650137],[139.63111782859374,35.833487036601106],[139.62680024869442,35.832164493211],[139.6281615853181,35.830778769873845],[139.63091494435042,35.82915675096548],[139.6315325208063,35.82922057384183],[139.63154719597472,35.829307932879416],[139.63158095090532,35.82962104717763],[139.63150965431683,35.82967338964059]]]},"properties":{"KEY_CODE":"11108017004","PREF":"11","CITY":"108","CITY_NAME":"さいたま市南区","S_NAME":"松本四丁目","SETAI":"520"}},{"type":"Feature","geometry":{"type":"Polygon","coordinates":[[[139.6330071611189,35.83864970586767],[139.63252515029166,35.83949860980194],[139.63229005331183,35.838658447285674],[139.63083636870988,35.839079550444595],[139.62921179757873,35.83887023973917],[139.6283541014384,35.83922834020469],[139.62924716666492,35.8371575899185],[139.63052006447003,35.83539688456177],[139.63214900938976,35.83339141495745],[139.633375839994,35.83362265143333],[139.63404659996567,35.83460223816923],[139.6348486820454,35.83485297665],[139.63382734227326,35.83645811496645],[139.63214334074613,35.83841843478245],[139.6330071611189,35.83864970586767]]]},"properties":{"KEY_CODE":"11108018001","PREF":"11","CITY":"108","CITY_NAME":"さいたま市南区","S_NAME":"曲本一丁目","SETAI":"781"}},{"type":"Feature","geometry":{"type":"Polygon","coordinates":[[[139.6391411274349,35.837334673540525],[139.63895289493914,35.8389013448647],[139.63885497934646,35.83920241371299],[139.6367375723479,35.83863528971702],[139.6350885480056,35.83819670786908],[139.63436359923554,35.83900166422815],[139.6330071611189,35.83864970586767],[139.63214334074613,35.83841843478245],[139.63382734227326,35.83645811496645],[139.6391411274349,35.837334673540525]]]},"properties":{"KEY_CODE":"11108018002","PREF":"11","CITY":"108","CITY_NAME":"さいたま市南区","S_NAME":"曲本二丁目","SETAI":"769"}},{"type":"Feature","geometry":{"type":"Polygon","coordinates":[[[139.63961368518588,35.83545406060829],[139.6391411274349,35.837334673540525],[139.63382734227326,35.83645811496645],[139.6348486820454,35.83485297665],[139.6356792284677,35.83510085416876],[139.63776778201864,35.83502385924081],[139.63911623752563,35.83423204738865],[139.64009729610444,35.83416799472285],[139.63961368518588,35.83545406060829]]]},"properties":{"KEY_CODE":"11108018003","PREF":"11","CITY":"108","CITY_NAME":"さいたま市南区","S_NAME":"曲本三丁目","SETAI":"729"}},{"type":"Feature","geometry":{"type":"Polygon","coordinates":[[[139.6417282123526,35.83932031573121],[139.64116736262008,35.839438676760125],[139.64112310701623,35.83942941455345],[139.63971057073886,35.8394158011491],[139.63895289493914,35.8389013448647],[139.6391411274349,35.837334673540525],[139.63961368518588,35.83545406060829],[139.64297893028225,35.836449468182465],[139.6421808665524,35.838474233028656],[139.64139746542472,35.83839655000166],[139.6417282123526,35.83932031573121]]]},"properties":{"KEY_CODE":"11108018004","PREF":"11","CITY":"108","CITY_NAME":"さいたま市南区","S_NAME":"曲本四丁目","SETAI":"799"}},{"type":"Feature","geometry":{"type":"Polygon","coordinates":[[[139.64563097403956,35.83828369924672],[139.64532697246628,35.83900141206505],[139.6421808665524,35.838474233028656],[139.64297893028225,35.836449468182465],[139.64461934631797,35.83688333565783],[139.64698747298743,35.837493169338074],[139.6478516932922,35.837717215195404],[139.64752250551405,35.83856425074595],[139.64563097403956,35.83828369924672]]]},"properties":{"KEY_CODE":"11108018005","PREF":"11","CITY":"108","CITY_NAME":"さいたま市南区","S_NAME":"曲本五丁目","SETAI":"873"}},{"type":"Feature","geometry":{"type":"Polygon","coordinates":[[[139.63460575595386,35.83069052194431],[139.63214900938976,35.83339141495745],[139.63052006447003,35.83539688456177],[139.6305546165621,35.835207027272126],[139.63111782859374,35.833487036601106],[139.631748252053,35.83210128650137],[139.63150965431683,35.82967338964059],[139.63158095090532,35.82962104717763],[139.63301092646626,35.82945585794725],[139.63341771900156,35.8308597355106],[139.63460575595386,35.83069052194431]]]},"properties":{"KEY_CODE":"11108019001","PREF":"11","CITY":"108","CITY_NAME":"さいたま市南区","S_NAME":"内谷一丁目","SETAI":"260"}},{"type":"Feature","geometry":{"type":"Polygon","coordinates":[[[139.63717669639706,35.83136614386167],[139.6356792284677,35.83510085416876],[139.6348486820454,35.83485297665],[139.63404659996567,35.83460223816923],[139.633375839994,35.83362265143333],[139.63214900938976,35.83339141495745],[139.63460575595386,35.83069052194431],[139.6348141041483,35.83074452370948],[139.63717669639706,35.83136614386167]]]},"properties":{"KEY_CODE":"11108019002","PREF":"11","CITY":"108","CITY_NAME":"さいたま市南区","S_NAME":"内谷二丁目","SETAI":"419"}},{"type":"Feature","geometry":{"type":"Polygon","coordinates":[[[139.64009729610444,35.83416799472285],[139.63911623752563,35.83423204738865],[139.63776778201864,35.83502385924081],[139.6356792284677,35.83510085416876],[139.63717669639706,35.83136614386167],[139.63890791046288,35.83184352456419],[139.63924811158682,35.83193320440151],[139.64103277785807,35.83220889482252],[139.64067122154844,35.83296868348383],[139.64009729610444,35.83416799472285]]]},"properties":{"KEY_CODE":"11108019003","PREF":"11","CITY":"108","CITY_NAME":"さいたま市南区","S_NAME":"内谷三丁目","SETAI":"788"}},{"type":"Feature","geometry":{"type":"Polygon","coordinates":[[[139.64067122154844,35.83296868348383],[139.64563798992063,35.83425930747487],[139.64461934631797,35.83688333565783],[139.64297893028225,35.836449468182465],[139.63961368518588,35.83545406060829],[139.64009729610444,35.83416799472285],[139.64067122154844,35.83296868348383]]]},"properties":{"KEY_CODE":"11108019004","PREF":"11","CITY":"108","CITY_NAME":"さいたま市南区","S_NAME":"内谷四丁目","SETAI":"910"}},{"type":"Feature","geometry":{"type":"Polygon","coordinates":[[[139.64649553067167,35.83207981425513],[139.64563798992063,35.83425930747487],[139.64067122154844,35.83296868348383],[139.64103277785807,35.83220889482252],[139.64106408726636,35.832215158886584],[139.64119230128935,35.83155599972303],[139.6414471542059,35.83036240122574],[139.64195729837294,35.83061923178011],[139.6419432850255,35.830675543448685],[139.64277864794843,35.83061710022075],[139.64306202622055,35.83006647712035],[139.64512947485832,35.82942902913954],[139.64646209878885,35.829652211196375],[139.6451420262804,35.83184781453226],[139.64649553067167,35.83207981425513]]]},"properties":{"KEY_CODE":"11108019005","PREF":"11","CITY":"108","CITY_NAME":"さいたま市南区","S_NAME":"内谷五丁目","SETAI":"1106"}},{"type":"Feature","geometry":{"type":"Polygon","coordinates":[[[139.65183850559012,35.837183484343036],[139.64844566396178,35.836283834602625],[139.6478516932922,35.837717215195404],[139.64698747298743,35.837493169338074],[139.64461934631797,35.83688333565783],[139.64563798992063,35.83425930747487],[139.65268729461914,35.836107286999066],[139.65183850559012,35.837183484343036]]]},"properties":{"KEY_CODE":"11108019006","PREF":"11","CITY":"108","CITY_NAME":"さいたま市南区","S_NAME":"内谷六丁目","SETAI":"1073"}},{"type":"Feature","geometry":{"type":"Polygon","coordinates":[[[139.65343412128743,35.83527159888723],[139.65268729461914,35.836107286999066],[139.64563798992063,35.83425930747487],[139.64649553067167,35.83207981425513],[139.65002628279592,35.83283074461708],[139.6498550813996,35.833591061842874],[139.65214527950994,35.83401479669196],[139.6519001188595,35.83511129999409],[139.65343412128743,35.83527159888723]]]},"properties":{"KEY_CODE":"11108019007","PREF":"11","CITY":"108","CITY_NAME":"さいたま市南区","S_NAME":"内谷七丁目","SETAI":"767"}},{"type":"Feature","geometry":{"type":"Polygon","coordinates":[[[139.6367375723479,35.83863528971702],[139.63570819908492,35.841195747949186],[139.6323718668043,35.84032955733326],[139.6317219127033,35.84012613394311],[139.63252515029166,35.83949860980194],[139.6330071611189,35.83864970586767],[139.63436359923554,35.83900166422815],[139.6350885480056,35.83819670786908],[139.6367375723479,35.83863528971702]]]},"properties":{"KEY_CODE":"11108020001","PREF":"11","CITY":"108","CITY_NAME":"さいたま市南区","S_NAME":"四谷一丁目","SETAI":"725"}},{"type":"Feature","geometry":{"type":"Polygon","coordinates":[[[139.6396278005974,35.84263353408002],[139.6375124598532,35.843034994937405],[139.63630419849449,35.8436964052676],[139.63571255113888,35.84416900552766],[139.63477647624833,35.84371760631206],[139.6351919250995,35.84358831807225],[139.63570819908492,35.841195747949186],[139.6396291731012,35.842068387968986],[139.6396278005974,35.84263353408002]]]},"properties":{"KEY_CODE":"11108020002","PREF":"11","CITY":"108","CITY_NAME":"さいたま市南区","S_NAME":"四谷二丁目","SETAI":"641"}},{"type":"Feature","geometry":{"type":"Polygon","coordinates":[[[139.63971057073886,35.8394158011491],[139.6396291731012,35.842068387968986],[139.63570819908492,35.841195747949186],[139.6367375723479,35.83863528971702],[139.63885497934646,35.83920241371299],[139.63895289493914,35.8389013448647],[139.63971057073886,35.8394158011491]]]},"properties":{"KEY_CODE":"11108020003","PREF":"11","CITY":"108","CITY_NAME":"さいたま市南区","S_NAME":"四谷三丁目","SETAI":"704"}},{"type":"Feature","geometry":{"type":"Polygon","coordinates":[[[139.66542968602565,35.8439280873141],[139.66941896215525,35.84515072011069],[139.67055204673034,35.84578716341895],[139.6688647195441,35.84748434869624],[139.6669139889452,35.8464094632332],[139.66547209786484,35.84591668392721],[139.66542968602565,35.8439280873141]]]},"properties":{"KEY_CODE":"11108021001","PREF":"11","CITY":"108","CITY_NAME":"さいたま市南区","S_NAME":"南本町一丁目","SETAI":"600"}},{"type":"Feature","geometry":{"type":"Polygon","coordinates":[[[139.66683085386478,35.849529518340674],[139.6655061003259,35.850898633541654],[139.66394943727917,35.8505072779359],[139.6644181308449,35.84896995970655],[139.6645143244585,35.84803495058166],[139.66455963497424,35.8476068758647],[139.66460040648303,35.84602481197142],[139.66547209786484,35.84591668392721],[139.6669139889452,35.8464094632332],[139.6688647195441,35.84748434869624],[139.66683085386478,35.849529518340674]]]},"properties":{"KEY_CODE":"11108021002","PREF":"11","CITY":"108","CITY_NAME":"さいたま市南区","S_NAME":"南本町二丁目","SETAI":"1078"}},{"type":"Feature","geometry":{"type":"Polygon","coordinates":[[[139.66460040648303,35.84602481197142],[139.66455963497424,35.8476068758647],[139.6645143244585,35.84803495058166],[139.6644181308449,35.84896995970655],[139.66295917743497,35.84883182138268],[139.66284965436176,35.84703762371397],[139.66116402047993,35.847099514470216],[139.66117666249326,35.846118508612676],[139.66460040648303,35.84602481197142]]]},"properties":{"KEY_CODE":"11108022001","PREF":"11","CITY":"108","CITY_NAME":"さいたま市南区","S_NAME":"神明一丁目","SETAI":"543"}},{"type":"Feature","geometry":{"type":"Polygon","coordinates":[[[139.66116402047993,35.847099514470216],[139.65895039276364,35.84712618647539],[139.65813842736873,35.84664864624346],[139.6584363507139,35.846238685758415],[139.66117666249326,35.846118508612676],[139.66116402047993,35.847099514470216]]]},"properties":{"KEY_CODE":"11108022002","PREF":"11","CITY":"108","CITY_NAME":"さいたま市南区","S_NAME":"神明二丁目","SETAI":"215"}}]}