{"type":"FeatureCollection","features":[{"type":"Feature","geometry":{"type":"Polygon","coordinates":[[[139.6608257749347,35.850229220593306],[139.66394943727917,35.8505072779359],[139.6655061003259,35.850898633541654],[139.6657888034101,35.851135711919184],[139.66182746640882,35.85409316643003],[139.6603184269185,35.855207054565795],[139.66031720299839,35.85520803920068],[139.66055413385425,35.85449831700076],[139.66105398805314,35.85415416261452],[139.6609015475178,35.851588212394454],[139.6608257749347,35.850229220593306]]]},"properties":{"KEY_CODE":"11107001001","PREF":"11","CITY":"107","CITY_NAME":"さいたま市浦和区","S_NAME":"岸町一丁目","SETAI":"731"}},{"type":"Feature","geometry":{"type":"Polygon","coordinates":[[[139.6609015475178,35.851588212394454],[139.65828146216123,35.85152575319813],[139.65503992573647,35.85217337262796],[139.6554982884982,35.850384254336234],[139.65691932223126,35.84915511966217],[139.6573014410348,35.84992624268305],[139.6608257749347,35.850229220593306],[139.6609015475178,35.851588212394454]]]},"properties":{"KEY_CODE":"11107001002","PREF":"11","CITY":"107","CITY_NAME":"さいたま市浦和区","S_NAME":"岸町二丁目","SETAI":"713"}},{"type":"Feature","geometry":{"type":"Polygon","coordinates":[[[139.6609015475178,35.851588212394454],[139.66105398805314,35.85415416261452],[139.66055413385425,35.85449831700076],[139.65921289639326,35.85435488376221],[139.65947091819964,35.85361500453079],[139.65493919876502,35.85399580719811],[139.6550258020817,35.85249855745883],[139.65503992573647,35.85217337262796],[139.65828146216123,35.85152575319813],[139.6609015475178,35.851588212394454]]]},"properties":{"KEY_CODE":"11107001003","PREF":"11","CITY":"107","CITY_NAME":"さいたま市浦和区","S_NAME":"岸町三丁目","SETAI":"547"}},{"type":"Feature","geometry":{"type":"Polygon","coordinates":[[[139.6598108437353,35.85564085272796],[139.65871584747273,35.856853087335885],[139.65799341936196,35.85659632507246],[139.65579670002592,35.856822031849234],[139.65513455671737,35.856693146774276],[139.6545616639702,35.85656223464008],[139.65432229280748,35.8565125765393],[139.65440950664416,35.8561404951279],[139.6545995323065,35.855315799196134],[139.65488876950945,35.8541655585303],[139.65493919876502,35.85399580719811],[139.65947091819964,35.85361500453079],[139.65921289639326,35.85435488376221],[139.66055413385425,35.85449831700076],[139.66031720299839,35.85520803920068],[139.6598108437353,35.85564085272796]]]},"properties":{"KEY_CODE":"11107001004","PREF":"11","CITY":"107","CITY_NAME":"さいたま市浦和区","S_NAME":"岸町四丁目","SETAI":"1253"}},{"type":"Feature","geometry":{"type":"Polygon","coordinates":[[[139.6554982884982,35.850384254336234],[139.65503992573647,35.85217337262796],[139.6550258020817,35.85249855745883],[139.64962412256008,35.85221080008036],[139.64925166010573,35.85040411892691],[139.6502394177518,35.85040112482513],[139.6554982884982,35.850384254336234]]]},"properties":{"KEY_CODE":"11107001005","PREF":"11","CITY":"107","CITY_NAME":"さいたま市浦和区","S_NAME":"岸町五丁目","SETAI":"672"}},{"type":"Feature","geometry":{"type":"Polygon","coordinates":[[[139.65488876950945,35.8541655585303],[139.65202124405369,35.8539726928747],[139.650052445839,35.85419763272223],[139.64962412256008,35.85221080008036],[139.6550258020817,35.85249855745883],[139.65493919876502,35.85399580719811],[139.65488876950945,35.8541655585303]]]},"properties":{"KEY_CODE":"11107001006","PREF":"11","CITY":"107","CITY_NAME":"さいたま市浦和区","S_NAME":"岸町六丁目","SETAI":"855"}},{"type":"Feature","geometry":{"type":"Polygon","coordinates":[[[139.65440950664416,35.8561404951279],[139.65432229280748,35.8565125765393],[139.65339921966347,35.856321105163154],[139.65323609081653,35.85628967445375],[139.65308698358987,35.85622986977424],[139.6505218744374,35.8562231928169],[139.65058924596428,35.855091228139386],[139.64988849526898,35.854426235209615],[139.650052445839,35.85419763272223],[139.65202124405369,35.8539726928747],[139.65488876950945,35.8541655585303],[139.6545995323065,35.855315799196134],[139.65440950664416,35.8561404951279]]]},"properties":{"KEY_CODE":"11107001007","PREF":"11","CITY":"107","CITY_NAME":"さいたま市浦和区","S_NAME":"岸町七丁目","SETAI":"1234"}},{"type":"Feature","geometry":{"type":"Polygon","coordinates":[[[139.65742377011858,35.858856385526686],[139.65645896682395,35.860240932672575],[139.65637811106973,35.85960618886856],[139.65472113096035,35.85941220107405],[139.65541388388053,35.858635746476246],[139.65555112126629,35.85677668941568],[139.65579670002592,35.856822031849234],[139.65799341936196,35.85659632507246],[139.65871584747273,35.856853087335885],[139.65742377011858,35.858856385526686]]]},"properties":{"KEY_CODE":"11107002001","PREF":"11","CITY":"107","CITY_NAME":"さいたま市浦和区","S_NAME":"高砂一丁目","SETAI":"231"}},{"type":"Feature","geometry":{"type":"Polygon","coordinates":[[[139.65555112126629,35.85677668941568],[139.65541388388053,35.858635746476246],[139.65472113096035,35.85941220107405],[139.65358712396764,35.859310462709395],[139.65296933002793,35.859194976287235],[139.65256860059478,35.85837416369769],[139.65308698358987,35.85622986977424],[139.65323609081653,35.85628967445375],[139.65339921966347,35.856321105163154],[139.65432229280748,35.8565125765393],[139.6545616639702,35.85656223464008],[139.65513455671737,35.856693146774276],[139.65555112126629,35.85677668941568]]]},"properties":{"KEY_CODE":"11107002002","PREF":"11","CITY":"107","CITY_NAME":"さいたま市浦和区","S_NAME":"高砂二丁目","SETAI":"394"}},{"type":"Feature","geometry":{"type":"Polygon","coordinates":[[[139.6501050846167,35.8590863484707],[139.65008409852982,35.85911426402578],[139.64706094683086,35.85887146632935],[139.64736337574564,35.85614811886662],[139.64744483262618,35.85540743614308],[139.64789091767474,35.85459124331066],[139.64988849526898,35.854426235209615],[139.65058924596428,35.855091228139386],[139.6505218744374,35.8562231928169],[139.65308698358987,35.85622986977424],[139.65256860059478,35.85837416369769],[139.65081703117247,35.85787496978568],[139.65033514253238,35.85866451865887],[139.6501050846167,35.8590863484707]]]},"properties":{"KEY_CODE":"11107002003","PREF":"11","CITY":"107","CITY_NAME":"さいたま市浦和区","S_NAME":"高砂三丁目","SETAI":"577"}},{"type":"Feature","geometry":{"type":"Polygon","coordinates":[[[139.64736337574564,35.85614811886662],[139.64706094683086,35.85887146632935],[139.64291962937344,35.8585415645555],[139.64302846448373,35.85752080465351],[139.64434049543064,35.85762202585922],[139.64444008113702,35.856708952636055],[139.64530474981697,35.85682757014171],[139.64523761882964,35.85505365449451],[139.64736337574564,35.85614811886662]]]},"properties":{"KEY_CODE":"11107002004","PREF":"11","CITY":"107","CITY_NAME":"さいたま市浦和区","S_NAME":"高砂四丁目","SETAI":"770"}},{"type":"Feature","geometry":{"type":"Polygon","coordinates":[[[139.65472113096035,35.85941220107405],[139.65637811106973,35.85960618886856],[139.65645896682395,35.860240932672575],[139.6548921564474,35.86265029877083],[139.6547403499898,35.862302612908316],[139.65284341605408,35.86164982460208],[139.6534455068938,35.85980075207799],[139.65358712396764,35.859310462709395],[139.65472113096035,35.85941220107405]]]},"properties":{"KEY_CODE":"11107003001","PREF":"11","CITY":"107","CITY_NAME":"さいたま市浦和区","S_NAME":"仲町一丁目","SETAI":"882"}},{"type":"Feature","geometry":{"type":"Polygon","coordinates":[[[139.65284341605408,35.86164982460208],[139.65046657325468,35.86150940868975],[139.65013947991176,35.86122201602732],[139.65014372664157,35.861011829585166],[139.65057121553124,35.86097489653127],[139.65008409852982,35.85911426402578],[139.6501050846167,35.8590863484707],[139.65033514253238,35.85866451865887],[139.65081703117247,35.85787496978568],[139.65256860059478,35.85837416369769],[139.65296933002793,35.859194976287235],[139.6534455068938,35.85980075207799],[139.65284341605408,35.86164982460208]]]},"properties":{"KEY_CODE":"11107003002","PREF":"11","CITY":"107","CITY_NAME":"さいたま市浦和区","S_NAME":"仲町二丁目","SETAI":"839"}},{"type":"Feature","geometry":{"type":"Polygon","coordinates":[[[139.64706094683086,35.85887146632935],[139.65008409852982,35.85911426402578],[139.65057121553124,35.86097489653127],[139.65014372664157,35.861011829585166],[139.6468087546623,35.86089321768219],[139.64706094683086,35.85887146632935]]]},"properties":{"KEY_CODE":"11107003003","PREF":"11","CITY":"107","CITY_NAME":"さいたま市浦和区","S_NAME":"仲町三丁目","SETAI":"810"}},{"type":"Feature","geometry":{"type":"Polygon","coordinates":[[[139.6468087546623,35.86089321768219],[139.64235240597105,35.86052260359754],[139.6404615672914,35.859980037306244],[139.64020368095504,35.85833866422256],[139.64291962937344,35.8585415645555],[139.64706094683086,35.85887146632935],[139.6468087546623,35.86089321768219]]]},"properties":{"KEY_CODE":"11107003004","PREF":"11","CITY":"107","CITY_NAME":"さいたま市浦和区","S_NAME":"仲町四丁目","SETAI":"835"}},{"type":"Feature","geometry":{"type":"Polygon","coordinates":[[[139.6540002005146,35.864049813128666],[139.6529365932656,35.86363522885632],[139.6521013177263,35.86380224907605],[139.6504422416451,35.8636720158143],[139.65013947991176,35.86122201602732],[139.65046657325468,35.86150940868975],[139.65284341605408,35.86164982460208],[139.6547403499898,35.862302612908316],[139.6548921564474,35.86265029877083],[139.65486281611578,35.86269568189081],[139.6540002005146,35.864049813128666]]]},"properties":{"KEY_CODE":"11107004001","PREF":"11","CITY":"107","CITY_NAME":"さいたま市浦和区","S_NAME":"常盤一丁目","SETAI":"1597"}},{"type":"Feature","geometry":{"type":"Polygon","coordinates":[[[139.6540002005146,35.864049813128666],[139.6523098830363,35.86641101011769],[139.65141320251433,35.867031483539115],[139.6500701489731,35.86663276190527],[139.6501488576009,35.86601276975259],[139.65023202740767,35.8652856189653],[139.65042707182752,35.86367145523638],[139.6504422416451,35.8636720158143],[139.6521013177263,35.86380224907605],[139.6529365932656,35.86363522885632],[139.6540002005146,35.864049813128666]]]},"properties":{"KEY_CODE":"11107004002","PREF":"11","CITY":"107","CITY_NAME":"さいたま市浦和区","S_NAME":"常盤二丁目","SETAI":"1108"}},{"type":"Feature","geometry":{"type":"Polygon","coordinates":[[[139.64874987497268,35.87109304313642],[139.64792770906627,35.87134712588621],[139.64725543821507,35.87128471124678],[139.64664726605923,35.8712358138881],[139.64745902323875,35.8705058224669],[139.64791651147917,35.86677087951984],[139.6479357008419,35.86661912731196],[139.6479358123042,35.866618132303344],[139.64903032929362,35.8666952584715],[139.6500701489731,35.86663276190527],[139.65141320251433,35.867031483539115],[139.65112210262214,35.868525169601796],[139.6496340266322,35.87050727223287],[139.64874987497268,35.87109304313642]]]},"properties":{"KEY_CODE":"11107004003","PREF":"11","CITY":"107","CITY_NAME":"さいたま市浦和区","S_NAME":"常盤三丁目","SETAI":"1793"}},{"type":"Feature","geometry":{"type":"Polygon","coordinates":[[[139.6504422416451,35.8636720158143],[139.65042707182752,35.86367145523638],[139.64887905094847,35.8636369958555],[139.6483089008105,35.863597635701154],[139.64786672390613,35.863559817801224],[139.6470036473419,35.86349556474846],[139.6464995756048,35.86345800629851],[139.6468087546623,35.86089321768219],[139.65014372664157,35.861011829585166],[139.65013947991176,35.86122201602732],[139.6504422416451,35.8636720158143]]]},"properties":{"KEY_CODE":"11107004004","PREF":"11","CITY":"107","CITY_NAME":"さいたま市浦和区","S_NAME":"常盤四丁目","SETAI":"724"}},{"type":"Feature","geometry":{"type":"Polygon","coordinates":[[[139.6500701489731,35.86663276190527],[139.64903032929362,35.8666952584715],[139.6479358123042,35.866618132303344],[139.6479357008419,35.86661912731196],[139.6470971719428,35.86654995795101],[139.64614779858573,35.86648160232942],[139.6464995756048,35.86345800629851],[139.6470036473419,35.86349556474846],[139.64786672390613,35.863559817801224],[139.6483089008105,35.863597635701154],[139.64887905094847,35.8636369958555],[139.65042707182752,35.86367145523638],[139.65023202740767,35.8652856189653],[139.6501488576009,35.86601276975259],[139.6500701489731,35.86663276190527]]]},"properties":{"KEY_CODE":"11107004005","PREF":"11","CITY":"107","CITY_NAME":"さいたま市浦和区","S_NAME":"常盤五丁目","SETAI":"967"}},{"type":"Feature","geometry":{"type":"Polygon","coordinates":[[[139.6404615672914,35.859980037306244],[139.64235240597105,35.86052260359754],[139.6468087546623,35.86089321768219],[139.6464995756048,35.86345800629851],[139.64365318438757,35.863229381441364],[139.64024420540923,35.86286376698044],[139.6404615672914,35.859980037306244]]]},"properties":{"KEY_CODE":"11107004006","PREF":"11","CITY":"107","CITY_NAME":"さいたま市浦和区","S_NAME":"常盤六丁目","SETAI":"502"}},{"type":"Feature","geometry":{"type":"Polygon","coordinates":[[[139.64365318438757,35.863229381441364],[139.6464995756048,35.86345800629851],[139.64614779858573,35.86648160232942],[139.6459092362671,35.86815283348689],[139.64329029308348,35.8668235809792],[139.64365318438757,35.863229381441364]]]},"properties":{"KEY_CODE":"11107004007","PREF":"11","CITY":"107","CITY_NAME":"さいたま市浦和区","S_NAME":"常盤七丁目","SETAI":"556"}},{"type":"Feature","geometry":{"type":"Polygon","coordinates":[[[139.64024420540923,35.86286376698044],[139.64365318438757,35.863229381441364],[139.64329029308348,35.8668235809792],[139.64183074747456,35.86579968321981],[139.64038397246827,35.86569010998268],[139.6400218305965,35.865661042486366],[139.64005247932346,35.86525802030204],[139.64024271538727,35.86288016335127],[139.64024420540923,35.86286376698044]]]},"properties":{"KEY_CODE":"11107004008","PREF":"11","CITY":"107","CITY_NAME":"さいたま市浦和区","S_NAME":"常盤八丁目","SETAI":"504"}},{"type":"Feature","geometry":{"type":"Polygon","coordinates":[[[139.64664726605923,35.8712358138881],[139.64487393146598,35.871120012836656],[139.6422741616778,35.87249007479442],[139.6419729436832,35.87258486872684],[139.64239565730202,35.868545132127544],[139.64359255645522,35.86758910647292],[139.64584632031904,35.86876969647937],[139.6459092362671,35.86815283348689],[139.64614779858573,35.86648160232942],[139.6470971719428,35.86654995795101],[139.64791651147917,35.86677087951984],[139.64745902323875,35.8705058224669],[139.64664726605923,35.8712358138881]]]},"properties":{"KEY_CODE":"11107004009","PREF":"11","CITY":"107","CITY_NAME":"さいたま市浦和区","S_NAME":"常盤九丁目","SETAI":"1745"}},{"type":"Feature","geometry":{"type":"Polygon","coordinates":[[[139.64239565730202,35.868545132127544],[139.6419729436832,35.87258486872684],[139.63909523515787,35.873664102247524],[139.6381518509101,35.87423555532931],[139.63798928266078,35.871203549165294],[139.63938204656637,35.87066113511898],[139.63945549012257,35.87019201253642],[139.63981644979265,35.8694338571123],[139.64171547421813,35.869212024338815],[139.6416162815237,35.868503239768266],[139.64239565730202,35.868545132127544]]]},"properties":{"KEY_CODE":"11107004010","PREF":"11","CITY":"107","CITY_NAME":"さいたま市浦和区","S_NAME":"常盤十丁目","SETAI":"1384"}},{"type":"Feature","geometry":{"type":"Polygon","coordinates":[[[139.64828465743167,35.873147003465064],[139.65042732478224,35.875360890921584],[139.65163101490862,35.876189137706376],[139.65010368047078,35.877171975957275],[139.65008367231803,35.877152836256606],[139.64952718471307,35.87637811138878],[139.6458167398985,35.87514522002754],[139.64787171229963,35.871431319382054],[139.64774335846602,35.87286080716733],[139.64828465743167,35.873147003465064]]]},"properties":{"KEY_CODE":"11107005001","PREF":"11","CITY":"107","CITY_NAME":"さいたま市浦和区","S_NAME":"北浦和一丁目","SETAI":"1597"}},{"type":"Feature","geometry":{"type":"Polygon","coordinates":[[[139.6458167398985,35.87514522002754],[139.64952718471307,35.87637811138878],[139.65008367231803,35.877152836256606],[139.64730613726948,35.87934683652385],[139.64721177606287,35.87939671276848],[139.6463723089101,35.87980866796986],[139.64606650391943,35.87901430241316],[139.64426632689793,35.87831845693443],[139.6458167398985,35.87514522002754]]]},"properties":{"KEY_CODE":"11107005002","PREF":"11","CITY":"107","CITY_NAME":"さいたま市浦和区","S_NAME":"北浦和二丁目","SETAI":"1228"}},{"type":"Feature","geometry":{"type":"Polygon","coordinates":[[[139.64725543821507,35.87128471124678],[139.64792770906627,35.87134712588621],[139.64787171229963,35.871431319382054],[139.6458167398985,35.87514522002754],[139.64426632689793,35.87831845693443],[139.64272955646933,35.87786004858511],[139.64212196272658,35.877683684040804],[139.64307265411227,35.875629254524426],[139.64440909444167,35.87372413587056],[139.64725543821507,35.87128471124678]]]},"properties":{"KEY_CODE":"11107005003","PREF":"11","CITY":"107","CITY_NAME":"さいたま市浦和区","S_NAME":"北浦和三丁目","SETAI":"1485"}},{"type":"Feature","geometry":{"type":"Polygon","coordinates":[[[139.6422741616778,35.87249007479442],[139.64487393146598,35.871120012836656],[139.64664726605923,35.8712358138881],[139.64725543821507,35.87128471124678],[139.64440909444167,35.87372413587056],[139.6422741616778,35.87249007479442]]]},"properties":{"KEY_CODE":"11107005004","PREF":"11","CITY":"107","CITY_NAME":"さいたま市浦和区","S_NAME":"北浦和四丁目","SETAI":"290"}},{"type":"Feature","geometry":{"type":"Polygon","coordinates":[[[139.6422741616778,35.87249007479442],[139.64440909444167,35.87372413587056],[139.64307265411227,35.875629254524426],[139.64212196272658,35.877683684040804],[139.6378239341742,35.87632449377886],[139.6379842321145,35.87539773325588],[139.63798636089518,35.875385475919764],[139.63815411949176,35.87426340781541],[139.6381518509101,35.87423555532931],[139.63909523515787,35.873664102247524],[139.6419729436832,35.87258486872684],[139.6422741616778,35.87249007479442]]]},"properties":{"KEY_CODE":"11107005005","PREF":"11","CITY":"107","CITY_NAME":"さいたま市浦和区","S_NAME":"北浦和五丁目","SETAI":"1762"}},{"type":"Feature","geometry":{"type":"Polygon","coordinates":[[[139.6463723089101,35.87980866796986],[139.6475338353199,35.8807335164862],[139.6474983970799,35.881734479630424],[139.64300199523848,35.880753568265],[139.6410578505056,35.88014685953008],[139.64212196272658,35.877683684040804],[139.64272955646933,35.87786004858511],[139.64426632689793,35.87831845693443],[139.64606650391943,35.87901430241316],[139.6463723089101,35.87980866796986]]]},"properties":{"KEY_CODE":"11107006001","PREF":"11","CITY":"107","CITY_NAME":"さいたま市浦和区","S_NAME":"針ケ谷一丁目","SETAI":"985"}},{"type":"Feature","geometry":{"type":"Polygon","coordinates":[[[139.6474983970799,35.881734479630424],[139.6466738758248,35.88328997727492],[139.644856953327,35.882650719544515],[139.64456672810348,35.88323325161114],[139.64037116234016,35.88176239478219],[139.6410578505056,35.88014685953008],[139.64300199523848,35.880753568265],[139.6474983970799,35.881734479630424]]]},"properties":{"KEY_CODE":"11107006002","PREF":"11","CITY":"107","CITY_NAME":"さいたま市浦和区","S_NAME":"針ケ谷二丁目","SETAI":"1180"}},{"type":"Feature","geometry":{"type":"Polygon","coordinates":[[[139.64037116234016,35.88176239478219],[139.64456672810348,35.88323325161114],[139.64391845192299,35.884505987310156],[139.64228876801636,35.88482113743132],[139.63989138199338,35.88523815484259],[139.6406792870134,35.8839634844628],[139.64123048199158,35.88310647884564],[139.63997305525257,35.88265578308517],[139.64037116234016,35.88176239478219]]]},"properties":{"KEY_CODE":"11107006003","PREF":"11","CITY":"107","CITY_NAME":"さいたま市浦和区","S_NAME":"針ケ谷三丁目","SETAI":"793"}},{"type":"Feature","geometry":{"type":"Polygon","coordinates":[[[139.64037116234016,35.88176239478219],[139.63997305525257,35.88265578308517],[139.63949473023484,35.882502968827495],[139.6390498302948,35.88236722744938],[139.63708907243355,35.88166902877001],[139.63735582021744,35.8802009203436],[139.63741655510162,35.87972655897698],[139.6378239341742,35.87632449377886],[139.64212196272658,35.877683684040804],[139.6410578505056,35.88014685953008],[139.64037116234016,35.88176239478219]]]},"properties":{"KEY_CODE":"11107006004","PREF":"11","CITY":"107","CITY_NAME":"さいたま市浦和区","S_NAME":"針ケ谷四丁目","SETAI":"1352"}},{"type":"Feature","geometry":{"type":"Polygon","coordinates":[[[139.63593652675536,35.88928065414792],[139.63709668932583,35.88732793806121],[139.63601843103604,35.887322582247734],[139.63531927551566,35.88845475423999],[139.63357466316901,35.88997446332148],[139.63364904714902,35.88920025174095],[139.63278014882553,35.88833326623192],[139.63286158673415,35.888148989765035],[139.63294228140128,35.887993010107294],[139.63391521568647,35.88684388976724],[139.6342514157066,35.88691439408881],[139.63479075624366,35.88699207013367],[139.6355143440801,35.8870458058717],[139.63603669466602,35.88704791819229],[139.6384293943483,35.88344566223535],[139.6406792870134,35.8839634844628],[139.63989138199338,35.88523815484259],[139.6376051398778,35.88889513686299],[139.63714403561573,35.88962001028925],[139.63675104055667,35.88953754835108],[139.63593652675536,35.88928065414792]]]},"properties":{"KEY_CODE":"11107007001","PREF":"11","CITY":"107","CITY_NAME":"さいたま市浦和区","S_NAME":"上木崎一丁目","SETAI":"1704"}},{"type":"Feature","geometry":{"type":"Polygon","coordinates":[[[139.64228876801636,35.88482113743132],[139.64202162809238,35.88672162315831],[139.6407793007191,35.88894691996788],[139.64130929224726,35.889133792747344],[139.64176706950425,35.88933119087424],[139.6417433432923,35.88957288329383],[139.64147592277266,35.88971902207939],[139.64056858514667,35.89038762229272],[139.64040533933954,35.89009735396163],[139.6376051398778,35.88889513686299],[139.63989138199338,35.88523815484259],[139.64228876801636,35.88482113743132]]]},"properties":{"KEY_CODE":"11107007002","PREF":"11","CITY":"107","CITY_NAME":"さいたま市浦和区","S_NAME":"上木崎二丁目","SETAI":"1121"}},{"type":"Feature","geometry":{"type":"Polygon","coordinates":[[[139.64500927127375,35.8887820396353],[139.64437026199897,35.88915469667094],[139.64399938154006,35.890297134167646],[139.64252612866224,35.891309619988355],[139.64405427986293,35.891905907874644],[139.6442654533942,35.893211053548214],[139.64403372943755,35.89344610015383],[139.64410070034023,35.8932220885941],[139.64415590115937,35.89283154314146],[139.64307519509714,35.892712413483316],[139.64180386717894,35.892032056239486],[139.64197049249648,35.89056469174759],[139.64056858514667,35.89038762229272],[139.64147592277266,35.88971902207939],[139.6417433432923,35.88957288329383],[139.64176706950425,35.88933119087424],[139.64130929224726,35.889133792747344],[139.6407793007191,35.88894691996788],[139.64202162809238,35.88672162315831],[139.64272205972503,35.886916154787606],[139.6462891846543,35.88704728046398],[139.64500927127375,35.8887820396353]]]},"properties":{"KEY_CODE":"11107007003","PREF":"11","CITY":"107","CITY_NAME":"さいたま市浦和区","S_NAME":"上木崎三丁目","SETAI":"769"}},{"type":"Feature","geometry":{"type":"Polygon","coordinates":[[[139.6462891846543,35.88704728046398],[139.64272205972503,35.886916154787606],[139.64202162809238,35.88672162315831],[139.64228876801636,35.88482113743132],[139.64391845192299,35.884505987310156],[139.6460322003928,35.88459428804543],[139.64947191304543,35.884010913186984],[139.6467499172148,35.88658723455971],[139.6462891846543,35.88704728046398]]]},"properties":{"KEY_CODE":"11107007004","PREF":"11","CITY":"107","CITY_NAME":"さいたま市浦和区","S_NAME":"上木崎四丁目","SETAI":"764"}},{"type":"Feature","geometry":{"type":"Polygon","coordinates":[[[139.64793799406922,35.89026637177642],[139.64715578700307,35.89025011871122],[139.64493203236322,35.88992789501058],[139.64500927127375,35.8887820396353],[139.6462891846543,35.88704728046398],[139.6467499172148,35.88658723455971],[139.648841052288,35.88727969249194],[139.648727996944,35.88832531792149],[139.64793799406922,35.89026637177642]]]},"properties":{"KEY_CODE":"11107007005","PREF":"11","CITY":"107","CITY_NAME":"さいたま市浦和区","S_NAME":"上木崎五丁目","SETAI":"516"}},{"type":"Feature","geometry":{"type":"Polygon","coordinates":[[[139.65114029691134,35.88325615310278],[139.65337698146672,35.883375149088316],[139.65308747286537,35.88440456719345],[139.65173493880133,35.88595354075569],[139.65151468540304,35.88720523896529],[139.6519205322866,35.88778728822922],[139.65114910079203,35.887972342779015],[139.648841052288,35.88727969249194],[139.6467499172148,35.88658723455971],[139.64947191304543,35.884010913186984],[139.65114029691134,35.88325615310278]]]},"properties":{"KEY_CODE":"11107007006","PREF":"11","CITY":"107","CITY_NAME":"さいたま市浦和区","S_NAME":"上木崎六丁目","SETAI":"1143"}},{"type":"Feature","geometry":{"type":"Polygon","coordinates":[[[139.65196920586436,35.88958252193024],[139.65112995760776,35.88962335190658],[139.65061833592316,35.89045233278068],[139.64908976173396,35.891511593729824],[139.64892082919462,35.890115819693364],[139.64793799406922,35.89026637177642],[139.648727996944,35.88832531792149],[139.648841052288,35.88727969249194],[139.65114910079203,35.887972342779015],[139.65254722082128,35.888334873118076],[139.652567783522,35.88968373310834],[139.65196920586436,35.88958252193024]]]},"properties":{"KEY_CODE":"11107007007","PREF":"11","CITY":"107","CITY_NAME":"さいたま市浦和区","S_NAME":"上木崎七丁目","SETAI":"468"}},{"type":"Feature","geometry":{"type":"Polygon","coordinates":[[[139.64908976173396,35.891511593729824],[139.6473407955919,35.89334554777938],[139.6466664887659,35.893508280388666],[139.64667043132187,35.891430103703954],[139.64715578700307,35.89025011871122],[139.64793799406922,35.89026637177642],[139.64892082919462,35.890115819693364],[139.64908976173396,35.891511593729824]]]},"properties":{"KEY_CODE":"11107007008","PREF":"11","CITY":"107","CITY_NAME":"さいたま市浦和区","S_NAME":"上木崎八丁目","SETAI":"239"}},{"type":"Feature","geometry":{"type":"Polygon","coordinates":[[[139.6656234738477,35.88386829192052],[139.66128101609903,35.88647079593532],[139.6611546680952,35.886406080088555],[139.65851128911012,35.88526996465333],[139.65644141064175,35.883816185218194],[139.65868747584207,35.88370642767795],[139.66022551638264,35.884030139358046],[139.66377233717537,35.88410960607028],[139.6656234738477,35.88386829192052]]]},"properties":{"KEY_CODE":"11107008001","PREF":"11","CITY":"107","CITY_NAME":"さいたま市浦和区","S_NAME":"木崎一丁目","SETAI":"541"}},{"type":"Feature","geometry":{"type":"Polygon","coordinates":[[[139.6575419675532,35.8881965898148],[139.65451313959906,35.88834266265776],[139.65449083648258,35.88711494206925],[139.6559666293022,35.88530483532063],[139.65573319807754,35.8837303293383],[139.65644141064175,35.883816185218194],[139.65851128911012,35.88526996465333],[139.6611546680952,35.886406080088555],[139.6575419675532,35.8881965898148]]]},"properties":{"KEY_CODE":"11107008002","PREF":"11","CITY":"107","CITY_NAME":"さいたま市浦和区","S_NAME":"木崎二丁目","SETAI":"703"}},{"type":"Feature","geometry":{"type":"Polygon","coordinates":[[[139.6575419675532,35.8881965898148],[139.65827090410204,35.889468681191175],[139.6583219728672,35.88972256819888],[139.65837744549955,35.89054816361517],[139.65721184926676,35.89085157604026],[139.65488208733757,35.890496649496036],[139.652567783522,35.88968373310834],[139.65254722082128,35.888334873118076],[139.65451313959906,35.88834266265776],[139.6575419675532,35.8881965898148]]]},"properties":{"KEY_CODE":"11107008003","PREF":"11","CITY":"107","CITY_NAME":"さいたま市浦和区","S_NAME":"木崎三丁目","SETAI":"258"}},{"type":"Feature","geometry":{"type":"Polygon","coordinates":[[[139.65853985527244,35.89053749263445],[139.65837744549955,35.89054816361517],[139.6583219728672,35.88972256819888],[139.65827090410204,35.889468681191175],[139.6575419675532,35.8881965898148],[139.6611546680952,35.886406080088555],[139.66128101609903,35.88647079593532],[139.66341579845857,35.8894344470323],[139.6625846258013,35.890474572747685],[139.6594299323751,35.89050497459702],[139.6592546479343,35.89052734415082],[139.65904441134083,35.89053046560591],[139.65879019302005,35.8905333472491],[139.65853985527244,35.89053749263445]]]},"properties":{"KEY_CODE":"11107008004","PREF":"11","CITY":"107","CITY_NAME":"さいたま市浦和区","S_NAME":"木崎四丁目","SETAI":"722"}},{"type":"Feature","geometry":{"type":"Polygon","coordinates":[[[139.66492923874708,35.88759183458396],[139.66395722882044,35.889267747723906],[139.66341579845857,35.8894344470323],[139.66128101609903,35.88647079593532],[139.6656234738477,35.88386829192052],[139.66844162523887,35.883129476146586],[139.66706339953515,35.88479250770883],[139.666380032647,35.88655651938384],[139.66578708998583,35.88641816150493],[139.66490318051655,35.88750365604366],[139.66492923874708,35.88759183458396]]]},"properties":{"KEY_CODE":"11107008005","PREF":"11","CITY":"107","CITY_NAME":"さいたま市浦和区","S_NAME":"木崎五丁目","SETAI":"848"}},{"type":"Feature","geometry":{"type":"Polygon","coordinates":[[[139.66008343338464,35.87314077401854],[139.65888617485572,35.8742203703321],[139.65680885247798,35.876736016155505],[139.65372676451565,35.87510528197278],[139.65535271851255,35.8742593654256],[139.65725867831972,35.87377508992043],[139.6589651460817,35.871980235699326],[139.66070014673568,35.872679092095424],[139.66008343338464,35.87314077401854]]]},"properties":{"KEY_CODE":"11107009001","PREF":"11","CITY":"107","CITY_NAME":"さいたま市浦和区","S_NAME":"領家一丁目","SETAI":"716"}},{"type":"Feature","geometry":{"type":"Polygon","coordinates":[[[139.65372676451565,35.87510528197278],[139.65680885247798,35.876736016155505],[139.65526384584604,35.87826734682332],[139.65165048742764,35.876196560809724],[139.65254432095816,35.875462961925706],[139.65372676451565,35.87510528197278]]]},"properties":{"KEY_CODE":"11107009002","PREF":"11","CITY":"107","CITY_NAME":"さいたま市浦和区","S_NAME":"領家二丁目","SETAI":"559"}},{"type":"Feature","geometry":{"type":"Polygon","coordinates":[[[139.66061198379765,35.873456995385204],[139.6585913853777,35.87766860205284],[139.6582103642431,35.87829708505531],[139.65826084145115,35.8796824044987],[139.65765691425992,35.87988485992069],[139.65735691445084,35.87941924686307],[139.65484428724506,35.87893425192813],[139.65526384584604,35.87826734682332],[139.65680885247798,35.876736016155505],[139.65888617485572,35.8742203703321],[139.66008343338464,35.87314077401854],[139.66061198379765,35.873456995385204]]]},"properties":{"KEY_CODE":"11107009003","PREF":"11","CITY":"107","CITY_NAME":"さいたま市浦和区","S_NAME":"領家三丁目","SETAI":"868"}},{"type":"Feature","geometry":{"type":"Polygon","coordinates":[[[139.65573319807754,35.8837303293383],[139.65337698146672,35.883375149088316],[139.65114029691134,35.88325615310278],[139.65283251541442,35.88149678234852],[139.6533817771689,35.88113311289372],[139.65484428724506,35.87893425192813],[139.65735691445084,35.87941924686307],[139.65765691425992,35.87988485992069],[139.65650107984655,35.8802527126966],[139.6564643127008,35.881311625350435],[139.65522245028646,35.882754890253615],[139.65573319807754,35.8837303293383]]]},"properties":{"KEY_CODE":"11107009004","PREF":"11","CITY":"107","CITY_NAME":"さいたま市浦和区","S_NAME":"領家四丁目","SETAI":"624"}},{"type":"Feature","geometry":{"type":"Polygon","coordinates":[[[139.65163101490862,35.876189137706376],[139.65165048742764,35.876196560809724],[139.65526384584604,35.87826734682332],[139.65484428724506,35.87893425192813],[139.6533817771689,35.88113311289372],[139.65114948328736,35.87891835530776],[139.65010368047078,35.877171975957275],[139.65163101490862,35.876189137706376]]]},"properties":{"KEY_CODE":"11107009005","PREF":"11","CITY":"107","CITY_NAME":"さいたま市浦和区","S_NAME":"領家五丁目","SETAI":"615"}},{"type":"Feature","geometry":{"type":"Polygon","coordinates":[[[139.65010368047078,35.877171975957275],[139.65114948328736,35.87891835530776],[139.6533817771689,35.88113311289372],[139.65283251541442,35.88149678234852],[139.6520966873622,35.88109324294762],[139.6475338353199,35.8807335164862],[139.6463723089101,35.87980866796986],[139.64721177606287,35.87939671276848],[139.64730613726948,35.87934683652385],[139.65008367231803,35.877152836256606],[139.65010368047078,35.877171975957275]]]},"properties":{"KEY_CODE":"11107009006","PREF":"11","CITY":"107","CITY_NAME":"さいたま市浦和区","S_NAME":"領家六丁目","SETAI":"985"}},{"type":"Feature","geometry":{"type":"Polygon","coordinates":[[[139.65114029691134,35.88325615310278],[139.64947191304543,35.884010913186984],[139.6460322003928,35.88459428804543],[139.64391845192299,35.884505987310156],[139.64456672810348,35.88323325161114],[139.644856953327,35.882650719544515],[139.6466738758248,35.88328997727492],[139.6474983970799,35.881734479630424],[139.6475338353199,35.8807335164862],[139.6520966873622,35.88109324294762],[139.65283251541442,35.88149678234852],[139.65114029691134,35.88325615310278]]]},"properties":{"KEY_CODE":"11107009007","PREF":"11","CITY":"107","CITY_NAME":"さいたま市浦和区","S_NAME":"領家七丁目","SETAI":"1107"}},{"type":"Feature","geometry":{"type":"Polygon","coordinates":[[[139.6626247937558,35.87756901484442],[139.6625616881262,35.87771547887679],[139.6585913853777,35.87766860205284],[139.66061198379765,35.873456995385204],[139.6619366016009,35.87380084972987],[139.66246821442493,35.87538712149182],[139.6628180741708,35.87651815742828],[139.6626247937558,35.87756901484442]]]},"properties":{"KEY_CODE":"11107010001","PREF":"11","CITY":"107","CITY_NAME":"さいたま市浦和区","S_NAME":"瀬ケ崎一丁目","SETAI":"634"}},{"type":"Feature","geometry":{"type":"Polygon","coordinates":[[[139.66121115958234,35.87992738882408],[139.65849132891665,35.880340791228406],[139.65826084145115,35.8796824044987],[139.6582103642431,35.87829708505531],[139.6585913853777,35.87766860205284],[139.6625616881262,35.87771547887679],[139.66249972947185,35.8785732689626],[139.66247037659326,35.87873159208076],[139.6621090737242,35.87974298816339],[139.66121115958234,35.87992738882408]]]},"properties":{"KEY_CODE":"11107010002","PREF":"11","CITY":"107","CITY_NAME":"さいたま市浦和区","S_NAME":"瀬ケ崎二丁目","SETAI":"795"}},{"type":"Feature","geometry":{"type":"Polygon","coordinates":[[[139.6658647499013,35.879994944105704],[139.6621090737242,35.87974298816339],[139.66247037659326,35.87873159208076],[139.66249972947185,35.8785732689626],[139.6625616881262,35.87771547887679],[139.6626247937558,35.87756901484442],[139.66581487002398,35.87819999400793],[139.6671126362165,35.878083805657454],[139.66693841090955,35.87906131129317],[139.6658647499013,35.879994944105704]]]},"properties":{"KEY_CODE":"11107010003","PREF":"11","CITY":"107","CITY_NAME":"さいたま市浦和区","S_NAME":"瀬ケ崎三丁目","SETAI":"579"}},{"type":"Feature","geometry":{"type":"Polygon","coordinates":[[[139.6671126362165,35.878083805657454],[139.66581487002398,35.87819999400793],[139.6626247937558,35.87756901484442],[139.6628180741708,35.87651815742828],[139.66246821442493,35.87538712149182],[139.6647855847788,35.875729194477444],[139.6678369084377,35.874356895649164],[139.66794771444134,35.87448854889654],[139.66804717493574,35.87512150849061],[139.66732908326972,35.8765704062336],[139.6671126362165,35.878083805657454]]]},"properties":{"KEY_CODE":"11107010004","PREF":"11","CITY":"107","CITY_NAME":"さいたま市浦和区","S_NAME":"瀬ケ崎四丁目","SETAI":"667"}},{"type":"Feature","geometry":{"type":"Polygon","coordinates":[[[139.6678369084377,35.874356895649164],[139.6647855847788,35.875729194477444],[139.66246821442493,35.87538712149182],[139.6619366016009,35.87380084972987],[139.66411720724327,35.873030310200505],[139.66583919324773,35.87320449864412],[139.6661232005435,35.8738630479328],[139.66719207717782,35.87349587338761],[139.6678369084377,35.874356895649164]]]},"properties":{"KEY_CODE":"11107010005","PREF":"11","CITY":"107","CITY_NAME":"さいたま市浦和区","S_NAME":"瀬ケ崎五丁目","SETAI":"750"}},{"type":"Feature","geometry":{"type":"Polygon","coordinates":[[[139.660172420697,35.86968484468149],[139.66321961243372,35.86826020359827],[139.6645535834498,35.868600703060224],[139.66471911661262,35.86949919924836],[139.66070014673568,35.872679092095424],[139.6589651460817,35.871980235699326],[139.660172420697,35.86968484468149]]]},"properties":{"KEY_CODE":"11107011001","PREF":"11","CITY":"107","CITY_NAME":"さいたま市浦和区","S_NAME":"駒場一丁目","SETAI":"794"}},{"type":"Feature","geometry":{"type":"Polygon","coordinates":[[[139.66471911661262,35.86949919924836],[139.6654869525998,35.87039889395393],[139.66645665454078,35.87057581020377],[139.6677846203493,35.87244348653189],[139.66719207717782,35.87349587338761],[139.6661232005435,35.8738630479328],[139.66583919324773,35.87320449864412],[139.66411720724327,35.873030310200505],[139.6619366016009,35.87380084972987],[139.66061198379765,35.873456995385204],[139.66008343338464,35.87314077401854],[139.66070014673568,35.872679092095424],[139.66471911661262,35.86949919924836]]]},"properties":{"KEY_CODE":"11107011002","PREF":"11","CITY":"107","CITY_NAME":"さいたま市浦和区","S_NAME":"駒場二丁目","SETAI":"123"}},{"type":"Feature","geometry":{"type":"Polygon","coordinates":[[[139.655315614497,35.891655834532635],[139.6553776192449,35.892321915910706],[139.65382147813403,35.89289096195522],[139.65429261897683,35.89406887605771],[139.65337986645523,35.8941155649046],[139.65336586054275,35.89408525604763],[139.65191764050712,35.89088818896098],[139.65196920586436,35.88958252193024],[139.652567783522,35.88968373310834],[139.65488208733757,35.890496649496036],[139.65475014327058,35.89095864515746],[139.655315614497,35.891655834532635]]]},"properties":{"KEY_CODE":"11107012001","PREF":"11","CITY":"107","CITY_NAME":"さいたま市浦和区","S_NAME":"大原一丁目","SETAI":"262"}},{"type":"Feature","geometry":{"type":"Polygon","coordinates":[[[139.64908976173396,35.891511593729824],[139.65061833592316,35.89045233278068],[139.65112995760776,35.88962335190658],[139.65196920586436,35.88958252193024],[139.65191764050712,35.89088818896098],[139.65336586054275,35.89408525604763],[139.65282679589396,35.894110956812355],[139.65209899122607,35.89417196863722],[139.65119343444408,35.89289911499617],[139.64925984752082,35.89187238113618],[139.64908976173396,35.891511593729824]]]},"properties":{"KEY_CODE":"11107012002","PREF":"11","CITY":"107","CITY_NAME":"さいたま市浦和区","S_NAME":"大原二丁目","SETAI":"177"}},{"type":"Feature","geometry":{"type":"Polygon","coordinates":[[[139.65209899122607,35.89417196863722],[139.6501260988274,35.89725584216774],[139.6461687128371,35.895353777200185],[139.6466664887659,35.893508280388666],[139.6473407955919,35.89334554777938],[139.64908976173396,35.891511593729824],[139.64925984752082,35.89187238113618],[139.65119343444408,35.89289911499617],[139.65209899122607,35.89417196863722]]]},"properties":{"KEY_CODE":"11107012003","PREF":"11","CITY":"107","CITY_NAME":"さいたま市浦和区","S_NAME":"大原三丁目","SETAI":"8"}},{"type":"Feature","geometry":{"type":"Polygon","coordinates":[[[139.6501260988274,35.89725584216774],[139.6504821912396,35.897424830766774],[139.64986080434133,35.8986101200179],[139.6494225918224,35.89844875023364],[139.64868839514494,35.89983349781404],[139.64521079708098,35.898829665511535],[139.64606785322553,35.89722791478721],[139.64490009850624,35.89679806601049],[139.6461687128371,35.895353777200185],[139.6501260988274,35.89725584216774]]]},"properties":{"KEY_CODE":"11107012004","PREF":"11","CITY":"107","CITY_NAME":"さいたま市浦和区","S_NAME":"大原四丁目","SETAI":"0"}},{"type":"Feature","geometry":{"type":"Polygon","coordinates":[[[139.6429190765143,35.89804212147472],[139.6432156274012,35.898141547564364],[139.64521079708098,35.898829665511535],[139.64868839514494,35.89983349781404],[139.64837081817643,35.90140634128414],[139.64531483172166,35.90160265512412],[139.64433134057757,35.90103600405448],[139.64399132952946,35.90014630142026],[139.64326684913166,35.899290992365],[139.64304105295227,35.89916084496946],[139.64298723189486,35.89912908111982],[139.64263323634967,35.898845401247186],[139.64271770976126,35.89854293400638],[139.6428841323382,35.8980335985094],[139.6429190765143,35.89804212147472]]]},"properties":{"KEY_CODE":"11107012005","PREF":"11","CITY":"107","CITY_NAME":"さいたま市浦和区","S_NAME":"大原五丁目","SETAI":"0"}},{"type":"Feature","geometry":{"type":"Polygon","coordinates":[[[139.66748139788047,35.85404132391287],[139.6677331263153,35.85485719762023],[139.66694971650156,35.85495067787255],[139.6662593931417,35.8574914835262],[139.6648306237405,35.85833946217607],[139.66477099984613,35.856904101437095],[139.66401436788905,35.85511589175066],[139.66311832174821,35.855071563921044],[139.66610656807205,35.8532817971557],[139.6668272623281,35.853468631505415],[139.66748139788047,35.85404132391287]]]},"properties":{"KEY_CODE":"11107013001","PREF":"11","CITY":"107","CITY_NAME":"さいたま市浦和区","S_NAME":"前地一丁目","SETAI":"1113"}},{"type":"Feature","geometry":{"type":"Polygon","coordinates":[[[139.66311832174821,35.855071563921044],[139.66401436788905,35.85511589175066],[139.66477099984613,35.856904101437095],[139.6648306237405,35.85833946217607],[139.66336237863771,35.85848397063261],[139.66155957204992,35.858185711695995],[139.66168003476474,35.85731213207067],[139.66218430850796,35.85574084575317],[139.66311832174821,35.855071563921044]]]},"properties":{"KEY_CODE":"11107013002","PREF":"11","CITY":"107","CITY_NAME":"さいたま市浦和区","S_NAME":"前地二丁目","SETAI":"635"}},{"type":"Feature","geometry":{"type":"Polygon","coordinates":[[[139.66777674326795,35.85997690226619],[139.66657472639767,35.86157461584795],[139.66615713682512,35.86208450632355],[139.66244460463034,35.8603417666906],[139.66336237863771,35.85848397063261],[139.6648306237405,35.85833946217607],[139.66777674326795,35.85997690226619]]]},"properties":{"KEY_CODE":"11107013003","PREF":"11","CITY":"107","CITY_NAME":"さいたま市浦和区","S_NAME":"前地三丁目","SETAI":"871"}},{"type":"Feature","geometry":{"type":"Polygon","coordinates":[[[139.66508243885912,35.865723085946584],[139.66283761548164,35.86549998398739],[139.66009927918037,35.86557776374595],[139.66009772261663,35.865577488656655],[139.66025090153323,35.86402959009492],[139.6623560192341,35.86050144262766],[139.66244460463034,35.8603417666906],[139.66615713682512,35.86208450632355],[139.66508243885912,35.865723085946584]]]},"properties":{"KEY_CODE":"11107014001","PREF":"11","CITY":"107","CITY_NAME":"さいたま市浦和区","S_NAME":"本太一丁目","SETAI":"1942"}},{"type":"Feature","geometry":{"type":"Polygon","coordinates":[[[139.66009772261663,35.865577488656655],[139.65583730501655,35.865398671706295],[139.6559290506001,35.864170748748954],[139.65539673799194,35.86329333105953],[139.65525002556484,35.86315634160511],[139.65503939460285,35.86295759335146],[139.6555409737117,35.862172747195956],[139.65680546337282,35.86267529872708],[139.66057563046425,35.86210535939752],[139.66015451370072,35.86176062521681],[139.6617594116963,35.8602509310017],[139.6623560192341,35.86050144262766],[139.66025090153323,35.86402959009492],[139.66009772261663,35.865577488656655]]]},"properties":{"KEY_CODE":"11107014002","PREF":"11","CITY":"107","CITY_NAME":"さいたま市浦和区","S_NAME":"本太二丁目","SETAI":"1370"}},{"type":"Feature","geometry":{"type":"Polygon","coordinates":[[[139.65583730501655,35.865398671706295],[139.65545127734515,35.868039982763975],[139.6551082428534,35.86902092738692],[139.65112210262214,35.868525169601796],[139.65141320251433,35.867031483539115],[139.6523098830363,35.86641101011769],[139.6540002005146,35.864049813128666],[139.65486281611578,35.86269568189081],[139.65503939460285,35.86295759335146],[139.65525002556484,35.86315634160511],[139.65539673799194,35.86329333105953],[139.6559290506001,35.864170748748954],[139.65583730501655,35.865398671706295]]]},"properties":{"KEY_CODE":"11107014003","PREF":"11","CITY":"107","CITY_NAME":"さいたま市浦和区","S_NAME":"本太三丁目","SETAI":"1216"}},{"type":"Feature","geometry":{"type":"Polygon","coordinates":[[[139.6591321855599,35.86957123029301],[139.65720591947436,35.86952146418123],[139.6551082428534,35.86902092738692],[139.65545127734515,35.868039982763975],[139.65583730501655,35.865398671706295],[139.66009772261663,35.865577488656655],[139.66009927918037,35.86557776374595],[139.6591001629049,35.868105533950626],[139.6591321855599,35.86957123029301]]]},"properties":{"KEY_CODE":"11107014004","PREF":"11","CITY":"107","CITY_NAME":"さいたま市浦和区","S_NAME":"本太四丁目","SETAI":"766"}},{"type":"Feature","geometry":{"type":"Polygon","coordinates":[[[139.6645535834498,35.868600703060224],[139.66321961243372,35.86826020359827],[139.660172420697,35.86968484468149],[139.6591321855599,35.86957123029301],[139.6591001629049,35.868105533950626],[139.66009927918037,35.86557776374595],[139.66283761548164,35.86549998398739],[139.66508243885912,35.865723085946584],[139.6645701829743,35.86760953874132],[139.6645535834498,35.868600703060224]]]},"properties":{"KEY_CODE":"11107014005","PREF":"11","CITY":"107","CITY_NAME":"さいたま市浦和区","S_NAME":"本太五丁目","SETAI":"948"}},{"type":"Feature","geometry":{"type":"Polygon","coordinates":[[[139.660172420697,35.86968484468149],[139.6589651460817,35.871980235699326],[139.65211793209392,35.871118894611485],[139.64874987497268,35.87109304313642],[139.6496340266322,35.87050727223287],[139.65112210262214,35.868525169601796],[139.6551082428534,35.86902092738692],[139.65720591947436,35.86952146418123],[139.6591321855599,35.86957123029301],[139.660172420697,35.86968484468149]]]},"properties":{"KEY_CODE":"11107015001","PREF":"11","CITY":"107","CITY_NAME":"さいたま市浦和区","S_NAME":"元町一丁目","SETAI":"1226"}},{"type":"Feature","geometry":{"type":"Polygon","coordinates":[[[139.6589651460817,35.871980235699326],[139.65725867831972,35.87377508992043],[139.65535271851255,35.8742593654256],[139.65545402700874,35.87381858575943],[139.64969492969388,35.87311302290747],[139.6491102397886,35.87261937186692],[139.64828465743167,35.873147003465064],[139.64774335846602,35.87286080716733],[139.64787171229963,35.871431319382054],[139.64792770906627,35.87134712588621],[139.64874987497268,35.87109304313642],[139.65211793209392,35.871118894611485],[139.6589651460817,35.871980235699326]]]},"properties":{"KEY_CODE":"11107015002","PREF":"11","CITY":"107","CITY_NAME":"さいたま市浦和区","S_NAME":"元町二丁目","SETAI":"1558"}},{"type":"Feature","geometry":{"type":"Polygon","coordinates":[[[139.65535271851255,35.8742593654256],[139.65372676451565,35.87510528197278],[139.65254432095816,35.875462961925706],[139.65165048742764,35.876196560809724],[139.65163101490862,35.876189137706376],[139.65042732478224,35.875360890921584],[139.64828465743167,35.873147003465064],[139.6491102397886,35.87261937186692],[139.64969492969388,35.87311302290747],[139.65545402700874,35.87381858575943],[139.65535271851255,35.8742593654256]]]},"properties":{"KEY_CODE":"11107015003","PREF":"11","CITY":"107","CITY_NAME":"さいたま市浦和区","S_NAME":"元町三丁目","SETAI":"912"}},{"type":"Feature","geometry":{"type":"Polygon","coordinates":[[[139.66121115958234,35.87992738882408],[139.66219246545586,35.881101483902704],[139.66092209329304,35.88272179055638],[139.66028789517142,35.882368376052156],[139.66022551638264,35.884030139358046],[139.65868747584207,35.88370642767795],[139.65644141064175,35.883816185218194],[139.65573319807754,35.8837303293383],[139.65522245028646,35.882754890253615],[139.6564643127008,35.881311625350435],[139.65650107984655,35.8802527126966],[139.65765691425992,35.87988485992069],[139.65826084145115,35.8796824044987],[139.65849132891665,35.880340791228406],[139.66121115958234,35.87992738882408]]]},"properties":{"KEY_CODE":"11107016001","PREF":"11","CITY":"107","CITY_NAME":"さいたま市浦和区","S_NAME":"大東一丁目","SETAI":"1193"}},{"type":"Feature","geometry":{"type":"Polygon","coordinates":[[[139.66377233717537,35.88410960607028],[139.66022551638264,35.884030139358046],[139.66028789517142,35.882368376052156],[139.66092209329304,35.88272179055638],[139.66219246545586,35.881101483902704],[139.66121115958234,35.87992738882408],[139.6621090737242,35.87974298816339],[139.6658647499013,35.879994944105704],[139.66536964324098,35.88124645440124],[139.66410284258447,35.88183559641751],[139.66377233717537,35.88410960607028]]]},"properties":{"KEY_CODE":"11107016002","PREF":"11","CITY":"107","CITY_NAME":"さいたま市浦和区","S_NAME":"大東二丁目","SETAI":"741"}},{"type":"Feature","geometry":{"type":"Polygon","coordinates":[[[139.6656234738477,35.88386829192052],[139.66377233717537,35.88410960607028],[139.66410284258447,35.88183559641751],[139.66536964324098,35.88124645440124],[139.6658647499013,35.879994944105704],[139.66693841090955,35.87906131129317],[139.66804641718008,35.87913322972983],[139.66719315195138,35.881264570171744],[139.66855166225622,35.881692389672644],[139.668604540638,35.88307967620175],[139.66844162523887,35.883129476146586],[139.6656234738477,35.88386829192052]]]},"properties":{"KEY_CODE":"11107016003","PREF":"11","CITY":"107","CITY_NAME":"さいたま市浦和区","S_NAME":"大東三丁目","SETAI":"564"}},{"type":"Feature","geometry":{"type":"Polygon","coordinates":[[[139.66420277346288,35.893068226173945],[139.66514998358707,35.89399220078133],[139.66513209472674,35.89454756719899],[139.66345877356443,35.8938094969118],[139.66082995128178,35.8938503387831],[139.65429261897683,35.89406887605771],[139.65382147813403,35.89289096195522],[139.6553776192449,35.892321915910706],[139.655315614497,35.891655834532635],[139.65475014327058,35.89095864515746],[139.65488208733757,35.890496649496036],[139.65721184926676,35.89085157604026],[139.65837744549955,35.89054816361517],[139.65853985527244,35.89053749263445],[139.65879019302005,35.8905333472491],[139.65904441134083,35.89053046560591],[139.6592546479343,35.89052734415082],[139.6594299323751,35.89050497459702],[139.6625846258013,35.890474572747685],[139.66323437054925,35.89168847689237],[139.66332251981055,35.89184802059692],[139.66420277346288,35.893068226173945]]]},"properties":{"KEY_CODE":"111070170","PREF":"11","CITY":"107","CITY_NAME":"さいたま市浦和区","S_NAME":"大字三崎","SETAI":"4"}},{"type":"Feature","geometry":{"type":"Polygon","coordinates":[[[139.6644181308449,35.84896995970655],[139.66394943727917,35.8505072779359],[139.6608257749347,35.850229220593306],[139.66072654744784,35.849072382623305],[139.66116402047993,35.847099514470216],[139.66284965436176,35.84703762371397],[139.66295917743497,35.84883182138268],[139.6644181308449,35.84896995970655]]]},"properties":{"KEY_CODE":"11107018001","PREF":"11","CITY":"107","CITY_NAME":"さいたま市浦和区","S_NAME":"神明一丁目","SETAI":"535"}},{"type":"Feature","geometry":{"type":"Polygon","coordinates":[[[139.66116402047993,35.847099514470216],[139.66072654744784,35.849072382623305],[139.6608257749347,35.850229220593306],[139.6573014410348,35.84992624268305],[139.65691932223126,35.84915511966217],[139.65751250717986,35.847996406354895],[139.6577964078245,35.84727187093685],[139.65813842736873,35.84664864624346],[139.65895039276364,35.84712618647539],[139.66116402047993,35.847099514470216]]]},"properties":{"KEY_CODE":"11107018002","PREF":"11","CITY":"107","CITY_NAME":"さいたま市浦和区","S_NAME":"神明二丁目","SETAI":"775"}},{"type":"Feature","geometry":{"type":"Polygon","coordinates":[[[139.65337698146672,35.883375149088316],[139.65573319807754,35.8837303293383],[139.6559666293022,35.88530483532063],[139.65449083648258,35.88711494206925],[139.65451313959906,35.88834266265776],[139.65254722082128,35.888334873118076],[139.65114910079203,35.887972342779015],[139.6519205322866,35.88778728822922],[139.65151468540304,35.88720523896529],[139.65173493880133,35.88595354075569],[139.65308747286537,35.88440456719345],[139.65337698146672,35.883375149088316]]]},"properties":{"KEY_CODE":"111070190","PREF":"11","CITY":"107","CITY_NAME":"さいたま市浦和区","S_NAME":"皇山町","SETAI":"801"}},{"type":"Feature","geometry":{"type":"Polygon","coordinates":[[[139.6617594116963,35.8602509310017],[139.66015451370072,35.86176062521681],[139.66057563046425,35.86210535939752],[139.65680546337282,35.86267529872708],[139.6555409737117,35.862172747195956],[139.65503939460285,35.86295759335146],[139.65486281611578,35.86269568189081],[139.6548921564474,35.86265029877083],[139.65645896682395,35.860240932672575],[139.65742377011858,35.858856385526686],[139.6617594116963,35.8602509310017]]]},"properties":{"KEY_CODE":"111070200","PREF":"11","CITY":"107","CITY_NAME":"さいたま市浦和区","S_NAME":"東仲町","SETAI":"2033"}},{"type":"Feature","geometry":{"type":"Polygon","coordinates":[[[139.6668272623281,35.853468631505415],[139.66610656807205,35.8532817971557],[139.66311832174821,35.855071563921044],[139.66218430850796,35.85574084575317],[139.66168003476474,35.85731213207067],[139.6598108437353,35.85564085272796],[139.66031720299839,35.85520803920068],[139.6603184269185,35.855207054565795],[139.66182746640882,35.85409316643003],[139.6657888034101,35.851135711919184],[139.66689427247294,35.852766579996086],[139.6668272623281,35.853468631505415]]]},"properties":{"KEY_CODE":"111070210","PREF":"11","CITY":"107","CITY_NAME":"さいたま市浦和区","S_NAME":"東岸町","SETAI":"1230"}},{"type":"Feature","geometry":{"type":"Polygon","coordinates":[[[139.66336237863771,35.85848397063261],[139.66244460463034,35.8603417666906],[139.6623560192341,35.86050144262766],[139.6617594116963,35.8602509310017],[139.65742377011858,35.858856385526686],[139.65871584747273,35.856853087335885],[139.6598108437353,35.85564085272796],[139.66168003476474,35.85731213207067],[139.66155957204992,35.858185711695995],[139.66336237863771,35.85848397063261]]]},"properties":{"KEY_CODE":"111070220","PREF":"11","CITY":"107","CITY_NAME":"さいたま市浦和区","S_NAME":"東高砂町","SETAI":"1112"}}]}