{"type":"FeatureCollection","features":[{"type":"Feature","geometry":{"type":"Polygon","coordinates":[[[139.40586385821635,36.04450567222738],[139.40503249033006,36.044599779861926],[139.40475538103576,36.044314454290415],[139.40344725479721,36.04260739436233],[139.40404138621346,36.04158133562216],[139.4045948933099,36.041583764030904],[139.40509429343211,36.0409238097459],[139.40708655591015,36.04075200534589],[139.40702275176326,36.04146656266113],[139.409138189502,36.04099369303842],[139.40916429836844,36.04146819963854],[139.41054655176822,36.04226489106117],[139.40940177898426,36.042363260426065],[139.4081590360756,36.04304193071533],[139.40686792819994,36.04331963838893],[139.40586385821635,36.04450567222738]]]},"properties":{"KEY_CODE":"11212001001","PREF":"11","CITY":"212","CITY_NAME":"東松山市","S_NAME":"本町一丁目","SETAI":"269"}},{"type":"Feature","geometry":{"type":"Polygon","coordinates":[[[139.4049145275845,36.03627892084753],[139.40734698799506,36.03757426615167],[139.40708655591015,36.04075200534589],[139.40509429343211,36.0409238097459],[139.4044376131779,36.04097887296907],[139.4041553666311,36.03847488462464],[139.4049145275845,36.03627892084753]]]},"properties":{"KEY_CODE":"11212001002","PREF":"11","CITY":"212","CITY_NAME":"東松山市","S_NAME":"本町二丁目","SETAI":"369"}},{"type":"Feature","geometry":{"type":"Polygon","coordinates":[[[139.4100977186282,36.03752897453492],[139.40734698799506,36.03757426615167],[139.4049145275845,36.03627892084753],[139.40402952644422,36.03604273350706],[139.405100195422,36.033363273702975],[139.4062837723772,36.03344593126075],[139.40812141499813,36.03268233400234],[139.4083909295118,36.03443060523734],[139.40933034004064,36.03492230932742],[139.40920896406163,36.036200634245475],[139.4100977186282,36.03752897453492]]]},"properties":{"KEY_CODE":"11212002001","PREF":"11","CITY":"212","CITY_NAME":"東松山市","S_NAME":"神明町一丁目","SETAI":"554"}},{"type":"Feature","geometry":{"type":"Polygon","coordinates":[[[139.40812141499813,36.03268233400234],[139.4062837723772,36.03344593126075],[139.405100195422,36.033363273702975],[139.4028829533334,36.03278011184625],[139.40216322619943,36.03287733427067],[139.40218897819298,36.032700928772556],[139.40245353525535,36.0308905594046],[139.40258481921782,36.028464279361415],[139.40434757670417,36.02769242996783],[139.40559521232862,36.02743105030036],[139.40602753743502,36.03022817326615],[139.40695543657125,36.03035097762392],[139.40818848332486,36.031115679205506],[139.40835380479766,36.03180689915307],[139.40812141499813,36.03268233400234]]]},"properties":{"KEY_CODE":"11212002002","PREF":"11","CITY":"212","CITY_NAME":"東松山市","S_NAME":"神明町二丁目","SETAI":"725"}},{"type":"Feature","geometry":{"type":"Polygon","coordinates":[[[139.40216322619943,36.03287733427067],[139.4028829533334,36.03278011184625],[139.405100195422,36.033363273702975],[139.40402952644422,36.03604273350706],[139.4049145275845,36.03627892084753],[139.4041553666311,36.03847488462464],[139.40208407253644,36.03786580438209],[139.40076835938086,36.03658058822348],[139.4020665262541,36.03290882313084],[139.40216322619943,36.03287733427067]]]},"properties":{"KEY_CODE":"11212003001","PREF":"11","CITY":"212","CITY_NAME":"東松山市","S_NAME":"箭弓町一丁目","SETAI":"560"}},{"type":"Feature","geometry":{"type":"Polygon","coordinates":[[[139.40218897819298,36.032700928772556],[139.4020665262541,36.03290882313084],[139.40076835938086,36.03658058822348],[139.4005649546805,36.036007786265856],[139.39777087815168,36.03586563201652],[139.39554931987163,36.03518419482408],[139.39425122841422,36.03478014213395],[139.39565158256784,36.03355491201153],[139.39727568985526,36.03271743090908],[139.39706846340508,36.03228599014561],[139.39899990758698,36.0321153883896],[139.40245353525535,36.0308905594046],[139.40218897819298,36.032700928772556]]]},"properties":{"KEY_CODE":"11212003002","PREF":"11","CITY":"212","CITY_NAME":"東松山市","S_NAME":"箭弓町二丁目","SETAI":"753"}},{"type":"Feature","geometry":{"type":"Polygon","coordinates":[[[139.40127206101437,36.03810391242554],[139.39886218625227,36.03911513869661],[139.39837439750124,36.03896625185599],[139.39740868320155,36.03884611857631],[139.39685282521427,36.03871630636984],[139.39633385318535,36.03871823300172],[139.3912410671664,36.0371651087421],[139.39258431097787,36.034262050096665],[139.39425122841422,36.03478014213395],[139.39554931987163,36.03518419482408],[139.39777087815168,36.03586563201652],[139.4005649546805,36.036007786265856],[139.40076835938086,36.03658058822348],[139.40208407253644,36.03786580438209],[139.40127206101437,36.03810391242554]]]},"properties":{"KEY_CODE":"11212003003","PREF":"11","CITY":"212","CITY_NAME":"東松山市","S_NAME":"箭弓町三丁目","SETAI":"478"}},{"type":"Feature","geometry":{"type":"Polygon","coordinates":[[[139.40344725479721,36.04260739436233],[139.40288694508638,36.04211764468309],[139.4007629726658,36.04282082532501],[139.40042073604857,36.042511340287184],[139.40127206101437,36.03810391242554],[139.40208407253644,36.03786580438209],[139.4041553666311,36.03847488462464],[139.4044376131779,36.04097887296907],[139.40509429343211,36.0409238097459],[139.4045948933099,36.041583764030904],[139.40404138621346,36.04158133562216],[139.40344725479721,36.04260739436233]]]},"properties":{"KEY_CODE":"112120040","PREF":"11","CITY":"212","CITY_NAME":"東松山市","S_NAME":"材木町","SETAI":"445"}},{"type":"Feature","geometry":{"type":"Polygon","coordinates":[[[139.40127206101437,36.03810391242554],[139.40042073604857,36.042511340287184],[139.40002909509914,36.042625957072914],[139.39710717111518,36.04351855973241],[139.3974053375889,36.041566592887094],[139.39762749385793,36.040164318247896],[139.3963093614798,36.039882673993034],[139.39837439750124,36.03896625185599],[139.39886218625227,36.03911513869661],[139.40127206101437,36.03810391242554]]]},"properties":{"KEY_CODE":"11212005001","PREF":"11","CITY":"212","CITY_NAME":"東松山市","S_NAME":"松葉町一丁目","SETAI":"364"}},{"type":"Feature","geometry":{"type":"Polygon","coordinates":[[[139.3963093614798,36.039882673993034],[139.39762749385793,36.040164318247896],[139.3974053375889,36.041566592887094],[139.3971071711152,36.04351855973241],[139.396143464552,36.04381991931813],[139.39562694373691,36.043974991951174],[139.39260591862077,36.04479274829274],[139.39221744574772,36.04439046110409],[139.39122091065843,36.04182227092037],[139.39310806325852,36.041216750932215],[139.3963093614798,36.039882673993034]]]},"properties":{"KEY_CODE":"11212005002","PREF":"11","CITY":"212","CITY_NAME":"東松山市","S_NAME":"松葉町二丁目","SETAI":"569"}},{"type":"Feature","geometry":{"type":"Polygon","coordinates":[[[139.3963093614798,36.039882673993034],[139.39310806325852,36.041216750932215],[139.39122091065843,36.04182227092037],[139.39006422560752,36.04021713695751],[139.39003542444118,36.03882609492548],[139.3893241894856,36.03875318581312],[139.3896771544258,36.037748222069354],[139.3907376607002,36.03702129684033],[139.3912410671664,36.0371651087421],[139.39633385318535,36.03871823300172],[139.39685282521427,36.03871630636984],[139.39740868320155,36.03884611857631],[139.39837439750124,36.03896625185599],[139.3963093614798,36.039882673993034]]]},"properties":{"KEY_CODE":"11212005003","PREF":"11","CITY":"212","CITY_NAME":"東松山市","S_NAME":"松葉町三丁目","SETAI":"578"}},{"type":"Feature","geometry":{"type":"Polygon","coordinates":[[[139.3907376607002,36.03702129684033],[139.3896771544258,36.037748222069354],[139.3893241894856,36.03875318581312],[139.39003542444118,36.03882609492548],[139.39006422560752,36.04021713695751],[139.39122091065843,36.04182227092037],[139.38537081103408,36.043072522257376],[139.38572365397027,36.04085860018653],[139.38645996751535,36.04061691098397],[139.38660728146667,36.04007953962866],[139.38708379582516,36.03746655621897],[139.38922495481742,36.03693330853643],[139.3907376607002,36.03702129684033]]]},"properties":{"KEY_CODE":"11212005004","PREF":"11","CITY":"212","CITY_NAME":"東松山市","S_NAME":"松葉町四丁目","SETAI":"497"}},{"type":"Feature","geometry":{"type":"Polygon","coordinates":[[[139.4074937012791,36.04694876868166],[139.4049348304682,36.04668642389123],[139.403712862202,36.04658442534832],[139.4016020873984,36.04491309564105],[139.3991778223638,36.044865451720376],[139.40002909509914,36.042625957072914],[139.40042073604857,36.042511340287184],[139.4007629726658,36.04282082532501],[139.40288694508638,36.04211764468309],[139.40344725479721,36.04260739436233],[139.40475538103576,36.044314454290415],[139.40503249033006,36.044599779861926],[139.40586385821635,36.04450567222738],[139.40615718286395,36.04520924185085],[139.4063168406104,36.04548307724838],[139.40640500413647,36.04573486320521],[139.4065413746673,36.0464680267201],[139.4077069020056,36.04661883488946],[139.4074937012791,36.04694876868166]]]},"properties":{"KEY_CODE":"112120060","PREF":"11","CITY":"212","CITY_NAME":"東松山市","S_NAME":"日吉町","SETAI":"567"}},{"type":"Feature","geometry":{"type":"Polygon","coordinates":[[[139.403712862202,36.04658442534832],[139.40308933487037,36.04715667522514],[139.40195909842052,36.04710913535545],[139.40165952966865,36.047895096365444],[139.40054116195813,36.04791075887253],[139.39950317108685,36.046916181869946],[139.39804503622761,36.046725124242606],[139.39823248190007,36.04645146525963],[139.39864989713092,36.04584895447218],[139.3991778223638,36.044865451720376],[139.4016020873984,36.04491309564105],[139.403712862202,36.04658442534832]]]},"properties":{"KEY_CODE":"112120070","PREF":"11","CITY":"212","CITY_NAME":"東松山市","S_NAME":"加美町","SETAI":"344"}},{"type":"Feature","geometry":{"type":"Polygon","coordinates":[[[139.4074937012791,36.04694876868166],[139.40521484796668,36.04871146733565],[139.4049831236862,36.04806314033107],[139.4049348304682,36.04668642389123],[139.4074937012791,36.04694876868166]]]},"properties":{"KEY_CODE":"112120070","PREF":"11","CITY":"212","CITY_NAME":"東松山市","S_NAME":"加美町","SETAI":"0"}},{"type":"Feature","geometry":{"type":"Polygon","coordinates":[[[139.4134817798865,36.041460998448855],[139.41213444924355,36.041479000135915],[139.41054655176822,36.04226489106117],[139.40916429836844,36.04146819963854],[139.409138189502,36.04099369303842],[139.40702275176326,36.04146656266113],[139.40708655591015,36.04075200534589],[139.40734698799506,36.03757426615167],[139.4100977186282,36.03752897453492],[139.41267337128969,36.03797271596755],[139.41270850940802,36.037975561189015],[139.4123554996816,36.03863606729765],[139.41254827655234,36.040372901672235],[139.41358529361372,36.04034758301223],[139.4134817798865,36.041460998448855]]]},"properties":{"KEY_CODE":"11212008001","PREF":"11","CITY":"212","CITY_NAME":"東松山市","S_NAME":"松本町一丁目","SETAI":"469"}},{"type":"Feature","geometry":{"type":"Polygon","coordinates":[[[139.4152868515557,36.04103479733924],[139.4136025946525,36.04187806909706],[139.4134817798865,36.041460998448855],[139.41358529361372,36.04034758301223],[139.41254827655234,36.040372901672235],[139.4123554996816,36.03863606729765],[139.41270850940802,36.037975561189015],[139.4164850896935,36.03754877929616],[139.41844999708206,36.03786727725024],[139.4181721009055,36.03826615934792],[139.41851302653802,36.03837336288745],[139.41869497856578,36.038650878594204],[139.41857953470955,36.03912677472949],[139.4180070310683,36.04070676795687],[139.41715407177307,36.04035021474701],[139.4152868515557,36.04103479733924]]]},"properties":{"KEY_CODE":"11212008002","PREF":"11","CITY":"212","CITY_NAME":"東松山市","S_NAME":"松本町二丁目","SETAI":"363"}},{"type":"Feature","geometry":{"type":"Polygon","coordinates":[[[139.4082561129293,36.056986540688214],[139.40722249672137,36.05719522290012],[139.40570038684896,36.05679642696738],[139.40399248885626,36.057231104236116],[139.40255490345234,36.05925798753843],[139.40166763916102,36.05943219073902],[139.4003898155776,36.05901451205032],[139.39986286174988,36.0582964680962],[139.40073940553071,36.057671886261886],[139.39984233666155,36.057217140884276],[139.39819865454484,36.05734450908323],[139.39832425344179,36.055552017360334],[139.39513065130646,36.055769001505986],[139.39379163348394,36.05547371740347],[139.3940704275808,36.05459893971591],[139.39633672982615,36.0529556006877],[139.39801539518518,36.052474359656635],[139.40038196048638,36.05281370126123],[139.40077928075772,36.05160190147234],[139.40235150710697,36.04982184908744],[139.40521484796668,36.04871146733565],[139.4074937012791,36.04694876868166],[139.4077069020056,36.04661883488946],[139.4087375549971,36.04530841311166],[139.41082490511292,36.044757917071344],[139.41392618609618,36.045183633792966],[139.41410428114932,36.04468167697973],[139.41504877010593,36.045044505259696],[139.41544228137477,36.04503574123242],[139.41613963015354,36.044761537178786],[139.4166941342941,36.044288896503005],[139.41767760854282,36.042639670151004],[139.41770755597446,36.042527692710955],[139.41760241516008,36.04242001320856],[139.41748203355172,36.04241959622732],[139.41618339191052,36.04257963791948],[139.41487710616337,36.04230876614748],[139.4152868515557,36.04103479733924],[139.41715407177307,36.04035021474701],[139.4180070310683,36.04070676795687],[139.41857953470955,36.03912677472949],[139.41869497856578,36.038650878594204],[139.41851302653802,36.03837336288745],[139.4181721009055,36.03826615934792],[139.41844999708206,36.03786727725024],[139.4191476803064,36.03707159337471],[139.42093516903398,36.03850351869843],[139.4206198906665,36.03951865656748],[139.4194358432663,36.03947955084907],[139.41914923088362,36.042842616930955],[139.42001670195748,36.043626591449225],[139.42013851748385,36.044561430675735],[139.42108390589286,36.04690476858557],[139.42037307804867,36.047343076766616],[139.4195668677406,36.04869776489901],[139.41956389610496,36.049501042844554],[139.4182248662894,36.0504802958812],[139.41733120862094,36.05301103287642],[139.4186082836366,36.05284904996597],[139.41826154416668,36.053334141450655],[139.41712466199542,36.05330038080438],[139.41624428479648,36.0548133009625],[139.41446136791149,36.05403092967338],[139.4136950650103,36.05480348439108],[139.4133617062346,36.05452279354941],[139.410901011031,36.05636209158781],[139.41013270915914,36.05642639067646],[139.40937602421263,36.0566447105356],[139.4082561129293,36.056986540688214]]]},"properties":{"KEY_CODE":"112120091","PREF":"11","CITY":"212","CITY_NAME":"東松山市","S_NAME":"大字松山","SETAI":"1131"}},{"type":"Feature","geometry":{"type":"Polygon","coordinates":[[[139.41487710616337,36.04230876614748],[139.41618339191052,36.04257963791948],[139.41748203355172,36.04241959622732],[139.41760241516008,36.04242001320856],[139.41770755597446,36.042527692710955],[139.41767760854282,36.042639670151004],[139.4166941342941,36.044288896503005],[139.41613963015354,36.044761537178786],[139.41544228137477,36.04503574123242],[139.41504877010593,36.045044505259696],[139.41410428114932,36.04468167697973],[139.41487710616337,36.04230876614748]]]},"properties":{"KEY_CODE":"112120092","PREF":"11","CITY":"212","CITY_NAME":"東松山市","S_NAME":"仲田町","SETAI":"0"}},{"type":"Feature","geometry":{"type":"Polygon","coordinates":[[[139.4214485080143,36.069714441554524],[139.4231154883804,36.071915490507536],[139.42221553434342,36.07250254850989],[139.41985496968073,36.07387488996754],[139.41799058991697,36.07454419698402],[139.4161991465045,36.074739889131536],[139.41218102676643,36.07561393416094],[139.41065697901928,36.07574891424243],[139.40855313595654,36.07630354203524],[139.40557044296526,36.07535791024389],[139.40515348092933,36.074081005715115],[139.40505242199868,36.073656526575405],[139.40455141817273,36.071561008877914],[139.4047777289669,36.07017332790642],[139.40432984394954,36.06984333521563],[139.4037498710922,36.06660787855668],[139.4019607284666,36.06448977752969],[139.39848976697309,36.06101241166716],[139.3988021945505,36.060891662595246],[139.39961715887645,36.05884686676449],[139.4003898155776,36.05901451205032],[139.40166763916102,36.05943219073902],[139.40255490345234,36.05925798753843],[139.40399248885626,36.057231104236116],[139.40570038684896,36.05679642696738],[139.40722249672137,36.05719522290012],[139.4082561129293,36.056986540688214],[139.40937602421263,36.0566447105356],[139.41013270915914,36.05642639067646],[139.40865770669797,36.06083913081613],[139.41044511649454,36.06058041713173],[139.41284474649876,36.06082309154253],[139.4145488165327,36.061562489670806],[139.41610033498569,36.061255301346414],[139.41726148512757,36.06144803218533],[139.41727085798462,36.06331395387938],[139.41666254609117,36.06427694004905],[139.41879478723126,36.066048788428695],[139.4214485080143,36.069714441554524]]]},"properties":{"KEY_CODE":"112120100","PREF":"11","CITY":"212","CITY_NAME":"東松山市","S_NAME":"大字東平","SETAI":"1845"}},{"type":"Feature","geometry":{"type":"Polygon","coordinates":[[[139.39848976697309,36.06101241166716],[139.39768268499623,36.06120264499176],[139.3926332435655,36.06161007510429],[139.3898682285372,36.06163150058946],[139.38896955358837,36.0622152782357],[139.3868644172556,36.06133961356201],[139.3847399765944,36.060803878777804],[139.3845175321121,36.0607971382066],[139.3814584250116,36.060174610616706],[139.38217131870778,36.05691136553215],[139.38223562585222,36.05583241201961],[139.38198506049292,36.05539227429291],[139.38376329423212,36.05434959202074],[139.38465740991015,36.05282312881733],[139.3858489267212,36.05137839973543],[139.38589363906578,36.051414258591635],[139.386259733563,36.05155885764181],[139.386391194711,36.05209283391633],[139.3864581343442,36.05214659195277],[139.39051005710286,36.05467328624418],[139.39368704356747,36.05580186267],[139.39379163348394,36.05547371740347],[139.39513065130646,36.055769001505986],[139.39832425344179,36.055552017360334],[139.39819865454484,36.05734450908323],[139.39984233666155,36.057217140884276],[139.40073940553071,36.057671886261886],[139.39986286174988,36.0582964680962],[139.4003898155776,36.05901451205032],[139.39961715887645,36.05884686676449],[139.3988021945505,36.060891662595246],[139.39848976697309,36.06101241166716]]]},"properties":{"KEY_CODE":"112120110","PREF":"11","CITY":"212","CITY_NAME":"東松山市","S_NAME":"大字野田","SETAI":"574"}},{"type":"Feature","geometry":{"type":"Polygon","coordinates":[[[139.3960113039585,36.04917113806074],[139.39506078319727,36.04923895334761],[139.39457644908,36.0483476793267],[139.39260591862077,36.04479274829274],[139.39562694373691,36.043974991951174],[139.396143464552,36.04381991931813],[139.3971071711152,36.04351855973241],[139.40002909509914,36.042625957072914],[139.3991778223638,36.044865451720376],[139.39864989713092,36.04584895447218],[139.39823248190007,36.04645146525963],[139.39804503622761,36.046725124242606],[139.3972736218389,36.04763709345581],[139.3960113039585,36.04917113806074]]]},"properties":{"KEY_CODE":"11212012001","PREF":"11","CITY":"212","CITY_NAME":"東松山市","S_NAME":"松山町一丁目","SETAI":"468"}},{"type":"Feature","geometry":{"type":"Polygon","coordinates":[[[139.38405918968522,36.04792433984782],[139.38247005425754,36.0485537788771],[139.38458432619367,36.04430078379071],[139.38537081103408,36.043072522257376],[139.39122091065843,36.04182227092037],[139.39221744574772,36.04439046110409],[139.39260591862077,36.04479274829274],[139.3872838898774,36.046391890372924],[139.3854349968136,36.04714022053715],[139.38428377123302,36.04780086681409],[139.38405918968522,36.04792433984782]]]},"properties":{"KEY_CODE":"11212012002","PREF":"11","CITY":"212","CITY_NAME":"東松山市","S_NAME":"松山町二丁目","SETAI":"568"}},{"type":"Feature","geometry":{"type":"Polygon","coordinates":[[[139.39260591862077,36.04479274829274],[139.39457644908,36.0483476793267],[139.39260029641446,36.04812590121461],[139.39088025148598,36.04741501493869],[139.38604168984503,36.04800847845299],[139.3856120059201,36.048056008626006],[139.38419093793107,36.048191027157074],[139.38405918968522,36.04792433984782],[139.38428377123302,36.04780086681409],[139.3854349968136,36.04714022053715],[139.3872838898774,36.046391890372924],[139.39260591862077,36.04479274829274]]]},"properties":{"KEY_CODE":"11212012003","PREF":"11","CITY":"212","CITY_NAME":"東松山市","S_NAME":"松山町三丁目","SETAI":"347"}},{"type":"Feature","geometry":{"type":"Polygon","coordinates":[[[139.40077928075772,36.05160190147234],[139.40038196048638,36.05281370126123],[139.39801539518518,36.052474359656635],[139.39633672982615,36.0529556006877],[139.3940704275808,36.05459893971591],[139.39379163348394,36.05547371740347],[139.39368704356747,36.05580186267],[139.39051005710286,36.05467328624418],[139.3864581343442,36.05214659195277],[139.386391194711,36.05209283391633],[139.386259733563,36.05155885764181],[139.38589363906578,36.051414258591635],[139.3858489267212,36.05137839973543],[139.3847552106261,36.05144623009811],[139.38412175714052,36.05037946936838],[139.3841605098027,36.04946038074408],[139.38247005425754,36.0485537788771],[139.38405918968522,36.04792433984782],[139.38419093793107,36.048191027157074],[139.3856120059201,36.048056008626006],[139.38604168984503,36.04800847845299],[139.39088025148598,36.04741501493869],[139.39260029641446,36.04812590121461],[139.39457644908,36.0483476793267],[139.39506078319727,36.04923895334761],[139.3960113039585,36.04917113806074],[139.39552318895812,36.04997407064128],[139.39919140613378,36.05110991717767],[139.40077928075772,36.05160190147234]]]},"properties":{"KEY_CODE":"112120130","PREF":"11","CITY":"212","CITY_NAME":"東松山市","S_NAME":"大字市ノ川","SETAI":"496"}},{"type":"Feature","geometry":{"type":"Polygon","coordinates":[[[139.41267337128969,36.03797271596755],[139.4100977186282,36.03752897453492],[139.40920896406163,36.036200634245475],[139.40933034004064,36.03492230932742],[139.4083909295118,36.03443060523734],[139.40812141499813,36.03268233400234],[139.40835380479766,36.03180689915307],[139.4108490077101,36.0316766023743],[139.41118553053488,36.03156892344071],[139.41134296493507,36.03201302720616],[139.41218290659737,36.03482005074477],[139.41267337128969,36.03797271596755]]]},"properties":{"KEY_CODE":"112120140","PREF":"11","CITY":"212","CITY_NAME":"東松山市","S_NAME":"御茶山町","SETAI":"584"}},{"type":"Feature","geometry":{"type":"Polygon","coordinates":[[[139.4164850896935,36.03754877929616],[139.41270850940802,36.037975561189015],[139.41267337128969,36.03797271596755],[139.41218290659737,36.03482005074477],[139.4167910992787,36.03460009594629],[139.4174546038272,36.03475862795682],[139.41699047884083,36.03609968300036],[139.4164850896935,36.03754877929616]]]},"properties":{"KEY_CODE":"112120150","PREF":"11","CITY":"212","CITY_NAME":"東松山市","S_NAME":"六反町","SETAI":"352"}},{"type":"Feature","geometry":{"type":"Polygon","coordinates":[[[139.4167910992787,36.03460009594629],[139.41218290659737,36.03482005074477],[139.41134296493507,36.03201302720616],[139.41757697837645,36.03172107728821],[139.41905266911175,36.032034851376444],[139.41745460382717,36.03475862795682],[139.4167910992787,36.03460009594629]]]},"properties":{"KEY_CODE":"112120160","PREF":"11","CITY":"212","CITY_NAME":"東松山市","S_NAME":"六軒町","SETAI":"699"}},{"type":"Feature","geometry":{"type":"Polygon","coordinates":[[[139.41905266911175,36.032034851376444],[139.41757697837645,36.03172107728821],[139.41134296493507,36.03201302720616],[139.41118553053488,36.03156892344071],[139.41309208846747,36.03065433392363],[139.41615839192798,36.0295312367399],[139.41712146043903,36.02871112088953],[139.4188198877681,36.02845810782805],[139.41894612470867,36.028262407427036],[139.41936806079337,36.027820226209],[139.41976213214747,36.02758445604209],[139.42137542561076,36.02787695195828],[139.4216599313626,36.02806492911382],[139.42043948841817,36.02992874370132],[139.41905266911175,36.032034851376444]]]},"properties":{"KEY_CODE":"112120170","PREF":"11","CITY":"212","CITY_NAME":"東松山市","S_NAME":"五領町","SETAI":"966"}},{"type":"Feature","geometry":{"type":"Polygon","coordinates":[[[139.42445752229253,36.03173856526047],[139.42388733754424,36.03210690211736],[139.4226987182073,36.034278460651684],[139.4197846585329,36.03539940318352],[139.41888324495952,36.034789907556444],[139.41806195473006,36.0356157303795],[139.4191476803064,36.03707159337471],[139.41844999708206,36.03786727725024],[139.4164850896935,36.03754877929616],[139.41699047884083,36.03609968300036],[139.41745460382717,36.03475862795682],[139.41905266911175,36.032034851376444],[139.42043948841817,36.02992874370132],[139.42445752229253,36.03173856526047]]]},"properties":{"KEY_CODE":"112120180","PREF":"11","CITY":"212","CITY_NAME":"東松山市","S_NAME":"新宿町","SETAI":"548"}},{"type":"Feature","geometry":{"type":"Polygon","coordinates":[[[139.4303792705834,36.02658116088323],[139.42572582642816,36.03101013280583],[139.42445752229253,36.03173856526047],[139.42043948841817,36.02992874370132],[139.4216599313626,36.02806492911382],[139.42180541173784,36.0281257669115],[139.42217137723614,36.02845327856552],[139.4235944253246,36.02803276942458],[139.423919791672,36.02779774078233],[139.42412771347634,36.02751809533305],[139.42427509776203,36.02742103275713],[139.42505520794228,36.02697266057714],[139.42534970987873,36.02688795564457],[139.42599317496865,36.02651963388159],[139.426190894276,36.02626638105942],[139.42650012373198,36.02639389884139],[139.42974544725226,36.02615676535476],[139.4303792705834,36.02658116088323]]]},"properties":{"KEY_CODE":"112120190","PREF":"11","CITY":"212","CITY_NAME":"東松山市","S_NAME":"山崎町","SETAI":"611"}},{"type":"Feature","geometry":{"type":"Polygon","coordinates":[[[139.4138470601341,36.05961370437421],[139.4145488165327,36.061562489670806],[139.41284474649876,36.06082309154253],[139.41044511649454,36.06058041713173],[139.40865770669797,36.06083913081613],[139.41013270915914,36.05642639067646],[139.410901011031,36.05636209158781],[139.4133617062346,36.05452279354941],[139.41325485014454,36.05529594290232],[139.41385216245789,36.05640619153205],[139.41384923316417,36.05824506183724],[139.4138470601341,36.05961370437421]]]},"properties":{"KEY_CODE":"112120200","PREF":"11","CITY":"212","CITY_NAME":"東松山市","S_NAME":"沢口町","SETAI":"676"}},{"type":"Feature","geometry":{"type":"Polygon","coordinates":[[[139.41726148512757,36.06144803218533],[139.41610033498569,36.061255301346414],[139.4145488165327,36.061562489670806],[139.4138470601341,36.05961370437421],[139.41384923316417,36.05824506183724],[139.41385216245789,36.05640619153205],[139.41325485014454,36.05529594290232],[139.4133617062346,36.05452279354941],[139.4136950650103,36.05480348439108],[139.4170890969055,36.05584659430276],[139.41905102298804,36.05575734179375],[139.41876678431905,36.056600620353414],[139.41725546491904,36.05791891735647],[139.41726148512757,36.06144803218533]]]},"properties":{"KEY_CODE":"112120210","PREF":"11","CITY":"212","CITY_NAME":"東松山市","S_NAME":"殿山町","SETAI":"695"}},{"type":"Feature","geometry":{"type":"Polygon","coordinates":[[[139.4077069020056,36.04661883488946],[139.4065413746673,36.0464680267201],[139.40640500413647,36.04573486320521],[139.4063168406104,36.04548307724838],[139.40615718286395,36.04520924185085],[139.40586385821635,36.04450567222738],[139.40686792819994,36.04331963838893],[139.4081590360756,36.04304193071533],[139.40940177898426,36.042363260426065],[139.41054655176822,36.04226489106117],[139.4112443524589,36.04236905789494],[139.4115049407653,36.04370950747223],[139.41410428114932,36.04468167697973],[139.41392618609618,36.045183633792966],[139.41082490511292,36.044757917071344],[139.4087375549971,36.04530841311166],[139.4077069020056,36.04661883488946]]]},"properties":{"KEY_CODE":"112120220","PREF":"11","CITY":"212","CITY_NAME":"東松山市","S_NAME":"小松原町","SETAI":"453"}},{"type":"Feature","geometry":{"type":"Polygon","coordinates":[[[139.40062962805777,36.09199056566799],[139.40057577630066,36.09257362656322],[139.39874534261716,36.09462873976101],[139.39765285377146,36.09554997667973],[139.39337920163487,36.09807156777318],[139.39252488006937,36.09957637340997],[139.39149424706747,36.100270848958594],[139.39007107180313,36.100595463377644],[139.38758733356988,36.10263996319504],[139.3871967468401,36.10172089841315],[139.38710442970608,36.10012453362046],[139.38654704729058,36.09749849808651],[139.38457536089362,36.09531895007031],[139.38417580960387,36.09373799437244],[139.38260064671698,36.09183523976185],[139.38212831869677,36.091336723812255],[139.38194588601155,36.091135831369144],[139.38114813899998,36.089371679188034],[139.38082214075487,36.088646875323086],[139.37982467879777,36.086770783628445],[139.3795075621518,36.08657224082661],[139.37906492724915,36.086021033223155],[139.37688489453794,36.08458155557396],[139.37665938233474,36.08230118393014],[139.37714913445714,36.08088408799799],[139.37788597544954,36.07990311738831],[139.37906214181075,36.07667616750594],[139.3780886064477,36.07367188485542],[139.3775096991377,36.07286749089999],[139.37874352667663,36.07007621649688],[139.37885605699645,36.068995683860614],[139.37824665787667,36.0671660300181],[139.3785406079716,36.065893027901225],[139.37833132495422,36.064475551912466],[139.38084504564253,36.061900783967445],[139.3814584250116,36.060174610616706],[139.3845175321121,36.0607971382066],[139.3847399765944,36.060803878777804],[139.3868644172556,36.06133961356201],[139.38896955358837,36.0622152782357],[139.3898682285372,36.06163150058946],[139.3926332435655,36.06161007510429],[139.39768268499623,36.06120264499176],[139.39848976697309,36.06101241166716],[139.4019607284666,36.06448977752969],[139.4037498710922,36.06660787855668],[139.40432984394954,36.06984333521563],[139.4047777289669,36.07017332790642],[139.40455141817273,36.071561008877914],[139.40505242199868,36.073656526575405],[139.40515348092933,36.074081005715115],[139.40557044296526,36.07535791024389],[139.40611562334036,36.07853647437621],[139.40662800848014,36.07952660899317],[139.40673471179227,36.07996803359316],[139.40660218050266,36.08115984914831],[139.40718405898738,36.0817639710735],[139.4047126611474,36.08465476174418],[139.4032294210534,36.08788758875705],[139.40327962355786,36.08904198695737],[139.4025849909289,36.090097737905445],[139.40169952721413,36.09042976708149],[139.40062962805777,36.09199056566799]]]},"properties":{"KEY_CODE":"112120230","PREF":"11","CITY":"212","CITY_NAME":"東松山市","S_NAME":"大字大谷","SETAI":"988"}},{"type":"Feature","geometry":{"type":"Polygon","coordinates":[[[139.39204474152066,36.10420522740595],[139.3916711748798,36.10490019300893],[139.39050373336818,36.10521367155406],[139.38907368150072,36.10484136438852],[139.38870074198732,36.103719767467716],[139.38743179666963,36.10329443605202],[139.38758733356988,36.10263996319504],[139.39007107180313,36.100595463377644],[139.39149424706747,36.100270848958594],[139.39252488006937,36.09957637340997],[139.39337920163487,36.09807156777318],[139.39765285377146,36.09554997667973],[139.39874534261716,36.09462873976101],[139.40057577630066,36.09257362656322],[139.40062962805777,36.09199056566799],[139.40169952721413,36.09042976708149],[139.4025849909289,36.090097737905445],[139.40327962355786,36.08904198695737],[139.4032294210534,36.08788758875705],[139.4047126611474,36.08465476174418],[139.40718405898738,36.0817639710735],[139.40865547468488,36.08357247325371],[139.41035784208637,36.08407109763859],[139.41117247772206,36.0867497877818],[139.41183219806848,36.087711588074455],[139.41291575004502,36.09009445217799],[139.41282799294342,36.09013651181001],[139.41210778045308,36.09057454689108],[139.4113908535174,36.09106239442619],[139.4112962604884,36.09114933441161],[139.41131302750549,36.09131576438626],[139.41133993889295,36.091743327355466],[139.41115318412045,36.09287570885566],[139.41078591868325,36.09340888736143],[139.4107253204927,36.09368471546659],[139.4106773313661,36.093898283943],[139.4106742537307,36.093913974513555],[139.41023987749753,36.093716655993816],[139.4096072792273,36.09313614964289],[139.4087180313919,36.09387265868256],[139.40813696667084,36.093988995206004],[139.4073373255064,36.09507801175947],[139.40715112013476,36.095074568978646],[139.4070794047954,36.09504456547895],[139.40666554397336,36.094624348490015],[139.40601551913431,36.09424724458258],[139.4058640474865,36.09431865484903],[139.40572042321875,36.094615377224464],[139.4054996992831,36.09468250962881],[139.4044507751015,36.095120564311145],[139.4041720257435,36.09545519101056],[139.40419167017834,36.095894801252996],[139.40415295436296,36.09595448368416],[139.40386290506387,36.09606125108095],[139.40319679448731,36.09628069573486],[139.40255425095117,36.096536984579075],[139.40057131575435,36.097949148215726],[139.3997764178234,36.098541415991534],[139.39858628662327,36.09889409245167],[139.3985832327875,36.09985761071849],[139.39743768970177,36.099838483806394],[139.3973537365104,36.10113552238591],[139.39627732525375,36.10110792554864],[139.39628145796118,36.10022872053987],[139.3952116117697,36.10123925684152],[139.39281069070665,36.10408685298906],[139.39204474152066,36.10420522740595]]]},"properties":{"KEY_CODE":"112120240","PREF":"11","CITY":"212","CITY_NAME":"東松山市","S_NAME":"大字岡","SETAI":"299"}},{"type":"Feature","geometry":{"type":"Polygon","coordinates":[[[139.35362210553959,36.03438047163066],[139.3532822181447,36.03459361175373],[139.35399464488899,36.03572029236013],[139.35526317882398,36.03772639453698],[139.3528234449999,36.03845954662572],[139.3479193967714,36.03954177235433],[139.34767714191193,36.03717374057112],[139.34841541085223,36.036069841339724],[139.34816673932562,36.035237647649964],[139.34914356538923,36.03492232469929],[139.34913632921004,36.03425282187295],[139.35034068548126,36.03435148453973],[139.35015251998558,36.03307377152607],[139.35118067480303,36.03330411255799],[139.351053395585,36.0318506908191],[139.3526580376298,36.03154360668438],[139.3521127933138,36.030120133387975],[139.3519306872301,36.02971158809063],[139.35110237503525,36.02793404432131],[139.35197089808068,36.027693523875215],[139.35398360974793,36.02790355829479],[139.35764626016837,36.026658288579576],[139.3583102341442,36.02618903971742],[139.3592179478407,36.024756784876345],[139.36053529178727,36.0233071745873],[139.36157567613458,36.02096576203416],[139.3617404604398,36.02006794758046],[139.36447096449402,36.018061267777696],[139.36513459881195,36.01813904308721],[139.3649457791452,36.01721579386236],[139.36307684634448,36.01734815193076],[139.36267909281912,36.015744082754324],[139.36287155219028,36.014910653091185],[139.36465789126092,36.01472538956392],[139.3657235047979,36.01442411536711],[139.36754046783076,36.01296393965039],[139.36724635826548,36.014179200349815],[139.36748221606413,36.0159860990701],[139.37193951374147,36.015586778918326],[139.3725352012349,36.02002102429732],[139.3733953310149,36.02010127786727],[139.3736654598672,36.02252035448046],[139.37153936065198,36.02296161795468],[139.36996776336244,36.02423068553189],[139.36938358647743,36.02529404625112],[139.36867390783914,36.02523186234894],[139.36866438446447,36.026203219005254],[139.36579922215384,36.0275156463391],[139.36637282360002,36.02910587837641],[139.36196573187402,36.03088242190547],[139.35362210553959,36.03438047163066]]]},"properties":{"KEY_CODE":"112120250","PREF":"11","CITY":"212","CITY_NAME":"東松山市","S_NAME":"大字下唐子","SETAI":"515"}},{"type":"Feature","geometry":{"type":"Polygon","coordinates":[[[139.38572365397027,36.04085860018653],[139.38259715383236,36.04090569196387],[139.37941210906726,36.04141263403606],[139.37850124334233,36.04156212791961],[139.375654441378,36.042002681048984],[139.37536952222095,36.042021094336484],[139.37431650154375,36.042028429031504],[139.37255775347697,36.03938909713388],[139.37190454543511,36.03819958321819],[139.36677659453272,36.030040892215425],[139.36727098880888,36.029678445492834],[139.36637282360002,36.02910587837641],[139.36579922215384,36.0275156463391],[139.36866438446447,36.026203219005254],[139.36867390783914,36.02523186234894],[139.36938358647743,36.02529404625112],[139.36996776336244,36.02423068553189],[139.37153936065198,36.02296161795468],[139.3738708513846,36.02269010427286],[139.3774902229031,36.02369542318095],[139.37951220613854,36.02345038025033],[139.3824472065819,36.02265866718851],[139.3852221263163,36.02282352826715],[139.38586147024472,36.022653441824055],[139.38536790546482,36.02410141800254],[139.38470517497092,36.02485330555092],[139.38450167412978,36.02620625425377],[139.38478539416937,36.02721111215843],[139.38549997199232,36.02894274818248],[139.38651765949677,36.03059337162218],[139.38707163241014,36.031427825322986],[139.38745102204373,36.034065460346774],[139.38708379582516,36.03746655621897],[139.38660728146667,36.04007953962866],[139.38645996751535,36.04061691098397],[139.38572365397027,36.04085860018653]]]},"properties":{"KEY_CODE":"112120260","PREF":"11","CITY":"212","CITY_NAME":"東松山市","S_NAME":"大字石橋","SETAI":"1797"}},{"type":"Feature","geometry":{"type":"Polygon","coordinates":[[[139.37568509369635,36.0182279082047],[139.3752473642841,36.01920303637295],[139.37434519263408,36.019275933055454],[139.37315008588712,36.01803516454591],[139.37257269190434,36.01670310587493],[139.37374471390007,36.01623526656194],[139.37335536416214,36.015464076416215],[139.37256818874604,36.01411144927231],[139.37265656415792,36.013840764133946],[139.3726824945117,36.013525180170085],[139.37263705293879,36.01314947401061],[139.37325651974166,36.0138385571344],[139.37396078148697,36.013869837389926],[139.37438963587198,36.0128031058832],[139.37333494672205,36.01246525956969],[139.3740188188479,36.01196228543786],[139.37496245476527,36.01120273351196],[139.37513474502796,36.01186156371203],[139.37513126467073,36.01246249922428],[139.37512861289352,36.012920356429596],[139.37518477366623,36.01335935664821],[139.37577074582705,36.013542802601236],[139.37628396077443,36.01412660626051],[139.37638714779345,36.014556246179204],[139.37672713064526,36.01464337472834],[139.37982438533157,36.01406584751748],[139.38098249052788,36.01499689779986],[139.37841587398222,36.01704772702169],[139.3779036564951,36.01791575673657],[139.37675720101907,36.01800301772365],[139.37568509369635,36.0182279082047]]]},"properties":{"KEY_CODE":"112120271","PREF":"11","CITY":"212","CITY_NAME":"東松山市","S_NAME":"坂東山","SETAI":"0"}},{"type":"Feature","geometry":{"type":"Polygon","coordinates":[[[139.38586147024472,36.022653441824055],[139.3852221263163,36.02282352826715],[139.3824472065819,36.02265866718851],[139.37951220613854,36.02345038025033],[139.3774902229031,36.02369542318095],[139.3738708513846,36.02269010427286],[139.3736654598672,36.02252035448046],[139.3733953310149,36.02010127786727],[139.3725352012349,36.02002102429732],[139.37193951374147,36.015586778918326],[139.36748221606413,36.0159860990701],[139.36724635826548,36.014179200349815],[139.36754046783076,36.01296393965039],[139.3657235047979,36.01442411536711],[139.36465789126092,36.01472538956392],[139.36483827042113,36.012846089500854],[139.36598735364046,36.01136424740023],[139.36795191704906,36.01064956999064],[139.369381192542,36.01123157005227],[139.37128536380345,36.011556079521455],[139.3719371606619,36.011218598063145],[139.37387380323997,36.01109745817977],[139.37448796219485,36.01076059635637],[139.3758776654864,36.00906222282753],[139.37664960666436,36.009012211779044],[139.3775423688021,36.00901979020969],[139.38067868924935,36.00818530148962],[139.38148690562173,36.00735142123335],[139.38515752865692,36.005389420532275],[139.3862705611116,36.00523916923074],[139.3867996063929,36.006007436175786],[139.38647696001104,36.007949392596956],[139.3862722479403,36.00822827993186],[139.38702093276805,36.00854079536353],[139.38641841433113,36.009652222730075],[139.38630012809398,36.01139761425224],[139.38536145853172,36.01445508558557],[139.38616589553473,36.01639630785121],[139.38513914579488,36.01697807114423],[139.38317535680613,36.01686128960577],[139.3826202479193,36.019190161828455],[139.38351285265543,36.01941262998712],[139.3849612260085,36.020946057921456],[139.38614737600088,36.02195714966806],[139.38586147024472,36.022653441824055]],[[139.37335536416214,36.015464076416215],[139.37374471390007,36.01623526656194],[139.37257269190434,36.016703105874925],[139.37315008588712,36.01803516454591],[139.37434519263408,36.019275933055454],[139.3752473642841,36.01920303637295],[139.37568509369635,36.0182279082047],[139.37675720101907,36.01800301772365],[139.3779036564951,36.01791575673657],[139.37841587398222,36.01704772702169],[139.38098249052788,36.01499689779986],[139.37982438533157,36.01406584751748],[139.37672713064526,36.01464337472834],[139.37638714779345,36.014556246179204],[139.37628396077443,36.01412660626051],[139.37577074582705,36.013542802601236],[139.37518477366623,36.01335935664821],[139.37512861289352,36.012920356429596],[139.37513126467073,36.01246249922428],[139.37513474502796,36.01186156371203],[139.37496245476527,36.01120273351196],[139.3740188188479,36.01196228543786],[139.37333494672205,36.01246525956969],[139.37438963587198,36.01280310588321],[139.37396078148697,36.013869837389926],[139.37325651974166,36.0138385571344],[139.37263705293879,36.01314947401061],[139.3726824945117,36.013525180170085],[139.37265656415792,36.013840764133946],[139.37256818874604,36.01411144927231],[139.37335536416214,36.015464076416215]]]},"properties":{"KEY_CODE":"112120272","PREF":"11","CITY":"212","CITY_NAME":"東松山市","S_NAME":"大字葛袋","SETAI":"115"}},{"type":"Feature","geometry":{"type":"Polygon","coordinates":[[[139.36287155219028,36.014910653091185],[139.36267909281912,36.015744082754324],[139.36307684634448,36.01734815193076],[139.3649457791452,36.01721579386236],[139.36513459881195,36.01813904308721],[139.36447096449402,36.018061267777696],[139.3617404604398,36.02006794758046],[139.36157567613458,36.02096576203416],[139.36053529178727,36.0233071745873],[139.3592179478407,36.024756784876345],[139.3583102341442,36.02618903971742],[139.35764626016837,36.026658288579576],[139.35398360974793,36.02790355829479],[139.35197089808068,36.027693523875215],[139.34860530904783,36.02630889060708],[139.34655474840642,36.025920761839615],[139.34517727420538,36.02504998047054],[139.34378820625645,36.024887159070886],[139.34052313296897,36.025187605354105],[139.34028067512926,36.02515321293899],[139.33985822015495,36.02513839045274],[139.33956487045268,36.025243949678774],[139.3391175954262,36.02533774710226],[139.33883655970138,36.025407330467644],[139.33872457315417,36.02552345512364],[139.3385814687668,36.025583789644124],[139.33844132871204,36.0255583192726],[139.33778456423838,36.02510762267653],[139.33776566957798,36.02465102571138],[139.3374759936876,36.023783952888195],[139.33710035222666,36.02338352739089],[139.3369213284995,36.02300093511983],[139.3372641991703,36.022455442850294],[139.33730007550542,36.02226367370367],[139.3369938911557,36.02081819415565],[139.33691161444514,36.020469427126095],[139.33621672462434,36.01939695629983],[139.33637248229255,36.01924564920953],[139.3367637317191,36.018951856324044],[139.33684547462963,36.016975463857534],[139.33763245754886,36.01618487012577],[139.33741898369186,36.01538845245139],[139.3372574713055,36.015035393771115],[139.33705413212468,36.01473830697653],[139.3386150436895,36.01312819221669],[139.33918210350018,36.01250172849751],[139.340612569256,36.01135221809668],[139.34244731647334,36.00896166747808],[139.34365579033806,36.009271600343205],[139.3447147992697,36.00855144186201],[139.34522806127595,36.007534857109185],[139.3472690720864,36.0049409659997],[139.34761271881362,36.00391696452191],[139.34848221529435,36.00414484204541],[139.3502223143052,36.003810188004344],[139.3515678621691,36.00288659369725],[139.35294894742714,36.00367308130445],[139.35412441478542,36.00346301421763],[139.35397509752113,36.003922084558816],[139.35478218411583,36.00542644810694],[139.35495310796594,36.00681523058782],[139.35571648026954,36.00711790976662],[139.35672420087388,36.008581999923734],[139.3578206094605,36.009462739229186],[139.35797343173834,36.00950864330941],[139.3583213086277,36.00963942318272],[139.35862145256317,36.00952755098413],[139.3583156884051,36.010143380178924],[139.35815776107324,36.0105008002285],[139.3580344625369,36.01084325126751],[139.35826917009518,36.011398484282694],[139.35779527508896,36.0126612517995],[139.35848200333703,36.013689905994376],[139.35943768555506,36.01254263351739],[139.362349883613,36.012248324129125],[139.36176785620773,36.01323334187747],[139.36287155219028,36.014910653091185]]]},"properties":{"KEY_CODE":"112120280","PREF":"11","CITY":"212","CITY_NAME":"東松山市","S_NAME":"大字神戸","SETAI":"203"}},{"type":"Feature","geometry":{"type":"Polygon","coordinates":[[[139.33397059007768,36.040944570930364],[139.3310154061258,36.041228865553315],[139.33068910532592,36.040725939801874],[139.33054716753387,36.03872278316818],[139.33022765341235,36.03808947728734],[139.33043369641078,36.03668204939339],[139.33123249191084,36.0344576466084],[139.33140375419364,36.032808430139106],[139.3313066089733,36.03166461199847],[139.33182151913263,36.031151340663875],[139.3323789283892,36.03108485198662],[139.3325544787699,36.031064041410396],[139.33273653347752,36.03103598289301],[139.33281321721432,36.031008126062154],[139.33307069180464,36.03088410266329],[139.33328743188278,36.0307043077996],[139.33308717407127,36.03004117205377],[139.33320530880212,36.02921742632817],[139.33299259595873,36.02916581122571],[139.33278974878266,36.02890574505884],[139.33266704409417,36.028693273737645],[139.33324765720684,36.02820434138626],[139.3340879224342,36.0290056479581],[139.33556921328352,36.02972124231731],[139.3365351398568,36.02863584882411],[139.3378535378831,36.027254963867485],[139.33836657862096,36.02693972848136],[139.34065499933087,36.02565049312205],[139.34052313296897,36.025187605354105],[139.34378820625645,36.024887159070886],[139.34517727420538,36.02504998047054],[139.34655474840642,36.025920761839615],[139.34860530904783,36.02630889060708],[139.35197089808068,36.027693523875215],[139.35110237503525,36.02793404432131],[139.3519306872301,36.02971158809063],[139.3521127933138,36.030120133387975],[139.3526580376298,36.03154360668438],[139.351053395585,36.0318506908191],[139.35118067480303,36.03330411255799],[139.35015251998558,36.03307377152607],[139.35034068548126,36.03435148453973],[139.34913632921004,36.03425282187295],[139.34914356538923,36.03492232469929],[139.34816673932562,36.035237647649964],[139.34841541085223,36.036069841339724],[139.34767714191193,36.03717374057112],[139.3479193967714,36.03954177235433],[139.34375962021898,36.0403453531928],[139.33917035787334,36.04101335138121],[139.3360601275395,36.04084175528493],[139.33397059007768,36.040944570930364]]]},"properties":{"KEY_CODE":"112120290","PREF":"11","CITY":"212","CITY_NAME":"東松山市","S_NAME":"大字上唐子","SETAI":"706"}},{"type":"Feature","geometry":{"type":"Polygon","coordinates":[[[139.36860617242243,36.03721702298877],[139.36824741171972,36.03665691976237],[139.3574249307847,36.041142283432016],[139.35736867961538,36.041060782514094],[139.3569793503554,36.04044674235683],[139.35526317882398,36.03772639453698],[139.35399464488899,36.03572029236013],[139.35328221814467,36.034593611753756],[139.35362210553959,36.03438047163066],[139.36196573187402,36.03088242190547],[139.36637282360002,36.02910587837641],[139.36727098880888,36.029678445492834],[139.36677659453272,36.030040892215425],[139.37190454543511,36.03819958321819],[139.37255775347697,36.03938909713388],[139.37236395367384,36.039084295776675],[139.37030058479846,36.03991942865604],[139.36860617242243,36.03721702298877]]]},"properties":{"KEY_CODE":"112120300","PREF":"11","CITY":"212","CITY_NAME":"東松山市","S_NAME":"大字新郷","SETAI":"142"}},{"type":"Feature","geometry":{"type":"Polygon","coordinates":[[[139.38515752865692,36.005389420532275],[139.38452934974467,36.004524672221],[139.38394876382907,36.00474886391557],[139.38340565117267,36.00401298300172],[139.3820763203249,36.004801424304574],[139.3799104502295,36.006615625243896],[139.3775423688021,36.00901979020969],[139.37664960666436,36.009012211779044],[139.3776990929325,36.00687630885933],[139.37877435467797,36.00624788978674],[139.3801561044837,36.004616006769226],[139.3814510079892,36.004266696519565],[139.38151568182067,36.004292289690994],[139.38246943621849,36.00386123689983],[139.38342094862014,36.00304476730009],[139.38387963036357,36.00266250393683],[139.38547536643836,36.00184258446238],[139.38779121134073,36.001684162916966],[139.38724716703658,36.00199632511944],[139.38739939054435,36.00277836149726],[139.38591949351215,36.00292052996942],[139.38651589244554,36.00378961120619],[139.38571914393006,36.00413759283062],[139.3862705611116,36.00523916923074],[139.38515752865692,36.005389420532275]]]},"properties":{"KEY_CODE":"112120310","PREF":"11","CITY":"212","CITY_NAME":"東松山市","S_NAME":"大字高坂","SETAI":"0"}},{"type":"Feature","geometry":{"type":"Polygon","coordinates":[[[139.40236282376245,36.00784526298348],[139.40199318088193,36.008232554284355],[139.40186533178408,36.01032718058656],[139.40152220695595,36.01140076868648],[139.4005805821636,36.01273985327366],[139.3997618658265,36.012445524084605],[139.39941872593474,36.01151322257925],[139.39800995615713,36.01054700252162],[139.39695809770924,36.00924957214562],[139.39588046364355,36.010005103080786],[139.39517037313934,36.011756777955085],[139.3942687155235,36.012416727431386],[139.3929114302561,36.01217601883789],[139.39342623811166,36.01087461725855],[139.3929306214953,36.01016388075015],[139.3923170627399,36.009655185084135],[139.39340133676583,36.00803177508282],[139.39376718562647,36.0073688745171],[139.39406071431358,36.00602703528894],[139.39526744116694,36.00603668664023],[139.39520198081595,36.005347181491935],[139.39678624785842,36.00525147162069],[139.39849982812305,35.999550071499385],[139.3986664009972,35.999086901881235],[139.4002749454788,35.999159292351585],[139.40274941398698,35.99914195412573],[139.4041860259566,35.999025584656295],[139.40585721543323,35.99913965227088],[139.40637970934324,35.999924383784204],[139.4060013316417,36.00157650225374],[139.40689637112231,36.001811525901104],[139.40490370987266,36.00261403890589],[139.403989961028,36.003566346568405],[139.40386352128533,36.00427698269761],[139.40313617916567,36.00638152003805],[139.40263090586305,36.00676643363644],[139.40188000484378,36.007241525980035],[139.40236282376245,36.00784526298348]]]},"properties":{"KEY_CODE":"112120310","PREF":"11","CITY":"212","CITY_NAME":"東松山市","S_NAME":"大字高坂","SETAI":"1272"}},{"type":"Feature","geometry":{"type":"Polygon","coordinates":[[[139.41213419881902,36.00961365229433],[139.4099771919206,36.00993244441035],[139.40802936736662,36.009671019810376],[139.406114611195,36.00990926816266],[139.40518897664842,36.0084644824857],[139.40508256326,36.00828749039176],[139.4048892316729,36.00820594946409],[139.40304162591525,36.007990933272204],[139.40255999538047,36.00782674833156],[139.40236282376245,36.00784526298348],[139.40188000484378,36.007241525980035],[139.40263090586305,36.00676643363644],[139.4046842772993,36.00681372101276],[139.4062384162012,36.00857829149107],[139.40719578190905,36.00868847837021],[139.40885841023027,36.008637020451644],[139.40921624470766,36.008557667222306],[139.41097514041363,36.00795773615067],[139.4122631264129,36.00713594892276],[139.4131882776503,36.00712035685887],[139.41360000802908,36.00707947385427],[139.4137865314554,36.00705860166057],[139.41388459563615,36.0029442029146],[139.41510762592185,36.00295974204591],[139.415132497966,36.001907794595695],[139.418713939795,36.00198538770411],[139.41875918439464,36.00101481000708],[139.42000167586949,36.00106679162053],[139.42220716413368,35.99820895479742],[139.4212412696381,35.996386650968084],[139.42541976938818,35.99541919221825],[139.4261855410944,35.99572103059725],[139.42998651584264,35.99793863947212],[139.4278879844769,35.9979000362755],[139.42614577496707,35.997460957183904],[139.42466001289185,35.99759196140302],[139.42334399303638,35.99839039013831],[139.4239006488005,35.99930460837411],[139.4235818705833,36.000917712462055],[139.4228674981178,36.00175692748035],[139.42295547968172,36.00298631260118],[139.42477981629247,36.00368982308213],[139.42497503182426,36.00421975668129],[139.42404862831094,36.00471897461702],[139.42392234112134,36.00555195367009],[139.42283023424585,36.00615923512812],[139.42066976390944,36.008045905901355],[139.41875351555876,36.00835134221133],[139.41574438118053,36.008506734663975],[139.41541392488398,36.008324599358794],[139.41213419881902,36.00961365229433]]]},"properties":{"KEY_CODE":"112120320","PREF":"11","CITY":"212","CITY_NAME":"東松山市","S_NAME":"大字早俣","SETAI":"50"}},{"type":"Feature","geometry":{"type":"Polygon","coordinates":[[[139.42541976938818,35.99541919221825],[139.4212412696381,35.996386650968084],[139.42220716413368,35.99820895479742],[139.42000167586949,36.00106679162053],[139.41875918439464,36.00101481000708],[139.418713939795,36.00198538770411],[139.415132497966,36.001907794595695],[139.41510762592185,36.00295974204591],[139.41388459563615,36.0029442029146],[139.4139866521261,36.00129255986139],[139.41348948958705,36.00119156873378],[139.41227892766344,36.001923534267114],[139.41153573395715,36.00217645710491],[139.41094546266862,36.002807631275516],[139.4108334684462,36.00290538458853],[139.40925238527035,36.00240386347267],[139.40820410709884,36.00215489713669],[139.4078938555745,36.00207343673383],[139.40689637112231,36.001811525901104],[139.4060013316417,36.00157650225374],[139.40637970934324,35.999924383784204],[139.40585721543323,35.99913965227088],[139.41030371153752,35.999483976557194],[139.41037300200975,35.997804877188656],[139.40985032502886,35.997436106378174],[139.41001822911966,35.997227475807335],[139.40984825529833,35.99701971906724],[139.40965932811835,35.99667772165767],[139.4092527841996,35.99559046446885],[139.41066949910817,35.995729710198646],[139.4104754292538,35.99474260841604],[139.4115499929477,35.99462593597192],[139.4146625452058,35.994293228456655],[139.41898338506948,35.99367211735303],[139.4197012872989,35.994139649350224],[139.42209207097684,35.993713871225815],[139.4234690792259,35.99430127412633],[139.42404828318024,35.99491470587471],[139.42541976938818,35.99541919221825]]]},"properties":{"KEY_CODE":"112120330","PREF":"11","CITY":"212","CITY_NAME":"東松山市","S_NAME":"大字正代","SETAI":"241"}},{"type":"Feature","geometry":{"type":"Polygon","coordinates":[[[139.4092527841996,35.99559046446885],[139.40965932811835,35.99667772165767],[139.40984825529833,35.99701971906724],[139.41001822911966,35.997227475807335],[139.40985032502886,35.997436106378174],[139.41037300200975,35.997804877188656],[139.41030371153752,35.999483976557194],[139.40585721543323,35.99913965227088],[139.4041860259566,35.999025584656295],[139.40451861729053,35.9952509044447],[139.40375048296332,35.99443837628932],[139.40353643396088,35.995304310980906],[139.40315803321965,35.99722084608221],[139.40274941398698,35.99914195412573],[139.4002749454788,35.999159292351585],[139.40074080494216,35.996995164460394],[139.4022263567906,35.99338299897386],[139.40232388501263,35.9931339079994],[139.40259495864333,35.99223822411385],[139.40269383254892,35.99166092530815],[139.4051115765448,35.99222425628578],[139.40532679001825,35.988510126323305],[139.4078632551371,35.989885015311856],[139.40878252779828,35.988844567807035],[139.41170991699383,35.99055258613538],[139.4130583045038,35.99068766192615],[139.4151790025611,35.99162775660114],[139.4176444490432,35.993228020849166],[139.41898338506948,35.99367211735303],[139.4146625452058,35.994293228456655],[139.4115499929477,35.99462593597192],[139.4104754292538,35.99474260841604],[139.41066949910817,35.995729710198646],[139.4092527841996,35.99559046446885]]]},"properties":{"KEY_CODE":"112120340","PREF":"11","CITY":"212","CITY_NAME":"東松山市","S_NAME":"大字宮鼻","SETAI":"492"}},{"type":"Feature","geometry":{"type":"Polygon","coordinates":[[[139.4022263567906,35.99338299897386],[139.40074080494216,35.996995164460394],[139.4002749454788,35.999159292351585],[139.3986664009972,35.999086901881235],[139.3989234310825,35.998332464713556],[139.39929058416394,35.997055232922165],[139.3983857044557,35.9969934266126],[139.39797218298048,35.997622335551455],[139.39557314305887,35.99789725417797],[139.3950534492441,35.997357834862626],[139.39280083174216,35.997391350983094],[139.39130778225703,35.998132518042326],[139.38990334597443,35.99836366784331],[139.3879229677334,35.99780180129447],[139.3903348323294,35.99583777358111],[139.39184156746288,35.99474090029187],[139.3942736376074,35.99326863322953],[139.3952164354253,35.99295411912366],[139.39358627033627,35.9912310928505],[139.39444208833274,35.989008129848166],[139.3977441784491,35.990127742288855],[139.3989377826529,35.987936305696536],[139.39921426499163,35.98638915833962],[139.39733716438462,35.98588266982947],[139.39870805544376,35.98580249450378],[139.39813631711436,35.98515992151518],[139.40250943616687,35.98527187633029],[139.40457742960803,35.98538233864026],[139.4058331771634,35.98624978777559],[139.40716347178554,35.987921195634414],[139.40878252779828,35.988844567807035],[139.4078632551371,35.989885015311856],[139.40532679001825,35.988510126323305],[139.4051115765448,35.99222425628578],[139.40269383254892,35.99166092530815],[139.40259495864333,35.99223822411385],[139.40232388501263,35.9931339079994],[139.4022263567906,35.99338299897386]]]},"properties":{"KEY_CODE":"112120350","PREF":"11","CITY":"212","CITY_NAME":"東松山市","S_NAME":"大字毛塚","SETAI":"595"}},{"type":"Feature","geometry":{"type":"Polygon","coordinates":[[[139.3879229677334,35.99780180129447],[139.38753405366785,35.997983566205214],[139.38743934126165,35.997622164427824],[139.38728541612966,35.997059017472715],[139.38657117478198,35.994859781759736],[139.38510615305614,35.991747684642775],[139.38483117091448,35.99183495757783],[139.38266736663834,35.98837918882704],[139.38263702547772,35.98751366437694],[139.38187441801526,35.98709474403923],[139.38103676697457,35.98388533824973],[139.37966207480915,35.98479807788829],[139.3777425875858,35.98854149134073],[139.37880836595556,35.98925193840359],[139.3783869264001,35.99174426818274],[139.37855565999718,35.99230424693317],[139.3773196148227,35.99438177460312],[139.37634890454612,35.995559497836396],[139.37363269993435,35.99468635377345],[139.37375678048048,35.994036349639984],[139.3752130817904,35.993427323445516],[139.37697312580087,35.991151246090915],[139.378392014511,35.98975601660422],[139.3779231979969,35.988955192616714],[139.37668004005474,35.988183451183225],[139.37780598334524,35.986525967102935],[139.37616033586588,35.9862878970245],[139.3745102548411,35.985215901248495],[139.3762290423497,35.982553112873624],[139.37751817030804,35.98199666699205],[139.37868025798193,35.98248556101437],[139.37951589705833,35.98161544892014],[139.38070704689207,35.98190132709955],[139.38206869572085,35.98198290125541],[139.38460578801687,35.98274062606601],[139.38466376013022,35.98446041338497],[139.38659748428947,35.98484241168445],[139.38774958566106,35.98410766491915],[139.3900475910138,35.983572758371146],[139.3914883291602,35.984808773707385],[139.39310110768588,35.984730411749425],[139.39380830185792,35.98312270514297],[139.39434523804533,35.984097679417],[139.3956296538288,35.98403426999499],[139.39623026576672,35.98473970448965],[139.39813631711436,35.98515992151518],[139.39870805544376,35.98580249450378],[139.39733716438462,35.98588266982947],[139.39921426499163,35.98638915833962],[139.3989377826529,35.987936305696536],[139.3977441784491,35.990127742288855],[139.39444208833274,35.989008129848166],[139.39358627033627,35.9912310928505],[139.3952164354253,35.99295411912366],[139.3942736376074,35.99326863322953],[139.39184156746288,35.99474090029187],[139.3903348323294,35.99583777358111],[139.3879229677334,35.99780180129447],[139.38857200976608,35.99655487635186],[139.3903586924483,35.99552185904988],[139.3910375278847,35.994778936514116],[139.39134070292727,35.99436011178738],[139.39206208366025,35.993270136901046],[139.3903675050184,35.99268930651175],[139.38986768255754,35.99286938045035],[139.3890754473747,35.99317738224735],[139.38876034235187,35.99314199987344],[139.38720049624436,35.9926663892717],[139.3877016050866,35.99153406133879],[139.38785662880466,35.991276600928856],[139.38737538558277,35.98998762701222],[139.3862964440073,35.98965517643279],[139.3868417969791,35.98892684875218],[139.3852751088251,35.98878209404676],[139.38394093491354,35.987779484022276],[139.38358995505152,35.9879086218498],[139.38592628525427,35.99252211958733],[139.38708312178255,35.99514605221974],[139.3879229677334,35.99780180129447]]]},"properties":{"KEY_CODE":"112120360","PREF":"11","CITY":"212","CITY_NAME":"東松山市","S_NAME":"大字田木","SETAI":"187"}},{"type":"Feature","geometry":{"type":"Polygon","coordinates":[[[139.37664960666436,36.009012211779044],[139.3758776654864,36.00906222282753],[139.37448796219485,36.01076059635637],[139.37387380323997,36.01109745817977],[139.3719371606619,36.011218598063145],[139.37128536380345,36.011556079521455],[139.369381192542,36.01123157005227],[139.36795191704906,36.01064956999064],[139.36598735364046,36.01136424740023],[139.36483827042113,36.012846089500854],[139.36465789126092,36.01472538956392],[139.36287155219028,36.014910653091185],[139.36176785620773,36.01323334187747],[139.362349883613,36.012248324129125],[139.35943768555506,36.01254263351739],[139.35848200333703,36.013689905994376],[139.35779527508896,36.0126612517995],[139.35826917009518,36.011398484282694],[139.3580344625369,36.01084325126751],[139.35815776107324,36.0105008002285],[139.3583156884051,36.010143380178924],[139.35862145256317,36.00952755098413],[139.3583213086277,36.00963942318272],[139.35797343173834,36.00950864330941],[139.3578206094605,36.009462739229186],[139.35672420087388,36.008581999923734],[139.35571648026954,36.00711790976662],[139.35495310796594,36.00681523058782],[139.35478218411583,36.00542644810694],[139.35397509752113,36.003922084558816],[139.35412441478542,36.00346301421763],[139.35568608467693,36.00271851255975],[139.35720096637831,36.00248758234372],[139.36021227593585,36.000385197700915],[139.36167409903092,36.000365632326734],[139.36164146741172,35.99931756430631],[139.3623725922084,35.99886925788884],[139.36334772748813,35.99932668941286],[139.36477605543735,35.99884266043237],[139.3651396182552,35.99865088406499],[139.36612466489015,35.997627242773824],[139.36719279345576,35.997398197266165],[139.36791055822766,35.99709922068077],[139.3682134009858,35.99684914284918],[139.3694893587325,35.996144293450975],[139.36923384459107,35.99571909290844],[139.37004167391578,35.99544002621224],[139.36909202691504,35.994744685991],[139.36872100396835,35.994284667612334],[139.37125376644207,35.992626721934926],[139.37110085638503,35.99207302352755],[139.37197694811607,35.99092575992904],[139.3725905753952,35.99115478250263],[139.37578044606525,35.98927802756568],[139.37668004005474,35.988183451183225],[139.3779231979969,35.988955192616714],[139.378392014511,35.98975601660422],[139.37697312580087,35.991151246090915],[139.3752130817904,35.993427323445516],[139.37375678048048,35.994036349639984],[139.37363269993435,35.99468635377345],[139.37634890454612,35.995559497836396],[139.37807440342615,35.99578482429528],[139.37983726652425,35.996409789863264],[139.3809908889845,35.997160269761686],[139.38227122445605,35.9971490072702],[139.3836532558624,35.99647942866306],[139.3843456924667,35.99795186426115],[139.38439710555116,35.99890966019182],[139.3860323696306,36.00011200335202],[139.38242795227947,36.001627782931486],[139.38224897567596,36.001876881347115],[139.38204916208588,36.001988211217544],[139.38058444904945,36.00270981268565],[139.38131800288477,36.00409729817325],[139.3814510079892,36.004266696519565],[139.3801561044837,36.004616006769226],[139.37877435467797,36.00624788978674],[139.3776990929325,36.00687630885933],[139.37664960666436,36.009012211779044]]]},"properties":{"KEY_CODE":"112120370","PREF":"11","CITY":"212","CITY_NAME":"東松山市","S_NAME":"大字岩殿","SETAI":"387"}},{"type":"Feature","geometry":{"type":"Polygon","coordinates":[[[139.39179503013986,36.015108534306286],[139.3909531436786,36.01556943018093],[139.39140263043222,36.01697611801948],[139.3904487463555,36.018989820229805],[139.38853222120687,36.02026795804994],[139.3872383369539,36.02069798566494],[139.3849612260085,36.020946057921456],[139.38351285265543,36.01941262998712],[139.3826202479193,36.019190161828455],[139.38317535680613,36.01686128960577],[139.38513914579488,36.01697807114423],[139.38616589553473,36.01639630785121],[139.38536145853172,36.01445508558557],[139.38630012809398,36.01139761425224],[139.38641841433113,36.009652222730075],[139.38702093276805,36.00854079536353],[139.3862722479403,36.00822827993186],[139.38647696001104,36.007949392596956],[139.3867996063929,36.006007436175786],[139.3862705611116,36.00523916923074],[139.38571914393006,36.00413759283062],[139.38651589244554,36.00378961120619],[139.38591949351215,36.00292052996942],[139.38739939054435,36.00277836149726],[139.38724716703658,36.00199632511944],[139.38779121134073,36.001684162916966],[139.38547536643836,36.00184258446238],[139.38387963036357,36.00266250393683],[139.38342094862014,36.00304476730009],[139.38246943621849,36.00386123689983],[139.38151568182067,36.004292289690994],[139.38131800288477,36.00409729817325],[139.38058444904945,36.00270981268565],[139.38204916208588,36.001988211217544],[139.38224897567596,36.001876881347115],[139.38242795227947,36.001627782931486],[139.3860323696306,36.00011200335202],[139.38439710555116,35.99890966019182],[139.3843456924667,35.99795186426115],[139.38528401796037,35.99754923486444],[139.38604531232343,35.99851876043367],[139.38753405366785,35.997983566205214],[139.3879229677334,35.99780180129447],[139.38990334597443,35.99836366784331],[139.39130778225703,35.998132518042326],[139.39280083174216,35.997391350983094],[139.3950534492441,35.997357834862626],[139.39557314305887,35.99789725417797],[139.39561614266648,36.00094339998153],[139.39073519815733,36.0012633458314],[139.39120377357915,36.002281706061126],[139.3909225515366,36.00601110477955],[139.39406071431358,36.00602703528894],[139.39376718562647,36.0073688745171],[139.39340133676583,36.00803177508282],[139.3923170627399,36.009655185084135],[139.3929306214953,36.01016388075015],[139.39342623811166,36.01087461725855],[139.3929114302561,36.01217601883789],[139.3942687155235,36.012416727431386],[139.39517037313934,36.011756777955085],[139.39622793595163,36.01238615773029],[139.39646877116638,36.01385296849014],[139.39460494706907,36.014786659725175],[139.39179503013986,36.015108534306286]]]},"properties":{"KEY_CODE":"112120380","PREF":"11","CITY":"212","CITY_NAME":"東松山市","S_NAME":"大字西本宿","SETAI":"815"}},{"type":"Feature","geometry":{"type":"Polygon","coordinates":[[[139.38515752865692,36.005389420532275],[139.38148690562173,36.00735142123335],[139.38067868924935,36.00818530148962],[139.3775423688021,36.00901979020969],[139.3799104502295,36.006615625243896],[139.3820763203249,36.004801424304574],[139.38340565117267,36.00401298300172],[139.38394876382907,36.00474886391557],[139.38452934974467,36.004524672221],[139.38515752865692,36.005389420532275]]]},"properties":{"KEY_CODE":"112120380","PREF":"11","CITY":"212","CITY_NAME":"東松山市","S_NAME":"大字西本宿","SETAI":"0"}},{"type":"Feature","geometry":{"type":"Polygon","coordinates":[[[139.40353643396088,35.995304310980906],[139.40375048296332,35.99443837628932],[139.40451861729053,35.9952509044447],[139.4041860259566,35.999025584656295],[139.40274941398698,35.99914195412573],[139.40315803321965,35.99722084608221],[139.40353643396088,35.995304310980906]]]},"properties":{"KEY_CODE":"112120390","PREF":"11","CITY":"212","CITY_NAME":"東松山市","S_NAME":"大字大黒部","SETAI":"34"}},{"type":"Feature","geometry":{"type":"Polygon","coordinates":[[[139.38986768255754,35.99286938045035],[139.3903675050184,35.99268930651175],[139.39206208366025,35.993270136901046],[139.39134070292727,35.99436011178738],[139.3910375278847,35.994778936514116],[139.3903586924483,35.99552185904988],[139.38857200976608,35.99655487635186],[139.3879229677334,35.99780180129447],[139.38708312178255,35.99514605221974],[139.38592628525427,35.99252211958733],[139.38358995505152,35.9879086218498],[139.38394093491354,35.987779484022276],[139.3852751088251,35.98878209404676],[139.3868417969791,35.98892684875218],[139.3862964440073,35.98965517643279],[139.38737538558277,35.98998762701222],[139.38785662880466,35.991276600928856],[139.3877016050866,35.99153406133879],[139.38720049624436,35.9926663892717],[139.38876034235187,35.99314199987344],[139.3890754473747,35.99317738224735],[139.38986768255754,35.99286938045035]]]},"properties":{"KEY_CODE":"112120400","PREF":"11","CITY":"212","CITY_NAME":"東松山市","S_NAME":"桜山台","SETAI":"458"}},{"type":"Feature","geometry":{"type":"Polygon","coordinates":[[[139.38743934126165,35.997622164427824],[139.38753405366785,35.997983566205214],[139.38604531232343,35.99851876043367],[139.38528401796037,35.99754923486444],[139.3843456924667,35.99795186426115],[139.3836532558624,35.99647942866306],[139.38320416826932,35.99360129779613],[139.3838567851554,35.99235821074124],[139.38483117091448,35.99183495757783],[139.38510615305614,35.991747684642775],[139.38657117478198,35.994859781759736],[139.38728541612966,35.997059017472715],[139.38743934126165,35.997622164427824]]]},"properties":{"KEY_CODE":"112120410","PREF":"11","CITY":"212","CITY_NAME":"東松山市","S_NAME":"白山台","SETAI":"341"}},{"type":"Feature","geometry":{"type":"Polygon","coordinates":[[[139.37855565999718,35.99230424693317],[139.3783869264001,35.99174426818274],[139.37880836595556,35.98925193840359],[139.3777425875858,35.98854149134073],[139.37966207480915,35.98479807788829],[139.38103676697457,35.98388533824973],[139.38187441801526,35.98709474403923],[139.38263702547772,35.98751366437694],[139.38266736663834,35.98837918882704],[139.38483117091448,35.99183495757783],[139.3838567851554,35.99235821074124],[139.38278910802595,35.9913492970872],[139.3808819284535,35.99152297213522],[139.37874500622925,35.9923299641261],[139.37859255539203,35.99231438808129],[139.37855565999718,35.99230424693317]]]},"properties":{"KEY_CODE":"112120420","PREF":"11","CITY":"212","CITY_NAME":"東松山市","S_NAME":"旗立台","SETAI":"391"}},{"type":"Feature","geometry":{"type":"Polygon","coordinates":[[[139.3836532558624,35.99647942866306],[139.38227122445605,35.9971490072702],[139.3809908889845,35.997160269761686],[139.37983726652425,35.996409789863264],[139.37807440342615,35.99578482429528],[139.37634890454612,35.995559497836396],[139.3773196148227,35.99438177460312],[139.37855565999718,35.99230424693317],[139.37859255539203,35.99231438808129],[139.37874500622925,35.9923299641261],[139.3808819284535,35.99152297213522],[139.38278910802595,35.9913492970872],[139.3838567851554,35.99235821074124],[139.38320416826932,35.99360129779613],[139.3836532558624,35.99647942866306]]]},"properties":{"KEY_CODE":"112120430","PREF":"11","CITY":"212","CITY_NAME":"東松山市","S_NAME":"松風台","SETAI":"719"}},{"type":"Feature","geometry":{"type":"Polygon","coordinates":[[[139.3907376607002,36.03702129684033],[139.38922495481742,36.03693330853643],[139.38708379582516,36.03746655621897],[139.38745102204373,36.034065460346774],[139.38707163241014,36.031427825322986],[139.3871440489745,36.03146829445074],[139.38835967232816,36.03251259396206],[139.38997794411313,36.03346017438221],[139.39258431097787,36.034262050096665],[139.3912410671664,36.0371651087421],[139.3907376607002,36.03702129684033]]]},"properties":{"KEY_CODE":"112120440","PREF":"11","CITY":"212","CITY_NAME":"東松山市","S_NAME":"美土里町","SETAI":"577"}},{"type":"Feature","geometry":{"type":"Polygon","coordinates":[[[139.38835967232816,36.03251259396206],[139.38880186135762,36.03052957678878],[139.39082068384272,36.030177168161295],[139.39245722923494,36.030223477060666],[139.39395985648093,36.03086056251574],[139.39462063296452,36.0314838298239],[139.39473489871583,36.0316229134321],[139.39540259271985,36.032165294829085],[139.39727568985526,36.03271743090908],[139.39565158256784,36.03355491201153],[139.39425122841422,36.03478014213395],[139.39258431097787,36.034262050096665],[139.38997794411313,36.03346017438221],[139.38835967232816,36.03251259396206]]]},"properties":{"KEY_CODE":"112120450","PREF":"11","CITY":"212","CITY_NAME":"東松山市","S_NAME":"和泉町","SETAI":"643"}},{"type":"Feature","geometry":{"type":"Polygon","coordinates":[[[139.40245353525535,36.0308905594046],[139.39899990758698,36.0321153883896],[139.39706846340508,36.03228599014561],[139.39727568985526,36.03271743090908],[139.39540259271985,36.032165294829085],[139.39473489871583,36.0316229134321],[139.39462063296452,36.0314838298239],[139.39395985648093,36.03086056251574],[139.39530787131176,36.030916912583294],[139.3962838283535,36.03052709312966],[139.39712900983776,36.03075484491603],[139.39879660841564,36.02967458370326],[139.3990961378305,36.029470601940496],[139.39984487035306,36.02904301139524],[139.39999414893066,36.02896978951897],[139.40041091383523,36.028804579596375],[139.40133352166518,36.028566937171455],[139.40158559628776,36.02851866371992],[139.40195751902857,36.028476719151286],[139.4025208477269,36.02846477029729],[139.40258481921782,36.028464279361415],[139.40245353525535,36.0308905594046]]]},"properties":{"KEY_CODE":"112120460","PREF":"11","CITY":"212","CITY_NAME":"東松山市","S_NAME":"幸町","SETAI":"1008"}},{"type":"Feature","geometry":{"type":"Polygon","coordinates":[[[139.39395985648093,36.03086056251574],[139.39245722923494,36.030223477060666],[139.39082068384272,36.030177168161295],[139.38880186135762,36.03052957678878],[139.38835967232816,36.03251259396206],[139.3871440489745,36.03146829445074],[139.38850825188584,36.03123724404706],[139.38818530959722,36.0295761084375],[139.38651765949677,36.03059337162218],[139.38549997199232,36.02894274818248],[139.38478539416937,36.02721111215843],[139.38949145228793,36.02667531651424],[139.39031362617087,36.02632073091426],[139.3954779681039,36.02308682523622],[139.4007892428618,36.01910220339576],[139.40213835476442,36.01878180119351],[139.4019856522845,36.01574321970268],[139.4013630314647,36.01388958215156],[139.4005805821636,36.01273985327366],[139.40152220695595,36.01140076868648],[139.40186533178408,36.01032718058656],[139.40199318088193,36.008232554284355],[139.40236282376245,36.00784526298348],[139.40255999538047,36.00782674833156],[139.40304162591525,36.007990933272204],[139.4048892316729,36.00820594946409],[139.40508256326,36.00828749039176],[139.40518897664842,36.0084644824857],[139.406114611195,36.00990926816266],[139.40802936736662,36.009671019810376],[139.4099771919206,36.00993244441035],[139.41213419881902,36.00961365229433],[139.41250432243353,36.010788876767315],[139.41101996642382,36.01161158338524],[139.40985958754734,36.0126494820918],[139.41077453430182,36.01302837449413],[139.4110682572594,36.016893408552924],[139.41130016483052,36.01781130725288],[139.41072776085957,36.019768234715556],[139.4119621801173,36.020864526236124],[139.4109567687169,36.02128006342241],[139.4112720849755,36.02198569897204],[139.4112651115332,36.02489703077085],[139.41072975097583,36.025650016085],[139.40891912300876,36.02708580123794],[139.408139954229,36.02700465339493],[139.40559521232862,36.02743105030036],[139.40434757670417,36.02769242996783],[139.40258481921782,36.028464279361415],[139.4025208477269,36.02846477029729],[139.40195751902857,36.028476719151286],[139.40158559628776,36.02851866371992],[139.40133352166518,36.028566937171455],[139.40041091383523,36.028804579596375],[139.39999414893066,36.02896978951897],[139.39984487035306,36.02904301139524],[139.3990961378305,36.029470601940496],[139.39879660841564,36.02967458370326],[139.39712900983776,36.03075484491603],[139.3962838283535,36.03052709312966],[139.39530787131176,36.030916912583294],[139.39395985648093,36.03086056251574]]]},"properties":{"KEY_CODE":"112120470","PREF":"11","CITY":"212","CITY_NAME":"東松山市","S_NAME":"大字上野本","SETAI":"757"}},{"type":"Feature","geometry":{"type":"Polygon","coordinates":[[[139.38651765949677,36.03059337162218],[139.38818530959722,36.0295761084375],[139.38850825188584,36.03123724404706],[139.3871440489745,36.03146829445074],[139.38707163241014,36.031427825322986],[139.38651765949677,36.03059337162218]]]},"properties":{"KEY_CODE":"112120480","PREF":"11","CITY":"212","CITY_NAME":"東松山市","S_NAME":"大字下青鳥","SETAI":"0"}},{"type":"Feature","geometry":{"type":"Polygon","coordinates":[[[139.4019856522845,36.01574321970268],[139.40213835476442,36.01878180119351],[139.4007892428618,36.01910220339576],[139.3954779681039,36.02308682523622],[139.39031362617087,36.02632073091426],[139.38949145228793,36.02667531651424],[139.38478539416937,36.02721111215843],[139.38450167412978,36.02620625425377],[139.38470517497092,36.02485330555092],[139.38536790546482,36.02410141800254],[139.38586147024472,36.022653441824055],[139.38614737600088,36.02195714966806],[139.3849612260085,36.020946057921456],[139.3872383369539,36.02069798566494],[139.38853222120687,36.02026795804994],[139.3904487463555,36.018989820229805],[139.39140263043222,36.01697611801948],[139.3909531436786,36.01556943018093],[139.39179503013986,36.015108534306286],[139.39252612996233,36.01622643737022],[139.39449332152358,36.01843584036164],[139.3965332060325,36.017903815537736],[139.39834908399538,36.01645056049406],[139.39975999484847,36.01645498176826],[139.4019856522845,36.01574321970268]]]},"properties":{"KEY_CODE":"112120480","PREF":"11","CITY":"212","CITY_NAME":"東松山市","S_NAME":"大字下青鳥","SETAI":"209"}},{"type":"Feature","geometry":{"type":"Polygon","coordinates":[[[139.4019856522845,36.01574321970268],[139.39975999484847,36.01645498176826],[139.39834908399538,36.01645056049406],[139.3965332060325,36.017903815537736],[139.39449332152358,36.01843584036164],[139.39252612996233,36.01622643737022],[139.39179503013986,36.015108534306286],[139.39460494706907,36.014786659725175],[139.39646877116638,36.01385296849014],[139.39622793595163,36.01238615773029],[139.39517037313934,36.011756777955085],[139.39588046364355,36.010005103080786],[139.39695809770924,36.00924957214562],[139.39800995615713,36.01054700252162],[139.39941872593474,36.01151322257925],[139.3997618658265,36.012445524084605],[139.4005805821636,36.01273985327366],[139.4013630314647,36.01388958215156],[139.4019856522845,36.01574321970268]]]},"properties":{"KEY_CODE":"112120490","PREF":"11","CITY":"212","CITY_NAME":"東松山市","S_NAME":"大字上押垂","SETAI":"49"}},{"type":"Feature","geometry":{"type":"Polygon","coordinates":[[[139.42674023847565,36.00688632375657],[139.42660197061497,36.007811853399836],[139.42765544887223,36.00967472530489],[139.4271204624118,36.00987591811097],[139.42171763611515,36.01187530322772],[139.42044099411677,36.00923772504253],[139.41413763122904,36.01004422110478],[139.41250432243353,36.010788876767315],[139.41213419881902,36.00961365229433],[139.41541392488398,36.008324599358794],[139.41574438118053,36.008506734663975],[139.41875351555876,36.00835134221133],[139.42066976390944,36.008045905901355],[139.42283023424585,36.00615923512812],[139.42437980485954,36.00698755524525],[139.42534168545794,36.00672043645071],[139.4256606355484,36.007279648788554],[139.42674023847565,36.00688632375657]]]},"properties":{"KEY_CODE":"112120500","PREF":"11","CITY":"212","CITY_NAME":"東松山市","S_NAME":"大字下押垂","SETAI":"61"}},{"type":"Feature","geometry":{"type":"Polygon","coordinates":[[[139.43590525982046,36.00438536067834],[139.43586325695006,36.00542705379447],[139.43715618408766,36.004685698074],[139.43653919692684,36.00573830070649],[139.43609567127942,36.01004022535881],[139.43440148984243,36.01271999182796],[139.43092279195358,36.01565445669778],[139.43094980168166,36.01598630401293],[139.4311971917397,36.01621794347921],[139.4305619018913,36.016743750023245],[139.43009969378272,36.016395028270615],[139.4306244787556,36.0155864305823],[139.43029508593244,36.014752449159374],[139.42887570243403,36.01500131147467],[139.42872605058497,36.014222361973346],[139.42998664126446,36.01390701592848],[139.4296725902425,36.012827439481455],[139.4288343189724,36.013054206613475],[139.4271204624118,36.00987591811097],[139.42765544887223,36.00967472530489],[139.42660197061497,36.007811853399836],[139.42674023847565,36.00688632375657],[139.42631817155126,36.00575500353185],[139.42878707415485,36.005162319371955],[139.4295590819389,36.00441783234362],[139.43007274857317,36.005131986892394],[139.43131584254127,36.004455021781276],[139.43394045062962,36.003859618260776],[139.434490274702,36.00484279359679],[139.43546539215228,36.0044944998359],[139.43590525982046,36.00438536067834]]]},"properties":{"KEY_CODE":"112120510","PREF":"11","CITY":"212","CITY_NAME":"東松山市","S_NAME":"大字今泉","SETAI":"177"}},{"type":"Feature","geometry":{"type":"Polygon","coordinates":[[[139.45074513801964,36.01603099344963],[139.4483403334274,36.01599547987462],[139.44868009952967,36.01555530456618],[139.44735424723547,36.01526383485383],[139.44447384205304,36.01342588997828],[139.44144303016995,36.01334644992903],[139.44157967234048,36.012173540450036],[139.44011162086244,36.012842517411116],[139.43957941413979,36.013493826963625],[139.43984159428118,36.014625218771045],[139.43875100525628,36.015991105258024],[139.43819564986973,36.01794030849703],[139.43747299420812,36.01945996866823],[139.43521213879623,36.0218441627818],[139.43596882783567,36.02241134841161],[139.43536179938192,36.02309075296333],[139.43368364797826,36.02298034527106],[139.4339029697035,36.022438599817804],[139.43185355405348,36.02291303582936],[139.43135574062612,36.02107615640096],[139.42708345665733,36.01977145036811],[139.42808665051882,36.018377174068746],[139.42904461574162,36.01774700623988],[139.4305619018914,36.016743750023245],[139.4311971917397,36.01621794347921],[139.43094980168166,36.01598630401293],[139.43092279195358,36.01565445669778],[139.43440148984243,36.01271999182796],[139.43609567127942,36.01004022535881],[139.43653919692684,36.00573830070649],[139.43715618408766,36.004685698074],[139.43586325695006,36.00542705379447],[139.43590525982046,36.00438536067834],[139.437440850473,36.00377327200027],[139.43952332840104,36.00354677122576],[139.44066018174578,36.00377444198949],[139.4418955127866,36.004897773911445],[139.44356515010014,36.005167412423596],[139.44541506773237,36.003868934384194],[139.44647540323632,36.00383576330515],[139.4475502216425,36.00469226361361],[139.4500112233048,36.005099129080556],[139.45262213481863,36.004945485193325],[139.45464192533808,36.00504639648944],[139.4546588492146,36.00535018892295],[139.45482668500748,36.00836567660764],[139.45395319014696,36.008320739999625],[139.45530859404164,36.010640239247174],[139.45516975797733,36.01089402079589],[139.45581014798364,36.011021259889525],[139.45574752593043,36.010812351228196],[139.45575015864978,36.010750907045626],[139.45591660107576,36.01057813279292],[139.4566291353995,36.010779539349535],[139.45683443326928,36.011698299721395],[139.45702069526718,36.011833486938556],[139.45708237803376,36.011948749649385],[139.45586534107036,36.01253105805297],[139.45505083171216,36.01147106424685],[139.45454386194248,36.01158077715594],[139.4537992268163,36.01331164581014],[139.44995859886237,36.0139941221035],[139.44993600858498,36.01462612233359],[139.45105278573044,36.01438122977751],[139.45135448361788,36.01549229136836],[139.45074513801964,36.01603099344963]]]},"properties":{"KEY_CODE":"112120520","PREF":"11","CITY":"212","CITY_NAME":"東松山市","S_NAME":"大字古凍","SETAI":"345"}},{"type":"Feature","geometry":{"type":"Polygon","coordinates":[[[139.4188198877681,36.02845810782805],[139.41712146043903,36.02871112088953],[139.41615839192798,36.0295312367399],[139.41309208846747,36.03065433392363],[139.41267002122086,36.03025569736205],[139.41433590243471,36.02956106506628],[139.41427761376679,36.02867650413574],[139.41574857815374,36.02685117286808],[139.41495918091388,36.02597618271527],[139.4178733570543,36.02473925801175],[139.41912678278294,36.023839478572874],[139.4238146810278,36.02118384272842],[139.42808665051882,36.018377174068746],[139.42708345665733,36.01977145036811],[139.43135574062612,36.02107615640096],[139.43185355405348,36.02291303582936],[139.4339029697035,36.022438599817804],[139.43368364797826,36.02298034527106],[139.4332640999198,36.02354752704947],[139.4320264780652,36.023685184324655],[139.4322620951919,36.02479717858118],[139.4303792705834,36.02658116088323],[139.42974544725226,36.02615676535476],[139.42650012373198,36.02639389884139],[139.426190894276,36.02626638105942],[139.42599317496865,36.02651963388159],[139.42534970987873,36.02688795564457],[139.42505520794228,36.02697266057714],[139.42427509776203,36.02742103275713],[139.42412771347634,36.02751809533305],[139.423919791672,36.02779774078233],[139.4235944253246,36.02803276942458],[139.42217137723614,36.02845327856552],[139.42180541173784,36.0281257669115],[139.4216599313626,36.02806492911382],[139.42137542561076,36.02787695195828],[139.41976213214747,36.02758445604209],[139.41936806079337,36.027820226209],[139.41894612470867,36.028262407427036],[139.4188198877681,36.02845810782805]]]},"properties":{"KEY_CODE":"112120530","PREF":"11","CITY":"212","CITY_NAME":"東松山市","S_NAME":"大字柏崎","SETAI":"452"}},{"type":"Feature","geometry":{"type":"Polygon","coordinates":[[[139.4108490077101,36.0316766023743],[139.40835380479766,36.03180689915307],[139.40818848332486,36.031115679205506],[139.40695543657125,36.03035097762392],[139.40602753743502,36.03022817326615],[139.40559521232862,36.02743105030036],[139.408139954229,36.02700465339493],[139.40891912300876,36.02708580123794],[139.40904574391897,36.02729919761617],[139.40930445534087,36.02759571381959],[139.4109396642855,36.03077085632563],[139.4108490077101,36.0316766023743]]]},"properties":{"KEY_CODE":"11212054001","PREF":"11","CITY":"212","CITY_NAME":"東松山市","S_NAME":"若松町一丁目","SETAI":"393"}},{"type":"Feature","geometry":{"type":"Polygon","coordinates":[[[139.41495918091388,36.02597618271527],[139.41574857815374,36.02685117286808],[139.41427761376679,36.02867650413574],[139.41433590243471,36.02956106506628],[139.41267002122086,36.03025569736205],[139.41309208846747,36.03065433392363],[139.41118553053488,36.03156892344071],[139.4108490077101,36.0316766023743],[139.4109396642855,36.03077085632563],[139.40930445534087,36.02759571381959],[139.40904574391897,36.02729919761617],[139.40891912300876,36.02708580123794],[139.41072975097583,36.025650016085],[139.4112651115332,36.02489703077085],[139.41179192659925,36.02481778264224],[139.41266972050786,36.02573522590107],[139.41345911539904,36.02577302831729],[139.41461046903575,36.02501141643605],[139.41495918091388,36.02597618271527]]]},"properties":{"KEY_CODE":"11212054002","PREF":"11","CITY":"212","CITY_NAME":"東松山市","S_NAME":"若松町二丁目","SETAI":"603"}},{"type":"Feature","geometry":{"type":"Polygon","coordinates":[[[139.42808665051882,36.018377174068746],[139.4238146810278,36.02118384272842],[139.41912678278294,36.023839478572874],[139.4178733570543,36.02473925801175],[139.41495918091388,36.02597618271527],[139.41461046903575,36.02501141643605],[139.41345911539904,36.02577302831729],[139.41266972050786,36.02573522590107],[139.41179192659925,36.02481778264224],[139.4112651115332,36.02489703077085],[139.4112720849755,36.02198569897204],[139.4109567687169,36.02128006342241],[139.4119621801173,36.020864526236124],[139.41072776085957,36.019768234715556],[139.41130016483052,36.01781130725288],[139.4110682572594,36.016893408552924],[139.41077453430182,36.01302837449413],[139.40985958754734,36.0126494820918],[139.41101996642382,36.01161158338524],[139.41250432243353,36.010788876767315],[139.41413763122904,36.01004422110478],[139.42044099411677,36.00923772504253],[139.42171763611515,36.01187530322772],[139.4271204624118,36.00987591811097],[139.4288343189724,36.013054206613475],[139.4296725902425,36.012827439481455],[139.42998664126446,36.01390701592848],[139.42872605058497,36.014222361973346],[139.42887570243403,36.01500131147467],[139.43029508593244,36.014752449159374],[139.4306244787556,36.0155864305823],[139.43009969378272,36.016395028270615],[139.4305619018913,36.016743750023245],[139.42904461574162,36.01774700623988],[139.42808665051882,36.018377174068746]]]},"properties":{"KEY_CODE":"112120550","PREF":"11","CITY":"212","CITY_NAME":"東松山市","S_NAME":"大字下野本","SETAI":"620"}},{"type":"Feature","geometry":{"type":"Polygon","coordinates":[[[139.39849982812305,35.999550071499385],[139.39678624785842,36.00525147162069],[139.39520198081595,36.005347181491935],[139.39526744116694,36.00603668664023],[139.39406071431358,36.00602703528894],[139.39448895753827,36.004917201589244],[139.3945618445804,36.00460371548043],[139.3946949390784,36.00427833093246],[139.39511227634944,36.00329504547978],[139.39561614266648,36.00094339998153],[139.39557314305887,35.99789725417797],[139.39797218298048,35.997622335551455],[139.3983857044557,35.9969934266126],[139.39929058416394,35.997055232922165],[139.3989234310825,35.998332464713556],[139.39849982812305,35.999550071499385]]]},"properties":{"KEY_CODE":"11212056001","PREF":"11","CITY":"212","CITY_NAME":"東松山市","S_NAME":"元宿一丁目","SETAI":"1278"}},{"type":"Feature","geometry":{"type":"Polygon","coordinates":[[[139.39561614266648,36.00094339998153],[139.39511227634944,36.00329504547978],[139.3946949390784,36.00427833093246],[139.3945618445804,36.00460371548043],[139.39448895753827,36.004917201589244],[139.39406071431358,36.00602703528894],[139.3909225515366,36.00601110477955],[139.39120377357915,36.002281706061126],[139.39073519815733,36.0012633458314],[139.39561614266648,36.00094339998153]]]},"properties":{"KEY_CODE":"11212056002","PREF":"11","CITY":"212","CITY_NAME":"東松山市","S_NAME":"元宿二丁目","SETAI":"1323"}},{"type":"Feature","geometry":{"type":"Polygon","coordinates":[[[139.41487710616337,36.04230876614748],[139.41410428114932,36.04468167697973],[139.4115049407653,36.04370950747223],[139.4112443524589,36.04236905789494],[139.41054655176822,36.04226489106117],[139.41213444924355,36.041479000135915],[139.4134817798865,36.041460998448855],[139.4136025946525,36.04187806909706],[139.4152868515557,36.04103479733924],[139.41487710616337,36.04230876614748]]]},"properties":{"KEY_CODE":"112120570","PREF":"11","CITY":"212","CITY_NAME":"東松山市","S_NAME":"砂田町","SETAI":"191"}},{"type":"Feature","geometry":{"type":"Polygon","coordinates":[[[139.40905055043123,36.006379865751704],[139.40921624470766,36.008557667222306],[139.40885841023027,36.008637020451644],[139.40719578190905,36.00868847837021],[139.4062384162012,36.00857829149107],[139.4046842772993,36.00681372101276],[139.40263090586305,36.00676643363644],[139.40313617916567,36.00638152003805],[139.40905055043123,36.006379865751704]]]},"properties":{"KEY_CODE":"11212059001","PREF":"11","CITY":"212","CITY_NAME":"東松山市","S_NAME":"あずま町一丁目","SETAI":"316"}},{"type":"Feature","geometry":{"type":"Polygon","coordinates":[[[139.40386352128533,36.00427698269761],[139.40862115585568,36.00433778750311],[139.40905055043123,36.006379865751704],[139.40313617916567,36.00638152003805],[139.40386352128533,36.00427698269761]]]},"properties":{"KEY_CODE":"11212059002","PREF":"11","CITY":"212","CITY_NAME":"東松山市","S_NAME":"あずま町二丁目","SETAI":"291"}},{"type":"Feature","geometry":{"type":"Polygon","coordinates":[[[139.40837050066054,36.00315706111146],[139.40862115585568,36.00433778750311],[139.40386352128533,36.00427698269761],[139.403989961028,36.003566346568405],[139.40490370987266,36.00261403890589],[139.40689637112231,36.001811525901104],[139.4078938555745,36.00207343673383],[139.4080113025945,36.00234995908976],[139.40837050066054,36.00315706111146]]]},"properties":{"KEY_CODE":"11212059003","PREF":"11","CITY":"212","CITY_NAME":"東松山市","S_NAME":"あずま町三丁目","SETAI":"98"}},{"type":"Feature","geometry":{"type":"Polygon","coordinates":[[[139.41388459563615,36.0029442029146],[139.4137865314554,36.00705860166057],[139.41360000802908,36.00707947385427],[139.4131882776503,36.00712035685887],[139.4122631264129,36.00713594892276],[139.41097514041363,36.00795773615067],[139.40921624470766,36.008557667222306],[139.40905055043123,36.006379865751704],[139.40862115585568,36.00433778750311],[139.40837050066054,36.00315706111146],[139.4080113025945,36.00234995908976],[139.4078938555745,36.00207343673383],[139.40820410709884,36.00215489713669],[139.40925238527035,36.00240386347267],[139.4108334684462,36.00290538458853],[139.41094546266862,36.002807631275516],[139.41153573395715,36.00217645710491],[139.41227892766344,36.001923534267114],[139.41348948958705,36.00119156873378],[139.4139866521261,36.00129255986139],[139.41388459563615,36.0029442029146]]]},"properties":{"KEY_CODE":"11212059004","PREF":"11","CITY":"212","CITY_NAME":"東松山市","S_NAME":"あずま町四丁目","SETAI":"60"}},{"type":"Feature","geometry":{"type":"Polygon","coordinates":[[[139.4049831236862,36.04806314033107],[139.4002541199738,36.04832892552392],[139.3972736218389,36.04763709345581],[139.39804503622761,36.046725124242606],[139.39950317108685,36.046916181869946],[139.40054116195813,36.04791075887253],[139.40165952966865,36.047895096365444],[139.40195909842052,36.04710913535545],[139.40308933487037,36.04715667522514],[139.403712862202,36.04658442534832],[139.4049348304682,36.04668642389123],[139.4049831236862,36.04806314033107]]]},"properties":{"KEY_CODE":"11212060001","PREF":"11","CITY":"212","CITY_NAME":"東松山市","S_NAME":"美原町一丁目","SETAI":"239"}},{"type":"Feature","geometry":{"type":"Polygon","coordinates":[[[139.3972736218389,36.04763709345581],[139.4002541199738,36.04832892552392],[139.39919140613378,36.05110991717767],[139.39552318895812,36.04997407064128],[139.3960113039585,36.04917113806074],[139.3972736218389,36.04763709345581]]]},"properties":{"KEY_CODE":"11212060002","PREF":"11","CITY":"212","CITY_NAME":"東松山市","S_NAME":"美原町二丁目","SETAI":"254"}},{"type":"Feature","geometry":{"type":"Polygon","coordinates":[[[139.40521484796668,36.04871146733565],[139.40235150710697,36.04982184908744],[139.40077928075772,36.05160190147234],[139.39919140613378,36.05110991717767],[139.4002541199738,36.04832892552392],[139.4049831236862,36.04806314033107],[139.40521484796668,36.04871146733565]]]},"properties":{"KEY_CODE":"11212060003","PREF":"11","CITY":"212","CITY_NAME":"東松山市","S_NAME":"美原町三丁目","SETAI":"189"}}]}