{"type":"FeatureCollection","features":[{"type":"Feature","geometry":{"type":"Polygon","coordinates":[[[139.57909521173468,35.832600792231126],[139.57955882761303,35.83489270701415],[139.58010741463605,35.83553792133211],[139.5799594297965,35.83558609207615],[139.57989768338004,35.83552528247434],[139.57824366620764,35.83523321680864],[139.57806722854883,35.83512642701903],[139.57767536442276,35.83418193369451],[139.5761149473252,35.83279906023872],[139.5753729341226,35.8311842046553],[139.57536299746695,35.831128503303646],[139.57851040584552,35.83001343448679],[139.57851970736382,35.83001179987685],[139.57909521173468,35.832600792231126]]]},"properties":{"KEY_CODE":"11228001001","PREF":"11","CITY":"228","CITY_NAME":"志木市","S_NAME":"本町一丁目","SETAI":"623"}},{"type":"Feature","geometry":{"type":"Polygon","coordinates":[[[139.5837527409863,35.82953120237856],[139.58391721154064,35.82936409270652],[139.58687472880268,35.831258996196134],[139.58662080920226,35.83140381834551],[139.5842541105284,35.83273020992538],[139.5827663103209,35.83445518189197],[139.58010741463605,35.83553792133211],[139.57955882761303,35.83489270701415],[139.57909521173468,35.832600792231126],[139.58140294947856,35.831939824856924],[139.5835496916977,35.830902878483464],[139.58413336103197,35.829852363543296],[139.5837527409863,35.82953120237856]]]},"properties":{"KEY_CODE":"11228001002","PREF":"11","CITY":"228","CITY_NAME":"志木市","S_NAME":"本町二丁目","SETAI":"854"}},{"type":"Feature","geometry":{"type":"Polygon","coordinates":[[[139.58059912639308,35.82824910569445],[139.58137221757266,35.8294340139605],[139.5837527409863,35.82953120237856],[139.58413336103197,35.829852363543296],[139.5835496916977,35.830902878483464],[139.58140294947856,35.831939824856924],[139.57909521173468,35.832600792231126],[139.57851970736382,35.83001179987685],[139.57931952622044,35.829501205399474],[139.58059912639308,35.82824910569445]]]},"properties":{"KEY_CODE":"11228001003","PREF":"11","CITY":"228","CITY_NAME":"志木市","S_NAME":"本町三丁目","SETAI":"904"}},{"type":"Feature","geometry":{"type":"Polygon","coordinates":[[[139.58059912639308,35.82824910569445],[139.57931952622044,35.829501205399474],[139.57718991242038,35.82335927294653],[139.57817994647007,35.82308047969101],[139.5815236052199,35.822642593943065],[139.58112070156614,35.82403990319977],[139.5823127490657,35.82390669536332],[139.58293345661082,35.82489039650706],[139.58172424969428,35.826210493773225],[139.58194775895922,35.827790448453996],[139.58133997408174,35.828596662244486],[139.58059912639308,35.82824910569445]]]},"properties":{"KEY_CODE":"11228001004","PREF":"11","CITY":"228","CITY_NAME":"志木市","S_NAME":"本町四丁目","SETAI":"1141"}},{"type":"Feature","geometry":{"type":"Polygon","coordinates":[[[139.57718991242038,35.82335927294653],[139.57931952622044,35.829501205399474],[139.57851970736382,35.83001179987685],[139.57851040584552,35.83001343448679],[139.57771494378207,35.82928408916934],[139.57493857535664,35.82602024556558],[139.57388277348255,35.82446751711986],[139.57355830085115,35.823934577249375],[139.5734988857319,35.82382002265662],[139.57330015235138,35.82344754885836],[139.57411846775057,35.822888354860964],[139.575324360245,35.82330408996071],[139.57633742327857,35.82260925148033],[139.57718991242038,35.82335927294653]]]},"properties":{"KEY_CODE":"11228001005","PREF":"11","CITY":"228","CITY_NAME":"志木市","S_NAME":"本町五丁目","SETAI":"2661"}},{"type":"Feature","geometry":{"type":"Polygon","coordinates":[[[139.57330015235138,35.82344754885836],[139.5734988857319,35.82382002265662],[139.57355830085115,35.823934577249375],[139.57388277348255,35.82446751711986],[139.57493857535664,35.82602024556558],[139.57771494378207,35.82928408916934],[139.57851040584552,35.83001343448679],[139.57536299746695,35.831128503303646],[139.57407645776752,35.82890538002005],[139.57212480473066,35.82703670822628],[139.5716196737297,35.82655248724014],[139.57043715452818,35.82541766970568],[139.57037023607143,35.8253570877074],[139.57330015235138,35.82344754885836]]]},"properties":{"KEY_CODE":"11228001006","PREF":"11","CITY":"228","CITY_NAME":"志木市","S_NAME":"本町六丁目","SETAI":"1861"}},{"type":"Feature","geometry":{"type":"Polygon","coordinates":[[[139.57838744587883,35.837189050564035],[139.57709787492954,35.83840506860816],[139.57567700281604,35.83839947694921],[139.57629424002758,35.837463219308844],[139.5749617152058,35.838069984857455],[139.5751118521956,35.837360333414296],[139.5739187184037,35.837176140095366],[139.57351639896137,35.83687750248938],[139.57449144418905,35.8359324446796],[139.57500253904195,35.83540849651642],[139.57410696262158,35.83539555833901],[139.57263345107432,35.83446097412952],[139.57153657423544,35.8342958318636],[139.5724965828241,35.83254637514322],[139.57248830870378,35.83181846345092],[139.57243743424073,35.8315103350478],[139.57250630433336,35.83134667841293],[139.5753729341226,35.8311842046553],[139.5761149473252,35.83279906023872],[139.57767536442276,35.83418193369451],[139.57806722854883,35.83512642701903],[139.57824366620764,35.83523321680864],[139.57989768338004,35.83552528247434],[139.57799005502977,35.83681090320771],[139.57834472033898,35.83715663876713],[139.57838744587883,35.837189050564035]]]},"properties":{"KEY_CODE":"11228002001","PREF":"11","CITY":"228","CITY_NAME":"志木市","S_NAME":"柏町一丁目","SETAI":"2056"}},{"type":"Feature","geometry":{"type":"Polygon","coordinates":[[[139.5739187184037,35.837176140095366],[139.5727737682437,35.83839708704313],[139.57219081173767,35.83815757468251],[139.57150414337292,35.83764352854385],[139.57161929904748,35.83662115710534],[139.5724737826292,35.83655081228816],[139.571435559303,35.835403982181866],[139.56994122672614,35.83478076435121],[139.57206042084303,35.83223985980252],[139.5724965828241,35.83254637514322],[139.57153657423544,35.8342958318636],[139.57263345107432,35.83446097412952],[139.57410696262158,35.83539555833901],[139.57500253904195,35.83540849651642],[139.57449144418905,35.8359324446796],[139.57351639896137,35.83687750248938],[139.5739187184037,35.837176140095366]]]},"properties":{"KEY_CODE":"11228002002","PREF":"11","CITY":"228","CITY_NAME":"志木市","S_NAME":"柏町二丁目","SETAI":"565"}},{"type":"Feature","geometry":{"type":"Polygon","coordinates":[[[139.571435559303,35.835403982181866],[139.56996330722112,35.835575582907055],[139.5683888028795,35.83458704455655],[139.56813953950385,35.833112507952045],[139.56851783994534,35.83216458706401],[139.5681150442806,35.831042478429104],[139.5685035728679,35.83081821105743],[139.56878847558556,35.830642478923956],[139.5699800102197,35.83034162871627],[139.5716878194283,35.830775012506436],[139.57250630433336,35.83134667841293],[139.57243743424073,35.8315103350478],[139.57248830870378,35.83181846345092],[139.5724965828241,35.83254637514322],[139.57206042084303,35.83223985980252],[139.56994122672614,35.83478076435121],[139.571435559303,35.835403982181866]]]},"properties":{"KEY_CODE":"11228002003","PREF":"11","CITY":"228","CITY_NAME":"志木市","S_NAME":"柏町三丁目","SETAI":"611"}},{"type":"Feature","geometry":{"type":"Polygon","coordinates":[[[139.57212480473066,35.82703670822628],[139.57407645776752,35.82890538002005],[139.57536299746695,35.831128503303646],[139.5753729341226,35.8311842046553],[139.57250630433336,35.83134667841293],[139.5716878194283,35.830775012506436],[139.5699800102197,35.83034162871627],[139.57142116322942,35.82753332719916],[139.5719639775514,35.8268845935502],[139.57212480473066,35.82703670822628]]]},"properties":{"KEY_CODE":"11228002004","PREF":"11","CITY":"228","CITY_NAME":"志木市","S_NAME":"柏町四丁目","SETAI":"900"}},{"type":"Feature","geometry":{"type":"Polygon","coordinates":[[[139.5699800102197,35.83034162871627],[139.56878847558556,35.830642478923956],[139.5685035728679,35.83081821105743],[139.5681150442806,35.831042478429104],[139.5677065841544,35.82995010825962],[139.56573695015604,35.829043823998745],[139.56576596342043,35.82845755554713],[139.56596803723224,35.828323677568264],[139.57043715452818,35.82541766970568],[139.5716196737297,35.82655248724014],[139.5719639775514,35.8268845935502],[139.57142116322942,35.82753332719916],[139.5699800102197,35.83034162871627]]]},"properties":{"KEY_CODE":"11228002005","PREF":"11","CITY":"228","CITY_NAME":"志木市","S_NAME":"柏町五丁目","SETAI":"962"}},{"type":"Feature","geometry":{"type":"Polygon","coordinates":[[[139.5681150442806,35.831042478429104],[139.56851783994534,35.83216458706401],[139.56813953950385,35.833112507952045],[139.5683888028795,35.83458704455655],[139.56757742841634,35.83334778142065],[139.56590026052214,35.832503159733214],[139.56572454051752,35.83258848404174],[139.56301288786358,35.83229275861288],[139.56100699184543,35.83150178164564],[139.5642527228369,35.82945196209886],[139.56576596342043,35.82845755554713],[139.56573695015604,35.829043823998745],[139.5677065841544,35.82995010825962],[139.5681150442806,35.831042478429104]]]},"properties":{"KEY_CODE":"11228002006","PREF":"11","CITY":"228","CITY_NAME":"志木市","S_NAME":"柏町六丁目","SETAI":"1180"}},{"type":"Feature","geometry":{"type":"Polygon","coordinates":[[[139.57297976727938,35.822704494353616],[139.57411846775057,35.822888354860964],[139.57330015235138,35.82344754885836],[139.57037023607143,35.8253570877074],[139.56883298402113,35.823898374093034],[139.56816258336198,35.82324919311339],[139.56577500927892,35.8212652470775],[139.56181705517227,35.819025033639385],[139.56186667872691,35.81857574754674],[139.5635371764957,35.818870971198656],[139.56961963754765,35.821421948848396],[139.57297976727938,35.822704494353616]]]},"properties":{"KEY_CODE":"11228003001","PREF":"11","CITY":"228","CITY_NAME":"志木市","S_NAME":"幸町一丁目","SETAI":"1913"}},{"type":"Feature","geometry":{"type":"Polygon","coordinates":[[[139.57043715452818,35.82541766970568],[139.56596803723224,35.828323677568264],[139.56478441858889,35.82685185997358],[139.56321845016234,35.82626606930449],[139.5639639174006,35.82550672977694],[139.56588149731925,35.82582102631348],[139.56883298402113,35.823898374093034],[139.57037023607143,35.8253570877074],[139.57043715452818,35.82541766970568]]]},"properties":{"KEY_CODE":"11228003002","PREF":"11","CITY":"228","CITY_NAME":"志木市","S_NAME":"幸町二丁目","SETAI":"522"}},{"type":"Feature","geometry":{"type":"Polygon","coordinates":[[[139.56883298402113,35.823898374093034],[139.56588149731925,35.82582102631348],[139.5639639174006,35.82550672977694],[139.56321845016234,35.82626606930449],[139.56115558724682,35.82500854309246],[139.56285706066816,35.82322326745835],[139.56577500927892,35.8212652470775],[139.56816258336198,35.82324919311339],[139.56883298402113,35.823898374093034]]]},"properties":{"KEY_CODE":"11228003003","PREF":"11","CITY":"228","CITY_NAME":"志木市","S_NAME":"幸町三丁目","SETAI":"1500"}},{"type":"Feature","geometry":{"type":"Polygon","coordinates":[[[139.56181705517227,35.819025033639385],[139.56577500927892,35.8212652470775],[139.56285706066816,35.82322326745835],[139.56115558724682,35.82500854309246],[139.55915637714523,35.82377885249753],[139.56058344816867,35.822211502744096],[139.5607334722166,35.82156978478528],[139.561772178533,35.820396472402244],[139.56181705517227,35.819025033639385]]]},"properties":{"KEY_CODE":"11228003004","PREF":"11","CITY":"228","CITY_NAME":"志木市","S_NAME":"幸町四丁目","SETAI":"1228"}},{"type":"Feature","geometry":{"type":"Polygon","coordinates":[[[139.57735369109443,35.843885245138004],[139.57609808591408,35.84337000072295],[139.57488274213515,35.8441980902289],[139.57368917000014,35.84258456566043],[139.5715505150229,35.84224167039527],[139.5725463259418,35.84157893661937],[139.57388745508942,35.841954907626516],[139.57554370627443,35.84122791908695],[139.5765465465471,35.84028188226727],[139.578032462143,35.841704501197505],[139.58005473209957,35.840011425013046],[139.58038848476914,35.83898399465037],[139.58188796926626,35.839485653057785],[139.58312769279536,35.839460678243114],[139.58308832490712,35.840044697760256],[139.5830962796599,35.84034141303145],[139.58322340770087,35.84137452381635],[139.58330530414824,35.84170668815522],[139.583391750003,35.84191818549563],[139.5825191236781,35.84283275854108],[139.58067080362665,35.84354378978771],[139.57923913798962,35.84374087427954],[139.57735369109443,35.843885245138004]]]},"properties":{"KEY_CODE":"11228004001","PREF":"11","CITY":"228","CITY_NAME":"志木市","S_NAME":"上宗岡一丁目","SETAI":"614"}},{"type":"Feature","geometry":{"type":"Polygon","coordinates":[[[139.5837533124269,35.84828288908368],[139.5829387328725,35.84939988876181],[139.5826509096411,35.851041875447955],[139.57819648565268,35.84862854145325],[139.57840643307875,35.84703067746043],[139.57741178905445,35.845231233018744],[139.57735369109443,35.843885245138004],[139.57923913798962,35.84374087427954],[139.57988270559713,35.84390289915191],[139.5823518730781,35.84734482356117],[139.5837533124269,35.84828288908368]]]},"properties":{"KEY_CODE":"11228004002","PREF":"11","CITY":"228","CITY_NAME":"志木市","S_NAME":"上宗岡二丁目","SETAI":"404"}},{"type":"Feature","geometry":{"type":"Polygon","coordinates":[[[139.5846159836621,35.85224012128219],[139.58309887587865,35.85345274517278],[139.58269274830673,35.8544507768399],[139.58093132168912,35.856884132662834],[139.57927782432276,35.854214617590294],[139.57908313405738,35.8527393025598],[139.5779086530964,35.85051357401332],[139.57819648565268,35.84862854145325],[139.5826509096411,35.851041875447955],[139.5846159836621,35.85224012128219]]]},"properties":{"KEY_CODE":"11228004003","PREF":"11","CITY":"228","CITY_NAME":"志木市","S_NAME":"上宗岡三丁目","SETAI":"472"}},{"type":"Feature","geometry":{"type":"Polygon","coordinates":[[[139.58854819353522,35.8495433089995],[139.58642774554178,35.851127486459966],[139.5846159836621,35.85224012128219],[139.5826509096411,35.851041875447955],[139.5829387328725,35.84939988876181],[139.5837533124269,35.84828288908368],[139.58669318592902,35.844385216769055],[139.58718204818956,35.8448273864532],[139.58756989825858,35.845157141013686],[139.5883919177122,35.84569226398744],[139.58858183040297,35.84574670912314],[139.5891441497635,35.845853786075466],[139.58920325133363,35.845879255136026],[139.58951915077236,35.84604853928144],[139.59084916052566,35.84671995497717],[139.58863180068377,35.849419651123775],[139.58854819353522,35.8495433089995]]]},"properties":{"KEY_CODE":"11228004004","PREF":"11","CITY":"228","CITY_NAME":"志木市","S_NAME":"上宗岡四丁目","SETAI":"1253"}},{"type":"Feature","geometry":{"type":"Polygon","coordinates":[[[139.58669318592902,35.844385216769055],[139.5837533124269,35.84828288908368],[139.5823518730781,35.84734482356117],[139.57988270559713,35.84390289915191],[139.57923913798962,35.84374087427954],[139.58067080362665,35.84354378978771],[139.5825191236781,35.84283275854108],[139.583391750003,35.84191818549563],[139.58405974822583,35.84317728835149],[139.58568893678654,35.84346287875452],[139.58669318592902,35.844385216769055]]]},"properties":{"KEY_CODE":"11228004005","PREF":"11","CITY":"228","CITY_NAME":"志木市","S_NAME":"上宗岡五丁目","SETAI":"602"}},{"type":"Feature","geometry":{"type":"Polygon","coordinates":[[[139.5881890718157,35.83883597113809],[139.58715642348994,35.84113322923321],[139.58669318592902,35.844385216769055],[139.58568893678654,35.84346287875452],[139.58405974822583,35.84317728835149],[139.583391750003,35.84191818549563],[139.58330530414824,35.84170668815522],[139.58322340770087,35.84137452381635],[139.5830962796599,35.84034141303145],[139.58308832490712,35.840044697760256],[139.58312769279536,35.839460678243114],[139.58188796926626,35.839485653057785],[139.58180163170763,35.83864597200152],[139.58045252539551,35.838316195260084],[139.58066570030775,35.83682973123806],[139.58037364571476,35.837318372404354],[139.57936941634483,35.83655003077913],[139.57897818447356,35.83626022063135],[139.5799594297965,35.83558609207615],[139.58010741463605,35.83553792133211],[139.58072385213504,35.83599887135076],[139.58508452304025,35.83769182349505],[139.5881890718157,35.83883597113809]]]},"properties":{"KEY_CODE":"11228005001","PREF":"11","CITY":"228","CITY_NAME":"志木市","S_NAME":"中宗岡一丁目","SETAI":"1019"}},{"type":"Feature","geometry":{"type":"Polygon","coordinates":[[[139.59404875928436,35.84126367624307],[139.59386867683313,35.841494655705496],[139.59337438136848,35.842370534644424],[139.59324522324206,35.8426559753714],[139.5932139506615,35.842823821394255],[139.59309607133633,35.84304585524107],[139.59084916052566,35.84671995497717],[139.58951915077236,35.84604853928144],[139.58920325133363,35.845879255136026],[139.5891441497635,35.845853786075466],[139.58858183040297,35.84574670912314],[139.5883919177122,35.84569226398744],[139.58756989825858,35.845157141013686],[139.58718204818956,35.8448273864532],[139.58669318592902,35.844385216769055],[139.58715642348994,35.84113322923321],[139.5881890718157,35.83883597113809],[139.58863461215978,35.83897909581885],[139.59015803830178,35.84042384986344],[139.59161352699002,35.840577086481126],[139.59361526033783,35.841300121670585],[139.59448208561773,35.84086615196976],[139.59404875928436,35.84126367624307]]]},"properties":{"KEY_CODE":"11228005002","PREF":"11","CITY":"228","CITY_NAME":"志木市","S_NAME":"中宗岡二丁目","SETAI":"1220"}},{"type":"Feature","geometry":{"type":"Polygon","coordinates":[[[139.59448208561773,35.84086615196976],[139.59361526033783,35.841300121670585],[139.59161352699002,35.840577086481126],[139.59015803830178,35.84042384986344],[139.58863461215978,35.83897909581885],[139.59079979932076,35.838818942500716],[139.59321985790342,35.83699333087772],[139.5940541699934,35.836651403275326],[139.59444296756868,35.836589271627],[139.5968752734656,35.836713031861215],[139.59752563319756,35.83669903747853],[139.60155064934014,35.836891176428516],[139.59835718922832,35.83886340274387],[139.59811825371347,35.839013576857184],[139.59769428989654,35.83917184048868],[139.59751342177023,35.83920548236201],[139.5972826418145,35.83941161586979],[139.59448208561773,35.84086615196976]]]},"properties":{"KEY_CODE":"11228005003","PREF":"11","CITY":"228","CITY_NAME":"志木市","S_NAME":"中宗岡三丁目","SETAI":"787"}},{"type":"Feature","geometry":{"type":"Polygon","coordinates":[[[139.58827695445433,35.8356228971318],[139.5895529000891,35.83543950207091],[139.59055025349033,35.835881750818395],[139.59341199551235,35.83623001130378],[139.5939406388368,35.83657426665403],[139.5940541699934,35.836651403275326],[139.59321985790342,35.83699333087772],[139.59079979932076,35.838818942500716],[139.58863461215978,35.83897909581885],[139.5881890718157,35.83883597113809],[139.58508452304025,35.83769182349505],[139.58827695445433,35.8356228971318]]]},"properties":{"KEY_CODE":"11228005004","PREF":"11","CITY":"228","CITY_NAME":"志木市","S_NAME":"中宗岡四丁目","SETAI":"745"}},{"type":"Feature","geometry":{"type":"Polygon","coordinates":[[[139.58662080920226,35.83140381834551],[139.58815870529224,35.83323640910994],[139.58827695445433,35.8356228971318],[139.58508452304025,35.83769182349505],[139.58072385213504,35.83599887135076],[139.58010741463605,35.83553792133211],[139.5827663103209,35.83445518189197],[139.5842541105284,35.83273020992538],[139.58662080920226,35.83140381834551]]]},"properties":{"KEY_CODE":"11228005005","PREF":"11","CITY":"228","CITY_NAME":"志木市","S_NAME":"中宗岡五丁目","SETAI":"738"}},{"type":"Feature","geometry":{"type":"Polygon","coordinates":[[[139.59616416049826,35.83271160624961],[139.59435450136849,35.832784327550065],[139.59170160415704,35.832037051616055],[139.58962068545432,35.83305916463276],[139.58815870529224,35.83323640910994],[139.58662080920226,35.83140381834551],[139.58687472880268,35.831258996196134],[139.59055389971428,35.829342089319084],[139.5903748232172,35.82858109234712],[139.5915498953042,35.82840323045728],[139.59215213902968,35.829694969237856],[139.5922270373529,35.82999747020465],[139.5923184101641,35.83035013758599],[139.59235699654806,35.83051502326658],[139.5925967452034,35.83061307946684],[139.59270530867232,35.830534692395744],[139.5933752446664,35.829859338406195],[139.59261803144892,35.829210780633915],[139.59249193851412,35.82895231264583],[139.5924523740519,35.82883208770581],[139.59242561723343,35.82875865899349],[139.59216593234214,35.828070369122706],[139.5930774096068,35.82787959028444],[139.59559055779005,35.82696802539077],[139.5966773507298,35.82776930880363],[139.59672740987378,35.82795417941883],[139.5967319499378,35.82803414620039],[139.5966879404804,35.82821615726868],[139.59640276616076,35.82872599674129],[139.596463444742,35.828879235308264],[139.5967930508825,35.829475883690094],[139.5966561461213,35.82949050884016],[139.59535542082864,35.82954056225534],[139.59519006821702,35.82959848871497],[139.59509697363967,35.82963034512277],[139.59507648451483,35.82968706042867],[139.5950596780194,35.82979145486181],[139.59510800324227,35.82984612259848],[139.59543362148258,35.829994269416346],[139.59548136558283,35.830055466432746],[139.59670830274334,35.83270987202661],[139.59616416049826,35.83271160624961]]]},"properties":{"KEY_CODE":"11228006001","PREF":"11","CITY":"228","CITY_NAME":"志木市","S_NAME":"下宗岡一丁目","SETAI":"330"}},{"type":"Feature","geometry":{"type":"Polygon","coordinates":[[[139.5940541699934,35.836651403275326],[139.5939406388368,35.83657426665403],[139.59341199551235,35.83623001130378],[139.59055025349033,35.835881750818395],[139.5895529000891,35.83543950207091],[139.58827695445433,35.8356228971318],[139.58815870529224,35.83323640910994],[139.58962068545432,35.83305916463276],[139.59170160415704,35.832037051616055],[139.59435450136849,35.832784327550065],[139.59616416049826,35.83271160624961],[139.59444296756868,35.836589271627],[139.5940541699934,35.836651403275326]]]},"properties":{"KEY_CODE":"11228006002","PREF":"11","CITY":"228","CITY_NAME":"志木市","S_NAME":"下宗岡二丁目","SETAI":"716"}},{"type":"Feature","geometry":{"type":"Polygon","coordinates":[[[139.60155064934014,35.836891176428516],[139.59752563319756,35.83669903747853],[139.5968752734656,35.836713031861215],[139.59444296756868,35.836589271627],[139.59616416049826,35.83271160624961],[139.59670830274334,35.83270987202661],[139.59997223279782,35.83495525024023],[139.60225741706418,35.8342982111884],[139.60385423678585,35.834561294053835],[139.60315244704128,35.83539242545993],[139.60241364096407,35.83619623168579],[139.6023102637909,35.83630613006397],[139.60209644061456,35.83648753773071],[139.60190420410316,35.83664970906211],[139.60155064934014,35.836891176428516]]]},"properties":{"KEY_CODE":"11228006003","PREF":"11","CITY":"228","CITY_NAME":"志木市","S_NAME":"下宗岡三丁目","SETAI":"455"}},{"type":"Feature","geometry":{"type":"Polygon","coordinates":[[[139.60385423678585,35.834561294053835],[139.60225741706418,35.8342982111884],[139.59997223279782,35.83495525024023],[139.59670830274334,35.83270987202661],[139.59548136558283,35.830055466432746],[139.59544860414542,35.8299935050047],[139.5967975167242,35.82969032848744],[139.59805562104543,35.82980778431692],[139.59843405114154,35.8292231107821],[139.59949992521857,35.83003515496228],[139.60258500776092,35.83079452326852],[139.60528356133338,35.832248327628875],[139.60508017886437,35.83252001716124],[139.60481780994127,35.83287047864094],[139.60385423678585,35.834561294053835]]]},"properties":{"KEY_CODE":"11228006004","PREF":"11","CITY":"228","CITY_NAME":"志木市","S_NAME":"下宗岡四丁目","SETAI":"635"}},{"type":"Feature","geometry":{"type":"Polygon","coordinates":[[[139.56321845016234,35.82626606930449],[139.56478441858889,35.82685185997358],[139.56596803723224,35.828323677568264],[139.56576596342043,35.82845755554713],[139.5642527228369,35.82945196209886],[139.55770722764353,35.82538845085238],[139.5577661814612,35.82532445344978],[139.55915637714523,35.82377885249753],[139.56115558724682,35.82500854309246],[139.56321845016234,35.82626606930449]]]},"properties":{"KEY_CODE":"11228007001","PREF":"11","CITY":"228","CITY_NAME":"志木市","S_NAME":"館一丁目","SETAI":"1077"}},{"type":"Feature","geometry":{"type":"Polygon","coordinates":[[[139.56100699184543,35.83150178164564],[139.56018547766814,35.83111233307259],[139.55979855013348,35.831001959298554],[139.55961752308934,35.83098845036173],[139.55892804807908,35.83031547863904],[139.55874659097847,35.83020873668027],[139.5571355754238,35.82911785728939],[139.55556992267861,35.82860127072275],[139.55555541371962,35.82619723696692],[139.55530041979435,35.82565368490587],[139.5566433417157,35.82526167169375],[139.55741211403682,35.82460426742716],[139.5577661814612,35.82532445344978],[139.55770722764353,35.82538845085238],[139.5642527228369,35.82945196209886],[139.56100699184543,35.83150178164564]]]},"properties":{"KEY_CODE":"11228007002","PREF":"11","CITY":"228","CITY_NAME":"志木市","S_NAME":"館二丁目","SETAI":"2182"}},{"type":"Feature","geometry":{"type":"Polygon","coordinates":[[[139.58570914846635,35.86026699659632],[139.58486919867912,35.86048778341613],[139.58446360436807,35.86061894535713],[139.58429019978664,35.86071168801143],[139.5828059591842,35.86087681846849],[139.58314690289797,35.85964882198154],[139.58308916034022,35.85896743398595],[139.58306545111373,35.85857740117798],[139.58341425038196,35.85752277594176],[139.5840260747611,35.85560804729175],[139.58419999793026,35.8552017685579],[139.58458492154415,35.85393293506208],[139.58567826259335,35.853245571733986],[139.58721863773414,35.852509765651014],[139.58642774554178,35.851127486459966],[139.58854819353522,35.8495433089995],[139.58863180068377,35.849419651123775],[139.59084916052566,35.84671995497717],[139.59309607133633,35.84304585524107],[139.5932139506615,35.842823821394255],[139.59324522324206,35.8426559753714],[139.59337438136848,35.842370534644424],[139.59386867683313,35.841494655705496],[139.59404875928436,35.84126367624307],[139.59448208561773,35.84086615196976],[139.5972826418145,35.83941161586979],[139.59751342177023,35.83920548236201],[139.59769428989654,35.83917184048868],[139.59811825371347,35.839013576857184],[139.59835718922832,35.83886340274387],[139.60155064934014,35.836891176428516],[139.60190420410316,35.83664970906211],[139.60209644061456,35.83648753773071],[139.6023102637909,35.83630613006397],[139.60241364096407,35.83619623168579],[139.60315244704128,35.83539242545993],[139.60385423678585,35.834561294053835],[139.60481780994127,35.83287047864094],[139.60508017886437,35.83252001716124],[139.60528356133338,35.832248327628875],[139.6059032559421,35.8341470423364],[139.60755301473807,35.834638078816425],[139.6074873031149,35.83475667919791],[139.606962942956,35.835875727813665],[139.60675566847294,35.836321516957085],[139.6065012412124,35.836887435056475],[139.6069766586593,35.84017034047355],[139.6067562132419,35.84166280670527],[139.6057025009706,35.84242488297878],[139.60504522605785,35.84275424952803],[139.60326275714522,35.84358217463823],[139.60250187514623,35.843783789429565],[139.60169623987272,35.84407266512324],[139.60099008228863,35.84444175491028],[139.6005960958966,35.844743576775265],[139.6001756370167,35.84513577821029],[139.5993435608163,35.8461584994689],[139.59805037277172,35.84792511148341],[139.59789070082212,35.84812603232497],[139.59687407743783,35.84909102347813],[139.59686487030754,35.84908185139972],[139.59670518683774,35.84921985437468],[139.59177390165783,35.85240259291021],[139.59014105410253,35.85423942489189],[139.58992026433592,35.85462283839666],[139.58830659990355,35.85775108574405],[139.5878339826899,35.85840921644114],[139.58745230035018,35.858834073457516],[139.58624933668193,35.859836852947375],[139.58570914846635,35.86026699659632]]]},"properties":{"KEY_CODE":"112280080","PREF":"11","CITY":"228","CITY_NAME":"志木市","S_NAME":"宗岡","SETAI":"0"}}]}