{"type":"FeatureCollection","features":[{"type":"Feature","geometry":{"type":"Polygon","coordinates":[[[139.53286435841676,36.033050685695],[139.5342015067077,36.03358133577037],[139.5342260708292,36.0335965923135],[139.5324697235512,36.036669535769605],[139.53113315141673,36.035869072621296],[139.5315508916843,36.03527489851758],[139.53286435841676,36.033050685695]]]},"properties":{"KEY_CODE":"11233001001","PREF":"11","CITY":"233","CITY_NAME":"北本市","S_NAME":"東間一丁目","SETAI":"180"}},{"type":"Feature","geometry":{"type":"Polygon","coordinates":[[[139.5342260708292,36.0335965923135],[139.5352573878189,36.03430158085602],[139.53608228985325,36.03560441349236],[139.5362166080214,36.036561498022124],[139.53407499042072,36.038696727089835],[139.5320082558692,36.03723860925211],[139.5324697235512,36.036669535769605],[139.5342260708292,36.0335965923135]]]},"properties":{"KEY_CODE":"11233001002","PREF":"11","CITY":"233","CITY_NAME":"北本市","S_NAME":"東間二丁目","SETAI":"447"}},{"type":"Feature","geometry":{"type":"Polygon","coordinates":[[[139.5324697235512,36.036669535769605],[139.5320082558692,36.03723860925211],[139.52941169585645,36.04000414022022],[139.52892005256248,36.040523856349914],[139.527565898011,36.03973218483214],[139.53004566170227,36.03709268302142],[139.53113315141673,36.035869072621296],[139.5324697235512,36.036669535769605]]]},"properties":{"KEY_CODE":"11233001003","PREF":"11","CITY":"233","CITY_NAME":"北本市","S_NAME":"東間三丁目","SETAI":"227"}},{"type":"Feature","geometry":{"type":"Polygon","coordinates":[[[139.5320082558692,36.03723860925211],[139.53407499042072,36.038696727089835],[139.53163909551037,36.04129667310731],[139.53042788058758,36.04061584636368],[139.52941169585645,36.04000414022022],[139.5320082558692,36.03723860925211]]]},"properties":{"KEY_CODE":"11233001004","PREF":"11","CITY":"233","CITY_NAME":"北本市","S_NAME":"東間四丁目","SETAI":"271"}},{"type":"Feature","geometry":{"type":"Polygon","coordinates":[[[139.52892005256248,36.040523856349914],[139.5246359951302,36.04506977627513],[139.5232865445533,36.04440085159809],[139.5249828891891,36.04249057271663],[139.527565898011,36.03973218483214],[139.52892005256248,36.040523856349914]]]},"properties":{"KEY_CODE":"11233001005","PREF":"11","CITY":"233","CITY_NAME":"北本市","S_NAME":"東間五丁目","SETAI":"642"}},{"type":"Feature","geometry":{"type":"Polygon","coordinates":[[[139.53042788058758,36.04061584636368],[139.5263076078031,36.04516801112017],[139.52579049322978,36.04572183553486],[139.5246359951302,36.04506977627513],[139.52892005256248,36.040523856349914],[139.52941169585645,36.04000414022022],[139.53042788058758,36.04061584636368]]]},"properties":{"KEY_CODE":"11233001006","PREF":"11","CITY":"233","CITY_NAME":"北本市","S_NAME":"東間六丁目","SETAI":"195"}},{"type":"Feature","geometry":{"type":"Polygon","coordinates":[[[139.53042788058758,36.04061584636368],[139.53163909551037,36.04129667310731],[139.5286702306988,36.04456722744798],[139.52711853195942,36.046458652653],[139.52710519978723,36.0464643672413],[139.52614037528375,36.04591944938513],[139.5263076078031,36.04516801112017],[139.53042788058758,36.04061584636368]]]},"properties":{"KEY_CODE":"11233001007","PREF":"11","CITY":"233","CITY_NAME":"北本市","S_NAME":"東間七丁目","SETAI":"377"}},{"type":"Feature","geometry":{"type":"Polygon","coordinates":[[[139.53163909551037,36.04129667310731],[139.53497291132348,36.04311811476493],[139.53155519547252,36.044475251232384],[139.5275211390527,36.046295337768264],[139.52711853195942,36.046458652653],[139.5286702306988,36.04456722744798],[139.53163909551037,36.04129667310731]]]},"properties":{"KEY_CODE":"11233001008","PREF":"11","CITY":"233","CITY_NAME":"北本市","S_NAME":"東間八丁目","SETAI":"545"}},{"type":"Feature","geometry":{"type":"Polygon","coordinates":[[[139.5217371715908,36.04811745191047],[139.5217008471238,36.04809906672876],[139.52039214759162,36.04758852257059],[139.52093852747174,36.046934358796136],[139.5232865445533,36.04440085159809],[139.5246359951302,36.04506977627513],[139.5217371715908,36.04811745191047]]]},"properties":{"KEY_CODE":"11233002001","PREF":"11","CITY":"233","CITY_NAME":"北本市","S_NAME":"深井一丁目","SETAI":"164"}},{"type":"Feature","geometry":{"type":"Polygon","coordinates":[[[139.5246359951302,36.04506977627513],[139.52579049322978,36.04572183553486],[139.52614037528375,36.04591944938513],[139.52710519978723,36.0464643672413],[139.52238394519006,36.04845533142625],[139.5217371715908,36.04811745191047],[139.5246359951302,36.04506977627513]]]},"properties":{"KEY_CODE":"11233002002","PREF":"11","CITY":"233","CITY_NAME":"北本市","S_NAME":"深井二丁目","SETAI":"149"}},{"type":"Feature","geometry":{"type":"Polygon","coordinates":[[[139.5275211390527,36.046295337768264],[139.5291352721896,36.04739578290196],[139.5262190399414,36.05087959807004],[139.52238394519006,36.04845533142625],[139.52710519978723,36.0464643672413],[139.52711853195942,36.046458652653],[139.5275211390527,36.046295337768264]]]},"properties":{"KEY_CODE":"11233002003","PREF":"11","CITY":"233","CITY_NAME":"北本市","S_NAME":"深井三丁目","SETAI":"78"}},{"type":"Feature","geometry":{"type":"Polygon","coordinates":[[[139.53497291132348,36.04311811476493],[139.53545361473772,36.04341380375928],[139.53353468184125,36.045777219662384],[139.53097031638686,36.04878142071715],[139.5291352721896,36.04739578290196],[139.5275211390527,36.046295337768264],[139.53155519547252,36.044475251232384],[139.53497291132348,36.04311811476493]]]},"properties":{"KEY_CODE":"11233002004","PREF":"11","CITY":"233","CITY_NAME":"北本市","S_NAME":"深井四丁目","SETAI":"135"}},{"type":"Feature","geometry":{"type":"Polygon","coordinates":[[[139.53097031638686,36.04878142071715],[139.52810733652368,36.0520945243727],[139.52808423444466,36.052081186544186],[139.5262190399414,36.05087959807004],[139.5291352721896,36.04739578290196],[139.53097031638686,36.04878142071715]]]},"properties":{"KEY_CODE":"11233002005","PREF":"11","CITY":"233","CITY_NAME":"北本市","S_NAME":"深井五丁目","SETAI":"44"}},{"type":"Feature","geometry":{"type":"Polygon","coordinates":[[[139.52469474568062,36.05597728935698],[139.524149152148,36.05505154658691],[139.5236873263986,36.05519517432752],[139.52401583384167,36.05516675233896],[139.5240802728501,36.0551869456947],[139.5240662901027,36.05536563411728],[139.52364740757142,36.05564951966795],[139.5230317667232,36.0554076457929],[139.5219307380037,36.05495297649034],[139.52287743807233,36.05397384945349],[139.52426974971948,36.05282041456791],[139.5262190399414,36.05087959807004],[139.52808423444466,36.052081186544186],[139.52581993324114,36.05467765188429],[139.52469474568062,36.05597728935698]]]},"properties":{"KEY_CODE":"11233002006","PREF":"11","CITY":"233","CITY_NAME":"北本市","S_NAME":"深井六丁目","SETAI":"262"}},{"type":"Feature","geometry":{"type":"Polygon","coordinates":[[[139.52759475565034,36.05673406614317],[139.52502932265133,36.05762079093621],[139.52566138270973,36.056062636041034],[139.52474601921978,36.05599363582453],[139.52469474568062,36.05597728935698],[139.52581993324114,36.05467765188429],[139.52810733652368,36.0520945243727],[139.53097031638686,36.04878142071715],[139.53260419966531,36.05037402362699],[139.53391721155756,36.05231770073821],[139.53260320722887,36.05168359370186],[139.52826131483826,36.05594172227875],[139.52759475565034,36.05673406614317]]]},"properties":{"KEY_CODE":"11233002007","PREF":"11","CITY":"233","CITY_NAME":"北本市","S_NAME":"深井七丁目","SETAI":"70"}},{"type":"Feature","geometry":{"type":"Polygon","coordinates":[[[139.5363746306227,36.05084915877969],[139.53442433725112,36.05243842364243],[139.53391721155756,36.05231770073821],[139.53260419966531,36.05037402362699],[139.53097031638686,36.04878142071715],[139.53353468184125,36.045777219662384],[139.53545361473772,36.04341380375928],[139.5354791040878,36.043379869276166],[139.53695701708818,36.0440134373219],[139.53609456206198,36.046065890160996],[139.53750243829106,36.04841198614058],[139.53588252489385,36.04951088845576],[139.53629717868574,36.04990998168536],[139.5365784843925,36.04990600368157],[139.53673388997532,36.0500632914319],[139.5363026201586,36.050419422069574],[139.5363746306227,36.05084915877969]]]},"properties":{"KEY_CODE":"11233002008","PREF":"11","CITY":"233","CITY_NAME":"北本市","S_NAME":"深井八丁目","SETAI":"66"}},{"type":"Feature","geometry":{"type":"Polygon","coordinates":[[[139.53709254299932,36.03556781936548],[139.53876393128579,36.03611585767655],[139.54023372107474,36.0373222498349],[139.5392880742665,36.03845198608607],[139.53700207424234,36.04135017930696],[139.53644379235885,36.040860107100436],[139.53640582389176,36.039510987899725],[139.5362166080214,36.036561498022124],[139.53709254299932,36.03556781936548]]]},"properties":{"KEY_CODE":"11233003001","PREF":"11","CITY":"233","CITY_NAME":"北本市","S_NAME":"宮内一丁目","SETAI":"440"}},{"type":"Feature","geometry":{"type":"Polygon","coordinates":[[[139.53640582389176,36.039510987899725],[139.53620174596068,36.03992880032315],[139.53407499042072,36.038696727089835],[139.5362166080214,36.036561498022124],[139.53640582389176,36.039510987899725]]]},"properties":{"KEY_CODE":"11233003002","PREF":"11","CITY":"233","CITY_NAME":"北本市","S_NAME":"宮内二丁目","SETAI":"169"}},{"type":"Feature","geometry":{"type":"Polygon","coordinates":[[[139.53640582389176,36.039510987899725],[139.53644379235885,36.040860107100436],[139.53700207424234,36.04135017930696],[139.5354791040878,36.043379869276166],[139.53545361473772,36.04341380375928],[139.53497291132348,36.04311811476493],[139.53163909551037,36.04129667310731],[139.53407499042072,36.038696727089835],[139.53620174596068,36.03992880032315],[139.53640582389176,36.039510987899725]]]},"properties":{"KEY_CODE":"11233003003","PREF":"11","CITY":"233","CITY_NAME":"北本市","S_NAME":"宮内三丁目","SETAI":"452"}},{"type":"Feature","geometry":{"type":"Polygon","coordinates":[[[139.53942827418797,36.04913399852498],[139.53844639046005,36.049231892912395],[139.53750243829106,36.04841198614058],[139.53609456206198,36.046065890160996],[139.53695701708818,36.0440134373219],[139.5354791040878,36.043379869276166],[139.53700207424234,36.04135017930696],[139.5388420147546,36.04323684582794],[139.5407773934222,36.044378938780376],[139.54240989028003,36.04632054834219],[139.54183743406605,36.04664812769306],[139.54250774653354,36.04747650599436],[139.53942827418797,36.04913399852498]]]},"properties":{"KEY_CODE":"11233003004","PREF":"11","CITY":"233","CITY_NAME":"北本市","S_NAME":"宮内四丁目","SETAI":"55"}},{"type":"Feature","geometry":{"type":"Polygon","coordinates":[[[139.54240989028003,36.04632054834219],[139.5407773934222,36.044378938780376],[139.5388420147546,36.04323684582794],[139.53700207424234,36.04135017930696],[139.5392880742665,36.03845198608607],[139.5407592701078,36.039779063319145],[139.54069105301429,36.04031423531255],[139.54300922194173,36.04179366412467],[139.54344829942522,36.04218054663301],[139.5440096717665,36.04268742581824],[139.54518135322004,36.04382283029941],[139.54589785214614,36.0432816521774],[139.54687816619466,36.04441020337581],[139.54479020841595,36.0455887303547],[139.54391375411294,36.04545823431008],[139.54240989028003,36.04632054834219]]]},"properties":{"KEY_CODE":"11233003005","PREF":"11","CITY":"233","CITY_NAME":"北本市","S_NAME":"宮内五丁目","SETAI":"252"}},{"type":"Feature","geometry":{"type":"Polygon","coordinates":[[[139.54143185595424,36.03582481559522],[139.54317581730425,36.036925204221234],[139.5446590530239,36.038598312030075],[139.54509045810138,36.03904220207897],[139.54300922194173,36.04179366412467],[139.54069105301429,36.04031423531255],[139.5407592701078,36.039779063319145],[139.5392880742665,36.03845198608607],[139.54023372107474,36.0373222498349],[139.54143185595424,36.03582481559522]]]},"properties":{"KEY_CODE":"11233003006","PREF":"11","CITY":"233","CITY_NAME":"北本市","S_NAME":"宮内六丁目","SETAI":"128"}},{"type":"Feature","geometry":{"type":"Polygon","coordinates":[[[139.54286280955566,36.034131629827584],[139.54731681791768,36.03658691035303],[139.54789406506728,36.03694103873825],[139.5446590530239,36.038598312030075],[139.54317581730425,36.036925204221234],[139.54143185595424,36.03582481559522],[139.54286280955566,36.034131629827584]]]},"properties":{"KEY_CODE":"11233003007","PREF":"11","CITY":"233","CITY_NAME":"北本市","S_NAME":"宮内七丁目","SETAI":"54"}},{"type":"Feature","geometry":{"type":"Polygon","coordinates":[[[139.5351360047464,36.03235537331084],[139.5342015067077,36.03358133577037],[139.53286435841676,36.033050685695],[139.53288452634914,36.03301338541536],[139.53366277296348,36.03176099568771],[139.5343055473486,36.030741536698116],[139.5353944588562,36.02910300083192],[139.53544514872442,36.02913804424702],[139.5367727045202,36.03020015909322],[139.53648822177774,36.030526262705585],[139.5351360047464,36.03235537331084]]]},"properties":{"KEY_CODE":"11233004001","PREF":"11","CITY":"233","CITY_NAME":"北本市","S_NAME":"北本一丁目","SETAI":"181"}},{"type":"Feature","geometry":{"type":"Polygon","coordinates":[[[139.53648822177774,36.030526262705585],[139.53882864329756,36.03177196107173],[139.54030335924938,36.032531668578564],[139.53834062951964,36.034152039787394],[139.5351360047464,36.03235537331084],[139.53648822177774,36.030526262705585]]]},"properties":{"KEY_CODE":"11233004002","PREF":"11","CITY":"233","CITY_NAME":"北本市","S_NAME":"北本二丁目","SETAI":"298"}},{"type":"Feature","geometry":{"type":"Polygon","coordinates":[[[139.5351360047464,36.03235537331084],[139.53834062951964,36.034152039787394],[139.53709254299932,36.03556781936548],[139.5362166080214,36.036561498022124],[139.53608228985325,36.03560441349236],[139.5352573878189,36.03430158085602],[139.5342260708292,36.0335965923135],[139.5342015067077,36.03358133577037],[139.5351360047464,36.03235537331084]]]},"properties":{"KEY_CODE":"11233004003","PREF":"11","CITY":"233","CITY_NAME":"北本市","S_NAME":"北本三丁目","SETAI":"299"}},{"type":"Feature","geometry":{"type":"Polygon","coordinates":[[[139.54143185595424,36.03582481559522],[139.54023372107474,36.0373222498349],[139.53876393128579,36.03611585767655],[139.53709254299932,36.03556781936548],[139.53834062951964,36.034152039787394],[139.54030335924938,36.032531668578564],[139.5403759959789,36.032569940067766],[139.54286280955566,36.034131629827584],[139.54143185595424,36.03582481559522]]]},"properties":{"KEY_CODE":"11233004004","PREF":"11","CITY":"233","CITY_NAME":"北本市","S_NAME":"北本四丁目","SETAI":"456"}},{"type":"Feature","geometry":{"type":"Polygon","coordinates":[[[139.53960305003875,36.026888187796025],[139.5367727045202,36.03020015909322],[139.53544514872442,36.02913804424702],[139.53691776997502,36.02719053620658],[139.53848237518406,36.025332486474326],[139.538533681234,36.025364450029464],[139.54005348467697,36.02631830772997],[139.53960305003875,36.026888187796025]]]},"properties":{"KEY_CODE":"11233005001","PREF":"11","CITY":"233","CITY_NAME":"北本市","S_NAME":"本宿一丁目","SETAI":"219"}},{"type":"Feature","geometry":{"type":"Polygon","coordinates":[[[139.53960305003875,36.026888187796025],[139.54134311801104,36.02807254213571],[139.54107154327153,36.02864916297716],[139.53882864329756,36.03177196107173],[139.53648822177774,36.030526262705585],[139.5367727045202,36.03020015909322],[139.53960305003875,36.026888187796025]]]},"properties":{"KEY_CODE":"11233005002","PREF":"11","CITY":"233","CITY_NAME":"北本市","S_NAME":"本宿二丁目","SETAI":"200"}},{"type":"Feature","geometry":{"type":"Polygon","coordinates":[[[139.54107154327153,36.02864916297716],[139.54312593618394,36.03043700841832],[139.5431861798303,36.030509649475846],[139.5403759959789,36.032569940067766],[139.54030335924938,36.032531668578564],[139.53882864329756,36.03177196107173],[139.54107154327153,36.02864916297716]]]},"properties":{"KEY_CODE":"11233005003","PREF":"11","CITY":"233","CITY_NAME":"北本市","S_NAME":"本宿三丁目","SETAI":"323"}},{"type":"Feature","geometry":{"type":"Polygon","coordinates":[[[139.5431861798303,36.030509649475846],[139.5448022134628,36.03176591860141],[139.54286280955566,36.034131629827584],[139.5403759959789,36.032569940067766],[139.5431861798303,36.030509649475846]]]},"properties":{"KEY_CODE":"11233005004","PREF":"11","CITY":"233","CITY_NAME":"北本市","S_NAME":"本宿四丁目","SETAI":"175"}},{"type":"Feature","geometry":{"type":"Polygon","coordinates":[[[139.54608641241543,36.027558866102815],[139.54772040899516,36.02871746815478],[139.54714263238128,36.029263210592084],[139.54607838400915,36.03024521735812],[139.5448022134628,36.03176591860141],[139.5431861798303,36.030509649475846],[139.54312593618394,36.03043700841832],[139.54557236586314,36.027789552807704],[139.54608641241543,36.027558866102815]]]},"properties":{"KEY_CODE":"11233005005","PREF":"11","CITY":"233","CITY_NAME":"北本市","S_NAME":"本宿五丁目","SETAI":"274"}},{"type":"Feature","geometry":{"type":"Polygon","coordinates":[[[139.54608641241543,36.027558866102815],[139.54557236586314,36.027789552807704],[139.54312593618394,36.03043700841832],[139.54107154327153,36.02864916297716],[139.54134311801104,36.02807254213571],[139.5443919339559,36.02595658872311],[139.5446897213069,36.026869363270485],[139.54608641241543,36.027558866102815]]]},"properties":{"KEY_CODE":"11233005006","PREF":"11","CITY":"233","CITY_NAME":"北本市","S_NAME":"本宿六丁目","SETAI":"412"}},{"type":"Feature","geometry":{"type":"Polygon","coordinates":[[[139.5443919339559,36.02595658872311],[139.54134311801104,36.02807254213571],[139.53960305003875,36.026888187796025],[139.54005348467697,36.02631830772997],[139.54204111441106,36.02389681357576],[139.54233209480128,36.023559121909734],[139.54368742985818,36.024370577373325],[139.54402225413276,36.024030458049715],[139.54518182137633,36.02500747068645],[139.5443919339559,36.02595658872311]]]},"properties":{"KEY_CODE":"11233005007","PREF":"11","CITY":"233","CITY_NAME":"北本市","S_NAME":"本宿七丁目","SETAI":"261"}},{"type":"Feature","geometry":{"type":"Polygon","coordinates":[[[139.54035065398156,36.0232190518316],[139.54204111441106,36.02389681357576],[139.54005348467697,36.02631830772997],[139.538533681234,36.025364450029464],[139.54003510573492,36.023611324381974],[139.54035065398156,36.0232190518316]]]},"properties":{"KEY_CODE":"11233005008","PREF":"11","CITY":"233","CITY_NAME":"北本市","S_NAME":"本宿八丁目","SETAI":"154"}},{"type":"Feature","geometry":{"type":"Polygon","coordinates":[[[139.54233209480128,36.023559121909734],[139.54204111441106,36.02389681357576],[139.54035065398156,36.0232190518316],[139.54427985501735,36.01835644330544],[139.5466143253737,36.01888099238082],[139.54375107101998,36.021983542771956],[139.54233209480128,36.023559121909734]]]},"properties":{"KEY_CODE":"11233006001","PREF":"11","CITY":"233","CITY_NAME":"北本市","S_NAME":"中丸一丁目","SETAI":"382"}},{"type":"Feature","geometry":{"type":"Polygon","coordinates":[[[139.54754208213316,36.02331163270078],[139.54814750373913,36.02347569499574],[139.5465358997352,36.02455029981902],[139.54518182137633,36.02500747068645],[139.54402225413276,36.024030458049715],[139.54368742985818,36.024370577373325],[139.54233209480128,36.023559121909734],[139.54375107101998,36.021983542771956],[139.54458922719925,36.022451846589654],[139.54754208213316,36.02331163270078]]]},"properties":{"KEY_CODE":"11233006002","PREF":"11","CITY":"233","CITY_NAME":"北本市","S_NAME":"中丸二丁目","SETAI":"371"}},{"type":"Feature","geometry":{"type":"Polygon","coordinates":[[[139.5498614122253,36.0266746529521],[139.54773754032186,36.02870237624697],[139.54772040899516,36.02871746815478],[139.54608641241543,36.027558866102815],[139.5446897213069,36.026869363270485],[139.5443919339559,36.02595658872311],[139.54518182137633,36.02500747068645],[139.5465358997352,36.02455029981902],[139.54747103141835,36.02537288959603],[139.5498614122253,36.0266746529521]]]},"properties":{"KEY_CODE":"11233006003","PREF":"11","CITY":"233","CITY_NAME":"北本市","S_NAME":"中丸三丁目","SETAI":"371"}},{"type":"Feature","geometry":{"type":"Polygon","coordinates":[[[139.5501637436986,36.021783606422716],[139.5519140723346,36.02355906371862],[139.55091904298487,36.02513280981908],[139.5498614122253,36.0266746529521],[139.54747103141835,36.02537288959603],[139.5465358997352,36.02455029981902],[139.54814750373913,36.02347569499574],[139.54754208213316,36.02331163270078],[139.5501637436986,36.021783606422716]]]},"properties":{"KEY_CODE":"11233006004","PREF":"11","CITY":"233","CITY_NAME":"北本市","S_NAME":"中丸四丁目","SETAI":"296"}},{"type":"Feature","geometry":{"type":"Polygon","coordinates":[[[139.5466143253737,36.01888099238082],[139.54837368109077,36.02031438905503],[139.5501637436986,36.021783606422716],[139.54754208213316,36.02331163270078],[139.54458922719925,36.022451846589654],[139.54375107101998,36.021983542771956],[139.5466143253737,36.01888099238082]]]},"properties":{"KEY_CODE":"11233006005","PREF":"11","CITY":"233","CITY_NAME":"北本市","S_NAME":"中丸五丁目","SETAI":"508"}},{"type":"Feature","geometry":{"type":"Polygon","coordinates":[[[139.55273119741327,36.01798468446974],[139.5543334156213,36.02005030549977],[139.55343333076715,36.02120267495858],[139.5519140723346,36.02355906371862],[139.5501637436986,36.021783606422716],[139.54837368109077,36.02031438905503],[139.54909824934686,36.01953536881052],[139.55045293556515,36.019007296018934],[139.55144772194558,36.018187464660386],[139.5517769327273,36.01857883653919],[139.55273119741327,36.01798468446974]]]},"properties":{"KEY_CODE":"11233006006","PREF":"11","CITY":"233","CITY_NAME":"北本市","S_NAME":"中丸六丁目","SETAI":"163"}},{"type":"Feature","geometry":{"type":"Polygon","coordinates":[[[139.55305146598775,36.01474270488115],[139.55418671008857,36.01497631077224],[139.55732895710975,36.01706069693084],[139.55540061475736,36.01897680904565],[139.5543334156213,36.02005030549977],[139.55273119741327,36.01798468446974],[139.5508202637175,36.016570736262324],[139.55305146598775,36.01474270488115]]]},"properties":{"KEY_CODE":"11233006007","PREF":"11","CITY":"233","CITY_NAME":"北本市","S_NAME":"中丸七丁目","SETAI":"441"}},{"type":"Feature","geometry":{"type":"Polygon","coordinates":[[[139.5576771083868,36.024341305837034],[139.5561281037422,36.02378011506806],[139.55629649388501,36.02347131919594],[139.55446596637782,36.02260857897059],[139.55361256921367,36.02132766887069],[139.55343333076715,36.02120267495858],[139.55540061475736,36.01897680904565],[139.55732895710975,36.01706069693084],[139.55879677845087,36.01798395163392],[139.55924108739765,36.01824345897621],[139.5595152438179,36.01842415578515],[139.55959236927893,36.02039871459975],[139.5599215051282,36.021016443456034],[139.5601117161148,36.02125992378905],[139.5602088180553,36.021352326278645],[139.56028045795372,36.0216794485168],[139.56002091913518,36.02198797529452],[139.5596009238656,36.02226482272603],[139.5589803581457,36.02251428151937],[139.55883022508561,36.02257257059202],[139.55868999813907,36.02264280738374],[139.55824924433477,36.02301810133045],[139.55786032433312,36.02354817011686],[139.5576771083868,36.024341305837034]]]},"properties":{"KEY_CODE":"11233006008","PREF":"11","CITY":"233","CITY_NAME":"北本市","S_NAME":"中丸八丁目","SETAI":"34"}},{"type":"Feature","geometry":{"type":"Polygon","coordinates":[[[139.5576771083868,36.024341305837034],[139.55845485295202,36.02609397889167],[139.5579011368342,36.027585744647325],[139.5566750431019,36.02882058322858],[139.55534048604392,36.027965491796905],[139.55224127137396,36.02640423474631],[139.55259801130816,36.025853779251506],[139.55091904298487,36.02513280981908],[139.5519140723346,36.02355906371862],[139.55343333076715,36.02120267495858],[139.55361256921367,36.02132766887069],[139.55446596637782,36.02260857897059],[139.55629649388501,36.02347131919594],[139.5561281037422,36.02378011506806],[139.5576771083868,36.024341305837034]]]},"properties":{"KEY_CODE":"11233006009","PREF":"11","CITY":"233","CITY_NAME":"北本市","S_NAME":"中丸九丁目","SETAI":"62"}},{"type":"Feature","geometry":{"type":"Polygon","coordinates":[[[139.55091904298487,36.02513280981908],[139.55259801130816,36.025853779251506],[139.55224127137396,36.02640423474631],[139.55534048604392,36.027965491796905],[139.5566750431019,36.02882058322858],[139.5563814229675,36.02913854758426],[139.558158774458,36.03048093876554],[139.55748545150806,36.03102755784041],[139.55621194366537,36.03202498889237],[139.55588007725444,36.03218613334811],[139.55491409019461,36.032627436703585],[139.55450136110068,36.03222851641694],[139.55399923127916,36.03198049517727],[139.55274916780706,36.031079825605914],[139.55212129942566,36.03083537138767],[139.55190692011442,36.03071855587083],[139.55126375650636,36.0303826324952],[139.54938251367415,36.02965191990372],[139.548227550593,36.02904650343612],[139.54773754032186,36.02870237624697],[139.5498614122253,36.0266746529521],[139.55091904298487,36.02513280981908]]]},"properties":{"KEY_CODE":"11233006010","PREF":"11","CITY":"233","CITY_NAME":"北本市","S_NAME":"中丸十丁目","SETAI":"167"}},{"type":"Feature","geometry":{"type":"Polygon","coordinates":[[[139.5525870865183,36.044409622914955],[139.55045710612575,36.042284792013156],[139.55006348676926,36.04256159258569],[139.5497779198787,36.042631441000914],[139.5496401430244,36.042615441221194],[139.54873823670175,36.04235245552413],[139.55033219724803,36.03911424598392],[139.5508782892867,36.03865320406935],[139.55311604564716,36.04002637035375],[139.5544375448556,36.04111277976573],[139.55515977485462,36.04051829921741],[139.55869487440455,36.04232759191482],[139.55825913428512,36.04326595752632],[139.5571185270296,36.042958614335966],[139.5550707233673,36.04320401580211],[139.5525870865183,36.044409622914955]]]},"properties":{"KEY_CODE":"11233007001","PREF":"11","CITY":"233","CITY_NAME":"北本市","S_NAME":"朝日一丁目","SETAI":"29"}},{"type":"Feature","geometry":{"type":"Polygon","coordinates":[[[139.55959888279293,36.03915295154222],[139.56008215208573,36.03941765558535],[139.55855272261073,36.041731258524166],[139.55869487440455,36.04232759191482],[139.55515977485462,36.04051829921741],[139.5544375448556,36.04111277976573],[139.55311604564716,36.04002637035375],[139.5508782892867,36.03865320406935],[139.55181009619577,36.03734567904289],[139.55190586205782,36.03650847912285],[139.55098921871,36.03550210890553],[139.55183455021012,36.03527131748817],[139.55284112444616,36.035274839133955],[139.55403326836893,36.03601539377702],[139.5568069494465,36.03776423476624],[139.55959888279293,36.03915295154222]]]},"properties":{"KEY_CODE":"11233007002","PREF":"11","CITY":"233","CITY_NAME":"北本市","S_NAME":"朝日二丁目","SETAI":"995"}},{"type":"Feature","geometry":{"type":"Polygon","coordinates":[[[139.55403326836893,36.03601539377702],[139.55284112444616,36.035274839133955],[139.55183455021012,36.03527131748817],[139.5520380906195,36.03487726887402],[139.55491409019461,36.032627436703585],[139.55588007725444,36.03218613334811],[139.55621194366537,36.03202498889237],[139.55773108347572,36.031223106491176],[139.55751561938152,36.03143050703938],[139.55841481426904,36.03203362307333],[139.55814518175865,36.03257814325385],[139.55751852054144,36.03264591901695],[139.55761900543925,36.03274999056864],[139.55730911854215,36.03302328917674],[139.5566241051964,36.0339447062435],[139.55403326836893,36.03601539377702]]]},"properties":{"KEY_CODE":"11233007003","PREF":"11","CITY":"233","CITY_NAME":"北本市","S_NAME":"朝日三丁目","SETAI":"43"}},{"type":"Feature","geometry":{"type":"Polygon","coordinates":[[[139.5643616161492,36.035425081652534],[139.56267021413996,36.03652480432299],[139.56098455514442,36.038380196194055],[139.55959888279293,36.03915295154222],[139.5568069494465,36.03776423476624],[139.55403326836893,36.03601539377702],[139.5566241051964,36.0339447062435],[139.55730911854215,36.03302328917674],[139.55761900543925,36.03274999056864],[139.55751852054144,36.03264591901695],[139.55814518175865,36.03257814325385],[139.55841481426904,36.03203362307333],[139.55751561938152,36.03143050703938],[139.55773108347572,36.031223106491176],[139.55748545150806,36.03102755784041],[139.558158774458,36.03048093876554],[139.55949011519948,36.03140885252325],[139.56118530800757,36.03218209316911],[139.562590631254,36.03190178171938],[139.5632999960009,36.032579706099874],[139.56269444507504,36.03306881243186],[139.56239626041247,36.033159635583914],[139.56210953047326,36.0336761805263],[139.56237978135078,36.03381642072438],[139.5635901437922,36.03445251648618],[139.56460823271283,36.03443969802428],[139.56508816512954,36.034671975350975],[139.5643616161492,36.035425081652534]]]},"properties":{"KEY_CODE":"11233007004","PREF":"11","CITY":"233","CITY_NAME":"北本市","S_NAME":"朝日四丁目","SETAI":"75"}},{"type":"Feature","geometry":{"type":"Polygon","coordinates":[[[139.54935991201597,36.012354379434804],[139.55180969774062,36.01366064992331],[139.5495455611708,36.01572322015431],[139.5466143253737,36.01888099238082],[139.54427985501735,36.01835644330544],[139.5467204371778,36.01534750901577],[139.54933790319828,36.0123777280753],[139.54935991201597,36.012354379434804]]]},"properties":{"KEY_CODE":"11233008001","PREF":"11","CITY":"233","CITY_NAME":"北本市","S_NAME":"二ツ家一丁目","SETAI":"1067"}},{"type":"Feature","geometry":{"type":"Polygon","coordinates":[[[139.55273119741327,36.01798468446974],[139.5517769327273,36.01857883653919],[139.55144772194558,36.018187464660386],[139.55045293556515,36.019007296018934],[139.54909824934686,36.01953536881052],[139.54837368109077,36.02031438905503],[139.5466143253737,36.01888099238082],[139.5495455611708,36.01572322015431],[139.5508202637175,36.016570736262324],[139.55273119741327,36.01798468446974]]]},"properties":{"KEY_CODE":"11233008002","PREF":"11","CITY":"233","CITY_NAME":"北本市","S_NAME":"二ツ家二丁目","SETAI":"283"}},{"type":"Feature","geometry":{"type":"Polygon","coordinates":[[[139.55568370118527,36.010367921783704],[139.55561931248488,36.01142308249605],[139.55305146598775,36.01474270488115],[139.5508202637175,36.016570736262324],[139.5495455611708,36.01572322015431],[139.55180969774062,36.01366064992331],[139.55559444189262,36.01029977975127],[139.55568370118527,36.010367921783704]]]},"properties":{"KEY_CODE":"11233008003","PREF":"11","CITY":"233","CITY_NAME":"北本市","S_NAME":"二ツ家三丁目","SETAI":"171"}},{"type":"Feature","geometry":{"type":"Polygon","coordinates":[[[139.55568370118527,36.010367921783704],[139.55559444189262,36.01029977975127],[139.55180969774062,36.01366064992331],[139.54935991201597,36.012354379434804],[139.54984012583108,36.0119048201417],[139.55074288631405,36.01106644111868],[139.5522373200455,36.00967044910821],[139.5540747743876,36.00794510057309],[139.55412586424256,36.007974720803325],[139.55595443778697,36.0099160964054],[139.55570429794543,36.010125836850314],[139.5556912593037,36.01028986647775],[139.55568370118527,36.010367921783704]]]},"properties":{"KEY_CODE":"11233008004","PREF":"11","CITY":"233","CITY_NAME":"北本市","S_NAME":"二ツ家四丁目","SETAI":"384"}},{"type":"Feature","geometry":{"type":"Polygon","coordinates":[[[139.54851842492738,36.04451480919472],[139.54745188391837,36.04512553409725],[139.54687816619466,36.04441020337581],[139.54589785214614,36.0432816521774],[139.54518135322004,36.04382283029941],[139.5440096717665,36.04268742581824],[139.54344829942522,36.04218054663301],[139.54300922194173,36.04179366412464],[139.54509045810138,36.03904220207897],[139.54689823804352,36.040790864040304],[139.54801260353287,36.042136905575646],[139.54873823670175,36.04235245552413],[139.5496401430244,36.042615441221194],[139.5497779198787,36.042631441000914],[139.55006348676926,36.04256159258569],[139.55045710612575,36.042284792013156],[139.5525870865183,36.04440962291495],[139.5513173215178,36.04512268749979],[139.55062757490595,36.044325061642226],[139.5490857146757,36.04518301339615],[139.54851842492738,36.04451480919472]]]},"properties":{"KEY_CODE":"11233009001","PREF":"11","CITY":"233","CITY_NAME":"北本市","S_NAME":"古市場一丁目","SETAI":"44"}},{"type":"Feature","geometry":{"type":"Polygon","coordinates":[[[139.54789406506728,36.03694103873825],[139.5508782892867,36.03865320406935],[139.55033219724803,36.03911424598392],[139.54873823670175,36.04235245552413],[139.54801260353278,36.042136905575646],[139.54689823804352,36.040790864040304],[139.54509045810138,36.03904220207897],[139.5446590530239,36.038598312030075],[139.54789406506728,36.03694103873825]]]},"properties":{"KEY_CODE":"11233009002","PREF":"11","CITY":"233","CITY_NAME":"北本市","S_NAME":"古市場二丁目","SETAI":"130"}},{"type":"Feature","geometry":{"type":"Polygon","coordinates":[[[139.55007849504958,36.034855679246256],[139.55098921871,36.03550210890553],[139.55190586205782,36.03650847912285],[139.55181009619577,36.03734567904289],[139.5508782892867,36.03865320406935],[139.54789406506728,36.03694103873825],[139.54731681791768,36.03658691035303],[139.5491539345462,36.03430854958095],[139.55007849504958,36.034855679246256]]]},"properties":{"KEY_CODE":"11233009003","PREF":"11","CITY":"233","CITY_NAME":"北本市","S_NAME":"古市場三丁目","SETAI":"92"}},{"type":"Feature","geometry":{"type":"Polygon","coordinates":[[[139.55190692011442,36.030718555870784],[139.55137723470517,36.03159968075966],[139.55099755969925,36.032179176178445],[139.55041354106618,36.032858247331156],[139.54921772496925,36.0320577032355],[139.54878100654875,36.031857114485874],[139.54875355130326,36.031765149995046],[139.54712812396195,36.030617391739256],[139.54673173453094,36.030703401769635],[139.54607838400912,36.030245217358086],[139.54714263238128,36.029263210592084],[139.54772040899516,36.02871746815478],[139.54773754032186,36.02870237624697],[139.548227550593,36.02904650343612],[139.54938251367415,36.02965191990372],[139.55126375650636,36.0303826324952],[139.55190692011442,36.030718555870784]]]},"properties":{"KEY_CODE":"11233010001","PREF":"11","CITY":"233","CITY_NAME":"北本市","S_NAME":"北中丸一丁目","SETAI":"24"}},{"type":"Feature","geometry":{"type":"Polygon","coordinates":[[[139.55183455021012,36.03527131748817],[139.55098921871,36.03550210890553],[139.55007849504958,36.034855679246256],[139.5491539345462,36.03430854958095],[139.5496095635808,36.0337822061856],[139.55041354106618,36.032858247331156],[139.55099755969925,36.032179176178445],[139.55137723470517,36.03159968075966],[139.55190692011442,36.030718555870784],[139.55212129942566,36.03083537138767],[139.55274916780706,36.031079825605914],[139.55399923127916,36.03198049517727],[139.55450136110068,36.03222851641694],[139.55491409019461,36.032627436703585],[139.5520380906195,36.03487726887402],[139.55183455021012,36.03527131748817]]]},"properties":{"KEY_CODE":"11233010002","PREF":"11","CITY":"233","CITY_NAME":"北本市","S_NAME":"北中丸二丁目","SETAI":"34"}},{"type":"Feature","geometry":{"type":"Polygon","coordinates":[[[139.5491539345462,36.03430854958095],[139.54731681791768,36.03658691035303],[139.54286280955566,36.034131629827584],[139.5448022134628,36.03176591860141],[139.54736459077267,36.033712572098175],[139.5476253589857,36.033418242670656],[139.5491539345462,36.03430854958095]]]},"properties":{"KEY_CODE":"11233011001","PREF":"11","CITY":"233","CITY_NAME":"北本市","S_NAME":"山中一丁目","SETAI":"194"}},{"type":"Feature","geometry":{"type":"Polygon","coordinates":[[[139.5496095635808,36.0337822061856],[139.5491539345462,36.03430854958095],[139.5476253589857,36.033418242670656],[139.54736459077267,36.033712572098175],[139.5448022134628,36.03176591860141],[139.54607838400915,36.03024521735812],[139.54673173453094,36.030703401769635],[139.54712812396195,36.030617391739256],[139.54875355130326,36.031765149995046],[139.54878100654875,36.031857114485874],[139.54921772496925,36.0320577032355],[139.55041354106615,36.032858247331156],[139.5496095635808,36.0337822061856]]]},"properties":{"KEY_CODE":"11233011002","PREF":"11","CITY":"233","CITY_NAME":"北本市","S_NAME":"山中二丁目","SETAI":"33"}},{"type":"Feature","geometry":{"type":"Polygon","coordinates":[[[139.5331021535896,36.02711743852587],[139.53406280094313,36.02800706599868],[139.5353944588562,36.02910300083192],[139.5343055473486,36.030741536698116],[139.5341207644621,36.03043253179558],[139.53100138077872,36.0286357609455],[139.53244275867482,36.02705234866919],[139.5331021535896,36.02711743852587]]]},"properties":{"KEY_CODE":"11233012001","PREF":"11","CITY":"233","CITY_NAME":"北本市","S_NAME":"中央一丁目","SETAI":"228"}},{"type":"Feature","geometry":{"type":"Polygon","coordinates":[[[139.53100138077872,36.0286357609455],[139.5341207644621,36.03043253179558],[139.5343055473486,36.030741536698116],[139.53366277296348,36.03176099568771],[139.5304143727233,36.03013348841225],[139.52969472806916,36.02975766389559],[139.53100138077872,36.0286357609455]]]},"properties":{"KEY_CODE":"11233012002","PREF":"11","CITY":"233","CITY_NAME":"北本市","S_NAME":"中央二丁目","SETAI":"270"}},{"type":"Feature","geometry":{"type":"Polygon","coordinates":[[[139.5304143727233,36.03013348841225],[139.53366277296348,36.03176099568771],[139.53288452634914,36.03301338541536],[139.52969848714503,36.031374529227676],[139.5304143727233,36.03013348841225]]]},"properties":{"KEY_CODE":"11233012003","PREF":"11","CITY":"233","CITY_NAME":"北本市","S_NAME":"中央三丁目","SETAI":"156"}},{"type":"Feature","geometry":{"type":"Polygon","coordinates":[[[139.52969848714503,36.031374529227676],[139.53288452634914,36.03301338541536],[139.53286435841676,36.033050685695],[139.5315508916843,36.03527489851758],[139.5317478412307,36.03477003346796],[139.53011490258416,36.033805760136005],[139.5285900302494,36.0331268804169],[139.52933197144617,36.0328856003249],[139.52969848714503,36.031374529227676]]]},"properties":{"KEY_CODE":"11233012004","PREF":"11","CITY":"233","CITY_NAME":"北本市","S_NAME":"中央四丁目","SETAI":"250"}},{"type":"Feature","geometry":{"type":"Polygon","coordinates":[[[139.52911964290433,36.02624346671812],[139.5316096756037,36.026888348475644],[139.53244275867482,36.02705234866919],[139.53100138077872,36.0286357609455],[139.52969472806916,36.02975766389559],[139.52912413259747,36.029476850746],[139.5275961195143,36.028721724438064],[139.52911964290433,36.02624346671812]]]},"properties":{"KEY_CODE":"11233013001","PREF":"11","CITY":"233","CITY_NAME":"北本市","S_NAME":"本町一丁目","SETAI":"146"}},{"type":"Feature","geometry":{"type":"Polygon","coordinates":[[[139.52957160464555,36.02311768267862],[139.53032458452796,36.023847972245065],[139.53136764346925,36.02495253198937],[139.5316096756037,36.026888348475644],[139.52911964290433,36.02624346671812],[139.52944963532428,36.02532585312805],[139.52957160464555,36.02311768267862]]]},"properties":{"KEY_CODE":"11233013002","PREF":"11","CITY":"233","CITY_NAME":"北本市","S_NAME":"本町二丁目","SETAI":"193"}},{"type":"Feature","geometry":{"type":"Polygon","coordinates":[[[139.5324781666655,36.02323340742984],[139.5330512405132,36.025746591230025],[139.5331021535896,36.02711743852587],[139.53244275867482,36.02705234866919],[139.5316096756037,36.026888348475644],[139.53136764346925,36.02495253198937],[139.53032458452796,36.023847972245065],[139.5324781666655,36.02323340742984]]]},"properties":{"KEY_CODE":"11233013003","PREF":"11","CITY":"233","CITY_NAME":"北本市","S_NAME":"本町三丁目","SETAI":"201"}},{"type":"Feature","geometry":{"type":"Polygon","coordinates":[[[139.52771306744017,36.020946797237016],[139.52930436323325,36.02109803550121],[139.53137464086956,36.021328111051886],[139.53263813580335,36.02179515135109],[139.5324781666655,36.02323340742984],[139.53032458452796,36.023847972245065],[139.52957160464555,36.02311768267862],[139.52851862768904,36.02185589723324],[139.52771306744017,36.020946797237016]]]},"properties":{"KEY_CODE":"11233013004","PREF":"11","CITY":"233","CITY_NAME":"北本市","S_NAME":"本町四丁目","SETAI":"183"}},{"type":"Feature","geometry":{"type":"Polygon","coordinates":[[[139.52851862768904,36.02185589723324],[139.52957160464555,36.02311768267862],[139.52944963532428,36.02532585312805],[139.52911964290433,36.02624346671812],[139.52649832774895,36.025346386000116],[139.5271919755369,36.02412947638257],[139.52851862768904,36.02185589723324]]]},"properties":{"KEY_CODE":"11233013005","PREF":"11","CITY":"233","CITY_NAME":"北本市","S_NAME":"本町五丁目","SETAI":"290"}},{"type":"Feature","geometry":{"type":"Polygon","coordinates":[[[139.52649832774895,36.025346386000116],[139.52911964290433,36.02624346671812],[139.5275961195143,36.028721724438064],[139.52465625315514,36.027845136772825],[139.5241778283261,36.02736826423613],[139.52466044479297,36.02718338404446],[139.52649832774895,36.025346386000116]]]},"properties":{"KEY_CODE":"11233013006","PREF":"11","CITY":"233","CITY_NAME":"北本市","S_NAME":"本町六丁目","SETAI":"311"}},{"type":"Feature","geometry":{"type":"Polygon","coordinates":[[[139.52649832774895,36.025346386000116],[139.52466044479297,36.02718338404446],[139.5241778283261,36.02736826423613],[139.52390244947463,36.02709119970295],[139.52295880423665,36.02630718548665],[139.52357551644656,36.02546079685595],[139.52460412197723,36.02271262888286],[139.52543729177182,36.02277808716284],[139.5271919755369,36.02412947638257],[139.52649832774895,36.025346386000116]]]},"properties":{"KEY_CODE":"11233013007","PREF":"11","CITY":"233","CITY_NAME":"北本市","S_NAME":"本町七丁目","SETAI":"155"}},{"type":"Feature","geometry":{"type":"Polygon","coordinates":[[[139.52623481130377,36.02080035951926],[139.52771306744017,36.020946797237016],[139.52851862768904,36.02185589723324],[139.5271919755369,36.02412947638257],[139.52543729177182,36.02277808716284],[139.52623481130377,36.02080035951926]]]},"properties":{"KEY_CODE":"11233013008","PREF":"11","CITY":"233","CITY_NAME":"北本市","S_NAME":"本町八丁目","SETAI":"168"}},{"type":"Feature","geometry":{"type":"Polygon","coordinates":[[[139.5285900302494,36.0331268804169],[139.52641723285151,36.033036198042645],[139.52676263946736,36.03204257502179],[139.5281846593416,36.03008255560949],[139.52912413259747,36.029476850746],[139.52969472806916,36.02975766389559],[139.5304143727233,36.03013348841225],[139.52969848714503,36.031374529227676],[139.52933197144617,36.0328856003249],[139.5285900302494,36.0331268804169]]]},"properties":{"KEY_CODE":"11233014001","PREF":"11","CITY":"233","CITY_NAME":"北本市","S_NAME":"西高尾一丁目","SETAI":"284"}},{"type":"Feature","geometry":{"type":"Polygon","coordinates":[[[139.5268213858483,36.035502927756376],[139.5257711415423,36.03504773992398],[139.52491920540393,36.0352026093653],[139.52641723285151,36.033036198042645],[139.5285900302494,36.0331268804169],[139.53011490258416,36.033805760136005],[139.52914589174736,36.03455033408703],[139.5266614239029,36.033410315393326],[139.5263516736764,36.03421242458984],[139.52734537469462,36.034725932424216],[139.5268213858483,36.035502927756376]]]},"properties":{"KEY_CODE":"11233014002","PREF":"11","CITY":"233","CITY_NAME":"北本市","S_NAME":"西高尾二丁目","SETAI":"262"}},{"type":"Feature","geometry":{"type":"Polygon","coordinates":[[[139.52676263946736,36.03204257502179],[139.5252933715195,36.03283313574997],[139.5242619847858,36.03448271198265],[139.5237402422092,36.03423141957148],[139.524969962633,36.03220038177732],[139.52647201677112,36.030287240755975],[139.5275961195143,36.028721724438064],[139.52912413259747,36.029476850746],[139.5281846593416,36.03008255560949],[139.52676263946736,36.03204257502179]]]},"properties":{"KEY_CODE":"11233014003","PREF":"11","CITY":"233","CITY_NAME":"北本市","S_NAME":"西高尾三丁目","SETAI":"268"}},{"type":"Feature","geometry":{"type":"Polygon","coordinates":[[[139.5275961195143,36.028721724438064],[139.52647201677112,36.030287240755975],[139.5234116823167,36.02882719956045],[139.52276986521338,36.02840183364506],[139.52390244947463,36.02709119970295],[139.5241778283261,36.02736826423613],[139.52465625315514,36.027845136772825],[139.5275961195143,36.028721724438064]]]},"properties":{"KEY_CODE":"11233014004","PREF":"11","CITY":"233","CITY_NAME":"北本市","S_NAME":"西高尾四丁目","SETAI":"260"}},{"type":"Feature","geometry":{"type":"Polygon","coordinates":[[[139.5234116823167,36.02882719956045],[139.52647201677112,36.030287240755975],[139.524969962633,36.03220038177732],[139.52379968493034,36.031441161662016],[139.52188598077853,36.03116294848373],[139.5234116823167,36.02882719956045]]]},"properties":{"KEY_CODE":"11233014005","PREF":"11","CITY":"233","CITY_NAME":"北本市","S_NAME":"西高尾五丁目","SETAI":"342"}},{"type":"Feature","geometry":{"type":"Polygon","coordinates":[[[139.5237402422092,36.03423141957148],[139.52269333275888,36.03580187027558],[139.52175698499178,36.03533589488854],[139.52001450550995,36.033782432120006],[139.52089720384478,36.03268871182196],[139.52220419399862,36.03337021560731],[139.5232754962016,36.03246968962427],[139.52379968493034,36.031441161662016],[139.524969962633,36.03220038177732],[139.5237402422092,36.03423141957148]]]},"properties":{"KEY_CODE":"11233014006","PREF":"11","CITY":"233","CITY_NAME":"北本市","S_NAME":"西高尾六丁目","SETAI":"178"}},{"type":"Feature","geometry":{"type":"Polygon","coordinates":[[[139.52379968493034,36.031441161662016],[139.5232754962016,36.03246968962427],[139.52220419399862,36.03337021560731],[139.52089720384478,36.03268871182196],[139.52001450550995,36.033782432120006],[139.51814509303153,36.03198083533964],[139.51712438243723,36.031936384247665],[139.51758563900287,36.0313685282805],[139.5185107385377,36.031593569849505],[139.51945732680835,36.03006830994466],[139.52188598077853,36.03116294848373],[139.52379968493034,36.031441161662016]]]},"properties":{"KEY_CODE":"11233014007","PREF":"11","CITY":"233","CITY_NAME":"北本市","S_NAME":"西高尾七丁目","SETAI":"297"}},{"type":"Feature","geometry":{"type":"Polygon","coordinates":[[[139.5234116823167,36.02882719956045],[139.52188598077853,36.03116294848373],[139.51945732680835,36.03006830994466],[139.51823138255563,36.029525896624406],[139.51873838607494,36.02870236292836],[139.52174260145233,36.029667273249224],[139.52276986521338,36.02840183364506],[139.5234116823167,36.02882719956045]]]},"properties":{"KEY_CODE":"11233014008","PREF":"11","CITY":"233","CITY_NAME":"北本市","S_NAME":"西高尾八丁目","SETAI":"238"}},{"type":"Feature","geometry":{"type":"Polygon","coordinates":[[[139.53263813580335,36.02179515135109],[139.5350239961027,36.02321196520785],[139.5359960075039,36.02380937372746],[139.53406280094313,36.02800706599868],[139.5331021535896,36.02711743852587],[139.5330512405132,36.025746591230025],[139.5324781666655,36.02323340742984],[139.53263813580335,36.02179515135109]]]},"properties":{"KEY_CODE":"11233015001","PREF":"11","CITY":"233","CITY_NAME":"北本市","S_NAME":"緑一丁目","SETAI":"151"}},{"type":"Feature","geometry":{"type":"Polygon","coordinates":[[[139.5359960075039,36.02380937372746],[139.53848237518406,36.025332486474326],[139.53691776997502,36.02719053620658],[139.53544514872442,36.02913804424702],[139.5353944588562,36.02910300083192],[139.53406280094313,36.02800706599868],[139.5359960075039,36.02380937372746]]]},"properties":{"KEY_CODE":"11233015002","PREF":"11","CITY":"233","CITY_NAME":"北本市","S_NAME":"緑二丁目","SETAI":"295"}},{"type":"Feature","geometry":{"type":"Polygon","coordinates":[[[139.53873319877547,36.020156490948644],[139.540844170928,36.02185708718566],[139.54003510573492,36.023611324381974],[139.538533681234,36.025364450029464],[139.53848237518406,36.025332486474326],[139.5359960075039,36.02380937372746],[139.5350239961027,36.02321196520785],[139.53704316672074,36.02042438917793],[139.53812799807375,36.02093448587395],[139.53873319877547,36.020156490948644]]]},"properties":{"KEY_CODE":"11233015003","PREF":"11","CITY":"233","CITY_NAME":"北本市","S_NAME":"緑三丁目","SETAI":"306"}},{"type":"Feature","geometry":{"type":"Polygon","coordinates":[[[139.538746764054,36.02013902979558],[139.54034095024468,36.01797927183838],[139.54262093531688,36.018127305632184],[139.54427985501735,36.01835644330544],[139.54035065398156,36.0232190518316],[139.54003510573492,36.023611324381974],[139.540844170928,36.02185708718566],[139.53873319877547,36.020156490948644],[139.538746764054,36.02013902979558]]]},"properties":{"KEY_CODE":"11233015004","PREF":"11","CITY":"233","CITY_NAME":"北本市","S_NAME":"緑四丁目","SETAI":"287"}},{"type":"Feature","geometry":{"type":"Polygon","coordinates":[[[139.5213271752004,36.01036244784977],[139.51947025541887,36.011812490873254],[139.51818671995431,36.011559224689194],[139.51751727838405,36.01104046240431],[139.51665171056322,36.01153245167831],[139.51612289235055,36.0103415016885],[139.5149022619613,36.009784124506545],[139.51494466335748,36.008490306246436],[139.51525598776036,36.00823684255757],[139.51570951088547,36.00759419841075],[139.516706907807,36.008708533464045],[139.5172221078314,36.00645552566035],[139.51840238206185,36.006255180078206],[139.518353487144,36.007636131599966],[139.51915918160034,36.00708605485987],[139.51912752713346,36.00824892164378],[139.5198905917122,36.00934580206439],[139.5215395405088,36.010020313182075],[139.5213271752004,36.01036244784977]]]},"properties":{"KEY_CODE":"11233016001","PREF":"11","CITY":"233","CITY_NAME":"北本市","S_NAME":"石戸宿一丁目","SETAI":"54"}},{"type":"Feature","geometry":{"type":"Polygon","coordinates":[[[139.515499568423,36.00289994444921],[139.51654224368062,36.003003503003555],[139.5167484104864,36.00417359046268],[139.518660259949,36.00462430835841],[139.51808136488089,36.0055184179625],[139.51840238206185,36.006255180078206],[139.5172221078314,36.00645552566035],[139.516706907807,36.008708533464045],[139.51570951088547,36.00759419841075],[139.51390727923396,36.005630076711235],[139.513630779804,36.005406908792295],[139.51346462222585,36.00325383863228],[139.515499568423,36.00289994444921]]]},"properties":{"KEY_CODE":"11233016002","PREF":"11","CITY":"233","CITY_NAME":"北本市","S_NAME":"石戸宿二丁目","SETAI":"56"}},{"type":"Feature","geometry":{"type":"Polygon","coordinates":[[[139.51494466335748,36.008490306246436],[139.5145170091235,36.008155167988384],[139.51401624743482,36.008341292740106],[139.51393896764324,36.00835126475717],[139.5136580980245,36.008364937328956],[139.51225580252657,36.007689523172594],[139.51161186151188,36.00663868393167],[139.51102261415332,36.006762641688795],[139.51029416282094,36.00698206107085],[139.50939731079666,36.00741026380696],[139.50855745888023,36.006373348125656],[139.50912148409952,36.00528220614333],[139.5096731792745,36.00518908972022],[139.5097278946062,36.00506499326921],[139.51018663133482,36.00498094781604],[139.5120516874241,36.00537862954876],[139.51252969926597,36.00542413877338],[139.51355333421233,36.00538339686028],[139.51390727923396,36.005630076711235],[139.51570951088547,36.00759419841075],[139.51525598776036,36.00823684255757],[139.51494466335748,36.008490306246436]]]},"properties":{"KEY_CODE":"11233016003","PREF":"11","CITY":"233","CITY_NAME":"北本市","S_NAME":"石戸宿三丁目","SETAI":"56"}},{"type":"Feature","geometry":{"type":"Polygon","coordinates":[[[139.51355333421233,36.00538339686028],[139.51252969926597,36.00542413877338],[139.5120516874241,36.00537862954876],[139.51018663133482,36.00498094781604],[139.50974200924335,36.004808609505076],[139.5094519466121,36.00472596775589],[139.50856897455284,36.004324288858896],[139.50868622377854,36.00342769004952],[139.51007418622166,36.002093999031636],[139.51228509364742,36.00067923490499],[139.51418816357162,36.00220725619257],[139.515499568423,36.00289994444921],[139.51346462222585,36.00325383863228],[139.513630779804,36.005406908792295],[139.51355333421233,36.00538339686028]]]},"properties":{"KEY_CODE":"11233016004","PREF":"11","CITY":"233","CITY_NAME":"北本市","S_NAME":"石戸宿四丁目","SETAI":"133"}},{"type":"Feature","geometry":{"type":"Polygon","coordinates":[[[139.5094519466121,36.00472596775589],[139.50708580698455,36.00467054663076],[139.506976587196,36.00496122961925],[139.504729686255,36.00470769881306],[139.50215999879708,36.00393469189693],[139.50120013219214,36.003064219535545],[139.5006941126776,36.00235276796631],[139.50061359812088,36.00216924204314],[139.5008666159838,36.0009605771796],[139.5013858224527,36.00040511464535],[139.5022457902584,35.99966295778846],[139.50237228945284,35.99930377655187],[139.50234232155506,35.99908770889265],[139.50226033416254,35.998655441807585],[139.50142887589766,35.99684448704013],[139.50227397014615,35.99589975354089],[139.50521228474184,35.996324076592465],[139.5079712116133,35.995943625049215],[139.50801542906623,35.99730249839477],[139.50681776816864,35.998878493602156],[139.50783998299934,35.999698931582294],[139.5072467885114,36.00072991068396],[139.50751984955932,36.00129082070597],[139.51007418622166,36.002093999031636],[139.50868622377854,36.00342769004952],[139.50856897455284,36.004324288858896],[139.5094519466121,36.00472596775589]]]},"properties":{"KEY_CODE":"11233016005","PREF":"11","CITY":"233","CITY_NAME":"北本市","S_NAME":"石戸宿五丁目","SETAI":"74"}},{"type":"Feature","geometry":{"type":"Polygon","coordinates":[[[139.50677272417292,36.009819703652745],[139.50570423516285,36.00985698318203],[139.50433096278383,36.00984370404199],[139.5035596370439,36.008650158148924],[139.50378892600776,36.007645594619504],[139.50407210742654,36.0068818598029],[139.5040839408897,36.006636079847226],[139.50398999204583,36.00540885761295],[139.50215999879708,36.00393469189693],[139.504729686255,36.00470769881306],[139.506976587196,36.00496122961925],[139.50708580698455,36.00467054663076],[139.5094519466121,36.00472596775589],[139.50974200924335,36.004808609505076],[139.5097278946062,36.00506499326921],[139.5096731792745,36.00518908972022],[139.50912148409952,36.00528220614333],[139.50855745888023,36.006373348125656],[139.50939731079666,36.00741026380696],[139.50853182070196,36.00833183295033],[139.5076116917275,36.00902243635756],[139.50754932194852,36.00904718160446],[139.5070717531658,36.0089230629457],[139.50677272417292,36.009819703652745]]]},"properties":{"KEY_CODE":"11233016006","PREF":"11","CITY":"233","CITY_NAME":"北本市","S_NAME":"石戸宿六丁目","SETAI":"51"}},{"type":"Feature","geometry":{"type":"Polygon","coordinates":[[[139.5095284383518,36.01573707950821],[139.50916358670847,36.0155327210316],[139.50921114277753,36.015671408231896],[139.50883851976565,36.01647987272713],[139.5084969425727,36.01680302969501],[139.50799052908036,36.0170121140552],[139.50778088533812,36.016424367680784],[139.50699078885657,36.01359030515497],[139.5068373184053,36.01332336346995],[139.50608253297185,36.012887643042895],[139.50535137584575,36.012085005393686],[139.50543065744094,36.01157196260221],[139.50570423516285,36.00985698318203],[139.50677272417292,36.009819703652745],[139.5070717531658,36.0089230629457],[139.5074778428023,36.00920554673841],[139.50757416560762,36.00977450755304],[139.5077085793245,36.009938426213424],[139.50811788496702,36.01009383319812],[139.50844782275507,36.010208352222215],[139.50879071951155,36.0105600611734],[139.50930213996145,36.01098055598429],[139.50942748072856,36.01100722534838],[139.50969870591825,36.01092220578298],[139.51028371101015,36.011307900630506],[139.50946816449454,36.01143181843536],[139.5091155435912,36.01298358773986],[139.50960812943617,36.014626986822776],[139.5095284383518,36.01573707950821]]]},"properties":{"KEY_CODE":"11233016007","PREF":"11","CITY":"233","CITY_NAME":"北本市","S_NAME":"石戸宿七丁目","SETAI":"39"}},{"type":"Feature","geometry":{"type":"Polygon","coordinates":[[[139.50799052908036,36.0170121140552],[139.50820654813538,36.018010032103206],[139.5066790869358,36.01773373913081],[139.5053956277376,36.01811895206052],[139.5053945004516,36.01709482545053],[139.4984836492296,36.017848247941195],[139.49825914133456,36.01531842077871],[139.49830437547666,36.015028106844156],[139.49882915577527,36.01414620491342],[139.49928336291043,36.0137768341509],[139.5012461419124,36.013125463154154],[139.50326817855614,36.01289325796935],[139.50473841045965,36.011911378679876],[139.50433096278383,36.00984370404199],[139.50570423516285,36.00985698318203],[139.50543065744094,36.01157196260221],[139.50535137584575,36.012085005393686],[139.50608253297185,36.012887643042895],[139.5068373184053,36.01332336346995],[139.50699078885657,36.01359030515497],[139.50778088533812,36.016424367680784],[139.50799052908036,36.0170121140552]]]},"properties":{"KEY_CODE":"11233016008","PREF":"11","CITY":"233","CITY_NAME":"北本市","S_NAME":"石戸宿八丁目","SETAI":"45"}},{"type":"Feature","geometry":{"type":"Polygon","coordinates":[[[139.52543729177182,36.02277808716284],[139.52460412197723,36.02271262888286],[139.52357551644656,36.02546079685595],[139.523193765024,36.02502267650615],[139.5230394356423,36.02478805496722],[139.52297116380524,36.02445946499637],[139.52274671890015,36.024106727231086],[139.52259671902158,36.023290651305636],[139.5222897430054,36.02311775488574],[139.52198469185592,36.02299543294943],[139.5229643241251,36.022005318055655],[139.52400506201823,36.02161276908816],[139.52392448890984,36.02051892892637],[139.52623481130377,36.02080035951926],[139.52543729177182,36.02277808716284]]]},"properties":{"KEY_CODE":"11233017001","PREF":"11","CITY":"233","CITY_NAME":"北本市","S_NAME":"石戸一丁目","SETAI":"112"}},{"type":"Feature","geometry":{"type":"Polygon","coordinates":[[[139.52295880423665,36.02630718548665],[139.52294460491538,36.02629731226076],[139.5223491414464,36.02628544981904],[139.5209061143744,36.02634831656949],[139.51856751490945,36.0259948123592],[139.51868012375664,36.02580810796504],[139.51894641070396,36.02492829279369],[139.51868433001889,36.023622755133715],[139.52065973420818,36.023187642607915],[139.5222897430054,36.02311775488574],[139.52259671902158,36.023290651305636],[139.52274671890015,36.024106727231086],[139.52297116380524,36.02445946499637],[139.5230394356423,36.02478805496722],[139.523193765024,36.02502267650615],[139.52357551644656,36.02546079685595],[139.52295880423665,36.02630718548665]]]},"properties":{"KEY_CODE":"11233017002","PREF":"11","CITY":"233","CITY_NAME":"北本市","S_NAME":"石戸二丁目","SETAI":"51"}},{"type":"Feature","geometry":{"type":"Polygon","coordinates":[[[139.51811615356144,36.02704732847321],[139.51614136096285,36.0271030527043],[139.51360935381408,36.02598320338751],[139.51415766740556,36.02510515097318],[139.5141868674117,36.02507597063707],[139.515088912304,36.02449431052808],[139.51707048338756,36.02383386105566],[139.51734222935153,36.02269179000885],[139.5167711828926,36.02249745165717],[139.51718867842686,36.02100350944556],[139.5181302251406,36.0213705565483],[139.51923777160445,36.023496183404575],[139.51868433001889,36.023622755133715],[139.51894641070396,36.02492829279369],[139.51868012375664,36.02580810796504],[139.51856751490945,36.0259948123592],[139.51811615356144,36.02704732847321]]]},"properties":{"KEY_CODE":"11233017003","PREF":"11","CITY":"233","CITY_NAME":"北本市","S_NAME":"石戸三丁目","SETAI":"43"}},{"type":"Feature","geometry":{"type":"Polygon","coordinates":[[[139.52392448890984,36.02051892892637],[139.52400506201823,36.02161276908816],[139.5229643241251,36.022005318055655],[139.52198469185592,36.02299543294943],[139.52065973420818,36.023187642607915],[139.51923777160445,36.023496183404575],[139.5181302251406,36.0213705565483],[139.51985976956414,36.0201031115054],[139.5220959145864,36.0203276028076],[139.52392448890984,36.02051892892637]]]},"properties":{"KEY_CODE":"11233017004","PREF":"11","CITY":"233","CITY_NAME":"北本市","S_NAME":"石戸四丁目","SETAI":"297"}},{"type":"Feature","geometry":{"type":"Polygon","coordinates":[[[139.52937522627025,36.01807071333572],[139.52950619423228,36.01961320345184],[139.53007168995777,36.02063805325664],[139.52930436323325,36.02109803550121],[139.52771306744017,36.020946797237016],[139.52623481130377,36.02080035951926],[139.52392448890984,36.02051892892637],[139.5220959145864,36.0203276028076],[139.52440480269334,36.018523760474395],[139.5239522155773,36.01772137409063],[139.52511905747576,36.01737111858237],[139.5259471804834,36.01858637827872],[139.52937522627025,36.01807071333572]]]},"properties":{"KEY_CODE":"11233017005","PREF":"11","CITY":"233","CITY_NAME":"北本市","S_NAME":"石戸五丁目","SETAI":"235"}},{"type":"Feature","geometry":{"type":"Polygon","coordinates":[[[139.52937522627025,36.01807071333572],[139.5259471804834,36.01858637827872],[139.52511905747576,36.01737111858237],[139.5258986453926,36.016363667827],[139.52768347349198,36.015443192950684],[139.528069957251,36.01479229597558],[139.52869076865537,36.01498608849907],[139.53155946550672,36.015500266526345],[139.53022649048694,36.01748200544814],[139.52937522627025,36.01807071333572]]]},"properties":{"KEY_CODE":"11233017006","PREF":"11","CITY":"233","CITY_NAME":"北本市","S_NAME":"石戸六丁目","SETAI":"161"}},{"type":"Feature","geometry":{"type":"Polygon","coordinates":[[[139.53458658321577,36.01294182945386],[139.53291138447113,36.01298354513457],[139.5322063807001,36.013911835446],[139.53195063580617,36.01418828083963],[139.53155946550672,36.015500266526345],[139.52869076865537,36.01498608849907],[139.5282104622259,36.014549462361195],[139.52729179241598,36.01384934901498],[139.52675484923165,36.013292549727794],[139.5257431197122,36.0120633127864],[139.52951436601703,36.012560357000275],[139.5311758754679,36.0122906076223],[139.53464805281925,36.01217041202736],[139.53458658321577,36.01294182945386]]]},"properties":{"KEY_CODE":"11233017007","PREF":"11","CITY":"233","CITY_NAME":"北本市","S_NAME":"石戸七丁目","SETAI":"193"}},{"type":"Feature","geometry":{"type":"Polygon","coordinates":[[[139.52675484923165,36.013292549727794],[139.52729179241598,36.01384934901498],[139.5282104622259,36.014549462361195],[139.528069957251,36.01479229597558],[139.52768347349198,36.015443192950684],[139.5258986453926,36.016363667827],[139.52511905747576,36.01737111858237],[139.5239522155773,36.01772137409063],[139.52316116106843,36.01795882573669],[139.52127238932852,36.01714279006124],[139.52119188381624,36.01584887764782],[139.52352839503055,36.015142771078786],[139.52324985615746,36.01475914560985],[139.5251976614762,36.01386240569017],[139.5254363390188,36.01384516055827],[139.52675484923165,36.013292549727794]]]},"properties":{"KEY_CODE":"11233017008","PREF":"11","CITY":"233","CITY_NAME":"北本市","S_NAME":"石戸八丁目","SETAI":"69"}},{"type":"Feature","geometry":{"type":"Polygon","coordinates":[[[139.52255734255417,36.011240288321325],[139.52401397379882,36.011895817593775],[139.5257431197122,36.0120633127864],[139.52675484923165,36.013292549727794],[139.5254363390188,36.01384516055827],[139.5251976614762,36.01386240569017],[139.52324985615746,36.01475914560985],[139.52352839503055,36.015142771078786],[139.52119188381624,36.01584887764782],[139.5209034384413,36.015459340957236],[139.5187094530215,36.0146423572929],[139.51898836523924,36.01262954465711],[139.51947025541887,36.011812490873254],[139.5213271752004,36.01036244784977],[139.5220951003732,36.01083670278123],[139.52255734255417,36.011240288321325]]]},"properties":{"KEY_CODE":"11233017009","PREF":"11","CITY":"233","CITY_NAME":"北本市","S_NAME":"石戸九丁目","SETAI":"88"}},{"type":"Feature","geometry":{"type":"Polygon","coordinates":[[[139.54177713192976,36.012750149617965],[139.54167738204202,36.012951993790075],[139.54091649720607,36.01257574042481],[139.54175752545927,36.012466390480775],[139.54177713192976,36.012750149617965]]]},"properties":{"KEY_CODE":"112330180","PREF":"11","CITY":"233","CITY_NAME":"北本市","S_NAME":"大字下石戸上","SETAI":"9"}},{"type":"Feature","geometry":{"type":"Polygon","coordinates":[[[139.54262093531688,36.018127305632184],[139.54034095024468,36.01797927183838],[139.538746764054,36.02013902979558],[139.5376551151531,36.0185518394374],[139.5370655753852,36.01788596453549],[139.53764457356868,36.017648611863976],[139.5367591159285,36.01663056457594],[139.5351697521287,36.01566596311962],[139.5349360666753,36.0148683668498],[139.53492133753656,36.01478117181215],[139.53492790941635,36.0147394303979],[139.53502189402835,36.01451385261558],[139.5353714487484,36.0132694234041],[139.53529100029456,36.01316525168823],[139.53458658321577,36.01294182945386],[139.53464805281925,36.01217041202736],[139.5367012315011,36.012691853418495],[139.53856522885658,36.01290721580903],[139.54091649720607,36.01257574042481],[139.54167738204202,36.012951993790075],[139.5421587753903,36.01317031328441],[139.5423654979333,36.01331350694283],[139.54289665513406,36.01455280237486],[139.54550614725693,36.01503296672019],[139.54422876847346,36.01605033146834],[139.54414643744028,36.016778232622],[139.5427825158978,36.01656291927807],[139.54262093531688,36.018127305632184]]]},"properties":{"KEY_CODE":"112330190","PREF":"11","CITY":"233","CITY_NAME":"北本市","S_NAME":"大字下石戸下","SETAI":"911"}},{"type":"Feature","geometry":{"type":"Polygon","coordinates":[[[139.5141868674117,36.02507597063707],[139.5142220091758,36.02409204774435],[139.51341032446712,36.02352564839784],[139.51371182169328,36.02116139439336],[139.5144328103212,36.019498180728554],[139.51985976956414,36.0201031115054],[139.5181302251406,36.0213705565483],[139.51718867842686,36.02100350944556],[139.5167711828926,36.02249745165717],[139.51734222935153,36.02269179000885],[139.51707048338756,36.02383386105566],[139.515088912304,36.02449431052808],[139.5141868674117,36.02507597063707]]]},"properties":{"KEY_CODE":"11233021001","PREF":"11","CITY":"233","CITY_NAME":"北本市","S_NAME":"荒井一丁目","SETAI":"91"}},{"type":"Feature","geometry":{"type":"Polygon","coordinates":[[[139.5239522155773,36.01772137409063],[139.52440480269334,36.018523760474395],[139.5220959145864,36.0203276028076],[139.51985976956414,36.0201031115054],[139.5144328103212,36.019498180728554],[139.5141179141871,36.01894068066622],[139.51435829468633,36.01824083155039],[139.51442480570884,36.01754558771624],[139.5148101398818,36.01761996360813],[139.5180956324277,36.018141545066705],[139.5187094530215,36.0146423572929],[139.5209034384413,36.015459340957236],[139.52119188381624,36.01584887764782],[139.52127238932852,36.01714279006124],[139.52316116106843,36.01795882573669],[139.5239522155773,36.01772137409063]]]},"properties":{"KEY_CODE":"11233021002","PREF":"11","CITY":"233","CITY_NAME":"北本市","S_NAME":"荒井二丁目","SETAI":"151"}},{"type":"Feature","geometry":{"type":"Polygon","coordinates":[[[139.51947025541887,36.011812490873254],[139.51898836523924,36.01262954465711],[139.5187094530215,36.0146423572929],[139.5180956324277,36.018141545066705],[139.5148101398818,36.01761996360813],[139.5156556408759,36.015324149765185],[139.51575148355724,36.01508558032815],[139.51601781778717,36.01453098561175],[139.51614440846413,36.01402664423709],[139.5156280004258,36.014028458027134],[139.51603892811204,36.01245612343093],[139.5166183221721,36.01253878253264],[139.51665171056322,36.01153245167831],[139.51751727838405,36.01104046240431],[139.51818671995431,36.011559224689194],[139.51947025541887,36.011812490873254]]]},"properties":{"KEY_CODE":"11233021003","PREF":"11","CITY":"233","CITY_NAME":"北本市","S_NAME":"荒井三丁目","SETAI":"132"}},{"type":"Feature","geometry":{"type":"Polygon","coordinates":[[[139.5081511791958,36.01910164570619],[139.50655638577996,36.01890718867095],[139.50605450435492,36.01918397330523],[139.50350243685546,36.01929366054811],[139.4999513860759,36.01980830319708],[139.49909199151807,36.01910393071023],[139.4984836492296,36.017848247941195],[139.5053945004516,36.01709482545053],[139.5053956277376,36.01811895206052],[139.5066790869358,36.01773373913081],[139.50820654813538,36.018010032103206],[139.50799052908036,36.0170121140552],[139.5084969425727,36.01680302969501],[139.50883851976565,36.01647987272713],[139.50921114277753,36.015671408231896],[139.50916358670847,36.0155327210316],[139.5095284383518,36.01573707950821],[139.51176110752266,36.016605373824525],[139.51406513788785,36.01746870945548],[139.51442480570884,36.01754558771624],[139.51435829468633,36.01824083155039],[139.5141179141871,36.01894068066622],[139.5144328103212,36.019498180728554],[139.51193177211087,36.01940636307197],[139.50985695854143,36.01956613510234],[139.5081511791958,36.01910164570619]]]},"properties":{"KEY_CODE":"11233021004","PREF":"11","CITY":"233","CITY_NAME":"北本市","S_NAME":"荒井四丁目","SETAI":"56"}},{"type":"Feature","geometry":{"type":"Polygon","coordinates":[[[139.51575148355724,36.01508558032815],[139.5156556408759,36.015324149765185],[139.5148101398818,36.01761996360813],[139.51442480570884,36.01754558771624],[139.51406513788785,36.01746870945548],[139.51176110752266,36.016605373824525],[139.5095284383518,36.01573707950821],[139.50960812943617,36.014626986822776],[139.5091155435912,36.01298358773986],[139.50946816449454,36.01143181843536],[139.51028371101015,36.011307900630506],[139.51090100458472,36.011465279847904],[139.51131501671622,36.01139018806512],[139.51250012551412,36.01162471639264],[139.51247561689758,36.011707796421675],[139.51244101785477,36.012052000162136],[139.51253769644444,36.012350506607646],[139.51278113374184,36.012669292032626],[139.51379495311915,36.013346472836474],[139.51498724551442,36.014120482321985],[139.51552696046957,36.01402935671388],[139.51614440846413,36.01402664423709],[139.51601781778717,36.01453098561175],[139.51575148355724,36.01508558032815]]]},"properties":{"KEY_CODE":"11233021005","PREF":"11","CITY":"233","CITY_NAME":"北本市","S_NAME":"荒井五丁目","SETAI":"57"}},{"type":"Feature","geometry":{"type":"Polygon","coordinates":[[[139.5156280004258,36.014028458027134],[139.51552696046957,36.01402935671388],[139.51498724551442,36.014120482321985],[139.51379495311915,36.013346472836474],[139.51278113374184,36.012669292032626],[139.51253769644444,36.012350506607646],[139.51244101785477,36.012052000162136],[139.51247561689758,36.011707796421675],[139.51250012551412,36.01162471639264],[139.51131501671622,36.01139018806512],[139.51090100458472,36.011465279847904],[139.51028371101015,36.011307900630506],[139.50969870591825,36.01092220578298],[139.50942748072856,36.01100722534838],[139.50930213996145,36.01098055598429],[139.50879071951155,36.0105600611734],[139.50844782275507,36.010208352222215],[139.50811788496702,36.01009383319812],[139.5077085793245,36.009938426213424],[139.50757416560762,36.00977450755304],[139.5074778428023,36.00920554673841],[139.50754932194852,36.00904718160446],[139.5076116917275,36.00902243635756],[139.50853182070196,36.00833183295033],[139.50939731079666,36.00741026380696],[139.51029416282094,36.00698206107085],[139.51102261415332,36.006762641688795],[139.51161186151188,36.00663868393167],[139.51225580252657,36.007689523172594],[139.5136580980245,36.008364937328956],[139.51393896764324,36.00835126475717],[139.51401624743482,36.008341292740106],[139.5145170091235,36.008155167988384],[139.51494466335748,36.008490306246436],[139.5149022619613,36.009784124506545],[139.51612289235055,36.0103415016885],[139.51665171056322,36.01153245167831],[139.5166183221721,36.01253878253264],[139.51603892811204,36.01245612343093],[139.5156280004258,36.014028458027134]]]},"properties":{"KEY_CODE":"11233021006","PREF":"11","CITY":"233","CITY_NAME":"北本市","S_NAME":"荒井六丁目","SETAI":"21"}},{"type":"Feature","geometry":{"type":"Polygon","coordinates":[[[139.52295880423665,36.02630718548665],[139.52390244947463,36.02709119970295],[139.52276986521338,36.02840183364506],[139.52174260145233,36.029667273249224],[139.51873838607494,36.02870236292836],[139.51734597779307,36.02795192418266],[139.51811615356144,36.02704732847321],[139.51856751490945,36.0259948123592],[139.5209061143744,36.02634831656949],[139.5223491414464,36.02628544981904],[139.52294460491538,36.02629731226076],[139.52295880423665,36.02630718548665]]]},"properties":{"KEY_CODE":"11233023001","PREF":"11","CITY":"233","CITY_NAME":"北本市","S_NAME":"高尾一丁目","SETAI":"332"}},{"type":"Feature","geometry":{"type":"Polygon","coordinates":[[[139.51811615356144,36.02704732847321],[139.51734597779307,36.02795192418266],[139.51873838607494,36.02870236292836],[139.51823138255563,36.029525896624406],[139.51945732680835,36.03006830994466],[139.5185107385377,36.031593569849505],[139.51758563900287,36.0313685282805],[139.51711236196584,36.03073474263265],[139.51601960581073,36.03054631073882],[139.51595159533954,36.030482169427394],[139.51371882844032,36.0295563410721],[139.51290206500846,36.029330824386435],[139.51258109129265,36.029078851704135],[139.5132033844271,36.02763552659711],[139.51360935381408,36.02598320338751],[139.51614136096285,36.0271030527043],[139.51811615356144,36.02704732847321]]]},"properties":{"KEY_CODE":"11233023002","PREF":"11","CITY":"233","CITY_NAME":"北本市","S_NAME":"高尾二丁目","SETAI":"169"}},{"type":"Feature","geometry":{"type":"Polygon","coordinates":[[[139.51415577764377,36.032953160909045],[139.51384602711397,36.033375711059904],[139.51297831769674,36.03331915951296],[139.51276538444932,36.0332596054597],[139.51212926978616,36.03366647559367],[139.51272803671137,36.03120050773778],[139.51290206500846,36.029330824386435],[139.51371882844032,36.0295563410721],[139.51595159533954,36.030482169427394],[139.51601960581073,36.03054631073882],[139.5157292897469,36.03079766487746],[139.51507529253715,36.03143151963477],[139.51504029948077,36.03145420390138],[139.51453833809214,36.031616506899404],[139.51397869912677,36.032426566274374],[139.51415577764377,36.032953160909045]]]},"properties":{"KEY_CODE":"11233023003","PREF":"11","CITY":"233","CITY_NAME":"北本市","S_NAME":"高尾三丁目","SETAI":"19"}},{"type":"Feature","geometry":{"type":"Polygon","coordinates":[[[139.51102034359553,36.03407407222348],[139.5105035774864,36.03441518812122],[139.51007018679198,36.03441782533635],[139.5098472028069,36.03451997331679],[139.50940155970443,36.03465576011346],[139.5086012238228,36.03466523704365],[139.50756606944447,36.03442486598026],[139.50716714061556,36.03429105423543],[139.5059334809203,36.03409170845407],[139.5044433105832,36.03415894229311],[139.50369740937433,36.03413603535224],[139.50256078588214,36.03426230063095],[139.5017230795175,36.03432753851366],[139.50005556479786,36.03452177527447],[139.49716694751336,36.03487811748638],[139.49654311028718,36.03523530599508],[139.4958136277556,36.03482313611473],[139.494760624253,36.03444839334716],[139.4953784328319,36.033142571926],[139.49715954231522,36.03172426550767],[139.49825990206043,36.031149046598706],[139.4992421718891,36.030561270943586],[139.50083573986396,36.03097977676175],[139.50640760086713,36.030341329254995],[139.50669233297776,36.03026433397884],[139.5075289510166,36.02982907097212],[139.50814754007084,36.029806105604706],[139.50875638649407,36.02984863281192],[139.50884417472273,36.02972788976044],[139.50892505574197,36.02954290210517],[139.50905085011928,36.02941809822408],[139.50914541057784,36.0294050040416],[139.51030098055705,36.031018430633345],[139.509731564212,36.03199284591149],[139.51085613794058,36.03132529018197],[139.51272803671137,36.03120050773778],[139.51212926978616,36.03366647559367],[139.51180894713895,36.03391995743821],[139.51169439691347,36.033576942073566],[139.51147778305236,36.03391927282746],[139.51102034359553,36.03407407222348]]]},"properties":{"KEY_CODE":"11233023004","PREF":"11","CITY":"233","CITY_NAME":"北本市","S_NAME":"高尾四丁目","SETAI":"57"}},{"type":"Feature","geometry":{"type":"Polygon","coordinates":[[[139.51272803671137,36.03120050773778],[139.51085613794058,36.03132529018197],[139.509731564212,36.03199284591149],[139.51030098055705,36.031018430633345],[139.50914541057784,36.0294050040416],[139.50940103520102,36.02822321440562],[139.50941420078559,36.02797241868465],[139.51209690863354,36.02770015131658],[139.5123396869587,36.027600689717865],[139.5132033844271,36.02763552659711],[139.51258109129265,36.029078851704135],[139.51290206500846,36.029330824386435],[139.51272803671137,36.03120050773778]]]},"properties":{"KEY_CODE":"11233023005","PREF":"11","CITY":"233","CITY_NAME":"北本市","S_NAME":"高尾五丁目","SETAI":"45"}},{"type":"Feature","geometry":{"type":"Polygon","coordinates":[[[139.50914541057784,36.0294050040416],[139.50905085011928,36.02941809822408],[139.50892505574197,36.02954290210517],[139.50884417472273,36.02972788976044],[139.50875638649407,36.02984863281192],[139.50814754007084,36.029806105604706],[139.5075289510166,36.02982907097212],[139.50669233297776,36.03026433397884],[139.50640760086713,36.030341329254995],[139.50083573986396,36.03097977676175],[139.49937563791198,36.03042944301103],[139.49953509296716,36.029963012201684],[139.49997089912702,36.02950573159566],[139.5023578196563,36.02826752288859],[139.5029803774839,36.02821023680117],[139.50428819331685,36.02783325011603],[139.50493219348493,36.027470335398576],[139.50480157087395,36.0260411651032],[139.50486169112673,36.02524742578506],[139.50467421477288,36.02472891381387],[139.50552076396374,36.024802940775196],[139.50728491997964,36.02423334624145],[139.50877734275963,36.02406792791895],[139.5086415396319,36.0249471957783],[139.50977486162182,36.024943880242844],[139.51088106378398,36.02489451473448],[139.5104666525671,36.02641013825443],[139.50979986819317,36.02686227365164],[139.50941420078559,36.02797241868465],[139.50940103520102,36.02822321440562],[139.50914541057784,36.0294050040416]]]},"properties":{"KEY_CODE":"11233023006","PREF":"11","CITY":"233","CITY_NAME":"北本市","S_NAME":"高尾六丁目","SETAI":"65"}},{"type":"Feature","geometry":{"type":"Polygon","coordinates":[[[139.5132033844271,36.02763552659711],[139.5123396869587,36.027600689717865],[139.51209690863354,36.02770015131658],[139.50941420078559,36.02797241868465],[139.50979986819317,36.02686227365164],[139.5104666525671,36.02641013825443],[139.51088106378398,36.02489451473448],[139.50977486162182,36.024943880242844],[139.5100922563641,36.02369912862506],[139.51062971781295,36.02333965094797],[139.51246789538888,36.02312957208691],[139.51341032446712,36.02352564839784],[139.5142220091758,36.02409204774435],[139.5141868674117,36.02507597063707],[139.51415766740556,36.02510515097318],[139.51360935381408,36.02598320338751],[139.5132033844271,36.02763552659711]]]},"properties":{"KEY_CODE":"11233023007","PREF":"11","CITY":"233","CITY_NAME":"北本市","S_NAME":"高尾七丁目","SETAI":"43"}},{"type":"Feature","geometry":{"type":"Polygon","coordinates":[[[139.50977486162182,36.024943880242844],[139.5086415396319,36.0249471957783],[139.50877734275963,36.02406792791895],[139.50866679388753,36.02183247894096],[139.5081511791958,36.01910164570619],[139.50985695854143,36.01956613510234],[139.51193177211087,36.01940636307197],[139.5144328103212,36.019498180728554],[139.51371182169328,36.02116139439336],[139.51341032446712,36.02352564839784],[139.51246789538888,36.02312957208691],[139.51062971781295,36.02333965094797],[139.5100922563641,36.02369912862506],[139.50977486162182,36.024943880242844]]]},"properties":{"KEY_CODE":"11233023008","PREF":"11","CITY":"233","CITY_NAME":"北本市","S_NAME":"高尾八丁目","SETAI":"45"}},{"type":"Feature","geometry":{"type":"Polygon","coordinates":[[[139.50877734275963,36.02406792791895],[139.50728491997964,36.02423334624145],[139.50552076396374,36.024802940775196],[139.50467421477288,36.02472891381387],[139.50419387522967,36.02381496485052],[139.50366929684873,36.02320209903134],[139.50254390520973,36.022107268397896],[139.50223967666636,36.02177426119632],[139.50160388892164,36.02080733441604],[139.4999513860759,36.01980830319708],[139.50350243685546,36.01929366054811],[139.50605450435492,36.01918397330523],[139.50655638577996,36.01890718867095],[139.5081511791958,36.01910164570619],[139.50866679388753,36.02183247894096],[139.50877734275963,36.02406792791895]]]},"properties":{"KEY_CODE":"11233023009","PREF":"11","CITY":"233","CITY_NAME":"北本市","S_NAME":"高尾九丁目","SETAI":"37"}},{"type":"Feature","geometry":{"type":"Polygon","coordinates":[[[139.531311116682,36.0182645045125],[139.53050144572026,36.01864354373961],[139.53065764478396,36.02002205513977],[139.53007168995777,36.02063805325664],[139.52950619423228,36.01961320345184],[139.52937522627025,36.01807071333572],[139.53022649048694,36.01748200544814],[139.53155946550672,36.015500266526345],[139.53195063580617,36.01418828083963],[139.5322063807001,36.013911835446],[139.53291138447113,36.01298354513457],[139.53458658321577,36.01294182945386],[139.53529100029456,36.01316525168823],[139.5353714487484,36.0132694234041],[139.53502189402835,36.01451385261558],[139.53492790941635,36.0147394303979],[139.53492133753656,36.01478117181215],[139.5349360666753,36.0148683668498],[139.5351697521287,36.01566596311962],[139.5367591159285,36.01663056457594],[139.53764457356868,36.017648611863976],[139.5370655753852,36.01788596453549],[139.53650713691326,36.01751897878874],[139.5348290445135,36.017541122414855],[139.53449563441424,36.01783113911664],[139.53330645215928,36.01720619439374],[139.53269115074616,36.01738037886254],[139.53267148366334,36.0174371070061],[139.5326047701108,36.017629825239155],[139.5324604447008,36.017649001665205],[139.53148805508462,36.01807582360573],[139.531311116682,36.0182645045125]]]},"properties":{"KEY_CODE":"112330240","PREF":"11","CITY":"233","CITY_NAME":"北本市","S_NAME":"栄","SETAI":"1741"}},{"type":"Feature","geometry":{"type":"Polygon","coordinates":[[[139.53873319877547,36.020156490948644],[139.53812799807375,36.02093448587395],[139.53704316672074,36.02042438917793],[139.5350239961027,36.02321196520785],[139.53263813580335,36.02179515135109],[139.53137464086956,36.021328111051886],[139.52930436323325,36.02109803550121],[139.53007168995777,36.02063805325664],[139.53065764478396,36.02002205513977],[139.53050144572026,36.01864354373961],[139.531311116682,36.0182645045125],[139.53148805508462,36.01807582360573],[139.5324604447008,36.017649001665205],[139.5326047701108,36.017629825239155],[139.53267148366334,36.0174371070061],[139.53269115074616,36.01738037886254],[139.53330645215928,36.01720619439374],[139.53449563441424,36.01783113911664],[139.5348290445135,36.017541122414855],[139.53650713691326,36.01751897878874],[139.5370655753852,36.01788596453549],[139.5376551151531,36.0185518394374],[139.538746764054,36.02013902979558],[139.53873319877547,36.020156490948644]]]},"properties":{"KEY_CODE":"11233025001","PREF":"11","CITY":"233","CITY_NAME":"北本市","S_NAME":"下石戸一丁目","SETAI":"289"}},{"type":"Feature","geometry":{"type":"Polygon","coordinates":[[[139.5467204371778,36.01534750901577],[139.54427985501735,36.01835644330544],[139.54262093531688,36.018127305632184],[139.5427825158978,36.01656291927807],[139.54414643744028,36.016778232622],[139.54422876847346,36.01605033146834],[139.54550614725693,36.01503296672019],[139.5467204371778,36.01534750901577]]]},"properties":{"KEY_CODE":"11233025005","PREF":"11","CITY":"233","CITY_NAME":"北本市","S_NAME":"下石戸五丁目","SETAI":"265"}},{"type":"Feature","geometry":{"type":"Polygon","coordinates":[[[139.54933790319828,36.0123777280753],[139.5467204371778,36.01534750901577],[139.54550614725693,36.01503296672019],[139.54289665513406,36.01455280237486],[139.5423654979333,36.01331350694283],[139.5421587753903,36.01317031328441],[139.54167738204202,36.012951993790075],[139.54177713192976,36.012750149617965],[139.54175752545927,36.012466390480775],[139.54188292182076,36.01237523776937],[139.5446585848093,36.011990571152616],[139.54497121057787,36.01195327074024],[139.54654859960993,36.01178151014578],[139.5466135268741,36.01177441219415],[139.54689265617316,36.01173946379941],[139.54729880980605,36.01169988674917],[139.5476326216835,36.01172502820727],[139.54800734076815,36.01178812197857],[139.54824891886813,36.01185810503511],[139.54834973409203,36.01189440022981],[139.54861228411065,36.011993275205185],[139.5488116203051,36.01208749063563],[139.54909726798195,36.01224140005734],[139.54933790319828,36.0123777280753]]]},"properties":{"KEY_CODE":"11233025006","PREF":"11","CITY":"233","CITY_NAME":"北本市","S_NAME":"下石戸六丁目","SETAI":"257"}},{"type":"Feature","geometry":{"type":"Polygon","coordinates":[[[139.5446585848093,36.011990571152616],[139.54188292182076,36.01237523776937],[139.54445324145547,36.01157226312652],[139.54482221591934,36.01144820809512],[139.54614223911915,36.01101042083229],[139.54804900381393,36.00950089505927],[139.55175815526525,36.00512950372461],[139.55219990298104,36.00565693925883],[139.55231858342142,36.00579524722187],[139.5528854387592,36.00646558247583],[139.5540747743876,36.00794510057309],[139.5522373200455,36.00967044910821],[139.55074288631405,36.01106644111868],[139.54984012583108,36.0119048201417],[139.54935991201597,36.012354379434804],[139.54933790319828,36.0123777280753],[139.54909726798195,36.01224140005734],[139.5488116203051,36.01208749063563],[139.54861228411065,36.011993275205185],[139.54834973409203,36.01189440022981],[139.54824891886813,36.01185810503511],[139.54800734076815,36.01178812197857],[139.5476326216835,36.01172502820727],[139.54729880980605,36.01169988674917],[139.54689265617316,36.01173946379941],[139.5466135268741,36.01177441219415],[139.54654859960993,36.01178151014578],[139.54497121057787,36.01195327074024],[139.5446585848093,36.011990571152616]]]},"properties":{"KEY_CODE":"11233025007","PREF":"11","CITY":"233","CITY_NAME":"北本市","S_NAME":"下石戸七丁目","SETAI":"88"}}]}