{"type":"FeatureCollection","features":[{"type":"Feature","geometry":{"type":"Polygon","coordinates":[[[139.50361982377424,35.84858182221843],[139.50333353723653,35.85026493270954],[139.50285406053223,35.849318804930455],[139.50207205618324,35.8490203567263],[139.500053980695,35.849477458380726],[139.49529336705834,35.849871348294066],[139.49247556573778,35.84983356343708],[139.49033453497034,35.84920113642968],[139.4888326744458,35.84625239510388],[139.48879955749024,35.84310217229524],[139.48693703172788,35.84227701805126],[139.48578156568797,35.84174003578449],[139.48397826424454,35.840070052156435],[139.48271406308726,35.84138068492252],[139.48162109638608,35.83990477986717],[139.48003786811663,35.838947005456184],[139.4780970429692,35.83738245470161],[139.4800682866771,35.8348861595125],[139.4814930764501,35.83748632213762],[139.48250436413161,35.838801672125506],[139.4855878025833,35.83581288356028],[139.4859705998604,35.83544957132244],[139.4875655589295,35.83391945512917],[139.48768351092542,35.832881882260665],[139.4899668868729,35.8309247191603],[139.49055934974538,35.83110149777559],[139.4923771612597,35.83187882897536],[139.49555222600642,35.83384327396622],[139.50078306616268,35.83788704594313],[139.50370301690214,35.83992592929648],[139.50356567607167,35.84071532348346],[139.50596936113533,35.84226848358197],[139.5050401961649,35.84365029561256],[139.50361982377424,35.84858182221843]]]},"properties":{"KEY_CODE":"11324001001","PREF":"11","CITY":"324","CITY_NAME":"三芳町","S_NAME":"大字上富","SETAI":"602"}},{"type":"Feature","geometry":{"type":"Polygon","coordinates":[[[139.49691373534876,35.822627075206306],[139.50295617852476,35.82601131121698],[139.50566612529354,35.827573640022194],[139.51078862268264,35.83127531251011],[139.51208667093675,35.8321748075821],[139.51048439059065,35.834794183894076],[139.50810979602556,35.837219903584895],[139.50724917509214,35.83913342327171],[139.50671185658425,35.840962312767125],[139.50596936113533,35.84226848358197],[139.50356567607167,35.84071532348346],[139.50370301690214,35.83992592929648],[139.50078306616268,35.83788704594313],[139.49555222600642,35.83384327396622],[139.4923771612597,35.83187882897536],[139.49055934974538,35.83110149777559],[139.48971356124204,35.83074012102832],[139.49691373534876,35.822627075206306]]]},"properties":{"KEY_CODE":"11324001002","PREF":"11","CITY":"324","CITY_NAME":"三芳町","S_NAME":"大字上富","SETAI":"195"}},{"type":"Feature","geometry":{"type":"Polygon","coordinates":[[[139.5033944933727,35.814208864274086],[139.50638988454298,35.81468512975924],[139.50758399693797,35.8149041043982],[139.513248141194,35.816664255278965],[139.514803164782,35.81739108159648],[139.5167778439652,35.8195444254544],[139.52045277273595,35.82224633945089],[139.520162834202,35.82429530740499],[139.5194425730703,35.82539112410538],[139.52013839613093,35.82595973809722],[139.5182963329118,35.82791540273005],[139.5157693629688,35.82850748853095],[139.51416433144945,35.829099427287595],[139.51262796944548,35.830818664022146],[139.51208667093675,35.8321748075821],[139.51078862268264,35.83127531251011],[139.50566612529357,35.82757364002215],[139.50295617852476,35.82601131121698],[139.49691373534876,35.822627075206306],[139.50053515688677,35.81825851954288],[139.50305733619535,35.815072362547866],[139.5033944933727,35.814208864274086]]]},"properties":{"KEY_CODE":"11324001003","PREF":"11","CITY":"324","CITY_NAME":"三芳町","S_NAME":"大字上富","SETAI":"395"}},{"type":"Feature","geometry":{"type":"Polygon","coordinates":[[[139.51027241884904,35.844154124700914],[139.510256488287,35.84473279736888],[139.51002079502715,35.84867008761298],[139.50939827960573,35.85000089616899],[139.51125157493468,35.851126575178455],[139.51109084778508,35.85194231999108],[139.50974054518045,35.851287618591115],[139.50729662712146,35.85006196017842],[139.50361982377424,35.84858182221843],[139.5050401961649,35.84365029561256],[139.50596936113533,35.84226848358197],[139.50671185658425,35.840962312767125],[139.50724917509214,35.83913342327171],[139.50810979602556,35.837219903584895],[139.51048439059065,35.834794183894076],[139.51208667093675,35.8321748075821],[139.51262796944548,35.830818664022146],[139.51416433144945,35.829099427287595],[139.5157693629688,35.82850748853095],[139.5182963329118,35.82791540273005],[139.52013839613093,35.82595973809722],[139.5194425730703,35.82539112410538],[139.520162834202,35.82429530740499],[139.52045277273595,35.82224633945089],[139.52211912266029,35.821148815126925],[139.52525812164495,35.82239080705416],[139.5293862041179,35.8242176397592],[139.52821258948094,35.82585319740952],[139.52593010945057,35.82729243950152],[139.52492869010393,35.82872618652863],[139.52290745185581,35.83276267728107],[139.52163380948062,35.83510723013243],[139.52271063804628,35.83645037732523],[139.52117994697247,35.83843202194032],[139.522385109768,35.83900601415592],[139.52215600192218,35.840608112473525],[139.52332878608905,35.84204943338152],[139.52213695323914,35.84343624293635],[139.52170014131025,35.84319803538051],[139.51855794620926,35.844136371415864],[139.51566344601594,35.846144516911274],[139.5141354821516,35.84655271604143],[139.51319199690843,35.8461078652364],[139.51027241884904,35.844154124700914]]]},"properties":{"KEY_CODE":"113240020","PREF":"11","CITY":"324","CITY_NAME":"三芳町","S_NAME":"大字北永井","SETAI":"2494"}},{"type":"Feature","geometry":{"type":"Polygon","coordinates":[[[139.53965578619508,35.83935833847601],[139.53887722837922,35.839077980300424],[139.53837110954422,35.8394994940206],[139.53768529923047,35.83952159400507],[139.5366385596309,35.839207124529786],[139.5362029230098,35.83973762001],[139.53624885340028,35.83987413015563],[139.53642001559436,35.84068189125298],[139.53246413865833,35.83839010815754],[139.53319487751043,35.83659903696862],[139.53457808399693,35.83531541810323],[139.53846685735803,35.836424740751944],[139.53968445957312,35.83694721562759],[139.53890067041948,35.8372788610685],[139.53803014910457,35.838843417468674],[139.53968710118326,35.83925624047833],[139.53965578619508,35.83935833847601]]]},"properties":{"KEY_CODE":"11324003005","PREF":"11","CITY":"324","CITY_NAME":"三芳町","S_NAME":"大字藤久保","SETAI":"1336"}},{"type":"Feature","geometry":{"type":"Polygon","coordinates":[[[139.53357537711335,35.84266320597313],[139.53206209121618,35.84342383664571],[139.53147257360865,35.84288562630177],[139.530621670899,35.84360192281677],[139.52942067220394,35.84231641591004],[139.52875556217035,35.84283709476691],[139.5286697117118,35.8427958946972],[139.52737621606815,35.84192740061299],[139.528156344376,35.840872704337],[139.5287677088293,35.84102528179948],[139.52922215678493,35.841103822031585],[139.5298694807518,35.84055899572325],[139.53246413865833,35.83839010815754],[139.53642001559436,35.84068189125298],[139.5373777063121,35.84119131909049],[139.53666466409476,35.84201948713987],[139.53532597812924,35.84117125328011],[139.53406043963707,35.842285155146094],[139.53376546457386,35.842032224542066],[139.53336702028855,35.84236871577351],[139.53357537711335,35.84266320597313]]]},"properties":{"KEY_CODE":"11324003006","PREF":"11","CITY":"324","CITY_NAME":"三芳町","S_NAME":"大字藤久保","SETAI":"1485"}},{"type":"Feature","geometry":{"type":"Polygon","coordinates":[[[139.53073887823848,35.84419946976568],[139.52984053236656,35.84562027778626],[139.52912000712274,35.84525184964899],[139.52909677468026,35.84761691282651],[139.53080691009245,35.848710730522704],[139.52945677151595,35.850020882664786],[139.52792748617853,35.84836797951614],[139.52718328293398,35.848871725752964],[139.52483419302956,35.84774815450225],[139.5242047461895,35.84582279796913],[139.52411385554706,35.84501464246425],[139.52549409226052,35.84449216355076],[139.5265792858969,35.845918586687425],[139.5274224269083,35.844034176536226],[139.5290786604711,35.844840584490555],[139.5286697117118,35.8427958946972],[139.52875556217035,35.84283709476691],[139.53073887823848,35.84419946976568]]]},"properties":{"KEY_CODE":"11324003007","PREF":"11","CITY":"324","CITY_NAME":"三芳町","S_NAME":"大字藤久保","SETAI":"1584"}},{"type":"Feature","geometry":{"type":"Polygon","coordinates":[[[139.53968445957312,35.83694721562759],[139.53846685735803,35.836424740751944],[139.53457808399693,35.83531541810323],[139.53319487751043,35.83659903696862],[139.53246413865833,35.83839010815754],[139.53023481377977,35.83712163653253],[139.5298111963293,35.837411684036574],[139.52827144230253,35.83625135135647],[139.52858225387584,35.83588696286233],[139.52585993196877,35.834256148651725],[139.52290745185581,35.83276267728107],[139.52492869010393,35.82872618652863],[139.52593010945057,35.82729243950152],[139.52821258948094,35.82585319740952],[139.5293862041179,35.8242176397592],[139.5301932964444,35.824713703148355],[139.53261940217695,35.825385395094436],[139.53276532173015,35.825824102692486],[139.53397619004036,35.825668619554435],[139.53568024206777,35.826065896593775],[139.53452109906365,35.82807090924289],[139.53695795243425,35.82976033187381],[139.53959778300634,35.82953762003794],[139.54092077991865,35.83024803634443],[139.54127131057086,35.82991226202828],[139.54355080433814,35.83196627627113],[139.54269436877047,35.833176779825564],[139.54509787955863,35.83448220301404],[139.54471606150827,35.83519956907409],[139.54543629464857,35.835266940843745],[139.54482931933228,35.8359585413701],[139.54376877271713,35.835754231867135],[139.5430129613066,35.83481280968554],[139.541081280224,35.835202885861015],[139.54001987361343,35.83590612005509],[139.53968445957312,35.83694721562759]]]},"properties":{"KEY_CODE":"11324003008","PREF":"11","CITY":"324","CITY_NAME":"三芳町","S_NAME":"大字藤久保","SETAI":"1862"}},{"type":"Feature","geometry":{"type":"Polygon","coordinates":[[[139.528156344376,35.840872704337],[139.52737621606815,35.84192740061299],[139.526648022992,35.84145135963161],[139.5257764176737,35.84085516929221],[139.522385109768,35.83900601415592],[139.52117994697247,35.83843202194032],[139.52271063804628,35.83645037732523],[139.52163380948062,35.83510723013243],[139.52290745185581,35.83276267728107],[139.52585993196877,35.834256148651725],[139.52858225387584,35.83588696286233],[139.52827144230253,35.83625135135647],[139.5298111963293,35.837411684036574],[139.53023481377977,35.83712163653253],[139.53246413865833,35.83839010815754],[139.5298694807518,35.84055899572325],[139.52922215678493,35.841103822031585],[139.5287677088293,35.84102528179948],[139.528156344376,35.840872704337]]]},"properties":{"KEY_CODE":"11324003009","PREF":"11","CITY":"324","CITY_NAME":"三芳町","S_NAME":"大字藤久保","SETAI":"1502"}},{"type":"Feature","geometry":{"type":"Polygon","coordinates":[[[139.5286697117118,35.8427958946972],[139.5290786604711,35.844840584490555],[139.5274224269083,35.844034176536226],[139.5265792858969,35.845918586687425],[139.52549409226052,35.84449216355076],[139.52411385554706,35.84501464246425],[139.5242047461895,35.84582279796913],[139.5236925640768,35.84430191278584],[139.52213695323914,35.84343624293635],[139.52332878608905,35.84204943338152],[139.52215600192218,35.840608112473525],[139.522385109768,35.83900601415592],[139.5257764176737,35.84085516929221],[139.526648022992,35.84145135963161],[139.52737621606815,35.84192740061299],[139.5286697117118,35.8427958946972]]]},"properties":{"KEY_CODE":"11324003010","PREF":"11","CITY":"324","CITY_NAME":"三芳町","S_NAME":"大字藤久保","SETAI":"1167"}},{"type":"Feature","geometry":{"type":"Polygon","coordinates":[[[139.5474742465314,35.83468084860347],[139.546635889577,35.83387596470474],[139.54622291785634,35.83462211771582],[139.54509787955863,35.83448220301404],[139.54269436877047,35.833176779825564],[139.54355080433814,35.83196627627113],[139.5445575046313,35.831034449110355],[139.54556060655446,35.83021257648232],[139.5460535345477,35.83169219933167],[139.54500179580856,35.83205563687995],[139.54627532862176,35.833097781511384],[139.5474742465314,35.83468084860347]]]},"properties":{"KEY_CODE":"113240040","PREF":"11","CITY":"324","CITY_NAME":"三芳町","S_NAME":"みよし台","SETAI":"878"}},{"type":"Feature","geometry":{"type":"Polygon","coordinates":[[[139.54857991456748,35.8324769570655],[139.5470231216666,35.83259569993579],[139.5460535345477,35.83169219933167],[139.54556060655446,35.83021257648232],[139.5445575046313,35.831034449110355],[139.54355080433814,35.83196627627113],[139.54127131057086,35.82991226202828],[139.54092077991865,35.83024803634443],[139.53959778300634,35.82953762003794],[139.53695795243425,35.82976033187381],[139.53452109906365,35.82807090924289],[139.53568024206777,35.826065896593775],[139.53397619004036,35.825668619554435],[139.53276532173015,35.825824102692486],[139.53261940217695,35.825385395094436],[139.5301932964444,35.824713703148355],[139.53253446106672,35.825170447728624],[139.5332185312021,35.823333939234],[139.5335110741996,35.82014737726595],[139.53409520577694,35.82024264551251],[139.53456386867265,35.818908169968054],[139.53505374140875,35.82017989176673],[139.53733977330333,35.82091524562374],[139.53918737042412,35.82126098033722],[139.54045069878057,35.820801250925015],[139.5418840118471,35.821518296782386],[139.54340137714632,35.82132433943974],[139.54401722230375,35.82036468903542],[139.5473775753735,35.81996747572841],[139.54835400374233,35.81964210746894],[139.54877817653377,35.82180871891613],[139.54930689502976,35.82271064707346],[139.551270889461,35.824342396862],[139.5510371399738,35.8248772612532],[139.5513459616006,35.82637056747217],[139.5523386338515,35.82735317465902],[139.5519276943965,35.8281918076665],[139.550722914549,35.82874978064252],[139.54969666783876,35.82864325612081],[139.5485043541239,35.828834384954654],[139.5477408012399,35.829620182959715],[139.5477118649006,35.83059347983625],[139.54857991456748,35.8324769570655]]]},"properties":{"KEY_CODE":"113240050","PREF":"11","CITY":"324","CITY_NAME":"三芳町","S_NAME":"大字竹間沢","SETAI":"1535"}},{"type":"Feature","geometry":{"type":"Polygon","coordinates":[[[139.55530041979435,35.82565368490587],[139.55555541371962,35.82619723696692],[139.55556992267861,35.82860127072275],[139.5540385637698,35.82818066854778],[139.55295479246513,35.82732524778595],[139.5523386338515,35.82735317465902],[139.5513459616006,35.82637056747217],[139.5510371399738,35.8248772612532],[139.551270889461,35.824342396862],[139.54930689502976,35.82271064707346],[139.54877817653377,35.82180871891613],[139.54835400374233,35.81964210746894],[139.5495550529626,35.8191685945341],[139.5503968193278,35.82053202674206],[139.5524099454202,35.819764254341386],[139.55371921286832,35.822514181814306],[139.55381143901576,35.823810182540576],[139.55492674024825,35.82572031487986],[139.55530041979435,35.82565368490587]]]},"properties":{"KEY_CODE":"113240060","PREF":"11","CITY":"324","CITY_NAME":"三芳町","S_NAME":"竹間沢東","SETAI":"0"}}]}