{"type":"FeatureCollection","features":[{"type":"Feature","geometry":{"type":"Polygon","coordinates":[[[139.46882474626926,36.052258488974026],[139.46811304015984,36.05227752808436],[139.46734987429835,36.05237614434866],[139.4641428659174,36.05173693637473],[139.4643523214916,36.051277110596544],[139.46388765763197,36.05096530090712],[139.46354444699904,36.0509124510239],[139.46350865109892,36.050880879254166],[139.46376256703692,36.050332569454696],[139.46401307771677,36.04962038265669],[139.46417993804857,36.048920893386864],[139.46407917375052,36.04842736500081],[139.46397680929422,36.04843883756853],[139.46326127632773,36.04854720922445],[139.46300035344413,36.048607692193876],[139.46130639840135,36.049026189229124],[139.46129550984654,36.04801668985818],[139.46138770257895,36.04643466203591],[139.46133335755408,36.045011534643244],[139.46167523015515,36.04497339201392],[139.4624086590144,36.04502620516288],[139.46459968700557,36.04520251524776],[139.46450370303518,36.04594367418851],[139.4658951492084,36.04604194850903],[139.4660026156271,36.04520565757557],[139.46675014205377,36.0451590407379],[139.46710963107984,36.04524913240552],[139.46742796685962,36.04532815120339],[139.46727734316752,36.046361738194754],[139.46706273370728,36.046370305648324],[139.4667415131963,36.04682807498865],[139.46667281779116,36.04686653044733],[139.46662087515753,36.04712704758171],[139.46653030326658,36.04772673424375],[139.46695127054062,36.04768240290285],[139.4670501969658,36.04756569803212],[139.46722081128195,36.04752341220851],[139.46758828022567,36.048328988906206],[139.46728368024296,36.04875359421429],[139.46813600340255,36.04887397391843],[139.46815585234737,36.048633686517405],[139.47052307402842,36.04904100291085],[139.46954557518384,36.05044358431829],[139.46882474626926,36.052258488974026]]]},"properties":{"KEY_CODE":"113470010","PREF":"11","CITY":"347","CITY_NAME":"吉見町","S_NAME":"大字北下砂","SETAI":"49"}},{"type":"Feature","geometry":{"type":"Polygon","coordinates":[[[139.470886269221,36.04849732740914],[139.47052307402842,36.04904100291085],[139.46815585234737,36.048633686517405],[139.46813600340255,36.04887397391843],[139.46728368024296,36.04875359421429],[139.46758828022567,36.048328988906206],[139.46722081128195,36.04752341220851],[139.4670501969658,36.04756569803212],[139.46695127054062,36.04768240290285],[139.46653030326658,36.04772673424375],[139.46662087515753,36.04712704758171],[139.46667281779116,36.04686653044733],[139.4667415131963,36.04682807498865],[139.46706273370728,36.046370305648324],[139.46727734316752,36.046361738194754],[139.46742796685962,36.04532815120339],[139.46710963107984,36.04524913240552],[139.46675014205377,36.0451590407379],[139.4660026156271,36.04520565757557],[139.4658951492084,36.04604194850903],[139.46450370303512,36.04594367418848],[139.46459968700566,36.04520251524776],[139.4624086590144,36.04502620516288],[139.46167523015515,36.04497339201392],[139.46133335755408,36.045011534643244],[139.46121560647745,36.04263422206498],[139.46453176458508,36.04296905358163],[139.4644164863257,36.04359625417584],[139.46438718051002,36.04395135796164],[139.46469317967845,36.044448886644155],[139.46473944598745,36.04402684554529],[139.46500398892363,36.043920137544774],[139.465480452353,36.04310923714727],[139.4660594256715,36.043711853371526],[139.46723410617187,36.04367528288132],[139.46866368092753,36.044189160974575],[139.4694088248767,36.041263422773746],[139.47023099117126,36.04141483487439],[139.4705325160651,36.041607475735205],[139.47016891866303,36.04256410368437],[139.4711283992603,36.04239485281616],[139.47205792604012,36.04225322551282],[139.4729729586422,36.04245567992506],[139.47474204585794,36.043235038567225],[139.47416955797766,36.043820476194725],[139.4739372792693,36.044085329133146],[139.47282325943925,36.04569267560522],[139.47210553879998,36.04673013009453],[139.47160259986325,36.047477921783795],[139.470886269221,36.04849732740914]]]},"properties":{"KEY_CODE":"113470020","PREF":"11","CITY":"347","CITY_NAME":"吉見町","S_NAME":"大字丸貫","SETAI":"74"}},{"type":"Feature","geometry":{"type":"Polygon","coordinates":[[[139.49115307147508,36.045333083734604],[139.49104483141494,36.04705995641319],[139.49050079211864,36.047978374210516],[139.49025657396732,36.04800370686309],[139.4898254405293,36.04783396226417],[139.48919987143455,36.04750975865462],[139.4889955799045,36.04718766461406],[139.48896071645007,36.04706902258091],[139.48612204083085,36.04585510571148],[139.48622137674792,36.044507461934536],[139.4884370462276,36.045429031285295],[139.4894110440178,36.04546010045213],[139.4897270122227,36.04552208248323],[139.49019152098884,36.04549287573327],[139.49115307147508,36.045333083734604]]]},"properties":{"KEY_CODE":"113470020","PREF":"11","CITY":"347","CITY_NAME":"吉見町","S_NAME":"大字丸貫","SETAI":"0"}},{"type":"Feature","geometry":{"type":"Polygon","coordinates":[[[139.4762734164987,36.0418796273386],[139.47474204585794,36.043235038567225],[139.4729729586422,36.04245567992506],[139.47205792604012,36.04225322551282],[139.4711283992603,36.04239485281616],[139.47016891866303,36.04256410368437],[139.4705325160651,36.041607475735205],[139.47023099117126,36.04141483487439],[139.4710111785573,36.040892111696394],[139.47141524838625,36.04043827079384],[139.47286603146895,36.040682762738825],[139.47315606897104,36.04046487406783],[139.47370411558396,36.039538777167344],[139.47460051586626,36.03952269322251],[139.4750710709836,36.03958198871673],[139.4749287613019,36.04048844796638],[139.47499723141968,36.040627228546654],[139.47579735997968,36.04088223050951],[139.4765309269172,36.04129225996901],[139.4762734164987,36.0418796273386]]]},"properties":{"KEY_CODE":"113470030","PREF":"11","CITY":"347","CITY_NAME":"吉見町","S_NAME":"大字古名","SETAI":"39"}},{"type":"Feature","geometry":{"type":"Polygon","coordinates":[[[139.465480452353,36.04310923714727],[139.46500398892363,36.043920137544774],[139.46473944598745,36.04402684554529],[139.46469317967845,36.044448886644155],[139.46438718051002,36.04395135796164],[139.4644164863257,36.04359625417584],[139.46453176458516,36.04296905358163],[139.46121560647745,36.042634222065],[139.46117714106805,36.04186923684994],[139.46116792605633,36.03819102043722],[139.46117057578832,36.03687549175381],[139.46125923395869,36.036050221808125],[139.46154972113285,36.03571267634798],[139.46319954220442,36.035776225777695],[139.46401278675867,36.035949188693],[139.4641333640911,36.035142746677494],[139.46414639466786,36.034755040364146],[139.4642474892157,36.03436208633889],[139.46528872470432,36.034487552392854],[139.4651972628585,36.03343362901538],[139.4665114645528,36.0333096161709],[139.468045273044,36.03311061635192],[139.46778051680002,36.03466043392062],[139.46761772102013,36.03560591057376],[139.46698442609483,36.03800385048028],[139.46753737862676,36.038124424676084],[139.46738958443595,36.038556540535865],[139.46729760111214,36.03877729713214],[139.46715341945594,36.03910296672187],[139.46701188586283,36.03944547420444],[139.46700260918297,36.03947866081707],[139.46697811289744,36.03969560474734],[139.46673578467394,36.0404022707635],[139.46667836107596,36.040515260363634],[139.46666919629118,36.04059249540376],[139.46626709531338,36.04122750391376],[139.46620316008404,36.041368002462804],[139.46611413851403,36.0416577530249],[139.46583876110464,36.042259714875655],[139.46561813220433,36.04281669735814],[139.465480452353,36.04310923714727]]]},"properties":{"KEY_CODE":"113470040","PREF":"11","CITY":"347","CITY_NAME":"吉見町","S_NAME":"大字谷口","SETAI":"60"}},{"type":"Feature","geometry":{"type":"Polygon","coordinates":[[[139.47149482353294,36.03484040087066],[139.4691622773239,36.03478374306919],[139.4689404454308,36.03608979455039],[139.468035865811,36.036113066042645],[139.46753737862676,36.038124424676084],[139.46698442609483,36.03800385048028],[139.46761772102013,36.03560591057376],[139.46778051680002,36.03466043392062],[139.46804527304405,36.03311061635192],[139.4715971310582,36.03294225299996],[139.47169466063363,36.033666697280125],[139.4719734468018,36.03383421544082],[139.47149482353294,36.03484040087066]]]},"properties":{"KEY_CODE":"113470050","PREF":"11","CITY":"347","CITY_NAME":"吉見町","S_NAME":"大字上銀谷","SETAI":"36"}},{"type":"Feature","geometry":{"type":"Polygon","coordinates":[[[139.47185896371073,36.03586193188582],[139.47141722288083,36.035842080291765],[139.47143052951344,36.03563410371394],[139.47185896371073,36.03586193188582]]]},"properties":{"KEY_CODE":"113470050","PREF":"11","CITY":"347","CITY_NAME":"吉見町","S_NAME":"大字上銀谷","SETAI":"0"}},{"type":"Feature","geometry":{"type":"Polygon","coordinates":[[[139.47332732335568,36.0389206609593],[139.47460051586626,36.03952269322251],[139.47370411558396,36.039538777167344],[139.4733249518485,36.039443244602154],[139.47332732335568,36.0389206609593]]]},"properties":{"KEY_CODE":"113470060","PREF":"11","CITY":"347","CITY_NAME":"吉見町","S_NAME":"大字大和田","SETAI":"0"}},{"type":"Feature","geometry":{"type":"Polygon","coordinates":[[[139.4820429633667,36.03431232304658],[139.48234783797915,36.03783370385108],[139.48282159330216,36.038346018242095],[139.4819537449669,36.03908074547127],[139.48159536858637,36.03923264503277],[139.4805131699328,36.039692200468934],[139.4788037356402,36.04045651374921],[139.47783917140598,36.04092536079314],[139.47742940488885,36.041135895566306],[139.4767556455275,36.04156301986099],[139.4763310445166,36.04184169346175],[139.4762734164987,36.0418796273386],[139.4765309269172,36.04129225996901],[139.47579735997968,36.04088223050951],[139.47499723141968,36.040627228546654],[139.4749287613019,36.04048844796638],[139.4750710709836,36.03958198871673],[139.47524244981798,36.03850506947549],[139.47502517416086,36.03620944657845],[139.47327151824376,36.03586511916786],[139.47185896371073,36.03586193188582],[139.47143052951344,36.03563410371394],[139.47149482353294,36.03484040087066],[139.4719734468018,36.03383421544082],[139.47260722559642,36.03388312645155],[139.47310852216782,36.034060228515564],[139.47441391960882,36.03453145019046],[139.4746065458077,36.03477901895537],[139.47662400363768,36.03464850530691],[139.47863821172643,36.03451996289205],[139.4820429633667,36.03431232304658]]]},"properties":{"KEY_CODE":"113470060","PREF":"11","CITY":"347","CITY_NAME":"吉見町","S_NAME":"大字大和田","SETAI":"36"}},{"type":"Feature","geometry":{"type":"Polygon","coordinates":[[[139.49112464665103,36.04525936522962],[139.49019152098884,36.04549287573327],[139.4897270122227,36.04552208248323],[139.4894110440178,36.04546010045213],[139.4884370462276,36.045429031285295],[139.48622137674792,36.044507461934536],[139.48612204083085,36.04585510571148],[139.4763310445166,36.04184169346175],[139.4767556455275,36.04156301986099],[139.47742940488885,36.041135895566306],[139.47783917140598,36.04092536079314],[139.4788037356402,36.04045651374921],[139.4805131699328,36.039692200468934],[139.48159536858637,36.03923264503277],[139.4819537449669,36.03908074547127],[139.48291110831704,36.03868001308645],[139.48503694564283,36.03779482379948],[139.48940100234432,36.04136894466912],[139.48931165118785,36.04178231271351],[139.48928031012326,36.042458507806444],[139.48959577263193,36.04327654776471],[139.48974676988078,36.043434174851726],[139.49034402271252,36.04406257847159],[139.4909317752361,36.0448510916595],[139.49112464665103,36.04525936522962]]]},"properties":{"KEY_CODE":"113470070","PREF":"11","CITY":"347","CITY_NAME":"吉見町","S_NAME":"大字古名新田","SETAI":"6"}},{"type":"Feature","geometry":{"type":"Polygon","coordinates":[[[139.48503694564283,36.03779482379948],[139.48291110831704,36.03868001308645],[139.48282159330216,36.038346018242095],[139.48234783797915,36.03783370385108],[139.4820429633667,36.03431232304658],[139.48320442301198,36.03423524408436],[139.4830213107703,36.03217090768246],[139.4843280547118,36.032096321752974],[139.4852709234237,36.03223162971082],[139.48573254908857,36.03320961985812],[139.48622978875252,36.03448555993488],[139.48647519133468,36.034007615471154],[139.48674744459913,36.033955279811686],[139.4876552514743,36.03378761055339],[139.4877173938554,36.03379028417495],[139.48769118086227,36.03448916443898],[139.48761665466597,36.03674922217489],[139.48503694564283,36.03779482379948]]]},"properties":{"KEY_CODE":"113470080","PREF":"11","CITY":"347","CITY_NAME":"吉見町","S_NAME":"大字蚊斗谷","SETAI":"26"}},{"type":"Feature","geometry":{"type":"Polygon","coordinates":[[[139.4908351091198,36.03997102639944],[139.49069876374466,36.04004081417651],[139.49057619015164,36.04010355663606],[139.49015826108894,36.04032470918085],[139.48948972459806,36.0410605470507],[139.48943749256986,36.041220392059806],[139.48940100234432,36.04136894466912],[139.48503694564283,36.03779482379948],[139.48761665466597,36.03674922217489],[139.48769118086227,36.03448916443898],[139.4877173938554,36.03379028417495],[139.48857987041552,36.03389896515249],[139.4887488019602,36.032991988349714],[139.48988958118878,36.03315039633785],[139.48971850847502,36.03405382271795],[139.4910037223374,36.034217837528],[139.4921442289614,36.034393767267936],[139.49339329485193,36.034292206564615],[139.49388844417388,36.034279447589824],[139.494760624253,36.03444839334716],[139.49464050853945,36.034653419256124],[139.49290608752537,36.03623296859723],[139.49270829700606,36.036275109946466],[139.49247861287208,36.03636060571199],[139.49226783917112,36.036473392954875],[139.49219691342122,36.03652178142021],[139.49188656878255,36.037237291641546],[139.49185322224102,36.03803753595658],[139.49186255147055,36.039029320286325],[139.49174595522408,36.039375772642316],[139.49124567980041,36.03977193509646],[139.4908351091198,36.03997102639944]]]},"properties":{"KEY_CODE":"113470090","PREF":"11","CITY":"347","CITY_NAME":"吉見町","S_NAME":"大字蓮沼新田","SETAI":"17"}},{"type":"Feature","geometry":{"type":"Polygon","coordinates":[[[139.49339329485193,36.034292206564615],[139.4921442289614,36.034393767267936],[139.4910037223374,36.034217837528],[139.48971850847502,36.03405382271799],[139.48988958118878,36.03315039633782],[139.4887488019602,36.032991988349714],[139.48857987041558,36.03389896515249],[139.48771739385543,36.03379028417497],[139.4876552514743,36.03378761055339],[139.48674744459913,36.033955279811686],[139.4863648675604,36.03298585786253],[139.48651387001726,36.02949588443967],[139.48789559990422,36.02941480130029],[139.4905257669136,36.029735909019145],[139.49123813385359,36.02982503993672],[139.49194790951634,36.02964054380965],[139.4919995988163,36.029357848673264],[139.49476732787446,36.029667979614175],[139.49505291108923,36.0304425064027],[139.49689802366728,36.03085963878861],[139.4981100560757,36.03112072455103],[139.49715954231522,36.03172426550767],[139.4953784328319,36.033142571926],[139.494760624253,36.034448393347205],[139.49388844417388,36.034279447589824],[139.49339329485193,36.034292206564615]]]},"properties":{"KEY_CODE":"113470100","PREF":"11","CITY":"347","CITY_NAME":"吉見町","S_NAME":"大字高尾新田","SETAI":"34"}},{"type":"Feature","geometry":{"type":"Polygon","coordinates":[[[139.4992421718891,36.030561270943586],[139.49825990206043,36.031149046598706],[139.4981100560757,36.03112072455103],[139.49689802366728,36.03085963878861],[139.49505291108923,36.0304425064027],[139.49476732787446,36.029667979614175],[139.4919995988163,36.029357848673264],[139.49194790951634,36.02964054380965],[139.49123813385359,36.02982503993672],[139.4905257669136,36.029735909019145],[139.49107585825345,36.026796343727995],[139.49178490561397,36.02688537769305],[139.492881330211,36.02720129968414],[139.4930642012732,36.02737837317033],[139.4952041336389,36.02732144328739],[139.4954353350052,36.02604650918063],[139.4964748452082,36.02624308660055],[139.49645743117222,36.02538557483501],[139.49647213411373,36.025098196006134],[139.49646220685196,36.024859345571635],[139.49646622455543,36.02465360354684],[139.49658371311602,36.023956427623624],[139.49805287204185,36.02389921272737],[139.4994149695858,36.02407134937231],[139.4992050879626,36.02309954677264],[139.4995807005685,36.022499607871524],[139.50254390520973,36.022107268397896],[139.50366929684873,36.02320209903134],[139.50419387522967,36.02381496485052],[139.50467421477288,36.02472891381387],[139.50486169112673,36.02524742578506],[139.50480157087395,36.0260411651032],[139.50493219348493,36.027470335398576],[139.50428819331685,36.02783325011603],[139.5029803774839,36.02821023680117],[139.5023578196563,36.02826752288859],[139.49997089912702,36.02950573159566],[139.49953509296716,36.029963012201684],[139.49937563791198,36.03042944301103],[139.4992421718891,36.030561270943586]]]},"properties":{"KEY_CODE":"113470120","PREF":"11","CITY":"347","CITY_NAME":"吉見町","S_NAME":"大字久保田新田","SETAI":"56"}},{"type":"Feature","geometry":{"type":"Polygon","coordinates":[[[139.4964748452082,36.02624308660055],[139.4954353350052,36.02604650918063],[139.4952041336389,36.02732144328739],[139.4930642012732,36.02737837317033],[139.492881330211,36.02720129968414],[139.49178490561397,36.02688537769305],[139.49107585825345,36.02679634372796],[139.4886614160858,36.02649535359439],[139.4897424121644,36.02227292258719],[139.48892237187385,36.02239362270011],[139.48810913800466,36.02222456728945],[139.4871530964318,36.02188998805917],[139.48716329649855,36.02160835832372],[139.48649857493461,36.021358609826855],[139.4900339076227,36.021045723143246],[139.48978252818367,36.02012650649834],[139.49342636058628,36.01966576556628],[139.49275818974263,36.01656781100062],[139.49343731075905,36.01633538050085],[139.49507359085766,36.01609618126991],[139.49546289958855,36.015198537081936],[139.4962069069016,36.0150094527472],[139.49699722343166,36.01391002187816],[139.49708663227,36.01368301296085],[139.49738577509112,36.013353942721615],[139.49756834608687,36.01328114377841],[139.49928336291043,36.0137768341509],[139.49882915577527,36.01414620491342],[139.49830437547666,36.015028106844156],[139.49825914133456,36.01531842077871],[139.4984836492296,36.017848247941195],[139.49909199151807,36.01910393071023],[139.4999513860759,36.01980830319708],[139.50160388892164,36.02080733441604],[139.50223967666636,36.02177426119632],[139.50254390520973,36.022107268397896],[139.4995807005685,36.0224996078715],[139.4992050879626,36.02309954677264],[139.4994149695858,36.02407134937231],[139.49805287204185,36.02389921272737],[139.49658371311602,36.023956427623624],[139.49646622455543,36.02465360354684],[139.49646220685196,36.024859345571635],[139.49647213411373,36.025098196006134],[139.49645743117222,36.02538557483501],[139.4964748452082,36.02624308660055]]]},"properties":{"KEY_CODE":"113470130","PREF":"11","CITY":"347","CITY_NAME":"吉見町","S_NAME":"大字江和井","SETAI":"141"}},{"type":"Feature","geometry":{"type":"Polygon","coordinates":[[[139.48651387001726,36.02949588443967],[139.4845936697107,36.029817241277115],[139.4822209105216,36.02634762677347],[139.48075650996316,36.02628100652858],[139.47888871584917,36.02501625039025],[139.47946060743425,36.02371509384889],[139.4791689576833,36.02242747604199],[139.4792947049636,36.02174328735877],[139.48069420851863,36.01956601022622],[139.48199718221676,36.01937987029146],[139.48056228094077,36.021459108162546],[139.481771952351,36.02119818730093],[139.48184397388002,36.02177087895625],[139.48424580538463,36.021558635811374],[139.48649857493461,36.021358609826855],[139.48716329649855,36.02160835832372],[139.4871530964318,36.02188998805917],[139.48810913800466,36.02222456728945],[139.48892237187385,36.02239362270011],[139.4897424121644,36.02227292258719],[139.4886614160858,36.02649535359439],[139.49107585825345,36.02679634372796],[139.4905257669136,36.029735909019145],[139.48789559990422,36.02941480130029],[139.48651387001726,36.02949588443967]]]},"properties":{"KEY_CODE":"113470140","PREF":"11","CITY":"347","CITY_NAME":"吉見町","S_NAME":"大字飯島新田","SETAI":"83"}},{"type":"Feature","geometry":{"type":"Polygon","coordinates":[[[139.4820429633667,36.03431232304658],[139.47863821172643,36.03451996289205],[139.47662400363768,36.03464850530691],[139.4746065458077,36.03477901895537],[139.47441391960882,36.03453145019046],[139.47310852216782,36.034060228515564],[139.47260722559642,36.03388312645155],[139.4719734468018,36.03383421544082],[139.47169466063363,36.033666697280125],[139.4715971310582,36.03294225299996],[139.4709788811956,36.03155408955651],[139.470908160514,36.031124380481174],[139.4714072648876,36.030618556903775],[139.4712240157377,36.02950401108346],[139.4739495120415,36.029192762218116],[139.4740696082607,36.0294275597426],[139.47413227595655,36.02969617004523],[139.47413700410436,36.02986708702715],[139.47577588687145,36.02975499022303],[139.475657152485,36.03071412683763],[139.47569447372138,36.03119347515883],[139.47928524499125,36.03097421535593],[139.47953895272897,36.03219211209995],[139.47997272758485,36.032373688100286],[139.48067576051326,36.03232565252484],[139.4830213107703,36.03217090768246],[139.48320442301198,36.03423524408436],[139.4820429633667,36.03431232304658]]]},"properties":{"KEY_CODE":"113470150","PREF":"11","CITY":"347","CITY_NAME":"吉見町","S_NAME":"大字万光寺","SETAI":"27"}},{"type":"Feature","geometry":{"type":"Polygon","coordinates":[[[139.4642474892157,36.03436208633889],[139.46414639466786,36.034755040364146],[139.4641333640911,36.035142746677494],[139.46401278675867,36.035949188693],[139.46319954220442,36.035776225777695],[139.46154972113285,36.03571267634798],[139.46131824917177,36.035694285830715],[139.46213813741824,36.03327087574153],[139.46330826791328,36.03176169981882],[139.46618411505952,36.029129535338726],[139.4670364591751,36.02870893350895],[139.469812923365,36.02764578709625],[139.47255432862502,36.02696938668308],[139.4727743160766,36.028195152647626],[139.4734047136723,36.02812366982499],[139.4739495120415,36.029192762218116],[139.47122401573768,36.029504011083446],[139.4714072648876,36.030618556903775],[139.470908160514,36.031124380481174],[139.4709788811956,36.03155408955651],[139.4715971310582,36.03294225299996],[139.46804527304405,36.03311061635192],[139.4665114645528,36.0333096161709],[139.4651972628585,36.03343362901538],[139.46528872470432,36.034487552392854],[139.4642474892157,36.03436208633889]]]},"properties":{"KEY_CODE":"113470160","PREF":"11","CITY":"347","CITY_NAME":"吉見町","S_NAME":"大字下銀谷","SETAI":"37"}},{"type":"Feature","geometry":{"type":"Polygon","coordinates":[[[139.48651387001726,36.02949588443967],[139.4863648675604,36.03298585786253],[139.48674744459913,36.033955279811686],[139.48647519133468,36.034007615471154],[139.48622978875252,36.03448555993488],[139.48573254908857,36.03320961985812],[139.4852709234237,36.03223162971082],[139.4843280547118,36.032096321752974],[139.4830213107703,36.03217090768248],[139.48067576051326,36.03232565252484],[139.47997272758485,36.032373688100286],[139.47953895272897,36.03219211209995],[139.4792852449913,36.03097421535593],[139.47569447372138,36.0311934751588],[139.475657152485,36.03071412683763],[139.47577588687145,36.02975499022306],[139.47413700410436,36.02986708702715],[139.47413227595655,36.02969617004523],[139.4740696082607,36.0294275597426],[139.4739495120415,36.029192762218116],[139.4734047136723,36.02812366982499],[139.4727743160766,36.028195152647626],[139.47255432862502,36.02696938668308],[139.469812923365,36.02764578709625],[139.4670364591751,36.02870893350895],[139.46632808172365,36.027011528048774],[139.4673945905007,36.02672935153485],[139.46679370961894,36.02567372113343],[139.46815265782388,36.025099362427255],[139.4677595000128,36.02479603340694],[139.47070130948677,36.023274205355214],[139.4701973773403,36.019745066639395],[139.4716012368564,36.02036670320531],[139.47431531805765,36.02080383906389],[139.47403463494766,36.02232170784297],[139.4759674606703,36.022931309314764],[139.47658324204642,36.02215454866559],[139.4791689576833,36.02242747604199],[139.47946060743425,36.02371509384889],[139.47888871584917,36.02501625039025],[139.48075650996316,36.02628100652858],[139.4822209105216,36.02634762677347],[139.4845936697107,36.029817241277115],[139.48651387001726,36.02949588443967]]]},"properties":{"KEY_CODE":"113470170","PREF":"11","CITY":"347","CITY_NAME":"吉見町","S_NAME":"大字荒子","SETAI":"103"}},{"type":"Feature","geometry":{"type":"Polygon","coordinates":[[[139.48424580538463,36.021558635811374],[139.48184397388002,36.02177087895625],[139.481771952351,36.02119818730093],[139.48056228094077,36.021459108162546],[139.48199718221676,36.01937987029146],[139.4822142529947,36.01933016557379],[139.48255851746336,36.01925006997694],[139.4818611520938,36.020090970729306],[139.48511239265386,36.0198222205571],[139.48424580538463,36.021558635811374]]]},"properties":{"KEY_CODE":"113470170","PREF":"11","CITY":"347","CITY_NAME":"吉見町","S_NAME":"大字荒子","SETAI":"0"}},{"type":"Feature","geometry":{"type":"Polygon","coordinates":[[[139.46213813741824,36.03327087574153],[139.46020869916262,36.03342859310083],[139.4598047097733,36.03216922896925],[139.4584953713507,36.032501839747184],[139.4550538067934,36.02862008092939],[139.45699447021488,36.02854668123335],[139.45712449161744,36.02692866598842],[139.45775594699577,36.02618701260987],[139.45642477933677,36.025528625606434],[139.45746299220886,36.02451178565232],[139.45802045136517,36.0225938905202],[139.45893038560396,36.01765096058],[139.46082575275338,36.01725445407008],[139.4594069689235,36.016516447251334],[139.46039484674571,36.01373752238434],[139.4598924045043,36.01293627218882],[139.4600091787805,36.01295732780478],[139.46024154011488,36.01283704301807],[139.46047411697643,36.01219814285439],[139.46099924718303,36.01245635006342],[139.4619846365749,36.01306851035949],[139.46567325408392,36.01544049115963],[139.46729159753247,36.01643644548416],[139.46856935264825,36.017157101798006],[139.47005080290316,36.0179495185313],[139.47067525571222,36.01824236703347],[139.47185037206842,36.01873559184685],[139.47299298942892,36.01916117990176],[139.47511615664826,36.01969704207776],[139.47692104570712,36.01978064993668],[139.479856745779,36.0193407707409],[139.48004287366362,36.01945795451228],[139.4803110194677,36.01952988974584],[139.48069420851863,36.01956601022622],[139.4792947049636,36.02174328735877],[139.4791689576833,36.02242747604199],[139.47658324204642,36.02215454866559],[139.4759674606703,36.022931309314764],[139.47403463494766,36.02232170784297],[139.47431531805765,36.02080383906389],[139.4716012368564,36.02036670320531],[139.4701973773403,36.019745066639395],[139.47070130948677,36.023274205355214],[139.4677595000128,36.02479603340694],[139.46815265782388,36.025099362427255],[139.46679370961894,36.02567372113343],[139.4673945905007,36.02672935153485],[139.46632808172365,36.027011528048774],[139.4670364591751,36.02870893350895],[139.46618411505952,36.029129535338726],[139.46330826791328,36.03176169981882],[139.46213813741824,36.03327087574153]]]},"properties":{"KEY_CODE":"113470180","PREF":"11","CITY":"347","CITY_NAME":"吉見町","S_NAME":"大字大串","SETAI":"202"}},{"type":"Feature","geometry":{"type":"Polygon","coordinates":[[[139.49275818974263,36.01656781100062],[139.49342636058628,36.01966576556628],[139.48978252818367,36.02012650649834],[139.4900339076227,36.021045723143246],[139.48649857493461,36.021358609826855],[139.48424580538463,36.021558635811374],[139.48511239265386,36.0198222205571],[139.4818611520938,36.020090970729306],[139.48255851746336,36.01925006997694],[139.4826246123871,36.01922346659648],[139.4841235274825,36.01872451847347],[139.48679400735404,36.01822888847351],[139.48749559226036,36.01800927531347],[139.4898521189874,36.01755758698287],[139.49021302551367,36.01743496997798],[139.49275818974263,36.01656781100062]]]},"properties":{"KEY_CODE":"113470180","PREF":"11","CITY":"347","CITY_NAME":"吉見町","S_NAME":"大字大串","SETAI":"0"}},{"type":"Feature","geometry":{"type":"Polygon","coordinates":[[[139.4598924045043,36.01293627218882],[139.46039484674571,36.01373752238434],[139.4594069689235,36.016516447251334],[139.46082575275338,36.01725445407008],[139.45893038560396,36.01765096058],[139.45802045136517,36.0225938905202],[139.45746299220886,36.02451178565232],[139.45642477933677,36.025528625606434],[139.45775594699577,36.02618701260987],[139.45712449161744,36.02692866598842],[139.45699447021488,36.02854668123335],[139.4550538067934,36.02862008092939],[139.45385451221125,36.02896076627088],[139.4528104520916,36.02775637076792],[139.45191773126325,36.0282679672025],[139.45240870928782,36.02733072840778],[139.45174448612582,36.026552813429916],[139.45054251517737,36.026597589107226],[139.45024354392268,36.02512991815624],[139.45088679290427,36.02500064824113],[139.4521442765998,36.02472686424665],[139.45235771325338,36.02405273604389],[139.45335275427522,36.02420370228398],[139.4538344874355,36.02340578801073],[139.45332029443074,36.02288851764389],[139.4538319678759,36.02212685801632],[139.45273580596177,36.0220099128132],[139.4528305942413,36.0214386717802],[139.45149202861177,36.0212704127939],[139.4509840152378,36.020311971927335],[139.4491295525294,36.020549566532125],[139.44965745749016,36.01865648673205],[139.44982152363448,36.018119937062266],[139.44982497602274,36.017547849259735],[139.44995993833757,36.01708768095319],[139.45010422496787,36.01693138745789],[139.45074513801964,36.01603099344963],[139.45135448361788,36.01549229136836],[139.45105278573044,36.01438122977751],[139.44993600858498,36.01462612233359],[139.44995859886237,36.0139941221035],[139.4537992268163,36.01331164581014],[139.45454386194248,36.01158077715594],[139.45505083171216,36.01147106424685],[139.45586534107036,36.01253105805297],[139.45708237803376,36.011948749649385],[139.45786603947747,36.012297822214414],[139.45804217188427,36.0116410113592],[139.45820842005472,36.011526893720934],[139.45871919991745,36.011499376865146],[139.45882434274162,36.01235315620945],[139.4598924045043,36.01293627218882]]]},"properties":{"KEY_CODE":"113470190","PREF":"11","CITY":"347","CITY_NAME":"吉見町","S_NAME":"大字前河内","SETAI":"93"}},{"type":"Feature","geometry":{"type":"Polygon","coordinates":[[[139.45088679290427,36.02500064824113],[139.4486755416145,36.02475088374677],[139.44382612612,36.02590722729953],[139.44313488319992,36.02703655374501],[139.4420629350332,36.02708344256923],[139.44183501037125,36.02707235875399],[139.44277212830937,36.02442770558782],[139.44221306460375,36.02335450505111],[139.44073257359977,36.02373985381612],[139.4404839784622,36.0237652576417],[139.44006819070754,36.02396332958975],[139.43995563459876,36.023981507949195],[139.4398508761123,36.02399082534127],[139.43932785172245,36.023997917523474],[139.4367375024695,36.023611124928216],[139.4356849215495,36.02371078425694],[139.43517648994325,36.02388555907046],[139.43424252943512,36.02417510670579],[139.4332640999198,36.02354752704947],[139.43368364797826,36.02298034527106],[139.43536179938192,36.02309075296333],[139.43596882783567,36.02241134841161],[139.43521213879623,36.0218441627818],[139.43747299420812,36.01945996866823],[139.43819564986973,36.01794030849703],[139.43875100525628,36.015991105258024],[139.43984159428118,36.014625218771045],[139.43957941413979,36.013493826963625],[139.44011162086244,36.012842517411116],[139.44157967234048,36.012173540450036],[139.44144303016995,36.01334644992903],[139.44447384205304,36.01342588997828],[139.44735424723547,36.01526383485383],[139.44868009952967,36.01555530456618],[139.4483403334274,36.01599547987462],[139.45074513801964,36.01603099344963],[139.45010422496787,36.01693138745789],[139.44995993833757,36.01708768095319],[139.44982497602274,36.017547849259735],[139.44982152363448,36.018119937062266],[139.44965745749016,36.01865648673205],[139.4491295525294,36.020549566532125],[139.4509840152378,36.020311971927335],[139.45149202861177,36.0212704127939],[139.4528305942413,36.0214386717802],[139.45273580596177,36.0220099128132],[139.4538319678759,36.02212685801632],[139.45332029443074,36.02288851764389],[139.4538344874355,36.02340578801073],[139.45335275427522,36.02420370228398],[139.45235771325338,36.02405273604389],[139.4521442765998,36.02472686424665],[139.45088679290427,36.02500064824113]]]},"properties":{"KEY_CODE":"113470200","PREF":"11","CITY":"347","CITY_NAME":"吉見町","S_NAME":"大字江綱","SETAI":"152"}},{"type":"Feature","geometry":{"type":"Polygon","coordinates":[[[139.44753914641163,36.039309126174686],[139.446846471539,36.03947076183637],[139.4463212135661,36.038167543040494],[139.44673144626748,36.03549126583313],[139.44608037048113,36.035030587840865],[139.44643161057172,36.0344151339737],[139.44494415778559,36.033347874355584],[139.4437815370926,36.03384588599961],[139.44269323099553,36.03262476108762],[139.4416873465414,36.03313934656749],[139.44107857911536,36.03220368193276],[139.44238749863462,36.03063488047313],[139.44168772666765,36.0284828153525],[139.4420629350332,36.02708344256923],[139.44313488319992,36.02703655374501],[139.44382612612,36.02590722729953],[139.4486755416145,36.02475088374677],[139.45088679290427,36.02500064824113],[139.45024354392268,36.02512991815624],[139.45054251517737,36.026597589107226],[139.45174448612582,36.026552813429916],[139.45240870928782,36.02733072840778],[139.45191773126325,36.0282679672025],[139.4528104520916,36.02775637076792],[139.45385451221125,36.02896076627088],[139.4550538067934,36.02862008092939],[139.4584953713507,36.032501839747184],[139.4598047097733,36.03216922896925],[139.46020869916262,36.03342859310083],[139.46213813741824,36.03327087574153],[139.46131824917177,36.035694285830715],[139.46125923395869,36.036050221808125],[139.46117057578832,36.03687549175381],[139.46116792605633,36.03819102043722],[139.4561410075059,36.037058595200186],[139.45326489806666,36.03763660944076],[139.45275816951164,36.03639207976608],[139.4509272881472,36.03737005554863],[139.44744105951594,36.03873378134971],[139.44753914641163,36.039309126174686]]]},"properties":{"KEY_CODE":"113470210","PREF":"11","CITY":"347","CITY_NAME":"吉見町","S_NAME":"大字久保田","SETAI":"510"}},{"type":"Feature","geometry":{"type":"Polygon","coordinates":[[[139.46133335755408,36.045011534643244],[139.4568371295722,36.04414553779155],[139.45588225510915,36.04711953683634],[139.45427734371705,36.046853343072826],[139.45311649614646,36.047286594327836],[139.45309609594108,36.046456827292715],[139.45059188514335,36.045851995686604],[139.44905294302194,36.04835452014716],[139.44757694208727,36.048190787249496],[139.4481894344082,36.04703559286397],[139.44764042648765,36.04686289841947],[139.448969371704,36.0444628874015],[139.4492039617616,36.04294947324009],[139.4472625807172,36.042852439321706],[139.44795961053364,36.04136580235595],[139.44753914641163,36.039309126174686],[139.44744105951594,36.03873378134971],[139.4509272881472,36.03737005554863],[139.45275816951164,36.03639207976608],[139.45326489806666,36.03763660944076],[139.4561410075059,36.037058595200186],[139.46116792605633,36.03819102043722],[139.46117714106805,36.04186923684994],[139.46121560647745,36.04263422206498],[139.46133335755408,36.045011534643244]]]},"properties":{"KEY_CODE":"113470220","PREF":"11","CITY":"347","CITY_NAME":"吉見町","S_NAME":"大字下細谷","SETAI":"285"}},{"type":"Feature","geometry":{"type":"Polygon","coordinates":[[[139.43796464071144,36.05036199834471],[139.4365569960953,36.04962426843545],[139.43537538529364,36.05084008501206],[139.4353983737469,36.050308139927225],[139.43427129400808,36.050480935280795],[139.43491858486806,36.04818720971493],[139.43640737538055,36.04550463870145],[139.4367843280573,36.044074044446496],[139.43829443259133,36.043293028529526],[139.43990383338956,36.04167548218415],[139.43900613202246,36.04050395583257],[139.44076612972188,36.04131882278108],[139.44388880915574,36.040807034074994],[139.4454375049009,36.039800985702264],[139.4463212135661,36.038167543040494],[139.446846471539,36.03947076183637],[139.44753914641163,36.039309126174686],[139.44795961053364,36.04136580235595],[139.4472625807172,36.042852439321706],[139.4492039617616,36.04294947324009],[139.448969371704,36.0444628874015],[139.44764042648765,36.04686289841947],[139.4464695936861,36.04801581838399],[139.44506704049647,36.04777337167212],[139.44489461671103,36.04817546080755],[139.44203477856394,36.04680679178926],[139.4404028111641,36.047237985349675],[139.43907247726548,36.04844176245837],[139.43796464071144,36.05036199834471]]]},"properties":{"KEY_CODE":"113470230","PREF":"11","CITY":"347","CITY_NAME":"吉見町","S_NAME":"大字和名","SETAI":"288"}},{"type":"Feature","geometry":{"type":"Polygon","coordinates":[[[139.4463212135661,36.038167543040494],[139.4454375049009,36.039800985702264],[139.44388880915574,36.040807034074994],[139.44076612972188,36.04131882278108],[139.43900613202246,36.04050395583257],[139.43990383338956,36.04167548218415],[139.43829443259133,36.043293028529526],[139.4367843280573,36.044074044446496],[139.4361929859296,36.042296460250505],[139.4343063967204,36.041861527022235],[139.43384824060865,36.04160855300634],[139.4341781126124,36.04064278016914],[139.43304967544256,36.04012719972543],[139.43424457850048,36.03793022873141],[139.43551156212968,36.03801409769992],[139.43686464110664,36.03744400307176],[139.43888989715018,36.034868629897765],[139.43783917076937,36.033755270751165],[139.4388070271542,36.0336690593621],[139.44107857911536,36.03220368193276],[139.4416873465414,36.03313934656749],[139.44269323099553,36.03262476108762],[139.4437815370926,36.03384588599961],[139.44494415778559,36.033347874355584],[139.44643161057172,36.0344151339737],[139.44608037048113,36.035030587840865],[139.44673144626748,36.03549126583313],[139.4463212135661,36.038167543040494]]]},"properties":{"KEY_CODE":"113470240","PREF":"11","CITY":"347","CITY_NAME":"吉見町","S_NAME":"大字久米田","SETAI":"158"}},{"type":"Feature","geometry":{"type":"Polygon","coordinates":[[[139.44073257359977,36.02373985381612],[139.44221306460375,36.02335450505111],[139.44277212830937,36.02442770558782],[139.44183501037125,36.02707235875399],[139.4420629350332,36.02708344256923],[139.44168772666765,36.0284828153525],[139.44238749863462,36.03063488047313],[139.44107857911536,36.03220368193276],[139.4398325362839,36.027718031109536],[139.4404839784622,36.0237652576417],[139.44073257359977,36.02373985381612]]]},"properties":{"KEY_CODE":"113470250","PREF":"11","CITY":"347","CITY_NAME":"吉見町","S_NAME":"大字南吉見","SETAI":"0"}},{"type":"Feature","geometry":{"type":"Polygon","coordinates":[[[139.4343063967204,36.041861527022235],[139.4340732677592,36.0423272046248],[139.431924331739,36.04231414132543],[139.43177482528975,36.04097026610079],[139.4308186481676,36.03992691186274],[139.42992419469923,36.040378890099355],[139.42800499219817,36.039280690166336],[139.42818152462345,36.03903829675185],[139.42813326989523,36.0387930185744],[139.42802528924955,36.0386393567079],[139.42788613060767,36.037474481145594],[139.42704769859927,36.0366506888285],[139.4275028818512,36.03608275366178],[139.42615223415092,36.03567908458621],[139.42605758261683,36.035700808071255],[139.4257996972281,36.035788763069455],[139.4254376298128,36.035888675840354],[139.42417043596865,36.035385510001475],[139.42283327379357,36.035923865274945],[139.42225304817921,36.03603815758964],[139.42156075422398,36.03650702895487],[139.4203378320375,36.03620347501316],[139.4191476803064,36.03707159337471],[139.41806195473006,36.0356157303795],[139.41888324495952,36.034789907556444],[139.4197846585329,36.03539940318352],[139.4226987182073,36.034278460651684],[139.42388733754424,36.03210690211736],[139.42445752229253,36.03173856526047],[139.42610714913152,36.03229573228764],[139.42680648947388,36.0323670135679],[139.42674986014447,36.03307298084736],[139.42794744995965,36.03316317492325],[139.42793524504108,36.033473152160035],[139.4280700903879,36.03405920285159],[139.42924107665777,36.03451713885052],[139.43157580418622,36.034277499352555],[139.43257534156373,36.034443371372745],[139.43783917076937,36.033755270751165],[139.43888989715018,36.034868629897765],[139.43686464110664,36.03744400307176],[139.43551156212968,36.03801409769992],[139.43424457850048,36.03793022873141],[139.43304967544256,36.04012719972543],[139.4341781126124,36.04064278016914],[139.43384824060865,36.04160855300634],[139.4343063967204,36.041861527022235]]]},"properties":{"KEY_CODE":"113470250","PREF":"11","CITY":"347","CITY_NAME":"吉見町","S_NAME":"大字南吉見","SETAI":"511"}},{"type":"Feature","geometry":{"type":"Polygon","coordinates":[[[139.4305518398085,36.042833427684684],[139.43170504544764,36.042903664542365],[139.4310305685441,36.04334694701745],[139.4311670665128,36.045428901081664],[139.42960932616566,36.04514112542022],[139.42905500100403,36.04465971354701],[139.43053179387638,36.04363464396934],[139.4305518398085,36.042833427684684]]]},"properties":{"KEY_CODE":"113470250","PREF":"11","CITY":"347","CITY_NAME":"吉見町","S_NAME":"大字南吉見","SETAI":"0"}},{"type":"Feature","geometry":{"type":"Polygon","coordinates":[[[139.4298436420701,36.04681118002774],[139.42816958615091,36.04718361842002],[139.42875702825538,36.04666128612584],[139.4298436420701,36.04681118002774]]]},"properties":{"KEY_CODE":"113470250","PREF":"11","CITY":"347","CITY_NAME":"吉見町","S_NAME":"大字南吉見","SETAI":"0"}},{"type":"Feature","geometry":{"type":"Polygon","coordinates":[[[139.4329582791151,36.04674307721526],[139.43267472775108,36.047299927983204],[139.4316549232637,36.046742595402556],[139.43306138309993,36.04580769210951],[139.4329582791151,36.04674307721526]]]},"properties":{"KEY_CODE":"113470250","PREF":"11","CITY":"347","CITY_NAME":"吉見町","S_NAME":"大字南吉見","SETAI":"0"}},{"type":"Feature","geometry":{"type":"Polygon","coordinates":[[[139.42740111528602,36.04931813700179],[139.4275375143025,36.05001413677772],[139.42840889740557,36.050305152972264],[139.4282611107163,36.05112189759941],[139.427365465271,36.050996061382335],[139.42681074141512,36.04987370319563],[139.42740111528602,36.04931813700179]]]},"properties":{"KEY_CODE":"113470250","PREF":"11","CITY":"347","CITY_NAME":"吉見町","S_NAME":"大字南吉見","SETAI":"0"}},{"type":"Feature","geometry":{"type":"Polygon","coordinates":[[[139.4297349516033,36.048344667235355],[139.42856126014706,36.04857012619009],[139.4285132107192,36.04760033688376],[139.43141497713373,36.04707544544137],[139.4316473514359,36.0478325563104],[139.4297349516033,36.048344667235355]]]},"properties":{"KEY_CODE":"113470250","PREF":"11","CITY":"347","CITY_NAME":"吉見町","S_NAME":"大字南吉見","SETAI":"0"}},{"type":"Feature","geometry":{"type":"Polygon","coordinates":[[[139.418999424957,36.05179654764326],[139.4196309489465,36.05077880488966],[139.4201938601731,36.05249773554044],[139.42165842140392,36.052019990833855],[139.42332981014206,36.05218444253032],[139.42318145539892,36.052628293511106],[139.42047733334874,36.05267050845664],[139.42031861401395,36.052936251288976],[139.4197701654175,36.05235202875352],[139.41966599366657,36.05225004817655],[139.419474113518,36.05222254757833],[139.41926101871806,36.052339408361966],[139.41896504893498,36.05235244555932],[139.41882935057242,36.05211040238531],[139.418999424957,36.05179654764326]]]},"properties":{"KEY_CODE":"113470260","PREF":"11","CITY":"347","CITY_NAME":"吉見町","S_NAME":"大字北吉見","SETAI":"0"}},{"type":"Feature","geometry":{"type":"Polygon","coordinates":[[[139.4345322802211,36.056800786659075],[139.4331684925398,36.056446877821784],[139.4302861163349,36.056258225327795],[139.42994830454307,36.054921700665155],[139.43047918181952,36.054040579070055],[139.42978533548373,36.05392166886418],[139.42958476790196,36.05480731622508],[139.4287920438919,36.054692108431375],[139.42753538851434,36.05343419156124],[139.42596896710074,36.053270905450525],[139.42579151486163,36.0518894837999],[139.42700589522082,36.05151913863044],[139.42503993852745,36.0507071091039],[139.42572614335424,36.049101561307836],[139.4247389441587,36.04861698099109],[139.4235700578417,36.04867990164354],[139.42266876436426,36.04928627342303],[139.4217722019093,36.04861503434743],[139.4231059773906,36.047414167016754],[139.42205969645198,36.04731238870944],[139.4214723081849,36.04782333250565],[139.42037307804867,36.047343076766616],[139.42108390589286,36.04690476858557],[139.42013851748385,36.044561430675735],[139.42001670195748,36.043626591449225],[139.41914923088362,36.042842616930955],[139.4194358432663,36.03947955084907],[139.4206198906665,36.03951865656748],[139.42093516903398,36.03850351869843],[139.4191476803064,36.03707159337471],[139.4203378320375,36.03620347501316],[139.42156075422398,36.03650702895487],[139.42225304817921,36.03603815758964],[139.42283327379357,36.035923865274945],[139.42417043596865,36.035385510001475],[139.4254376298128,36.035888675840354],[139.4257996972281,36.035788763069455],[139.42605758261683,36.035700808071255],[139.42615223415092,36.03567908458621],[139.4275028818512,36.03608275366178],[139.42704769859927,36.0366506888285],[139.42788613060767,36.037474481145594],[139.42802528924955,36.0386393567079],[139.42813326989523,36.0387930185744],[139.42818152462345,36.03903829675185],[139.42800499219817,36.039280690166336],[139.42992419469923,36.040378890099355],[139.4308186481676,36.03992691186274],[139.43177482528975,36.04097026610079],[139.431924331739,36.04231414132543],[139.4340732677592,36.0423272046248],[139.4343063967204,36.041861527022235],[139.4361929859296,36.042296460250505],[139.4367843280573,36.044074044446496],[139.43640737538055,36.04550463870145],[139.43491858486806,36.04818720971493],[139.43427129400808,36.050480935280795],[139.4353983737469,36.050308139927225],[139.43537538529364,36.05084008501206],[139.4365569960953,36.04962426843545],[139.43796464071144,36.05036199834471],[139.43974242901388,36.05186317182299],[139.4363855112874,36.05327739152977],[139.4362948447645,36.05430986680104],[139.43694659403053,36.05518367159239],[139.4366747865684,36.05568673739049],[139.43466282837488,36.055990180726305],[139.4345322802211,36.056800786659075]],[[139.42740111528602,36.04931813700179],[139.42681074141512,36.04987370319563],[139.427365465271,36.050996061382335],[139.4282611107163,36.05112189759941],[139.42840889740557,36.050305152972264],[139.4275375143025,36.05001413677772],[139.42740111528602,36.04931813700179]],[[139.4297349516033,36.048344667235355],[139.4316473514359,36.0478325563104],[139.43141497713373,36.04707544544137],[139.4285132107192,36.04760033688376],[139.42856126014706,36.04857012619009],[139.4297349516033,36.048344667235355]],[[139.4329582791151,36.04674307721526],[139.43306138309993,36.04580769210951],[139.4316549232637,36.046742595402556],[139.43267472775108,36.047299927983204],[139.4329582791151,36.04674307721526]],[[139.4298436420701,36.04681118002774],[139.42875702825538,36.04666128612584],[139.42816958615091,36.04718361842002],[139.4298436420701,36.04681118002774]],[[139.43053179387638,36.04363464396934],[139.42905500100403,36.04465971354701],[139.42960932616566,36.04514112542022],[139.4311670665128,36.045428901081664],[139.4310305685441,36.04334694701745],[139.43170504544764,36.042903664542365],[139.4305518398085,36.042833427684684],[139.43053179387638,36.04363464396934]]]},"properties":{"KEY_CODE":"113470260","PREF":"11","CITY":"347","CITY_NAME":"吉見町","S_NAME":"大字北吉見","SETAI":"667"}},{"type":"Feature","geometry":{"type":"Polygon","coordinates":[[[139.44685585824553,36.053189204387564],[139.44671061984923,36.052482845465725],[139.44565209243694,36.05248370549468],[139.44577015312152,36.051699079167776],[139.4447338138977,36.0498115927954],[139.44394888396715,36.04961706646096],[139.44297121810976,36.05190680175386],[139.44296482981784,36.05330724842668],[139.44224308183206,36.05475180306306],[139.44072710792,36.05425329416421],[139.43999911409375,36.05550369546352],[139.43766557338236,36.05492437519569],[139.43694659403053,36.05518367159239],[139.4362948447645,36.05430986680104],[139.4363855112874,36.05327739152977],[139.43974242901388,36.05186317182299],[139.43796464071144,36.05036199834471],[139.43907247726548,36.04844176245837],[139.4404028111641,36.047237985349675],[139.44203477856394,36.04680679178926],[139.44489461671103,36.04817546080755],[139.44506704049647,36.04777337167212],[139.4464695936861,36.04801581838399],[139.44764042648765,36.04686289841947],[139.4481894344082,36.04703559286397],[139.44757694208727,36.048190787249496],[139.44905294302194,36.04835452014716],[139.44903346343915,36.051302718691886],[139.44756281210232,36.051482546071405],[139.4476944289499,36.0528803666039],[139.44685585824553,36.053189204387564]]]},"properties":{"KEY_CODE":"113470270","PREF":"11","CITY":"347","CITY_NAME":"吉見町","S_NAME":"大字御所","SETAI":"149"}},{"type":"Feature","geometry":{"type":"Polygon","coordinates":[[[139.43823652936263,36.06407565225216],[139.4373615424031,36.063707566555784],[139.43617836886617,36.06399335404636],[139.4355710240974,36.0646361085046],[139.435509123748,36.06470951268469],[139.43485648053482,36.064665485079786],[139.4338472974618,36.063574344771425],[139.43283029705145,36.061374646392736],[139.4332814920301,36.06048438821187],[139.4331993742833,36.05786218365883],[139.4345322802211,36.056800786659075],[139.43466282837488,36.055990180726305],[139.4366747865684,36.05568673739049],[139.43694659403053,36.05518367159239],[139.43766557338236,36.05492437519569],[139.43999911409375,36.05550369546352],[139.44072710792,36.05425329416421],[139.44224308183206,36.05475180306306],[139.44296482981784,36.05330724842668],[139.44297121810976,36.05190680175386],[139.44394888396715,36.04961706646096],[139.4447338138977,36.0498115927954],[139.44577015312152,36.051699079167776],[139.44565209243694,36.05248370549468],[139.44671061984923,36.052482845465725],[139.44685585824553,36.053189204387564],[139.4466606632679,36.05410821677074],[139.44452873388516,36.053836217484516],[139.44389896375185,36.05532623184543],[139.44349947775925,36.05717966969023],[139.44346226104201,36.059567326546116],[139.44290570565582,36.06124105121429],[139.44217176938557,36.06232584371699],[139.43976760484074,36.061969429536916],[139.43949832108083,36.0626793766108],[139.43935482430837,36.06289996334629],[139.43874930345774,36.06308773991485],[139.43864514552888,36.06326236286494],[139.43858183760926,36.06358453366861],[139.43857721569165,36.06384204569262],[139.43823652936263,36.06407565225216]]]},"properties":{"KEY_CODE":"113470280","PREF":"11","CITY":"347","CITY_NAME":"吉見町","S_NAME":"大字黒岩","SETAI":"65"}},{"type":"Feature","geometry":{"type":"Polygon","coordinates":[[[139.44903346343915,36.051302718691886],[139.44939639705342,36.05237048717383],[139.4476944289499,36.0528803666039],[139.44756281210232,36.051482546071405],[139.44903346343915,36.051302718691886]]]},"properties":{"KEY_CODE":"113470280","PREF":"11","CITY":"347","CITY_NAME":"吉見町","S_NAME":"大字黒岩","SETAI":"0"}},{"type":"Feature","geometry":{"type":"Polygon","coordinates":[[[139.42892453666585,36.062355274616806],[139.4271085606244,36.06276933769058],[139.425218956636,36.06464477916832],[139.42352575202042,36.06481660658826],[139.42190022859415,36.064512452162205],[139.41995892124973,36.06466966808434],[139.4178658601991,36.063829990903706],[139.41727085798462,36.06331395387938],[139.41726148512757,36.06144803218533],[139.41725546491904,36.05791891735647],[139.41876678431905,36.056600620353414],[139.41905102298804,36.05575734179375],[139.4170890969055,36.05584659430276],[139.4136950650103,36.05480348439108],[139.41446136791149,36.05403092967338],[139.41624428479648,36.0548133009625],[139.41712466199542,36.05330038080438],[139.41826154416668,36.053334141450655],[139.4186082836366,36.05284904996597],[139.41733120862094,36.05301103287642],[139.4182248662894,36.0504802958812],[139.41956389610496,36.049501042844554],[139.4195668677406,36.04869776489901],[139.42037307804867,36.047343076766616],[139.4214723081849,36.04782333250565],[139.42205969645198,36.04731238870944],[139.4231059773906,36.047414167016754],[139.4217722019093,36.04861503434743],[139.42266876436426,36.04928627342303],[139.4235700578417,36.04867990164354],[139.4247389441587,36.04861698099109],[139.42572614335424,36.049101561307836],[139.42503993852745,36.0507071091039],[139.42700589522082,36.05151913863044],[139.42579151486163,36.0518894837999],[139.42596896710074,36.053270905450525],[139.42753538851434,36.05343419156124],[139.4287920438919,36.054692108431375],[139.42958476790196,36.05480731622508],[139.42978533548373,36.05392166886418],[139.43047918181952,36.054040579070055],[139.42994830454307,36.054921700665155],[139.4302861163349,36.056258225327795],[139.4331684925398,36.056446877821784],[139.4345322802211,36.056800786659075],[139.4331993742833,36.05786218365883],[139.4332814920301,36.06048438821187],[139.43283029705145,36.061374646392736],[139.43090506089558,36.06141007083245],[139.4291375695249,36.06235599216464],[139.42892453666585,36.062355274616806]],[[139.42031861401395,36.052936251288976],[139.42047733334874,36.05267050845664],[139.42318145539892,36.052628293511106],[139.42332981014206,36.05218444253032],[139.42165842140392,36.052019990833855],[139.4201938601731,36.05249773554044],[139.4196309489465,36.05077880488966],[139.418999424957,36.05179654764326],[139.41882935057242,36.05211040238531],[139.41896504893498,36.05235244555932],[139.41926101871806,36.052339408361966],[139.419474113518,36.05222254757833],[139.41966599366657,36.05225004817655],[139.4197701654175,36.05235202875352],[139.42031861401395,36.052936251288976]]]},"properties":{"KEY_CODE":"113470290","PREF":"11","CITY":"347","CITY_NAME":"吉見町","S_NAME":"大字長谷","SETAI":"749"}},{"type":"Feature","geometry":{"type":"Polygon","coordinates":[[[139.44102477345493,36.07003794788127],[139.43952599260027,36.07373834067858],[139.4378544868154,36.07570814958399],[139.43879604600596,36.076258280155294],[139.43822226990395,36.07719794059937],[139.43786411860944,36.0770262053928],[139.4363953488762,36.07641905923871],[139.4359540005097,36.07637300756751],[139.43492202070814,36.076609856371576],[139.4328215334912,36.07552844488277],[139.43310372504033,36.075195408594524],[139.43025019063924,36.07352172894309],[139.4288823602696,36.07405187409572],[139.42843336489972,36.0747322007127],[139.4268588418196,36.0722475318454],[139.4259754261046,36.07281922750396],[139.425819216565,36.07265914461606],[139.42518959668044,36.07238456827091],[139.4252994446799,36.07231727557702],[139.42599636343567,36.0720363606781],[139.42567637976853,36.07180507050326],[139.42502162188433,36.071520893110495],[139.42312448096942,36.07002770234023],[139.4214485080143,36.069714441554524],[139.41879478723126,36.066048788428695],[139.41666254609117,36.06427694004905],[139.41727085798462,36.06331395387938],[139.4178658601991,36.063829990903706],[139.41995892124973,36.06466966808434],[139.42190022859415,36.064512452162205],[139.42352575202042,36.06481660658826],[139.425218956636,36.06464477916832],[139.4271085606244,36.06276933769058],[139.42892453666585,36.062355274616806],[139.4291375695249,36.06235599216464],[139.43090506089558,36.06141007083245],[139.43283029705145,36.061374646392736],[139.4338472974618,36.063574344771425],[139.43485648053482,36.064665485079786],[139.435509123748,36.06470951268469],[139.43587091943496,36.064687629472054],[139.4373551041408,36.065204503577206],[139.43753672408715,36.065817646229135],[139.4375604666297,36.066256072084464],[139.43770201673095,36.06665321030275],[139.43773553444993,36.06747886950621],[139.43766058356883,36.06777778728024],[139.43754146825304,36.067872109177145],[139.43768899465607,36.06802831542311],[139.43776604628908,36.068038207174865],[139.43808063363716,36.06819897151924],[139.43823289976808,36.06839613246787],[139.43847475856296,36.0684715783153],[139.43865557181678,36.06849223451235],[139.43916321829172,36.0686014594921],[139.43891443590363,36.06962078213877],[139.4391635616983,36.06972683902554],[139.43977959147995,36.069913476520156],[139.4402028417583,36.06993012904367],[139.44102477345493,36.07003794788127]]]},"properties":{"KEY_CODE":"113470300","PREF":"11","CITY":"347","CITY_NAME":"吉見町","S_NAME":"大字田甲","SETAI":"473"}},{"type":"Feature","geometry":{"type":"Polygon","coordinates":[[[139.4459478055365,36.067975740811505],[139.44440243369382,36.06798439959743],[139.44394405334842,36.06910989100809],[139.4435035353648,36.07017077283834],[139.4412865257896,36.06957414537892],[139.4402028417583,36.06993012904367],[139.43977959147995,36.069913476520156],[139.4391635616983,36.06972683902554],[139.43891443590363,36.06962078213877],[139.43916321829172,36.0686014594921],[139.43865557181678,36.06849223451235],[139.43847475856296,36.0684715783153],[139.43823289976808,36.06839613246787],[139.43808063363716,36.06819897151924],[139.43776604628908,36.068038207174865],[139.43768899465607,36.06802831542311],[139.43754146825304,36.067872109177145],[139.43766058356883,36.06777778728024],[139.43773553444993,36.06747886950621],[139.43770201673095,36.06665321030275],[139.4375604666297,36.066256072084464],[139.43753672408715,36.065817646229135],[139.4373551041408,36.065204503577206],[139.43587091943496,36.064687629472054],[139.435509123748,36.06470951268469],[139.4355710240974,36.0646361085046],[139.43617836886617,36.06399335404636],[139.4373615424031,36.063707566555784],[139.43823652936263,36.06407565225216],[139.43857721569165,36.06384204569262],[139.43858183760926,36.06358453366861],[139.43864514552888,36.06326236286494],[139.43874930345774,36.06308773991485],[139.43935482430837,36.06289996334629],[139.43949832108083,36.0626793766108],[139.4397676048408,36.061969429536916],[139.44217176938557,36.06232584371699],[139.442091151363,36.062582790043514],[139.4422595828261,36.06377492465111],[139.44223922859842,36.06412130092574],[139.44218905586996,36.06489531750934],[139.4423916603892,36.06529683770857],[139.4442639217952,36.065582297530725],[139.44411568383507,36.06641727903059],[139.44479175274796,36.0662157226558],[139.4456376868396,36.06616183296025],[139.445772074226,36.066098771364395],[139.44582143355643,36.06606082474902],[139.44590861213214,36.06625227560523],[139.4459516024421,36.067908655099906],[139.4459478055365,36.067975740811505]]]},"properties":{"KEY_CODE":"113470310","PREF":"11","CITY":"347","CITY_NAME":"吉見町","S_NAME":"大字山ノ下","SETAI":"43"}},{"type":"Feature","geometry":{"type":"Polygon","coordinates":[[[139.44102477345493,36.07003794788127],[139.4412865257896,36.06957414537891],[139.4435035353648,36.07017077283834],[139.44575816693984,36.07077765369096],[139.44504750303392,36.072496766081635],[139.44639459716916,36.07264858942009],[139.44581373317018,36.07418101133277],[139.44704198833523,36.07467816289939],[139.44602450779408,36.07791464995796],[139.44532638015713,36.0781638144016],[139.44475591540865,36.07836258333473],[139.44211356128739,36.07927540052023],[139.44175651454734,36.07884253745726],[139.43985209151373,36.078050426485916],[139.43896110831443,36.07768489639715],[139.43854858747247,36.0775700262508],[139.43816890226722,36.077454498194456],[139.43821631055062,36.07735782772373],[139.43822226990395,36.07719794059937],[139.43879604600596,36.076258280155294],[139.4378544868154,36.07570814958399],[139.43952599260027,36.07373834067858],[139.44102477345493,36.07003794788127]]]},"properties":{"KEY_CODE":"113470320","PREF":"11","CITY":"347","CITY_NAME":"吉見町","S_NAME":"大字中曽根","SETAI":"78"}},{"type":"Feature","geometry":{"type":"Polygon","coordinates":[[[139.42559278125998,36.07663900023731],[139.42742707714984,36.07744330483198],[139.42719881527478,36.07774926527961],[139.4298497146062,36.08032553532524],[139.43326811409273,36.082303791432736],[139.4336168255243,36.082716241473264],[139.43057899806487,36.0812462742516],[139.42928651715138,36.08044053251611],[139.42577475552727,36.07711152945771],[139.42559278125998,36.07663900023731]]]},"properties":{"KEY_CODE":"113470320","PREF":"11","CITY":"347","CITY_NAME":"吉見町","S_NAME":"大字中曽根","SETAI":"0"}},{"type":"Feature","geometry":{"type":"Polygon","coordinates":[[[139.45481503933905,36.06739067413749],[139.4559261887801,36.0672544594876],[139.45452070610102,36.07139121287296],[139.4565553087649,36.07198100601658],[139.4519620036156,36.07534202535533],[139.45037648230186,36.076341936430715],[139.44602450779408,36.07791464995796],[139.44704198833523,36.07467816289939],[139.44581373317018,36.07418101133277],[139.44639459716916,36.07264858942009],[139.44504750303392,36.072496766081635],[139.44575816693984,36.07077765369096],[139.4435035353648,36.07017077283834],[139.44394405334842,36.06910989100809],[139.44440243369382,36.06798439959737],[139.4459478055365,36.067975740811505],[139.45023831399863,36.067934987765376],[139.4511962183187,36.06782848238561],[139.45194990513218,36.06774313223741],[139.45225023961962,36.067698735106504],[139.45481503933905,36.06739067413749]]]},"properties":{"KEY_CODE":"113470330","PREF":"11","CITY":"347","CITY_NAME":"吉見町","S_NAME":"大字上砂","SETAI":"106"}},{"type":"Feature","geometry":{"type":"Polygon","coordinates":[[[139.45023831399863,36.067934987765376],[139.4459478055365,36.067975740811505],[139.4459516024421,36.067908655099906],[139.44590861213214,36.06625227560523],[139.44582143355643,36.06606082474902],[139.445772074226,36.066098771364395],[139.4456376868396,36.06616183296025],[139.44479175274796,36.0662157226558],[139.44411568383507,36.06641727903059],[139.44426392179523,36.065582297530725],[139.4423916603892,36.06529683770857],[139.44218905586996,36.06489531750934],[139.44223922859842,36.06412130092574],[139.4422595828261,36.06377492465111],[139.442091151363,36.062582790043514],[139.44217176938557,36.06232584371699],[139.44290570565582,36.06124105121429],[139.44346226104201,36.059567326546116],[139.4491135980576,36.06035914946607],[139.45001060310022,36.06063420971855],[139.45231363192067,36.06039041103308],[139.45213361827206,36.06161562085621],[139.45188644468848,36.063052317965656],[139.4518530750297,36.06318360552641],[139.45156951349284,36.06410618600479],[139.4510172211849,36.0673593142566],[139.45035188831358,36.06729704517495],[139.45023831399863,36.067934987765376]]]},"properties":{"KEY_CODE":"113470340","PREF":"11","CITY":"347","CITY_NAME":"吉見町","S_NAME":"大字松崎","SETAI":"87"}},{"type":"Feature","geometry":{"type":"Polygon","coordinates":[[[139.45231363192067,36.06039041103308],[139.45001060310022,36.06063420971855],[139.4491135980576,36.06035914946607],[139.44346226104201,36.059567326546116],[139.44349947775925,36.05717966969023],[139.44389896375185,36.05532623184543],[139.44452873388516,36.053836217484516],[139.4466606632679,36.05410821677074],[139.44685585824553,36.053189204387564],[139.4476944289499,36.0528803666039],[139.44939639705342,36.05237048717383],[139.45028468728663,36.052429877995806],[139.4507626122159,36.05346309501508],[139.4511182572532,36.054194529354575],[139.45175942930229,36.05558206739023],[139.45235069952523,36.05674744342713],[139.45225327510573,36.057551951989254],[139.45245280861914,36.05841151537414],[139.45231363192067,36.06039041103308]]]},"properties":{"KEY_CODE":"113470350","PREF":"11","CITY":"347","CITY_NAME":"吉見町","S_NAME":"大字上細谷","SETAI":"86"}},{"type":"Feature","geometry":{"type":"Polygon","coordinates":[[[139.46129550984654,36.04801668985818],[139.46123277066027,36.049047539765496],[139.46132931696974,36.05224830066923],[139.45562125154882,36.05235661145087],[139.45113900443,36.05244013399488],[139.45028468728663,36.052429877995806],[139.44939639705342,36.05237048717383],[139.44903346343915,36.051302718691886],[139.44905294302194,36.04835452014716],[139.45059188514335,36.045851995686604],[139.45309609594108,36.046456827292715],[139.45311649614646,36.047286594327836],[139.45427734371705,36.046853343072826],[139.45588225510915,36.04711953683634],[139.4568371295722,36.04414553779155],[139.46133335755408,36.045011534643244],[139.46138770257895,36.04643466203591],[139.46129550984654,36.04801668985818]]]},"properties":{"KEY_CODE":"113470360","PREF":"11","CITY":"347","CITY_NAME":"吉見町","S_NAME":"大字中新井","SETAI":"89"}},{"type":"Feature","geometry":{"type":"Polygon","coordinates":[[[139.45582162356345,36.05939730034843],[139.45463505810645,36.059404342819306],[139.45460092618438,36.05858740333244],[139.45245280861914,36.05841151537414],[139.45225327510573,36.057551951989254],[139.45235069952523,36.05674744342713],[139.45175942930229,36.05558206739023],[139.4511182572532,36.054194529354575],[139.4507626122159,36.05346309501508],[139.45028468728663,36.05242987799583],[139.45113900443,36.05244013399488],[139.45562125154882,36.05235661145087],[139.45571378092205,36.05519325366075],[139.45581981355824,36.0593310909542],[139.45582162356345,36.05939730034843]]]},"properties":{"KEY_CODE":"113470370","PREF":"11","CITY":"347","CITY_NAME":"吉見町","S_NAME":"大字小新井","SETAI":"21"}},{"type":"Feature","geometry":{"type":"Polygon","coordinates":[[[139.45225023961962,36.067698735106504],[139.45194990513218,36.06774313223741],[139.4511962183187,36.06782848238561],[139.45023831399863,36.06793498776537],[139.45035188831358,36.06729704517495],[139.4510172211849,36.0673593142566],[139.45156951349284,36.06410618600479],[139.4518530750297,36.06318360552641],[139.45188644468848,36.063052317965656],[139.45213361827206,36.06161562085621],[139.45254065573928,36.05923436750773],[139.45245280861914,36.05841151537414],[139.45460092618438,36.05858740333244],[139.45463505810645,36.059404342819306],[139.45582162356345,36.05939730034843],[139.45584582709256,36.0601709454123],[139.45591685562508,36.062677156947515],[139.45589509959905,36.06569720270982],[139.45580871942218,36.066562154222794],[139.45481503933905,36.06739067413749],[139.45225023961962,36.067698735106504]]]},"properties":{"KEY_CODE":"113470380","PREF":"11","CITY":"347","CITY_NAME":"吉見町","S_NAME":"大字本沢","SETAI":"80"}},{"type":"Feature","geometry":{"type":"Polygon","coordinates":[[[139.47296211116253,36.060171668874446],[139.4718864622743,36.06104567486759],[139.47067505754305,36.06278326836777],[139.46989017148067,36.06443083660184],[139.46887920589091,36.06572833754349],[139.46728779545762,36.06706010088318],[139.4668151128212,36.06811241212564],[139.4667326291517,36.06943867709859],[139.46613413273536,36.07037000053153],[139.46250544653722,36.07301286188473],[139.45968194465536,36.07413104831992],[139.45883090533565,36.07472456680741],[139.4576765836859,36.07633032581997],[139.4566626089821,36.078761500319196],[139.45601243612685,36.079725309163436],[139.45377181620466,36.08083846930994],[139.45238821670793,36.08185853163757],[139.45108382852018,36.083432193649294],[139.44968280409284,36.08402390403429],[139.4482113312679,36.0839650854584],[139.44662993296893,36.0834239567013],[139.4471572861898,36.0829827992236],[139.443893269008,36.08003822719354],[139.44211356128739,36.07927540052023],[139.44475591540865,36.07836258333473],[139.44532638015713,36.0781638144016],[139.44602450779408,36.07791464995796],[139.45037648230186,36.076341936430715],[139.4519620036156,36.07534202535533],[139.4565553087649,36.07198100601658],[139.45886398593797,36.07028134291737],[139.45858948260533,36.070043930565966],[139.4595214665871,36.06755904221084],[139.45942019322771,36.06413609278506],[139.45967800973506,36.06386404678041],[139.46167501287292,36.06381811559216],[139.462923928695,36.061193630807296],[139.4637685657974,36.061396343787216],[139.46421996109893,36.06002193834297],[139.46763730377194,36.05997034825649],[139.46763666133745,36.05903000716887],[139.46768075124345,36.057310060840216],[139.46773015545264,36.056668974345925],[139.46788443126326,36.055695150998105],[139.46840466342073,36.05396883676296],[139.46887370267126,36.05405728818548],[139.46976588824236,36.054234861015075],[139.4708464641478,36.05443112544023],[139.4725064756157,36.054874685803924],[139.47313637868078,36.05504473094401],[139.47373623074466,36.05538951895131],[139.47391098032747,36.055327842044804],[139.47491793281827,36.05544409306063],[139.47709010304393,36.055772736558424],[139.47742288855227,36.05586208439902],[139.47937813547765,36.056301401697745],[139.4804981895529,36.05647683941242],[139.4807878971784,36.056056212797436],[139.48161761905035,36.05576327485182],[139.4820875272106,36.05559533724697],[139.48237700237,36.05548668102535],[139.48258296009521,36.056198676128325],[139.48245362834965,36.05911656558849],[139.4796528824613,36.059655524810125],[139.47654942604518,36.060016217156324],[139.47497649935272,36.05977025627677],[139.47296211116253,36.060171668874446]]]},"properties":{"KEY_CODE":"113470390","PREF":"11","CITY":"347","CITY_NAME":"吉見町","S_NAME":"大字一ツ木","SETAI":"67"}},{"type":"Feature","geometry":{"type":"Polygon","coordinates":[[[139.46763666133745,36.05903000716887],[139.46763730377194,36.05997034825649],[139.46421996109893,36.06002193834297],[139.4637685657974,36.061396343787216],[139.462923928695,36.061193630807296],[139.46167501287292,36.06381811559216],[139.45967800973506,36.06386404678041],[139.45942019322771,36.06413609278506],[139.4595214665871,36.06755904221084],[139.45858948260533,36.070043930565966],[139.45886398593797,36.07028134291737],[139.4565553087649,36.07198100601658],[139.45452070610102,36.07139121287296],[139.4559261887801,36.0672544594876],[139.45481503933905,36.06739067413749],[139.45580871942218,36.066562154222794],[139.45589509959905,36.06569720270982],[139.45591685562508,36.062677156947515],[139.45584582709256,36.0601709454123],[139.45582162356345,36.05939730034843],[139.45581981355824,36.0593310909542],[139.45576394657581,36.05685345506605],[139.46773015545264,36.056668974345925],[139.46768075124345,36.057310060840216],[139.46763666133745,36.05903000716887]]]},"properties":{"KEY_CODE":"113470400","PREF":"11","CITY":"347","CITY_NAME":"吉見町","S_NAME":"大字地頭方","SETAI":"101"}},{"type":"Feature","geometry":{"type":"Polygon","coordinates":[[[139.46840466342073,36.05396883676296],[139.46788443126326,36.055695150998105],[139.46773015545264,36.056668974345925],[139.45576394657581,36.05685345506605],[139.45571378092205,36.05519325366075],[139.45562125154882,36.05235661145087],[139.46132931696974,36.05224830066923],[139.46123277066027,36.049047539765496],[139.46130639840135,36.049026189229124],[139.46300035344413,36.048607692193876],[139.46326127632773,36.04854720922445],[139.46397680929422,36.04843883756853],[139.46407917375052,36.04842736500081],[139.46417993804857,36.048920893386864],[139.46401307771677,36.04962038265669],[139.46376256703692,36.050332569454696],[139.46350865109892,36.050880879254166],[139.46354444699904,36.0509124510239],[139.46388765763197,36.05096530090712],[139.4643523214916,36.051277110596544],[139.4641428659174,36.05173693637473],[139.46734987429835,36.05237614434866],[139.46811304015984,36.05227752808436],[139.46882474626926,36.052258488974026],[139.4684661247153,36.053721990847265],[139.46840466342073,36.05396883676296]]]},"properties":{"KEY_CODE":"113470410","PREF":"11","CITY":"347","CITY_NAME":"吉見町","S_NAME":"大字今泉","SETAI":"85"}},{"type":"Feature","geometry":{"type":"Polygon","coordinates":[[[139.48246263494715,36.0540439229471],[139.4820875272106,36.05559533724697],[139.48161761905035,36.05576327485182],[139.4807878971784,36.056056212797436],[139.4804981895529,36.05647683941242],[139.47937813547765,36.056301401697745],[139.47742288855227,36.05586208439902],[139.47709010304393,36.055772736558424],[139.47491793281827,36.05544409306063],[139.47391098032747,36.055327842044804],[139.47373623074466,36.05538951895131],[139.47313637868078,36.05504473094401],[139.4725064756157,36.054874685803924],[139.4708464641478,36.05443112544023],[139.46976588824236,36.054234861015075],[139.46887370267126,36.05405728818548],[139.4684661247153,36.053721990847265],[139.46882474626926,36.052258488974026],[139.46954557518384,36.05044358431829],[139.47052307402842,36.04904100291085],[139.470886269221,36.04849732740914],[139.47160259986325,36.047477921783795],[139.47210553879998,36.04673013009453],[139.47282325943925,36.04569267560522],[139.4739372792693,36.044085329133146],[139.47416955797766,36.043820476194725],[139.47474204585794,36.043235038567225],[139.4762734164987,36.0418796273386],[139.4763310445166,36.04184169346175],[139.48612204083085,36.04585510571148],[139.48896071645007,36.04706902258091],[139.4889955799045,36.04718766461406],[139.48919987143455,36.04750975865462],[139.4898254405293,36.04783396226417],[139.49025657396732,36.04800370686309],[139.4904808875814,36.04800026468578],[139.49023232427342,36.048104060476945],[139.4897409148933,36.0485792804196],[139.48936963587548,36.0492794676443],[139.48898324166817,36.049671771910866],[139.48827832162596,36.04996240070013],[139.48803589873097,36.05002725456511],[139.48794649081046,36.05005117393495],[139.48713811853924,36.05015282203913],[139.4859893159747,36.05036576208336],[139.4857191200787,36.05048645337466],[139.4853120845695,36.05080000680745],[139.48394070707005,36.05215342097958],[139.4836517470766,36.05241024903731],[139.48293004230527,36.05314986469862],[139.48251306567172,36.053913395220206],[139.48246263494715,36.0540439229471]]]},"properties":{"KEY_CODE":"113470420","PREF":"11","CITY":"347","CITY_NAME":"吉見町","S_NAME":"大字明秋","SETAI":"20"}},{"type":"Feature","geometry":{"type":"Polygon","coordinates":[[[139.4694088248767,36.041263422773746],[139.46866368092753,36.044189160974575],[139.46723410617187,36.04367528288132],[139.4660594256715,36.043711853371526],[139.465480452353,36.04310923714727],[139.46561813220433,36.04281669735814],[139.46583876110464,36.042259714875655],[139.46611413851403,36.0416577530249],[139.46836487608593,36.04195206902372],[139.46847270130053,36.041129584089276],[139.4694088248767,36.041263422773746]]]},"properties":{"KEY_CODE":"11347043001","PREF":"11","CITY":"347","CITY_NAME":"吉見町","S_NAME":"東野一丁目","SETAI":"156"}},{"type":"Feature","geometry":{"type":"Polygon","coordinates":[[[139.4694088248767,36.041263422773746],[139.46847270130053,36.041129584089276],[139.46836487608593,36.04195206902372],[139.46611413851403,36.0416577530249],[139.46620316008404,36.041368002462804],[139.46626709531338,36.04122750391376],[139.46666919629118,36.04059249540376],[139.46667836107596,36.040515260363634],[139.46673578467394,36.0404022707635],[139.46697811289744,36.03969560474734],[139.46705167546008,36.03948911919233],[139.47141524838628,36.04043827079385],[139.4710111785573,36.040892111696394],[139.47023099117126,36.04141483487439],[139.4694088248767,36.041263422773746]]]},"properties":{"KEY_CODE":"11347043002","PREF":"11","CITY":"347","CITY_NAME":"吉見町","S_NAME":"東野二丁目","SETAI":"165"}},{"type":"Feature","geometry":{"type":"Polygon","coordinates":[[[139.46753737862676,36.038124424676084],[139.46994772519704,36.03868920763056],[139.4733249518485,36.039443244602154],[139.47315606897104,36.04046487406783],[139.47286603146895,36.040682762738825],[139.47141524838628,36.04043827079385],[139.46705167546008,36.03948911919233],[139.46700260918297,36.03947866081707],[139.46701188586283,36.03944547420444],[139.46715341945594,36.03910296672187],[139.46729760111214,36.03877729713214],[139.46738958443595,36.038556540535865],[139.46753737862676,36.038124424676084]]]},"properties":{"KEY_CODE":"11347043003","PREF":"11","CITY":"347","CITY_NAME":"吉見町","S_NAME":"東野三丁目","SETAI":"103"}},{"type":"Feature","geometry":{"type":"Polygon","coordinates":[[[139.47141722288083,36.035842080291765],[139.4713708693485,36.03647983348311],[139.470004912896,36.036610589716],[139.46994772519704,36.03868920763056],[139.46753737862676,36.038124424676084],[139.468035865811,36.036113066042645],[139.4689404454308,36.03608979455039],[139.4691622773239,36.03478374306919],[139.47149482353294,36.03484040087066],[139.47143052951344,36.03563410371394],[139.47141722288083,36.035842080291765]]]},"properties":{"KEY_CODE":"11347043004","PREF":"11","CITY":"347","CITY_NAME":"吉見町","S_NAME":"東野四丁目","SETAI":"163"}},{"type":"Feature","geometry":{"type":"Polygon","coordinates":[[[139.47327151824376,36.03586511916786],[139.47332732335568,36.0389206609593],[139.4733249518485,36.039443244602154],[139.46994772519704,36.03868920763056],[139.470004912896,36.036610589716],[139.4713708693485,36.03647983348311],[139.47141722288083,36.035842080291765],[139.47185896371073,36.03586193188582],[139.47327151824376,36.03586511916786]]]},"properties":{"KEY_CODE":"11347043005","PREF":"11","CITY":"347","CITY_NAME":"吉見町","S_NAME":"東野五丁目","SETAI":"154"}},{"type":"Feature","geometry":{"type":"Polygon","coordinates":[[[139.47327151824376,36.03586511916786],[139.47502517416086,36.03620944657845],[139.47524244981798,36.03850506947549],[139.4750710709836,36.03958198871673],[139.47460051586626,36.03952269322251],[139.47332732335568,36.0389206609593],[139.47327151824376,36.03586511916786]]]},"properties":{"KEY_CODE":"11347043006","PREF":"11","CITY":"347","CITY_NAME":"吉見町","S_NAME":"東野六丁目","SETAI":"129"}},{"type":"Feature","geometry":{"type":"Polygon","coordinates":[[[139.43783917076937,36.033755270751165],[139.43257534156373,36.034443371372745],[139.43157580418622,36.034277499352555],[139.42924107665777,36.03451713885052],[139.4280700903879,36.03405920285159],[139.42793524504108,36.033473152160035],[139.42794744995965,36.03316317492325],[139.42674986014447,36.03307298084733],[139.42680648947388,36.0323670135679],[139.42610714913152,36.03229573228764],[139.42445752229253,36.03173856526047],[139.42572582642816,36.03101013280583],[139.4303792705834,36.02658116088323],[139.4322620951919,36.02479717858118],[139.4320264780652,36.023685184324655],[139.4332640999198,36.02354752704947],[139.43424252943512,36.02417510670579],[139.43517648994325,36.02388555907046],[139.4356849215495,36.02371078425694],[139.4367375024695,36.023611124928216],[139.43932785172245,36.023997917523474],[139.4398508761123,36.02399082534127],[139.43995563459876,36.023981507949195],[139.44006819070754,36.02396332958975],[139.4404839784622,36.0237652576417],[139.4398325362839,36.027718031109536],[139.44107857911536,36.03220368193276],[139.4388070271542,36.0336690593621],[139.43783917076937,36.033755270751165]]]},"properties":{"KEY_CODE":"113470440","PREF":"11","CITY":"347","CITY_NAME":"吉見町","S_NAME":"大字西吉見","SETAI":"5"}}]}