{"type":"FeatureCollection","features":[{"type":"Feature","geometry":{"type":"Polygon","coordinates":[[[127.68223279585003,26.19349846995634],[127.68302106988551,26.19318723961452],[127.68321245068275,26.193689458481796],[127.68295130780449,26.19404049629356],[127.68160110872964,26.19437692514224],[127.68112880760836,26.192536623863898],[127.68104222517687,26.19163436812674],[127.68136402920278,26.191416629338736],[127.68099659459948,26.19096407480857],[127.681532817031,26.190212481327837],[127.68164303439194,26.189677535903236],[127.68079109374665,26.189264640482453],[127.68014192920965,26.188693315996815],[127.67984642805533,26.188379963376327],[127.6789577960234,26.187178802812628],[127.67847538017256,26.186987426806446],[127.67792593501827,26.186915677572173],[127.67799368050541,26.18677557887357],[127.67728029759881,26.186567424551317],[127.67714183135419,26.18650398043272],[127.67669550244281,26.186440425635052],[127.67636430276423,26.186095337855182],[127.67607960138272,26.185768424147064],[127.67587941275919,26.185725852387847],[127.67565739017701,26.185705770285566],[127.67482254830308,26.185596721171727],[127.67448088961525,26.185507172187524],[127.67394537039493,26.185273387941475],[127.6738832998731,26.185200275460293],[127.6738496109329,26.18517411727203],[127.6737890682031,26.185126853886104],[127.6738419169081,26.185080490769845],[127.67348432835772,26.1846528445718],[127.67267326438834,26.184319581135018],[127.67252481690474,26.184008099682917],[127.6728024143884,26.1841647276363],[127.67327072371332,26.18362634604733],[127.673649487091,26.183538154307726],[127.6739145960034,26.183239894311328],[127.67364086445475,26.18296541101838],[127.67444994662957,26.18232024123894],[127.6744561249511,26.182073252797522],[127.67490851421536,26.181486886994684],[127.67527619647976,26.181122692920837],[127.67528150469141,26.181118189346726],[127.67531144595071,26.181155954656536],[127.67566809336756,26.181383707907123],[127.67687040275231,26.181402445649073],[127.67744166480234,26.181403634629508],[127.67746037388063,26.181721803612753],[127.67828959693446,26.181740546555563],[127.67935731066872,26.181848100457703],[127.67921854345425,26.181505731516946],[127.67919569433818,26.18134121629442],[127.67911397749157,26.18104643410482],[127.6790871150135,26.180982061141865],[127.67914455353694,26.18070289084276],[127.67892162288513,26.180564231767214],[127.67898354078304,26.180052567994846],[127.6790856909697,26.18012163879474],[127.67959915437397,26.180955987161166],[127.68004804314965,26.18072166059508],[127.6804527126676,26.180815575518473],[127.68107328522362,26.180852366187786],[127.68108460768777,26.179930034080257],[127.68125530065937,26.17857468969061],[127.68125842275788,26.1785653485573],[127.68131584670333,26.178393450372383],[127.68220619464053,26.17870250367547],[127.68278715508646,26.17984276311142],[127.68448948090331,26.180169240936074],[127.68466158878829,26.180860464664654],[127.68355769343877,26.181690400867634],[127.68353039760892,26.182235832071207],[127.68371082159318,26.183095937485234],[127.68403432207943,26.183649684231032],[127.68501585895626,26.184470660832275],[127.68561548438876,26.185136484648957],[127.6856199303243,26.1862608834906],[127.68586211089898,26.187004133719476],[127.68604941044926,26.18727705027897],[127.68645004256422,26.187745263197222],[127.68655101610226,26.187982205334244],[127.68664394754327,26.188680798863224],[127.68665558805237,26.188964045212657],[127.68663582827585,26.189495192782406],[127.68650200955864,26.189991070591102],[127.68613519183663,26.190893616938563],[127.68578804927179,26.19122115252456],[127.68538829839821,26.191370049231924],[127.68461324045444,26.1917504011065],[127.68441139345911,26.19175738667905],[127.68418733373919,26.191912793422013],[127.6838139062774,26.192172913816766],[127.6830373053798,26.192787615824617],[127.68275520437051,26.19302628739949],[127.68223279585003,26.19349846995634]]]},"properties":{"KEY_CODE":"472120010","PREF":"47","CITY":"212","CITY_NAME":"豊見城市","S_NAME":"字豊見城","SETAI":"2744"}},{"type":"Feature","geometry":{"type":"Polygon","coordinates":[[[127.6750273792413,26.180380890743557],[127.67459899261456,26.180417619631392],[127.67414999459696,26.17997310162305],[127.67424752428248,26.17948884294089],[127.67398297527092,26.17860392856901],[127.67453425488365,26.177914554888385],[127.67460296241266,26.178675775197267],[127.67484430794897,26.178744378218724],[127.6750273792413,26.180380890743557]]]},"properties":{"KEY_CODE":"472120021","PREF":"47","CITY":"212","CITY_NAME":"豊見城市","S_NAME":"字宜保","SETAI":"0"}},{"type":"Feature","geometry":{"type":"Polygon","coordinates":[[[127.67935731066872,26.181848100457703],[127.67828959693446,26.181740546555563],[127.67828295079535,26.181280713661586],[127.67820572920068,26.181068990233936],[127.67804297398592,26.181079938230166],[127.6778446970313,26.181026992419486],[127.67760103832752,26.181003947460344],[127.67723659141781,26.180855103783117],[127.67717001739575,26.18102567803588],[127.67697212958073,26.180474382668777],[127.67697770710994,26.18032680307015],[127.67711271306327,26.180132106582512],[127.67708530647305,26.179858632914712],[127.67701610198033,26.179739560895953],[127.67723884448183,26.17948023274897],[127.67725041417043,26.179178205078188],[127.67796272466353,26.179469486704015],[127.67874700976962,26.179788678371743],[127.67888338686065,26.17998196750675],[127.67898354078304,26.180052567994846],[127.67892162288513,26.180564231767214],[127.67914455353694,26.18070289084276],[127.6790871150135,26.180982061141865],[127.67911397749157,26.18104643410482],[127.67919569433818,26.18134121629442],[127.67921854345425,26.181505731516946],[127.67935731066872,26.181848100457703]]]},"properties":{"KEY_CODE":"472120021","PREF":"47","CITY":"212","CITY_NAME":"豊見城市","S_NAME":"字宜保","SETAI":"0"}},{"type":"Feature","geometry":{"type":"Polygon","coordinates":[[[127.68059753070152,26.176689669546008],[127.67800385610431,26.176698461904984],[127.67698028014344,26.17671837156471],[127.6767499846984,26.176723360062915],[127.6752273890797,26.17675563904989],[127.67430359110209,26.176147663606308],[127.67502344333369,26.175582301686156],[127.6751803413475,26.17591227041152],[127.67572845505623,26.17636022339023],[127.67612509414703,26.176362284299213],[127.67641262914812,26.176189108355405],[127.67670423633547,26.176042815935478],[127.67684123819942,26.176140926584953],[127.67729679586098,26.17595432531038],[127.67768654440503,26.17639323176054],[127.67855098662892,26.176350625399163],[127.67886755721437,26.17602137366476],[127.67955507347652,26.17629021522194],[127.67997678631144,26.17623930656517],[127.680292452758,26.176269166094883],[127.68049331165189,26.176092518601287],[127.68058828120431,26.176094926841913],[127.68059753070152,26.176689669546008]]]},"properties":{"KEY_CODE":"472120021","PREF":"47","CITY":"212","CITY_NAME":"豊見城市","S_NAME":"字宜保","SETAI":"453"}},{"type":"Feature","geometry":{"type":"Polygon","coordinates":[[[127.68117097946062,26.179048763213792],[127.6803375452215,26.179189697887175],[127.68010472341786,26.17842438224907],[127.68125842275788,26.1785653485573],[127.68125530065937,26.17857468969061],[127.68117097946062,26.179048763213792]]]},"properties":{"KEY_CODE":"472120021","PREF":"47","CITY":"212","CITY_NAME":"豊見城市","S_NAME":"字宜保","SETAI":"0"}},{"type":"Feature","geometry":{"type":"Polygon","coordinates":[[[127.68108460768777,26.179930034080257],[127.6790298312789,26.17986463436167],[127.67894876428763,26.17984748498673],[127.67874700976962,26.179788678371743],[127.67796272466353,26.179469486704015],[127.67803348473105,26.17924976280272],[127.67806099523747,26.17913058713395],[127.67800385610431,26.176698461904984],[127.68059753070152,26.176689669546008],[127.68097048329767,26.17673079583594],[127.6820509344818,26.17683832668597],[127.68131584670333,26.178393450372383],[127.68125842275788,26.1785653485573],[127.68010472341786,26.17842438224907],[127.6803375452215,26.179189697887175],[127.68117097946062,26.179048763213792],[127.68108460768777,26.179930034080257]]]},"properties":{"KEY_CODE":"47212002201","PREF":"47","CITY":"212","CITY_NAME":"豊見城市","S_NAME":"宜保一丁目","SETAI":"401"}},{"type":"Feature","geometry":{"type":"Polygon","coordinates":[[[127.67800385610431,26.176698461904984],[127.67806099523747,26.17913058713395],[127.67803348473105,26.17924976280272],[127.67796272466353,26.179469486704015],[127.67725041417043,26.179178205078188],[127.67641325397553,26.178953934027163],[127.67567540477252,26.1790067560072],[127.67536395730127,26.17699832319515],[127.6752273890797,26.17675563904989],[127.6767499846984,26.176723360062915],[127.67698028014344,26.17671837156471],[127.67800385610431,26.176698461904984]]]},"properties":{"KEY_CODE":"47212002202","PREF":"47","CITY":"212","CITY_NAME":"豊見城市","S_NAME":"宜保二丁目","SETAI":"610"}},{"type":"Feature","geometry":{"type":"Polygon","coordinates":[[[127.6752273890797,26.17675563904989],[127.67536395730127,26.17699832319515],[127.67567540477252,26.1790067560072],[127.6757444305366,26.180142516815675],[127.67561327632924,26.180505838916492],[127.67531144595071,26.181155954656536],[127.67528150469141,26.181118189346726],[127.6750273792413,26.180380890743557],[127.67484430794897,26.178744378218724],[127.67460296241266,26.178675775197267],[127.67453425488365,26.177914554888385],[127.67409661993193,26.177054143026044],[127.67514522450435,26.17675656292656],[127.6752273890797,26.17675563904989]]]},"properties":{"KEY_CODE":"47212002203","PREF":"47","CITY":"212","CITY_NAME":"豊見城市","S_NAME":"宜保三丁目","SETAI":"338"}},{"type":"Feature","geometry":{"type":"Polygon","coordinates":[[[127.67828295079535,26.181280713661586],[127.67828959693446,26.181740546555556],[127.67746037388063,26.181721803612746],[127.67744166480234,26.181403634629497],[127.67687040275231,26.181402445649073],[127.67566809336756,26.181383707907123],[127.67531144595071,26.181155954656536],[127.67561327632924,26.180505838916492],[127.6757444305366,26.180142516815675],[127.67567540477252,26.1790067560072],[127.67641325397553,26.178953934027163],[127.67725041417043,26.179178205078188],[127.67723884448183,26.17948023274897],[127.67701610198033,26.179739560895953],[127.67708530647305,26.179858632914712],[127.67711271306327,26.180132106582512],[127.67697770710994,26.18032680307015],[127.67697212958073,26.180474382668777],[127.67717001739575,26.18102567803588],[127.67723659141781,26.180855103783117],[127.67760103832752,26.181003947460344],[127.6778446970313,26.181026992419486],[127.67804297398592,26.181079938230166],[127.67820572920068,26.181068990233936],[127.67828295079535,26.181280713661586]]]},"properties":{"KEY_CODE":"47212002204","PREF":"47","CITY":"212","CITY_NAME":"豊見城市","S_NAME":"宜保四丁目","SETAI":"246"}},{"type":"Feature","geometry":{"type":"Polygon","coordinates":[[[127.68004804314965,26.18072166059508],[127.67959915437397,26.180955987161166],[127.6790856909697,26.18012163879474],[127.67898354078304,26.180052567994846],[127.67888338686065,26.17998196750675],[127.67894876428763,26.17984748498673],[127.6790298312789,26.17986463436167],[127.68108460768777,26.179930034080257],[127.68107328522362,26.180852366187786],[127.6804527126676,26.180815575518473],[127.68004804314965,26.18072166059508]]]},"properties":{"KEY_CODE":"47212002205","PREF":"47","CITY":"212","CITY_NAME":"豊見城市","S_NAME":"宜保五丁目","SETAI":"101"}},{"type":"Feature","geometry":{"type":"Polygon","coordinates":[[[127.67327072371332,26.18362634604733],[127.6728024143884,26.1841647276363],[127.67252481690474,26.184008099682917],[127.67201871167032,26.183345497477653],[127.67176295098456,26.182969998794317],[127.67157044369674,26.18303939863798],[127.67083346904431,26.182271480442715],[127.669913929127,26.182224665685833],[127.66796737952956,26.18185584225249],[127.66820784231331,26.182099298579757],[127.66807651169513,26.182675976865426],[127.66768347571406,26.182681721168585],[127.66770298603575,26.183287146714655],[127.66648729912372,26.183293710473773],[127.66579194296803,26.182046109981734],[127.66616151027073,26.18179767829126],[127.66630293361055,26.181583154275895],[127.66657918871915,26.181150498564772],[127.66666315540877,26.180974719455655],[127.6666787256221,26.18091465231051],[127.66681349195129,26.180934585273537],[127.66689252082706,26.18092185891164],[127.66715532827988,26.180616629271142],[127.66681512310745,26.1801249899804],[127.66738904780954,26.179677583784645],[127.66695350003313,26.179470112422752],[127.66732075721033,26.177850636476293],[127.66812324365678,26.176559505321062],[127.66818460423022,26.175971315106814],[127.66865230001497,26.175214618934106],[127.66902130323075,26.174651352915593],[127.67027424933075,26.175564741544925],[127.67079063116287,26.175896076522776],[127.67142111619584,26.176006687231997],[127.6716324882078,26.17558851607334],[127.67323110342818,26.175245395911595],[127.67430359110209,26.176147663606308],[127.67514522450435,26.17675656292656],[127.67409661993193,26.177054143026044],[127.67453425488365,26.177914554888385],[127.67398297527092,26.17860392856901],[127.67424752428248,26.17948884294089],[127.67414999459696,26.17997310162305],[127.67459899261456,26.180417619631392],[127.6750273792413,26.180380890743557],[127.67527619647976,26.181122692920837],[127.67490851421536,26.181486886994684],[127.6744561249511,26.182073252797522],[127.67444994662957,26.18232024123894],[127.67364086445475,26.18296541101838],[127.6739145960034,26.1832398943113],[127.673649487091,26.183538154307726],[127.67327072371332,26.18362634604733]]]},"properties":{"KEY_CODE":"472120030","PREF":"47","CITY":"212","CITY_NAME":"豊見城市","S_NAME":"字我那覇","SETAI":"1399"}},{"type":"Feature","geometry":{"type":"Polygon","coordinates":[[[127.66508516512643,26.182300680351343],[127.66459097865405,26.18290666332689],[127.66446201406721,26.182971808014713],[127.66353920581165,26.18206856941312],[127.66233333507422,26.181842131996692],[127.66237624681033,26.181694729253266],[127.66345407329725,26.180752695838667],[127.66321352951977,26.18066258115391],[127.66272314440586,26.17972110195541],[127.66288168583449,26.178702570793693],[127.66357251616101,26.17608511181701],[127.66266867017484,26.17589690004381],[127.66252756335702,26.17586600085188],[127.66308375743795,26.173813472550993],[127.663427847945,26.172543673650452],[127.66631593841755,26.173166223318322],[127.66595569095804,26.174661998012272],[127.66668106437568,26.17484789869124],[127.66769530029497,26.174659039141062],[127.66865230001497,26.175214618934106],[127.66818460423022,26.175971315106814],[127.66812324365678,26.176559505321062],[127.66732075721033,26.177850636476293],[127.66695350003313,26.179470112422752],[127.66738904780954,26.179677583784645],[127.66681512310745,26.1801249899804],[127.66715532827988,26.180616629271142],[127.66689252082706,26.18092185891164],[127.66681349195129,26.180934585273537],[127.6666787256221,26.18091465231051],[127.66666315540877,26.180974719455655],[127.66657918871915,26.181150498564772],[127.66630293361055,26.181583154275895],[127.66616151027073,26.18179767829126],[127.66579194296803,26.182046109981734],[127.66546854165783,26.18222869563521],[127.66508516512643,26.182300680351343]]]},"properties":{"KEY_CODE":"472120040","PREF":"47","CITY":"212","CITY_NAME":"豊見城市","S_NAME":"字名嘉地","SETAI":"748"}},{"type":"Feature","geometry":{"type":"Polygon","coordinates":[[[127.66266867017484,26.17589690004381],[127.66357251616101,26.176085111817034],[127.66288168583449,26.178702570793693],[127.66272314440586,26.17972110195541],[127.66321352951977,26.18066258115391],[127.66345407329725,26.180752695838667],[127.66237624681033,26.181694729253266],[127.66202246643411,26.181699380760048],[127.66166902207846,26.18111707660509],[127.66179772220516,26.180564958331754],[127.66079002761239,26.1798092117284],[127.66007432282538,26.178946932276858],[127.65928202437125,26.17878255449354],[127.65803710194272,26.177870532356355],[127.65739330162113,26.17785280214663],[127.65762248082952,26.17659988529399],[127.65813273006395,26.17652493287973],[127.65928349038137,26.176835915521725],[127.65969997529886,26.17524678125272],[127.66024690828382,26.17320143914939],[127.66308375743795,26.173813472551014],[127.66252756335702,26.17586600085188],[127.66266867017484,26.17589690004381]]]},"properties":{"KEY_CODE":"472120050","PREF":"47","CITY":"212","CITY_NAME":"豊見城市","S_NAME":"字田頭","SETAI":"128"}},{"type":"Feature","geometry":{"type":"Polygon","coordinates":[[[127.65739330162113,26.17785280214663],[127.6563890610466,26.177980712254683],[127.6558353805197,26.177570201951955],[127.65534479182148,26.17671061496],[127.65358678270141,26.17644185447597],[127.6527022650644,26.176352023051308],[127.65306824375095,26.176191882548284],[127.65276346650904,26.175704726810814],[127.65224406815409,26.175593308596536],[127.65240279806753,26.176096868444866],[127.6511024514119,26.175538486556157],[127.64696819471826,26.175286210172075],[127.64687191442913,26.176704468710515],[127.64668068082327,26.176581895068995],[127.64673805484662,26.17525394760488],[127.64658296095091,26.175232434831443],[127.6460249957805,26.17707994338223],[127.64578300744886,26.17718038188923],[127.64458999334859,26.176784372558178],[127.64454898446034,26.177614908099773],[127.64423983306692,26.177609800833054],[127.64414400042885,26.176959942973284],[127.64314294842507,26.176460820397008],[127.64239318116704,26.176934576410265],[127.64128522593943,26.177391518107925],[127.64061477695178,26.177269398893422],[127.64004582220613,26.17667415793909],[127.64000327710632,26.17537881465945],[127.6409499892759,26.1747848136241],[127.64196319781277,26.173752944810506],[127.64317110715534,26.173258885974533],[127.6452059853953,26.174106319571802],[127.64551565705193,26.174543826640694],[127.64613630415742,26.17485374296432],[127.64765722972831,26.175071559633615],[127.65128111146203,26.17520069133858],[127.65131059908958,26.174787212606844],[127.65203498003726,26.174818984974813],[127.65203648043325,26.175205351033338],[127.65265034986255,26.17487796246945],[127.65324898900018,26.175138580739763],[127.65375106127372,26.175021287191978],[127.65453044320547,26.174254996843857],[127.65617991505546,26.17325041121974],[127.65649786973952,26.173103836013805],[127.65794373280491,26.17475790072097],[127.65969997529886,26.17524678125272],[127.65928349038137,26.176835915521725],[127.65813273006395,26.17652493287973],[127.65762248082952,26.17659988529399],[127.65739330162113,26.17785280214663]]]},"properties":{"KEY_CODE":"472120060","PREF":"47","CITY":"212","CITY_NAME":"豊見城市","S_NAME":"字瀬長","SETAI":"84"}},{"type":"Feature","geometry":{"type":"Polygon","coordinates":[[[127.66024690828382,26.17320143914939],[127.65969997529886,26.17524678125272],[127.65794373280491,26.17475790072097],[127.65649786973952,26.173103836013805],[127.65617991505546,26.17325041121974],[127.6556734664967,26.173084829830074],[127.65323367106349,26.174129928244724],[127.65198316221584,26.174195267415893],[127.64865827898721,26.173946683843027],[127.64839701267027,26.17384042863559],[127.64861820415433,26.169078446965788],[127.65249506246136,26.169214550504087],[127.65250554742609,26.167999528340275],[127.65264725867688,26.16692519004875],[127.65404279283283,26.166106852189277],[127.65230019730882,26.16618623405215],[127.6493198843886,26.166105228301525],[127.64939957734762,26.165827135441067],[127.65038902495716,26.16586316780531],[127.65046433249398,26.16447206218384],[127.64976766007032,26.164139657519346],[127.6519086703052,26.164290086777374],[127.65248784601424,26.165052275756715],[127.6535926632041,26.165351746427465],[127.65387267044827,26.16448308432018],[127.65355740950001,26.164373264719508],[127.65390122611615,26.16333392505353],[127.65524612558778,26.163638569403766],[127.65511768921967,26.163331786236608],[127.65742486397444,26.16206090286532],[127.65879506608059,26.16181595093251],[127.6603608724809,26.161996630155567],[127.66074711021216,26.16132100929038],[127.661710394704,26.160540050613342],[127.66238104544344,26.160100622597575],[127.66320664867722,26.159604149501284],[127.66369521419945,26.15933374958308],[127.6638437979048,26.15955200659936],[127.66349349432845,26.160874937716336],[127.66632049685113,26.16149192842948],[127.6659144120283,26.163063102448188],[127.66620462568764,26.1631367985219],[127.66585770044183,26.16328070993699],[127.6655239430298,26.164555611681667],[127.66478185596492,26.167312283258436],[127.66395284002449,26.17049986771212],[127.66109717833066,26.16990496086994],[127.66024690828382,26.17320143914939]]]},"properties":{"KEY_CODE":"472120070","PREF":"47","CITY":"212","CITY_NAME":"豊見城市","S_NAME":"字与根","SETAI":"685"}},{"type":"Feature","geometry":{"type":"Polygon","coordinates":[[[127.67551392282951,26.172847357342796],[127.67511357763185,26.173186797297955],[127.67433173278462,26.174330573884387],[127.67323110342818,26.175245395911595],[127.6716324882078,26.17558851607334],[127.67142111619584,26.176006687231997],[127.67079063116287,26.175896076522776],[127.67027424933075,26.175564741544925],[127.66902130323075,26.174651352915593],[127.66865230001497,26.175214618934106],[127.66769530029497,26.174659039141062],[127.66668106437568,26.17484789869124],[127.66595569095804,26.174661998012272],[127.66631593841755,26.173166223318322],[127.663427847945,26.172543673650452],[127.66308375743795,26.173813472550993],[127.66024690828382,26.17320143914939],[127.66109717833066,26.16990496086994],[127.66395284002449,26.17049986771212],[127.66478185596492,26.167312283258436],[127.66770363568338,26.167974301881863],[127.66718266359617,26.16986725349378],[127.66839823985394,26.170415089725562],[127.6690228634446,26.169688023578818],[127.66974781722682,26.17012723478149],[127.67021306605545,26.170140717197366],[127.67032404368585,26.169041145031695],[127.67059141409196,26.168390809698],[127.67124258299009,26.168884312566107],[127.67169424899218,26.169210966094056],[127.67166267260913,26.169658105320465],[127.67249879973063,26.169786205299577],[127.6732965666263,26.16985801265011],[127.67415083237823,26.169998799130394],[127.67497174474356,26.169742936215552],[127.67546135497278,26.170673986195517],[127.67620006063515,26.171290346407417],[127.67602465950452,26.171585433071147],[127.67611958796833,26.1725265952342],[127.67591018992765,26.172592369405017],[127.67551392282951,26.172847357342796]]]},"properties":{"KEY_CODE":"472120080","PREF":"47","CITY":"212","CITY_NAME":"豊見城市","S_NAME":"字伊良波","SETAI":"497"}},{"type":"Feature","geometry":{"type":"Polygon","coordinates":[[[127.67032404368585,26.169041145031695],[127.67021306605545,26.170140717197366],[127.66974781722682,26.17012723478149],[127.6690228634446,26.169688023578818],[127.66839823985394,26.170415089725562],[127.66718266359617,26.16986725349378],[127.66770363568338,26.167974301881863],[127.66478185596492,26.167312283258436],[127.6655239430298,26.164555611681667],[127.67048219273515,26.164478917362345],[127.67071675583932,26.164803628926936],[127.67151816940935,26.164871330544745],[127.67259771405794,26.16532305115953],[127.67277935220478,26.165055347348794],[127.67413316926961,26.16611996518689],[127.67385734894754,26.166461777952694],[127.67405756906469,26.16718117777554],[127.67368239408374,26.167168983518728],[127.67377613686152,26.16832252870116],[127.67434182370448,26.168622493984227],[127.67497174474356,26.169742936215552],[127.67415083237823,26.169998799130394],[127.6732965666263,26.16985801265011],[127.67249879973063,26.169786205299577],[127.67166267260913,26.169658105320465],[127.67169424899218,26.169210966094056],[127.67124258299009,26.168884312566107],[127.67059141409196,26.168390809698],[127.67032404368585,26.169041145031695]]]},"properties":{"KEY_CODE":"472120090","PREF":"47","CITY":"212","CITY_NAME":"豊見城市","S_NAME":"字座安","SETAI":"432"}},{"type":"Feature","geometry":{"type":"Polygon","coordinates":[[[127.67808912125643,26.166436483730628],[127.67743279684126,26.16717210867172],[127.67695005951929,26.167472578949045],[127.6767869908327,26.16768573700051],[127.6772028710828,26.168424954845552],[127.6773734420319,26.168545725246016],[127.67785999169062,26.168913122850842],[127.67781456460762,26.169352971031707],[127.67742127144781,26.16970626569381],[127.67716708682808,26.170622679543705],[127.67620006063515,26.171290346407417],[127.67546135497278,26.170673986195517],[127.67497174474356,26.169742936215552],[127.67434182370448,26.168622493984227],[127.67377613686152,26.16832252870116],[127.67368239408374,26.167168983518728],[127.67405756906469,26.16718117777554],[127.67385734894754,26.166461777952694],[127.67413316926961,26.16611996518689],[127.67277935220478,26.165055347348794],[127.67259771405794,26.16532305115953],[127.67151816940935,26.164871330544745],[127.67071675583932,26.164803628926936],[127.67048219273515,26.164478917362345],[127.6655239430298,26.164555611681667],[127.66585770044183,26.16328070993699],[127.66620462568764,26.1631367985219],[127.66591441202829,26.163063102448188],[127.66632049685113,26.16149192842948],[127.66923607052769,26.16211026219912],[127.66900279400045,26.163043695315825],[127.66908553239436,26.16314859527553],[127.67124356262991,26.164228390360307],[127.67231795604715,26.164287369813835],[127.67314893879754,26.164134305794548],[127.67437494094389,26.163315600623132],[127.67527854593943,26.163231417999643],[127.67550343746784,26.164535175572524],[127.67620628111582,26.165184099413995],[127.67666509569499,26.165158967730406],[127.67745671297975,26.16593282980629],[127.67743456778194,26.16630180701155],[127.67793188555108,26.166408916778853],[127.67808912125643,26.166436483730628]]]},"properties":{"KEY_CODE":"472120100","PREF":"47","CITY":"212","CITY_NAME":"豊見城市","S_NAME":"字渡橋名","SETAI":"561"}},{"type":"Feature","geometry":{"type":"Polygon","coordinates":[[[127.68294902205791,26.176314455660886],[127.68281202711611,26.176330488658753],[127.68259394153603,26.176349704895014],[127.68229565400107,26.176391901545088],[127.6820509344818,26.17683832668598],[127.68097048329767,26.17673079583594],[127.68059753070152,26.176689669546008],[127.68058828120431,26.176094926841913],[127.68049331165189,26.176092518601287],[127.680292452758,26.176269166094883],[127.67997678631144,26.17623930656517],[127.67955507347652,26.17629021522194],[127.67886755721437,26.17602137366476],[127.67855098662892,26.176350625399163],[127.67768654440503,26.17639323176054],[127.67729679586098,26.17595432531038],[127.67684123819942,26.176140926584953],[127.67670423633547,26.176042815935478],[127.67641262914812,26.176189108355405],[127.67612509414703,26.176362284299213],[127.67572845505623,26.17636022339023],[127.6751803413475,26.17591227041152],[127.67502344333369,26.175582301686156],[127.67430359110209,26.176147663606308],[127.67323110342818,26.175245395911595],[127.67433173278462,26.174330573884387],[127.67511357763185,26.173186797297955],[127.67551392282951,26.172847357342796],[127.67591018992765,26.172592369405017],[127.67611958796833,26.1725265952342],[127.67602465950452,26.171585433071147],[127.67620006063515,26.171290346407417],[127.67716708682808,26.170622679543705],[127.67742127144781,26.16970626569381],[127.67781456460762,26.169352971031707],[127.6779374675908,26.16935030783796],[127.67843121524473,26.16985756720828],[127.67902898744386,26.170800716217425],[127.68000221191245,26.17066726148492],[127.68071796233552,26.17083454080511],[127.68175115391239,26.1714364111099],[127.68279852126763,26.17186729267958],[127.68264189799066,26.172677706537428],[127.68448401904274,26.17355751445852],[127.68476729230451,26.1734752796154],[127.6851117864464,26.173736963763538],[127.68526024298028,26.17440458730346],[127.68593020890592,26.175085423509763],[127.6850286188495,26.175433332165863],[127.68484220570905,26.175781910515674],[127.6841517673297,26.176402870394416],[127.68359954032485,26.17642521110268],[127.6830119776333,26.176307096495073],[127.68294902205791,26.176314455660886]]]},"properties":{"KEY_CODE":"472120110","PREF":"47","CITY":"212","CITY_NAME":"豊見城市","S_NAME":"字上田","SETAI":"1773"}},{"type":"Feature","geometry":{"type":"Polygon","coordinates":[[[127.68560520475557,26.17060764971121],[127.68569603994703,26.171322658021392],[127.6860558756002,26.171819541261208],[127.68565045584991,26.17297818486797],[127.68574667146463,26.17377960290467],[127.6851117864464,26.173736963763538],[127.68476729230451,26.1734752796154],[127.68448401904274,26.17355751445852],[127.68264189799066,26.172677706537428],[127.68279852126763,26.17186729267958],[127.68175115391239,26.1714364111099],[127.68071796233552,26.17083454080511],[127.68000221191245,26.17066726148492],[127.67902898744386,26.170800716217425],[127.67843121524473,26.16985756720828],[127.6779374675908,26.16935030783796],[127.67785999169062,26.168913122850853],[127.6773734420319,26.168545725246016],[127.6772028710828,26.168424954845552],[127.6767869908327,26.16768573700051],[127.67695005951929,26.167472578949045],[127.67743279684126,26.16717210867172],[127.67808912125643,26.166436483730628],[127.67828492692254,26.16624557047891],[127.6788717520452,26.16598039052656],[127.67945551055557,26.16631550693791],[127.67995096941709,26.16648192380429],[127.68136128878442,26.16654196794359],[127.680675761023,26.164799085819563],[127.68090660492096,26.164907277828235],[127.68139587263961,26.165216688442754],[127.68208715297104,26.16523727768207],[127.6835831420916,26.16546356442467],[127.68579136384209,26.165691454560573],[127.68547127569639,26.166372359117847],[127.68407093310844,26.16658956466154],[127.68466146288621,26.168120690921544],[127.68560520475557,26.17060764971121]]]},"properties":{"KEY_CODE":"472120120","PREF":"47","CITY":"212","CITY_NAME":"豊見城市","S_NAME":"字渡嘉敷","SETAI":"207"}},{"type":"Feature","geometry":{"type":"Polygon","coordinates":[[[127.68016695867293,26.16120749364862],[127.67973573528994,26.1621550532782],[127.67946008872453,26.163245606606182],[127.67845395042679,26.165406736063822],[127.6781214217326,26.164754733465337],[127.67774861223086,26.164528734593063],[127.67778693928105,26.163959056299127],[127.67728846981025,26.163595242977696],[127.67632568316193,26.163435403317145],[127.67607832694905,26.16320216754338],[127.67527854593943,26.163231417999643],[127.67437494094389,26.163315600623132],[127.67314893879754,26.164134305794548],[127.67231795604715,26.164287369813835],[127.67124356262991,26.164228390360307],[127.66908553239436,26.16314859527553],[127.66900279400045,26.163043695315825],[127.66923607052769,26.16211026219912],[127.66632049685113,26.16149192842948],[127.66349349432845,26.160874937716336],[127.6638437979048,26.15955200659936],[127.66369521419945,26.15933374958308],[127.66465213365088,26.158873188776173],[127.66474608484779,26.15881171348318],[127.66476310721943,26.158829749162365],[127.66544478345845,26.158420070318915],[127.66561631570875,26.15805248679097],[127.66576594492554,26.157751712291642],[127.6657708897656,26.15771108484689],[127.66578786655704,26.157680370503588],[127.66582578019974,26.15761985647978],[127.6659017239616,26.157564709572046],[127.66605342289684,26.157303657259177],[127.66793955667214,26.154151991507362],[127.66914047910834,26.152394095400737],[127.67167259172217,26.153324951275756],[127.67230616499307,26.153601757878967],[127.6733180716026,26.154540675347057],[127.67348422201543,26.155288048453645],[127.67437084223997,26.155724020543147],[127.67577433728562,26.157144442224205],[127.67667087692053,26.15769984605265],[127.67716734178683,26.157780747276952],[127.67718160821259,26.157950750688396],[127.67830326083177,26.158292289209164],[127.67842506601613,26.158528210854843],[127.67894725130515,26.158888731232693],[127.67996283107651,26.15910389775592],[127.68069408196574,26.158726420776514],[127.68044906519397,26.159482015068257],[127.68050595776162,26.160650510974147],[127.6803840927652,26.160886338680026],[127.68016695867293,26.16120749364862]]]},"properties":{"KEY_CODE":"472120130","PREF":"47","CITY":"212","CITY_NAME":"豊見城市","S_NAME":"字翁長","SETAI":"954"}},{"type":"Feature","geometry":{"type":"Polygon","coordinates":[[[127.68923447920055,26.165633215899664],[127.68864037050109,26.165976393356786],[127.68846402302196,26.16640452962949],[127.68785852504764,26.16683503258221],[127.68746747931587,26.167490038015725],[127.6864884635818,26.16705259734755],[127.685242658969,26.167434248042138],[127.68466146288621,26.168120690921544],[127.68407093310844,26.16658956466154],[127.68547127569639,26.166372359117847],[127.68579136384209,26.165691454560573],[127.6835831420916,26.16546356442467],[127.68208715297104,26.16523727768207],[127.68139587263961,26.165216688442754],[127.68090660492096,26.164907277828235],[127.680675761023,26.164799085819563],[127.68136128878442,26.16654196794359],[127.67995096941709,26.16648192380429],[127.67945551055557,26.16631550693791],[127.6788717520452,26.16598039052656],[127.67828492692254,26.16624557047891],[127.67793188555108,26.166408916778853],[127.67743456778194,26.16630180701155],[127.67745671297975,26.16593282980629],[127.67666509569499,26.165158967730406],[127.67620628111582,26.165184099413995],[127.67550343746784,26.164535175572524],[127.67527854593943,26.163231417999643],[127.67607832694905,26.16320216754338],[127.67632568316193,26.163435403317145],[127.67728846981025,26.163595242977696],[127.67778693928105,26.163959056299127],[127.67774861223086,26.164528734593063],[127.6781214217326,26.164754733465337],[127.67845395042679,26.165406736063822],[127.67946008872453,26.163245606606182],[127.67973573528994,26.1621550532782],[127.68016695867293,26.16120749364862],[127.6803840927652,26.160886338680026],[127.68050595776162,26.160650510974147],[127.68044906519397,26.159482015068257],[127.68069408196574,26.158726420776514],[127.68176250742812,26.1578805857233],[127.68277245971457,26.15651348124789],[127.68410191828997,26.156455699650962],[127.68504161716616,26.156583012188932],[127.68593867957594,26.15742983847721],[127.6865319954056,26.15767406273712],[127.68718917646748,26.1583768544066],[127.68844993697041,26.158933372281407],[127.68846186454569,26.160175626794757],[127.68905775852052,26.16048119377545],[127.68925722522046,26.161580100524123],[127.68951504512819,26.16172072604556],[127.69000340729481,26.162903476828898],[127.69068836643828,26.162830840901474],[127.6910688176462,26.16338555235913],[127.69052101887083,26.16354951476991],[127.69044218306797,26.163904243309947],[127.68981531544698,26.16446175900677],[127.69039688220475,26.164826240995417],[127.69058745178505,26.1654981361149],[127.68987110331649,26.165519878816273],[127.68933320062582,26.165358859680683],[127.68923447920055,26.165633215899664]]]},"properties":{"KEY_CODE":"472120140","PREF":"47","CITY":"212","CITY_NAME":"豊見城市","S_NAME":"字保栄茂","SETAI":"453"}},{"type":"Feature","geometry":{"type":"Polygon","coordinates":[[[127.69190489669589,26.169943981438074],[127.69045360512612,26.169458538134354],[127.6900879988559,26.169766878132037],[127.68974916339104,26.170544586900057],[127.68868316266855,26.17141978641117],[127.68785565773214,26.171273767525854],[127.68695769600316,26.170820018482505],[127.68647488933748,26.170345891631356],[127.68560520475557,26.17060764971121],[127.68466146288621,26.168120690921544],[127.685242658969,26.167434248042138],[127.6864884635818,26.16705259734755],[127.68746747931587,26.167490038015725],[127.68785852504764,26.16683503258221],[127.68846402302196,26.16640452962949],[127.68864037050109,26.165976393356786],[127.68923447920055,26.165633215899664],[127.68933320062582,26.165358859680715],[127.68987110331649,26.165519878816273],[127.69058745178505,26.1654981361149],[127.69061886557732,26.16560362057781],[127.69068146284013,26.165735841737582],[127.69092114293588,26.165902315005905],[127.69204655391393,26.16596062587168],[127.69243883601271,26.165981906367385],[127.69265932185573,26.166140977727927],[127.69279026595453,26.166288288505196],[127.69401217334749,26.165754582375097],[127.69487829585645,26.16605461534353],[127.6951820630394,26.165831798963396],[127.69648659601384,26.165751898712912],[127.69715671781347,26.16589523114342],[127.69863262386596,26.165231641441046],[127.699793344947,26.164512179919114],[127.70051808286838,26.16467655724699],[127.70091674349116,26.164003665183102],[127.70218067772484,26.165604563574114],[127.70252993971167,26.16554917974455],[127.70273503365807,26.16645040254918],[127.70172653167862,26.166805130447756],[127.70095542595729,26.166897005030208],[127.70035874748334,26.167766991667026],[127.70190571586849,26.168544572740135],[127.70163449921256,26.168635036544284],[127.70162240289731,26.169312776515643],[127.7019311513628,26.16947172255992],[127.70167400374872,26.169727245644587],[127.70120832018627,26.169436958097723],[127.70092006712859,26.169874830435223],[127.69910205260364,26.169940775515762],[127.69828674067666,26.169554084970205],[127.69813732469558,26.169355042858452],[127.69807214248127,26.169242870501122],[127.69794420635277,26.168867989471487],[127.69793447049682,26.168550023317728],[127.69701821217527,26.16826020253098],[127.69646805041408,26.167804518577196],[127.69366432542861,26.16751004959507],[127.69313588669144,26.16733572715567],[127.69281138719896,26.167769705833393],[127.69278320143785,26.168782210942876],[127.69275387583988,26.169089232844197],[127.69248583821094,26.169396560200866],[127.69190489669589,26.169943981438074]]]},"properties":{"KEY_CODE":"472120150","PREF":"47","CITY":"212","CITY_NAME":"豊見城市","S_NAME":"字高嶺","SETAI":"1374"}},{"type":"Feature","geometry":{"type":"Polygon","coordinates":[[[127.70260669116632,26.169388794292956],[127.70202769575569,26.170224681382777],[127.70151258584838,26.171271396082357],[127.700362756411,26.171842157106447],[127.69965824067553,26.17135608657453],[127.70012449053016,26.171959842496513],[127.69935247900221,26.172416503856795],[127.69905009897651,26.173373017991015],[127.6993447888743,26.17400020160718],[127.699276114537,26.17505866412515],[127.6987061796147,26.175180338541114],[127.69725440938888,26.17469329026881],[127.695113017863,26.17481650891676],[127.69442308930006,26.175083973632383],[127.69443609689846,26.175696047714496],[127.693127014775,26.176477243830544],[127.69295605137593,26.1761543454449],[127.69348741632245,26.17557626916304],[127.69266753140346,26.175749170586425],[127.69152976471936,26.175719885781124],[127.69046702643634,26.17538770915228],[127.6906689853975,26.17478046698299],[127.69024931942643,26.174451556069915],[127.68966735288845,26.174621968982],[127.6889359430125,26.174372948628083],[127.68863360662023,26.174619535990573],[127.68819846918852,26.174790401083477],[127.68668955658167,26.174862663247314],[127.68593020890592,26.175085423509763],[127.68526024298028,26.17440458730346],[127.6851117864464,26.173736963763538],[127.68574667146463,26.17377960290467],[127.68565045584991,26.17297818486797],[127.6860558756002,26.171819541261208],[127.68569603994703,26.171322658021392],[127.68560520475557,26.17060764971121],[127.68647488933748,26.170345891631356],[127.68695769600316,26.170820018482505],[127.68785565773214,26.171273767525854],[127.68868316266855,26.17141978641117],[127.68974916339104,26.170544586900057],[127.6900879988559,26.169766878132037],[127.69045360512612,26.169458538134354],[127.69190489669589,26.169943981438074],[127.69248583821094,26.169396560200866],[127.69275387583988,26.169089232844197],[127.69278320143785,26.168782210942876],[127.69281138719896,26.167769705833393],[127.69313588669144,26.16733572715567],[127.69366432542861,26.16751004959507],[127.69646805041408,26.167804518577196],[127.69701821217527,26.16826020253098],[127.69793447049682,26.168550023317728],[127.69794420635277,26.168867989471487],[127.69807214248127,26.169242870501122],[127.69813732469558,26.169355042858452],[127.69828674067666,26.169554084970205],[127.69910205260364,26.169940775515762],[127.70092006712859,26.169874830435223],[127.70120832018627,26.169436958097723],[127.70167400374872,26.169727245644587],[127.7019311513628,26.16947172255992],[127.70260669116632,26.169388794292956]]]},"properties":{"KEY_CODE":"472120160","PREF":"47","CITY":"212","CITY_NAME":"豊見城市","S_NAME":"字平良","SETAI":"1153"}},{"type":"Feature","geometry":{"type":"Polygon","coordinates":[[[127.68802940485462,26.186562994991895],[127.68771570572429,26.18706615801582],[127.68716548466236,26.18667398737075],[127.68586211089898,26.187004133719476],[127.6856199303243,26.1862608834906],[127.68561548438876,26.185136484648957],[127.68501585895626,26.184470660832275],[127.68403432207943,26.183649684231032],[127.68371082159318,26.183095937485234],[127.68353039760892,26.182235832071207],[127.68355769343877,26.181690400867634],[127.68466158878829,26.180860464664654],[127.68448948090331,26.180169240936074],[127.68278715508646,26.17984276311142],[127.68220619464053,26.17870250367547],[127.68131584670333,26.178393450372383],[127.6820509344818,26.17683832668597],[127.68229565400107,26.176391901545088],[127.68259394153603,26.176349704895014],[127.68281202711611,26.176330488658753],[127.68294902205791,26.176314455660886],[127.6830119776333,26.176307096495073],[127.68359954032485,26.17642521110268],[127.6841517673297,26.176402870394416],[127.68484220570905,26.175781910515674],[127.6850286188495,26.175433332165863],[127.68593020890592,26.175085423509763],[127.68668955658167,26.174862663247314],[127.68819846918852,26.174790401083477],[127.68863360662023,26.174619535990573],[127.68893594301252,26.17437294862805],[127.68966735288845,26.174621968982],[127.69024931942643,26.174451556069915],[127.6906689853975,26.17478046698299],[127.69046251435144,26.17540051303767],[127.6903097013876,26.175984188665023],[127.69026890603692,26.176190357862325],[127.68923975500337,26.17632000074112],[127.68962557221175,26.176896135194163],[127.68966238228772,26.177754323786946],[127.6896920929727,26.177978767231984],[127.68958741714505,26.17883521835613],[127.68979000440734,26.179334041681862],[127.690597970174,26.17978146381222],[127.69074169246625,26.179813023269006],[127.69083211750457,26.18002472837516],[127.6907976419965,26.18037589371555],[127.6911763795694,26.180754507595708],[127.69155145073297,26.181085207119942],[127.6917899194345,26.18077082744647],[127.69194730078674,26.180939566550457],[127.692127724359,26.181790418165438],[127.6923605105298,26.181755992610498],[127.6927149764637,26.181899167986938],[127.69293419361094,26.182096385416614],[127.69398874420752,26.18197645817009],[127.69430746206018,26.182173538081226],[127.69445331858162,26.182537827326165],[127.6945135686149,26.182889677794694],[127.69409987003021,26.183033886813135],[127.6940007915845,26.183314126761303],[127.69417618491988,26.183486259068804],[127.69441316994168,26.183584703579974],[127.69480792651606,26.184029473925516],[127.69486057388133,26.1841691203897],[127.69394198307974,26.184003136843288],[127.69354330434194,26.184120418858527],[127.69280851729046,26.184822022253144],[127.69129858501272,26.18483498086033],[127.69132300554286,26.18518687902044],[127.69033966647244,26.18505530180407],[127.69034628108533,26.185470057231974],[127.68997222100282,26.185528005514676],[127.68957023497187,26.1855464987502],[127.68938739960703,26.185719106186216],[127.68911913729968,26.185986994176318],[127.68855426655779,26.186206785808626],[127.68813655752486,26.186361750815866],[127.68802940485462,26.186562994991895]]]},"properties":{"KEY_CODE":"472120170","PREF":"47","CITY":"212","CITY_NAME":"豊見城市","S_NAME":"字高安","SETAI":"1728"}},{"type":"Feature","geometry":{"type":"Polygon","coordinates":[[[127.6980180740096,26.184417903184837],[127.69784462551188,26.184341273049302],[127.69551137734459,26.184306284231397],[127.6949357490758,26.184368503612134],[127.69480792651606,26.184029473925516],[127.69441316994168,26.183584703579974],[127.69417618491988,26.183486259068804],[127.6940007915845,26.183314126761303],[127.69409987003021,26.183033886813135],[127.6945135686149,26.182889677794694],[127.69445331858162,26.182537827326165],[127.69430746206018,26.182173538081226],[127.69398874420752,26.18197645817009],[127.69293419361094,26.182096385416614],[127.6927149764637,26.181899167986938],[127.6923605105298,26.181755992610498],[127.692127724359,26.181790418165416],[127.69194730078674,26.180939566550457],[127.6917899194345,26.18077082744647],[127.69155145073297,26.181085207119942],[127.6911763795694,26.180754507595708],[127.6907976419965,26.18037589371555],[127.69083211750457,26.18002472837516],[127.69074169246625,26.179813023269006],[127.690597970174,26.17978146381222],[127.68979000440734,26.179334041681862],[127.68958741714505,26.17883521835613],[127.6896920929727,26.177978767231984],[127.68966238228772,26.177754323786946],[127.68962557221175,26.176896135194163],[127.68923975500337,26.17632000074112],[127.690268906037,26.176190357862282],[127.6903097013876,26.175984188665023],[127.69046251435144,26.17540051303767],[127.69046702643634,26.17538770915228],[127.69152976471936,26.175719885781124],[127.69266753140346,26.175749170586425],[127.69348741632245,26.17557626916304],[127.69295605137593,26.1761543454449],[127.693127014775,26.176477243830544],[127.69443609689846,26.175696047714496],[127.69442308930006,26.175083973632383],[127.695113017863,26.17481650891676],[127.69725440938888,26.17469329026881],[127.6987061796147,26.175180338541114],[127.699276114537,26.17505866412515],[127.6993447888743,26.17400020160718],[127.69905009897651,26.173373017991015],[127.69935247900221,26.172416503856795],[127.70012449053016,26.171959842496513],[127.69965824067553,26.17135608657453],[127.700362756411,26.171842157106447],[127.70151258584838,26.171271396082357],[127.70202769575569,26.170224681382777],[127.70260669116632,26.169388794292956],[127.70386919378484,26.169338412052653],[127.70428397132015,26.16973404025113],[127.7048479660971,26.169838821474116],[127.70438809826466,26.17078847161307],[127.70408325983759,26.172284257441277],[127.70478805659673,26.17288562982313],[127.7052082279728,26.173531664257847],[127.70507766838112,26.173815301062376],[127.70393689918676,26.17441238168621],[127.70336536755967,26.175191665094175],[127.70263814780087,26.175216169141372],[127.70221837160689,26.177242403123095],[127.70298247854886,26.177718823850277],[127.7029293161952,26.178232533055322],[127.70325460478648,26.178919012166546],[127.70304899248958,26.17958950368045],[127.70267846308943,26.179739042851477],[127.70224692111238,26.180413678837507],[127.7019069780244,26.180631420253878],[127.70226426658859,26.18077722673176],[127.70241066655383,26.18114931662845],[127.70236176054509,26.18159742513419],[127.7020962936417,26.182047514634416],[127.70204392396992,26.182081157250888],[127.70066463617336,26.182873180204652],[127.70001434444647,26.182635374452374],[127.70034756468971,26.18235318032699],[127.7000661799409,26.181828069835237],[127.69908808854909,26.181882255454926],[127.69965819521711,26.182718632001507],[127.69890576276569,26.183399569871394],[127.6980180740096,26.184417903184837]]]},"properties":{"KEY_CODE":"472120180","PREF":"47","CITY":"212","CITY_NAME":"豊見城市","S_NAME":"字饒波","SETAI":"432"}},{"type":"Feature","geometry":{"type":"Polygon","coordinates":[[[127.70914958377965,26.180944813046068],[127.70901507098411,26.181123994974833],[127.70898028214513,26.181290176652873],[127.7085435877921,26.181664068925254],[127.70805713017346,26.181014426442626],[127.70739012510587,26.180589339869737],[127.7066715885603,26.181043517769073],[127.70610245145255,26.18051988917604],[127.70547281578148,26.180290614395496],[127.70518414086919,26.17996606661088],[127.7043835873448,26.180429376893155],[127.70336652108183,26.180008741737726],[127.70224692111238,26.180413678837507],[127.70267846308943,26.179739042851477],[127.70304899248958,26.17958950368045],[127.70325460478648,26.178919012166546],[127.7029293161952,26.178232533055322],[127.70298247854886,26.177718823850277],[127.70221837160689,26.177242403123095],[127.70263814780087,26.175216169141372],[127.70336536755967,26.175191665094175],[127.70393689918676,26.17441238168621],[127.70507766838112,26.173815301062376],[127.7052082279728,26.173531664257847],[127.70478805659673,26.17288562982313],[127.70515095165275,26.173043588923143],[127.70592502926483,26.173820370033862],[127.70670675395334,26.1740253386989],[127.70726692065902,26.17451587297444],[127.70736964568948,26.175045562293143],[127.70898657112438,26.175596395999758],[127.71068959688209,26.176280374337047],[127.71107116854685,26.17744664884203],[127.7110546415313,26.177815472512087],[127.70938951980399,26.178372324980597],[127.71044692864992,26.17889292009609],[127.70940774589032,26.180029694473166],[127.70917722582439,26.180452300544985],[127.70913798999688,26.1805888184305],[127.70912954631268,26.18076881974165],[127.70914958377965,26.180944813046068]]]},"properties":{"KEY_CODE":"472120190","PREF":"47","CITY":"212","CITY_NAME":"豊見城市","S_NAME":"字金良","SETAI":"375"}},{"type":"Feature","geometry":{"type":"Polygon","coordinates":[[[127.71401288738588,26.180987429597636],[127.7139860883513,26.181661868307096],[127.71364147899895,26.1819893584417],[127.71277553895412,26.181782995523623],[127.71234104329463,26.182769169888573],[127.71240632068873,26.18374687871061],[127.7108421380392,26.183986268963768],[127.71053527723667,26.184301283178257],[127.71054995586378,26.184843610524467],[127.70985939046956,26.18475786239918],[127.70929338635509,26.18518947395682],[127.7095714171979,26.18607697288159],[127.70855845446339,26.187273175521273],[127.70812287778234,26.188676176128933],[127.7081433943658,26.189626014958883],[127.70772676354282,26.19030852331116],[127.70714939114794,26.190550644911973],[127.70604484458394,26.190522892945275],[127.70608804713883,26.190080963447887],[127.70551168138863,26.189361764873343],[127.70607999879967,26.188840240294248],[127.70551862082449,26.18875844526256],[127.70514431760456,26.187816674842175],[127.7041785768192,26.18765828394379],[127.70412882795017,26.1872133299769],[127.70324184474113,26.186892340408313],[127.70377125516553,26.186385195172807],[127.70287402566608,26.18530144318138],[127.70224119980043,26.184976476019656],[127.70223874117016,26.18350183017104],[127.70253005699121,26.182614049405153],[127.70204392396992,26.182081157250888],[127.7020962936417,26.182047514634416],[127.70236176054509,26.18159742513419],[127.70241066655383,26.18114931662845],[127.70226426658859,26.18077722673176],[127.7019069780244,26.180631420253878],[127.70224692111238,26.180413678837507],[127.70336652108183,26.180008741737726],[127.7043835873448,26.180429376893155],[127.70518414086919,26.17996606661085],[127.70547281578148,26.180290614395496],[127.70610245145255,26.18051988917604],[127.7066715885603,26.181043517769073],[127.70739012510587,26.180589339869737],[127.70805713017346,26.181014426442626],[127.7085435877921,26.181664068925254],[127.70898028214513,26.181290176652873],[127.70901507098411,26.181123994974833],[127.70914958377965,26.180944813046068],[127.70912954631268,26.18076881974165],[127.70913798999688,26.1805888184305],[127.70917722582439,26.180452300544985],[127.70940774589032,26.180029694473166],[127.71044692864992,26.17889292009609],[127.70938951980399,26.178372324980597],[127.7110546415313,26.177815472512087],[127.7110447188392,26.1780293480279],[127.7118149384432,26.179489474285674],[127.7133861083923,26.179361626719665],[127.71382377771607,26.180194650946166],[127.71362356800648,26.180477250184175],[127.71401288738588,26.180987429597636]]]},"properties":{"KEY_CODE":"472120200","PREF":"47","CITY":"212","CITY_NAME":"豊見城市","S_NAME":"字長堂","SETAI":"471"}},{"type":"Feature","geometry":{"type":"Polygon","coordinates":[[[127.70463028435748,26.19093523721023],[127.70408735537322,26.19115446511701],[127.70345341501431,26.191960766137655],[127.70183989710908,26.193510001156064],[127.7016183699157,26.19376097865022],[127.70117543119777,26.193367386850536],[127.70003621001082,26.19153672912129],[127.69949259758647,26.191004206832964],[127.69883969865795,26.191224075030277],[127.69870140885195,26.19171352293598],[127.69805867285113,26.191561430371102],[127.69732665083504,26.192235107951824],[127.69642036286527,26.19011872150536],[127.69596060054886,26.190350935451523],[127.69474064252263,26.190063411818244],[127.69401055181045,26.19025574694933],[127.69337234799828,26.190086821754413],[127.69337854667954,26.18991569579573],[127.6936003679371,26.18954121821648],[127.69410451518822,26.18903891233729],[127.69451267074223,26.18934442261538],[127.69552483036313,26.187824659959812],[127.69596053936743,26.18815449491824],[127.69656660542303,26.187533477851147],[127.69702701554226,26.187948799842395],[127.69737900152683,26.18741495400654],[127.69822890292059,26.187363490526796],[127.69852439048162,26.1871287068978],[127.69865315408008,26.18688066627208],[127.69901990666402,26.18667139920393],[127.69903963622197,26.186739248676517],[127.69918827237744,26.186637245958778],[127.69925544100711,26.18624449299348],[127.69903474206376,26.18622753959406],[127.69944530227859,26.185454942716525],[127.6980180740096,26.184417903184837],[127.69890576276569,26.183399569871394],[127.69965819521711,26.182718632001507],[127.69908808854909,26.181882255454926],[127.7000661799409,26.181828069835237],[127.70034756468971,26.18235318032699],[127.70001434444647,26.182635374452374],[127.70066463617336,26.182873180204652],[127.70204392396992,26.182081157250888],[127.70253005699121,26.182614049405153],[127.70223874117016,26.18350183017104],[127.70224119980043,26.184976476019656],[127.70287402566608,26.18530144318138],[127.70377125516553,26.186385195172807],[127.70324184474113,26.186892340408313],[127.70412882795017,26.1872133299769],[127.7041785768192,26.18765828394379],[127.70514431760456,26.187816674842175],[127.70551862082449,26.18875844526256],[127.70607999879967,26.188840240294248],[127.70551168138863,26.189361764873343],[127.70608804713883,26.190080963447887],[127.70604484458394,26.190522892945275],[127.70490280890459,26.190572883443334],[127.70463028435748,26.19093523721023]]]},"properties":{"KEY_CODE":"472120210","PREF":"47","CITY":"212","CITY_NAME":"豊見城市","S_NAME":"字嘉数","SETAI":"1151"}},{"type":"Feature","geometry":{"type":"Polygon","coordinates":[[[127.70124591172282,26.194210912806618],[127.69976970394997,26.19532388036098],[127.69767249483505,26.196158253907594],[127.69649662089017,26.196095375834126],[127.69602632866025,26.195888062871557],[127.69526478171517,26.19519387980306],[127.69317996116872,26.19439845784507],[127.69159535957535,26.194217723747755],[127.690453861686,26.194314323277666],[127.68853101115353,26.195338199791387],[127.68670146006946,26.194148241309808],[127.68659144053149,26.193618334643322],[127.68689162835373,26.192344443052335],[127.68704048240073,26.19168107910145],[127.68715271626856,26.191178072580904],[127.68719381207467,26.190957167945395],[127.68834392902853,26.19067197609572],[127.68840065230938,26.19082140645918],[127.68879814057247,26.19070950091822],[127.6889968172977,26.19061647201562],[127.68917131578837,26.19048269763806],[127.6892079097786,26.190437868915502],[127.6894726555054,26.190216936527055],[127.68973788710875,26.189774780517922],[127.69095224334002,26.190115964920736],[127.69213119135574,26.190843342773693],[127.69306675096392,26.190412329180283],[127.69324397079413,26.19034702174106],[127.69336398604882,26.19021399863181],[127.69337234799828,26.190086821754413],[127.69401055181045,26.19025574694933],[127.69474064252263,26.190063411818244],[127.69596060054886,26.190350935451523],[127.69642036286527,26.19011872150536],[127.69732665083504,26.192235107951824],[127.69805867285113,26.191561430371102],[127.69870140885195,26.19171352293598],[127.69883969865795,26.191224075030277],[127.69949259758647,26.191004206832964],[127.70003621001082,26.19153672912129],[127.70117543119777,26.193367386850536],[127.7016183699157,26.19376097865022],[127.70124591172282,26.194210912806618]]]},"properties":{"KEY_CODE":"472120220","PREF":"47","CITY":"212","CITY_NAME":"豊見城市","S_NAME":"字真玉橋","SETAI":"1842"}},{"type":"Feature","geometry":{"type":"Polygon","coordinates":[[[127.68670146006946,26.194148241309808],[127.68853101115353,26.195338199791387],[127.68606533300242,26.196632807115904],[127.68315818992939,26.198500085978676],[127.68245445212675,26.197218459577968],[127.68207343116316,26.19652478346617],[127.68162140887604,26.1944653861293],[127.68160110872964,26.19437692514224],[127.68295130780449,26.19404049629356],[127.68321245068275,26.193689458481796],[127.68302106988551,26.19318723961452],[127.68223279585003,26.19349846995634],[127.68275520437051,26.19302628739949],[127.6830373053798,26.192787615824617],[127.6838139062774,26.192172913816766],[127.68418733373919,26.191912793422013],[127.68441139345911,26.19175738667905],[127.68461324045444,26.1917504011065],[127.68538829839821,26.191370049231924],[127.68578804927179,26.19122115252456],[127.68613519183663,26.190893616938563],[127.68650200955864,26.189991070591102],[127.68663582827585,26.189495192782406],[127.68665558805237,26.188964045212657],[127.68664394754327,26.188680798863224],[127.68655101610226,26.187982205334244],[127.68645004256422,26.187745263197222],[127.68604941044926,26.18727705027897],[127.68586211089898,26.187004133719476],[127.68716548466236,26.18667398737075],[127.68771570572429,26.18706615801582],[127.68802940485462,26.186562994991895],[127.68813655752486,26.186361750815866],[127.68855426655779,26.186206785808626],[127.68911913729968,26.185986994176318],[127.68938739960703,26.185719106186216],[127.68957023497187,26.1855464987502],[127.68997222100282,26.185528005514676],[127.69034628108533,26.185470057231974],[127.69033966647244,26.18505530180407],[127.69132300554286,26.18518687902044],[127.69129858501272,26.18483498086033],[127.69280851729046,26.184822022253144],[127.69354330434194,26.184120418858527],[127.69394198307974,26.184003136843288],[127.69486057388133,26.1841691203897],[127.6949357490758,26.184368503612134],[127.69551137734459,26.184306284231397],[127.69784462551188,26.184341273049302],[127.6980180740096,26.184417903184837],[127.69944530227859,26.185454942716525],[127.69903474206376,26.18622753959406],[127.69925544100711,26.18624449299348],[127.69918827237744,26.186637245958778],[127.69903963622197,26.186739248676517],[127.69901990666402,26.18667139920393],[127.69865315408008,26.18688066627208],[127.69852439048162,26.1871287068978],[127.69822890292059,26.187363490526796],[127.69737900152683,26.18741495400654],[127.69702701554226,26.187948799842395],[127.69656660542303,26.187533477851147],[127.69596053936743,26.18815449491824],[127.69552483036313,26.187824659959812],[127.69451267074223,26.18934442261538],[127.69410451518822,26.18903891233729],[127.6936003679371,26.18954121821648],[127.69337854667954,26.18991569579573],[127.69337234799828,26.190086821754413],[127.69336398604882,26.19021399863181],[127.69324397079413,26.19034702174106],[127.69306675096392,26.190412329180283],[127.69213119135574,26.190843342773693],[127.69095224334002,26.190115964920736],[127.68973788710875,26.189774780517922],[127.6894726555054,26.190216936527055],[127.6892079097786,26.190437868915502],[127.68917131578837,26.19048269763806],[127.6889968172977,26.19061647201562],[127.68879814057247,26.19070950091822],[127.68840065230938,26.19082140645918],[127.68834392902853,26.19067197609572],[127.68719381207467,26.190957167945395],[127.68715271626856,26.191178072580904],[127.68704048240073,26.19168107910145],[127.68689162835373,26.192344443052335],[127.68659144053149,26.193618334643322],[127.68670146006946,26.194148241309808]]]},"properties":{"KEY_CODE":"472120230","PREF":"47","CITY":"212","CITY_NAME":"豊見城市","S_NAME":"字根差部","SETAI":"1312"}},{"type":"Feature","geometry":{"type":"Polygon","coordinates":[[[127.661710394704,26.160540050613342],[127.66074711021216,26.16132100929038],[127.6603608724809,26.161996630155567],[127.65879506608059,26.16181595093251],[127.65742486397444,26.16206090286532],[127.65511768921967,26.163331786236608],[127.65506351425925,26.163477682154227],[127.65183901072497,26.162175158239215],[127.65153341187023,26.16178640247143],[127.65015289800937,26.16137504478036],[127.64893688938915,26.160496331222436],[127.64830930443603,26.16019635359332],[127.64772435502441,26.160319740279697],[127.64653457854733,26.160156988963877],[127.64556198602938,26.159676197603094],[127.64544409819554,26.158814359871073],[127.64563084357177,26.15831969409738],[127.64601777773984,26.15844053934161],[127.64585229541544,26.159027075186444],[127.64672745799272,26.158912128285387],[127.64721817076278,26.15741254884229],[127.64719710940712,26.15666442095508],[127.64615131482164,26.156437991647884],[127.64652461364241,26.155297007834296],[127.64687508744483,26.15525932931601],[127.64668452573935,26.155924641767776],[127.64735967800847,26.156170888662928],[127.647860303219,26.155372598773248],[127.64815192272528,26.1545833949403],[127.64817369879403,26.153817641316877],[127.64751267501327,26.15339690475583],[127.64707876457761,26.153426150227716],[127.64743346486934,26.153030825908786],[127.64858768876893,26.153132052475122],[127.64925356267632,26.153648208108194],[127.64951266500354,26.15452264686544],[127.64932169244292,26.155358741272675],[127.64994208043457,26.155523314700933],[127.65023475427378,26.15438472787013],[127.64986795725214,26.15302473192535],[127.65008873707272,26.152799738218896],[127.65119387126325,26.152667733063662],[127.6518287542778,26.152439610886436],[127.65245519538004,26.152516209920645],[127.6542312033435,26.15228820159354],[127.65461408610085,26.15211809685057],[127.65550107830181,26.15216528620423],[127.65961850318817,26.151682975859057],[127.66451025261578,26.152821337470048],[127.66662107765852,26.153399447075927],[127.66793955667214,26.154151991507362],[127.66605342289684,26.157303657259177],[127.6659017239616,26.157564709572046],[127.66582578019974,26.15761985647978],[127.66578786655704,26.157680370503588],[127.6657708897656,26.15771108484689],[127.66576594492554,26.157751712291642],[127.66561631570875,26.15805248679097],[127.66544478345845,26.158420070318915],[127.66476310721943,26.158829749162365],[127.66474608484779,26.15881171348318],[127.66465213365088,26.158873188776173],[127.66369521419945,26.15933374958308],[127.66320664867722,26.159604149501284],[127.66238104544344,26.160100622597575],[127.661710394704,26.160540050613342]]]},"properties":{"KEY_CODE":"472120240","PREF":"47","CITY":"212","CITY_NAME":"豊見城市","S_NAME":"豊崎","SETAI":"1928"}}]}