{"type":"FeatureCollection","features":[{"type":"Feature","geometry":{"type":"Polygon","coordinates":[[[127.7952777034922,26.30787215503552],[127.79450619709847,26.307511953350524],[127.79369577265037,26.307888774568674],[127.79284849466664,26.308817039719333],[127.79141498857605,26.30761309767018],[127.79099401043761,26.30785100428607],[127.78764828374304,26.30844316626559],[127.78675379828418,26.308902026846333],[127.78536404151856,26.308974412798772],[127.78397347343558,26.308615765073302],[127.78359151243592,26.307722261577855],[127.78378866789451,26.307444687373625],[127.78480385799872,26.306884020916172],[127.785169347462,26.306668420029485],[127.7852658426973,26.306571439243793],[127.78576436045988,26.306265377429597],[127.7866049681872,26.305289390311195],[127.78675272657468,26.30487791865996],[127.78678578082781,26.30420299502804],[127.78656414219586,26.302782202648014],[127.78653670452263,26.30270390565466],[127.78729800085566,26.302447917640464],[127.78830583819645,26.30163325058398],[127.78889551474602,26.3009038990549],[127.78913403672678,26.30110497440578],[127.78944458505242,26.30126038655736],[127.7900060796532,26.30052910754549],[127.79084879333402,26.300617685264154],[127.79352542811192,26.30035904075199],[127.7933573224089,26.299297754227737],[127.79404542368891,26.298319940412874],[127.79486400932058,26.297761994155255],[127.79599913529213,26.297241019464924],[127.79618995540883,26.29730219225056],[127.79684673109995,26.29846595129351],[127.7978744892908,26.298701128313827],[127.79753479172814,26.300053633117553],[127.79751695858417,26.300681917950236],[127.79721955545594,26.30169202328878],[127.79748920478477,26.302500606652746],[127.79689344887589,26.303297358411935],[127.7971982385387,26.30520484340394],[127.79714317146188,26.305613416762416],[127.79619087544043,26.30672724400278],[127.79633773837786,26.307098309347168],[127.7956008507308,26.30704597183629],[127.7952777034922,26.30787215503552]]]},"properties":{"KEY_CODE":"473270010","PREF":"47","CITY":"327","CITY_NAME":"北中城村","S_NAME":"字喜舎場","SETAI":"642"}},{"type":"Feature","geometry":{"type":"Polygon","coordinates":[[[127.80221361772892,26.310793789017115],[127.8013595729096,26.310918103887825],[127.80084085472444,26.31056915620903],[127.79872502443104,26.310804757506514],[127.7979457471477,26.311217562122998],[127.79814159111999,26.310775494495388],[127.79776472342245,26.310355229777006],[127.79785796194393,26.309796068087806],[127.7973933103127,26.310131616457117],[127.79595738911736,26.308869572136356],[127.79568475649012,26.30875691078653],[127.79527562294584,26.30846891754219],[127.7952777034922,26.30787215503552],[127.7956008507308,26.30704597183629],[127.79633773837786,26.307098309347168],[127.79619087544043,26.30672724400278],[127.79714317146188,26.305613416762416],[127.7971982385387,26.30520484340394],[127.79689344887589,26.303297358411935],[127.79748920478477,26.302500606652746],[127.79721955545594,26.30169202328878],[127.79751695858417,26.300681917950236],[127.79753479172814,26.300053633117553],[127.7978744892908,26.298701128313827],[127.79818755862452,26.297904833370037],[127.79858174513656,26.29757802497598],[127.79999591280477,26.29771205428589],[127.80102821235816,26.297615717250974],[127.80179826313311,26.29811228276973],[127.80163720192726,26.298574627722406],[127.80216941976802,26.29981386220627],[127.80210655275094,26.300924720165735],[127.80251756792894,26.301380316002806],[127.80367501987983,26.30153045871941],[127.80313929400708,26.302208633856246],[127.80277287137142,26.30352940178015],[127.8024477512093,26.303657483342064],[127.80247299180915,26.304191700717453],[127.80203361768847,26.30470679367793],[127.80204583409484,26.305349219161435],[127.80164912802304,26.3055574876594],[127.80144224101441,26.30569790690098],[127.79991884381094,26.30816478039426],[127.79993195747855,26.30822892758233],[127.80025643011531,26.308560761150137],[127.801642715014,26.30901868780852],[127.80184653563866,26.30899202949051],[127.80208788613581,26.309720712642022],[127.80214693726813,26.310029754507184],[127.80221361772892,26.310793789017115]]]},"properties":{"KEY_CODE":"473270020","PREF":"47","CITY":"327","CITY_NAME":"北中城村","S_NAME":"字仲順","SETAI":"491"}},{"type":"Feature","geometry":{"type":"Polygon","coordinates":[[[127.80913363892323,26.29793145035151],[127.8075328804193,26.297945214505397],[127.80691717834182,26.298190354752933],[127.80502642292132,26.298211249189325],[127.80401364867353,26.29850739256523],[127.80237256890582,26.29777629769036],[127.80216351849707,26.297485165761167],[127.80179826313311,26.29811228276973],[127.80102821235816,26.297615717250974],[127.79999591280477,26.29771205428589],[127.79858174513656,26.29757802497598],[127.79895975848555,26.296930924791315],[127.79957981818116,26.296326535998965],[127.79956842814148,26.295240967799668],[127.79999595926938,26.29446772042351],[127.8006368966105,26.294532976682603],[127.8015042352602,26.295478307802426],[127.80277224717047,26.2952619729438],[127.80298323034536,26.295094042593327],[127.8028881928009,26.292827451415345],[127.80252124929446,26.291974136678157],[127.80288219768998,26.2914390690969],[127.80317788187752,26.291340474976646],[127.80375072494698,26.290852895429364],[127.80379789117342,26.290736064447024],[127.80514940806992,26.290077589485843],[127.80552010529105,26.28987837418999],[127.8064183540599,26.289216930450497],[127.80778913289757,26.288517538999958],[127.80760650891709,26.288004312009292],[127.80785605488225,26.287700288719236],[127.80804559300465,26.28755201558267],[127.80857099433014,26.28713410990691],[127.808711362488,26.287150172156664],[127.8095825894118,26.28738376528504],[127.80955883342786,26.288085551068257],[127.81043327391801,26.28857072322929],[127.81140574660436,26.288347030536226],[127.81387023836994,26.28974283334498],[127.8146124089042,26.289969008065814],[127.8126246549651,26.291094451817397],[127.81230869460651,26.29127297948489],[127.81150717818821,26.29225773915152],[127.81116685873432,26.292693563037535],[127.81086951948974,26.293104926514037],[127.81083367569754,26.29318173212137],[127.81062792115911,26.29420525859906],[127.81100363149933,26.294206810093034],[127.8106462155501,26.294622816373767],[127.81071789754147,26.29484471923232],[127.81258953722127,26.294837979295686],[127.81259184747364,26.29570724509265],[127.81319678934886,26.295735731081923],[127.81319005196703,26.297718922902604],[127.81435975557329,26.29772180784726],[127.8144746464039,26.296874838244822],[127.81446755533287,26.296841459972256],[127.81448722109259,26.296706015101794],[127.8148729086342,26.29376332920937],[127.81487086444581,26.293752487028662],[127.81487567575138,26.29367936263473],[127.81488153287968,26.293624293495974],[127.81492142221485,26.293561913801092],[127.81507161804066,26.293556176995782],[127.81510070856484,26.29357326795541],[127.81509895113034,26.293661720393],[127.81453222447823,26.29780718598442],[127.81453399800576,26.29846883339421],[127.81153968288186,26.298478058851547],[127.81125304589945,26.298392923784565],[127.81119097480693,26.297799242439794],[127.80913363892323,26.29793145035151]]]},"properties":{"KEY_CODE":"473270030","PREF":"47","CITY":"327","CITY_NAME":"北中城村","S_NAME":"字熱田","SETAI":"579"}},{"type":"Feature","geometry":{"type":"Polygon","coordinates":[[[127.81022296186072,26.29982298066382],[127.8082444290717,26.300661529400806],[127.80792543351022,26.300440876446],[127.80532165682966,26.301372080203798],[127.80432614802837,26.300996890038995],[127.80367501987983,26.30153045871941],[127.80251756792894,26.301380316002806],[127.80210655275094,26.300924720165735],[127.80216941976802,26.29981386220627],[127.80163720192726,26.298574627722406],[127.80179826313311,26.29811228276973],[127.80216351849707,26.297485165761167],[127.80237256890582,26.29777629769036],[127.80401364867353,26.29850739256523],[127.80502642292132,26.298211249189325],[127.80691717834182,26.298190354752933],[127.8075328804193,26.297945214505397],[127.80913363892323,26.29793145035151],[127.81119097480693,26.297799242439794],[127.81125304589945,26.298392923784565],[127.81138773709574,26.299330519448063],[127.81022296186072,26.29982298066382]]]},"properties":{"KEY_CODE":"473270040","PREF":"47","CITY":"327","CITY_NAME":"北中城村","S_NAME":"字和仁屋","SETAI":"283"}},{"type":"Feature","geometry":{"type":"Polygon","coordinates":[[[127.82876262008384,26.30407697297698],[127.82574803009373,26.307249704295206],[127.82470288639342,26.3077059755086],[127.82426996418424,26.307184564428585],[127.8236380286055,26.307318529436078],[127.82222739893506,26.30693358285684],[127.82223479762337,26.306609093457112],[127.82241467799486,26.30583981997732],[127.82244425353194,26.305840093114014],[127.82250171219934,26.30544697442548],[127.822695684275,26.305229618008248],[127.82336629784454,26.304633509120233],[127.82376657569861,26.303938678956374],[127.8241075851692,26.303342008622863],[127.82353866964553,26.302908130950826],[127.82344967556358,26.30282433850711],[127.82373729282575,26.30280475787622],[127.82404768992524,26.302782411997825],[127.82414282993662,26.30278219793228],[127.82433310995613,26.302781769611908],[127.8244172376648,26.302781580159973],[127.82457251110262,26.302797483930192],[127.82482200952069,26.302842936279685],[127.82507961087482,26.302925395925474],[127.82516278620629,26.30294146174943],[127.82531799986855,26.30293571692539],[127.8254921951233,26.302919069823595],[127.82617080375262,26.303132376941296],[127.82643324753019,26.303148003439386],[127.8266403718566,26.303085265556525],[127.82683357647993,26.303053233628624],[127.82695772120559,26.303044838590004],[127.82712410267975,26.30308776212402],[127.82714218552228,26.303119314696932],[127.8275897458257,26.303435152826882],[127.8276860700559,26.30349452107774],[127.82800822823752,26.30374653682577],[127.82811554321161,26.303804966267705],[127.82842358461757,26.30400193907029],[127.82853981131375,26.30402966765982],[127.82868010274034,26.304059108677034],[127.82876262008384,26.30407697297698]]]},"properties":{"KEY_CODE":"473270050","PREF":"47","CITY":"327","CITY_NAME":"北中城村","S_NAME":"字渡口","SETAI":"0"}},{"type":"Feature","geometry":{"type":"Polygon","coordinates":[[[127.8114707776852,26.30510988018988],[127.8106276605037,26.305098444457297],[127.81111791903129,26.305938481666292],[127.80978888636466,26.30596232114666],[127.8095672546945,26.307448926925836],[127.8086815514051,26.309044186009995],[127.80848655364218,26.31011079255343],[127.80787265582256,26.31060473315036],[127.80768428125315,26.311150334074508],[127.80755636900808,26.312432226750865],[127.8068418619273,26.313818785933606],[127.806998523046,26.314677755309972],[127.80751278119367,26.315881794995473],[127.80662785049489,26.31532631804041],[127.80550986084691,26.314687688240955],[127.80480817054878,26.31458233344914],[127.80382973247012,26.31442413839953],[127.80337513614445,26.314362757258923],[127.80244602722942,26.31417775721039],[127.80204064486814,26.314045038794564],[127.80249155321455,26.313029153845445],[127.8027007248593,26.311709612128944],[127.80283249355878,26.310997776226326],[127.80241884341635,26.310741382752795],[127.80221361772892,26.310793789017087],[127.80214693726813,26.310029754507184],[127.80208788613581,26.309720712642022],[127.80184653563866,26.308992029490472],[127.801642715014,26.30901868780852],[127.80025643011531,26.308560761150137],[127.79993195747855,26.30822892758233],[127.79991884381094,26.30816478039426],[127.80144224101441,26.30569790690098],[127.80164912802304,26.3055574876594],[127.80204583409484,26.305349219161435],[127.80203361768847,26.30470679367793],[127.80247299180915,26.304191700717453],[127.8024477512093,26.303657483342064],[127.80277287137142,26.30352940178015],[127.80313929400708,26.302208633856246],[127.80367501987983,26.30153045871941],[127.80432614802837,26.300996890038995],[127.80532165682966,26.301372080203798],[127.80792543351022,26.300440876446],[127.8082444290717,26.300661529400806],[127.81022296186072,26.29982298066382],[127.81138773709574,26.299330519448063],[127.81156197535556,26.29970655492343],[127.81289664375758,26.301101896250962],[127.81304290183469,26.301119631973293],[127.81312706587701,26.30113298918094],[127.8132964217002,26.301171441442307],[127.81344678442456,26.301224394021745],[127.81380175524936,26.301390616587117],[127.81420311236919,26.301676766240547],[127.81437684362929,26.301858755312903],[127.81478913664495,26.30248701632104],[127.8148498868727,26.302733320200563],[127.81500586812227,26.30301280940271],[127.81510116438083,26.30307036148667],[127.81550285938815,26.30384937962618],[127.81604789518198,26.30467596307117],[127.81620938403454,26.305137771859947],[127.81671065390394,26.30532803125027],[127.81672968889283,26.305328902841453],[127.816729693765,26.3053307027785],[127.81677073201412,26.305323385689658],[127.81678277950408,26.3053296669839],[127.81687763166843,26.305222056371708],[127.81695566332014,26.305194804370753],[127.81740220595428,26.305140540996838],[127.81751292610261,26.305143114918042],[127.81703260120878,26.30616465637224],[127.81627951964255,26.30608239109874],[127.81591856931911,26.30673702238044],[127.81540707888854,26.307009864841277],[127.8147639458998,26.306644593952498],[127.81400700973975,26.30587749438794],[127.81398346480536,26.30531869798712],[127.81362982207865,26.30505437998903],[127.81251225831645,26.30506121915535],[127.81206628106395,26.305093109413995],[127.8114707776852,26.30510988018988]]]},"properties":{"KEY_CODE":"473270050","PREF":"47","CITY":"327","CITY_NAME":"北中城村","S_NAME":"字渡口","SETAI":"284"}},{"type":"Feature","geometry":{"type":"Polygon","coordinates":[[[127.8055798964174,26.326185737007],[127.80522898279104,26.326004709759985],[127.80486643012365,26.325239796575552],[127.80378768094859,26.324897859106613],[127.80294451955804,26.32496669816958],[127.80252994397723,26.32601382174593],[127.80177511685393,26.326253026651912],[127.80095362365951,26.32608732385275],[127.80053779247147,26.325841439750896],[127.80019746335579,26.32560403327048],[127.7997450637703,26.32475276155018],[127.79916729334778,26.32451711764791],[127.79899344547187,26.323905353657246],[127.7989284663092,26.32371176790576],[127.7988649391043,26.32355728143565],[127.798889571292,26.322991968562803],[127.79821569754873,26.322473869891475],[127.79755393640711,26.321593967330898],[127.79768972629321,26.32101604768161],[127.7970672165775,26.321258549480227],[127.79603729903042,26.321868592984575],[127.79594676814705,26.32270798350158],[127.79519156352333,26.322594507765846],[127.79519464788345,26.322181388515265],[127.79506745742667,26.32154279483188],[127.79478579385638,26.32146548229204],[127.79470006229562,26.321144678094406],[127.7944715060579,26.32108979958352],[127.79405937194434,26.320943307410836],[127.79367622517083,26.320713306301773],[127.79341051998631,26.32076349350811],[127.79322223119705,26.3206674722735],[127.7931942626155,26.320646548976896],[127.79301770274955,26.320553959191564],[127.79283548691814,26.32036565073783],[127.79295989905218,26.320126049039995],[127.79308602316195,26.320000161039278],[127.7931151642484,26.319988394250416],[127.79454638446602,26.319937278991365],[127.79490007958026,26.319426759621393],[127.79504813912861,26.319226070163936],[127.79592008292958,26.318939662814767],[127.79563818850396,26.318519121870107],[127.79543730412848,26.318407475182934],[127.7947527369718,26.318201436034663],[127.79469634156341,26.317690270067548],[127.79469515364816,26.31767687619922],[127.795081145209,26.317696783450025],[127.79535185231146,26.317926166477616],[127.79581182067582,26.31781704502143],[127.79637026261281,26.318231306277934],[127.79686751829638,26.31829925648093],[127.79741846546908,26.31769333287002],[127.79753150123152,26.317686044641718],[127.79808697648019,26.317662087374647],[127.79847037709075,26.31754863556338],[127.799218162044,26.317083009022337],[127.79909440701601,26.31641866105228],[127.79944871206003,26.31648103325174],[127.80135475700168,26.31623668711328],[127.80156074977408,26.31566644466335],[127.80154800410774,26.31455357591453],[127.80204064486814,26.314045038794564],[127.80244602722942,26.31417775721039],[127.80337513614445,26.314362757258923],[127.80382973247012,26.31442413839953],[127.80480817054878,26.31458233344914],[127.80550986084691,26.314687688240955],[127.80662785049489,26.31532631804041],[127.80750894023423,26.315915053968777],[127.80695314996677,26.316828573277334],[127.80713597922063,26.31692299857302],[127.80660394563475,26.31749725742084],[127.80695118171037,26.31821689411429],[127.80685684762678,26.318596782431328],[127.80760668579268,26.318760945608286],[127.80776951081322,26.319667216364408],[127.80817298384528,26.320608484949013],[127.80866441074019,26.322734770861587],[127.80788852954198,26.323376756170692],[127.80782552324372,26.323467021723047],[127.80760625092469,26.323979827196734],[127.80750260785113,26.324353809546515],[127.80738098201546,26.32460057762768],[127.8076112808488,26.325405540004706],[127.80732386859755,26.325891197633908],[127.8073114127819,26.325945772240846],[127.80713063882726,26.3262369528728],[127.80673609695293,26.325774326440065],[127.80597373828884,26.325897491111157],[127.80583401677406,26.325982976582736],[127.8055798964174,26.326185737007]]]},"properties":{"KEY_CODE":"473270060","PREF":"47","CITY":"327","CITY_NAME":"北中城村","S_NAME":"字島袋","SETAI":"1919"}},{"type":"Feature","geometry":{"type":"Polygon","coordinates":[[[127.78942747884952,26.315123930939016],[127.78957580630694,26.3152915800772],[127.78890567064968,26.31620010914652],[127.78839517627283,26.317186242172188],[127.78816176662794,26.31724894360953],[127.78578830461055,26.31802491607802],[127.78532905178639,26.318006994178404],[127.78452750165427,26.31714140760819],[127.7846681988853,26.317068669537477],[127.78606276564793,26.315347024321063],[127.78563057878017,26.31448349583658],[127.78471291641536,26.313556679594758],[127.78374849786958,26.313253887994094],[127.78284003604156,26.312310470597705],[127.78236436836005,26.311523706698367],[127.78143351013996,26.31126402811349],[127.78180644821724,26.310515311296438],[127.78222267908276,26.31064200265144],[127.78359575543817,26.310221331610997],[127.78468119751123,26.31020929025779],[127.78487056228867,26.309928946515193],[127.78536404151856,26.308974412798772],[127.78675379828418,26.308902026846333],[127.78764828374304,26.30844316626559],[127.79099401043761,26.30785100428607],[127.79141498857605,26.30761309767018],[127.79284849466664,26.308817039719333],[127.79369577265037,26.307888774568674],[127.79450619709847,26.307511953350524],[127.7952777034922,26.30787215503552],[127.79527562294584,26.30846891754219],[127.79568475649012,26.30875691078653],[127.795136254578,26.308780229756835],[127.79500778830584,26.30932980892749],[127.79506652843463,26.31055968100113],[127.79473335374819,26.310848153019048],[127.79497297896283,26.311328573379374],[127.79424375750666,26.31207819771979],[127.79352456832285,26.311930386003624],[127.79375872714544,26.313260563739984],[127.79336318669682,26.31338357998989],[127.79340221027,26.314104433544824],[127.7919483858142,26.314064937290652],[127.79206457334493,26.314206397121463],[127.79341138217318,26.315857498633733],[127.79367077875325,26.31615957872778],[127.7937136576458,26.31743832424042],[127.79344030217521,26.31732844502083],[127.79312475382793,26.31713515195892],[127.79305559935237,26.317135292257213],[127.79290687481935,26.31681186536128],[127.79248903521454,26.316430098521668],[127.79248494851892,26.316329684377163],[127.79235381767197,26.316132595448632],[127.79216949354509,26.316171049539417],[127.79183284007128,26.315976067755482],[127.79169821634987,26.315924435844593],[127.79158260811496,26.31578613046127],[127.79121683586246,26.315468323461072],[127.7909527156644,26.315096644311144],[127.79105645649999,26.31468666940659],[127.79101850396223,26.314513054074197],[127.79067263990702,26.314482575999286],[127.79021906607406,26.314396923767593],[127.78991180184528,26.314439113048405],[127.78904981963939,26.31467109275255],[127.78915077500861,26.31509677096762],[127.78942747884952,26.315123930939016]]]},"properties":{"KEY_CODE":"473270070","PREF":"47","CITY":"327","CITY_NAME":"北中城村","S_NAME":"字屋宜原","SETAI":"308"}},{"type":"Feature","geometry":{"type":"Polygon","coordinates":[[[127.78143351013996,26.31126402811349],[127.78132081409477,26.310823062716203],[127.7808089663777,26.310753781610313],[127.78047441071134,26.309848402693042],[127.78075472766923,26.309731779098357],[127.78060575764508,26.3089900025497],[127.77949239807312,26.308896811958626],[127.77889967336525,26.309175707407377],[127.77835439855362,26.309087618294495],[127.77758684912489,26.30935027171566],[127.77727255919518,26.309088039297112],[127.77700393948574,26.30890572775852],[127.776695552325,26.308823419487677],[127.7760829106468,26.308451456898066],[127.7767725124359,26.306884835417712],[127.77695661784027,26.306499715360175],[127.77687580976719,26.30580801241575],[127.7768505220351,26.305418214795512],[127.77608776062189,26.304417165494637],[127.77620354654734,26.30424398794428],[127.77620269131732,26.303878864531594],[127.77643056614254,26.303490908414766],[127.77670295933984,26.30236090257065],[127.77690283446388,26.30216302301898],[127.77711679373343,26.302040681476505],[127.77727750136786,26.301757683459247],[127.77738631851942,26.301400562112082],[127.77756252091011,26.301202547952524],[127.77844414440054,26.300481529856683],[127.77883054936089,26.300296827069364],[127.77906806754567,26.30026343679385],[127.780223989044,26.30147168384014],[127.78151418831251,26.301889320066408],[127.78249463978591,26.30144992406645],[127.78339149804562,26.30153830122716],[127.7841444607527,26.30282272692458],[127.78453133897247,26.302866677083017],[127.78518448730462,26.3022933156919],[127.78580883272616,26.302113311272386],[127.78653670452263,26.30270390565466],[127.78656414219586,26.302782202648014],[127.78678578082781,26.30420299502804],[127.78675272657468,26.30487791865996],[127.7866049681872,26.305289390311167],[127.78576436045988,26.30626537742959],[127.7852658426973,26.306571439243793],[127.785169347462,26.306668420029485],[127.78480385799872,26.306884020916172],[127.78378866789451,26.307444687373625],[127.78359151243592,26.307722261577855],[127.78397347343558,26.308615765073302],[127.78536404151856,26.308974412798772],[127.78487056228867,26.309928946515193],[127.78468119751123,26.310209290257756],[127.78359575543817,26.310221331610972],[127.78222267908276,26.31064200265144],[127.78180644821724,26.310515311296438],[127.78143351013996,26.31126402811349]]]},"properties":{"KEY_CODE":"473270080","PREF":"47","CITY":"327","CITY_NAME":"北中城村","S_NAME":"字瑞慶覧","SETAI":"117"}},{"type":"Feature","geometry":{"type":"Polygon","coordinates":[[[127.78653670452263,26.30270390565466],[127.78580883272616,26.302113311272386],[127.78518448730462,26.3022933156919],[127.78453133897247,26.302866677083017],[127.7841444607527,26.30282272692458],[127.78339149804562,26.30153830122716],[127.78249463978591,26.30144992406645],[127.78151418831251,26.301889320066408],[127.780223989044,26.30147168384014],[127.77906806754567,26.30026343679385],[127.77916462516724,26.29987886824672],[127.77922522311064,26.299746981026495],[127.7793297851413,26.298876463096086],[127.77925556528902,26.29840989048854],[127.77893101068291,26.297691188139193],[127.7797989956402,26.297659312039194],[127.77971194376752,26.297242058961796],[127.78036376648201,26.2971508819178],[127.78027611889127,26.29659087714628],[127.78076999536813,26.296475160653486],[127.78205100783377,26.296157580875164],[127.78345545456393,26.29602839165899],[127.78441724680427,26.296189361868077],[127.7845272267312,26.2949798963585],[127.78472745318098,26.2911840050852],[127.78480633288738,26.290705335711145],[127.78514504919647,26.290309212973305],[127.78424890319103,26.290317940020383],[127.78411544110338,26.28943377594441],[127.78515670610813,26.289102793979353],[127.78592513597481,26.288847748500384],[127.78605731750835,26.28754311666042],[127.78739816876296,26.28751907368176],[127.78825583432368,26.288116546857985],[127.78924787133991,26.28830681191795],[127.78955883032512,26.288564480681227],[127.78968810895365,26.288794918888748],[127.79082985596342,26.288983678141335],[127.79138597406067,26.28982917306434],[127.79173820689023,26.29093693156289],[127.79418227361255,26.29284166398369],[127.79640786947616,26.293198888778104],[127.79719270322157,26.293941273887118],[127.79616137956853,26.29444115380955],[127.79630006347341,26.294701893435413],[127.7959783336326,26.29528521126513],[127.79581946357013,26.296370469413066],[127.79599913529213,26.297241019464924],[127.79486400932058,26.297761994155255],[127.79404542368891,26.298319940412874],[127.7933573224089,26.299297754227737],[127.79352542811192,26.30035904075199],[127.79084879333402,26.300617685264154],[127.7900060796532,26.30052910754549],[127.78944458505242,26.30126038655736],[127.78913403672678,26.30110497440578],[127.78889551474602,26.300903899054877],[127.78830583819645,26.30163325058395],[127.78729800085566,26.302447917640464],[127.78653670452263,26.30270390565466]]]},"properties":{"KEY_CODE":"47327010000","PREF":"47","CITY":"327","CITY_NAME":"北中城村","S_NAME":"字安谷屋","SETAI":"664"}},{"type":"Feature","geometry":{"type":"Polygon","coordinates":[[[127.78480633288738,26.290705335711145],[127.78472745318098,26.2911840050852],[127.7845272267312,26.2949798963585],[127.78441724680427,26.296189361868077],[127.78345545456393,26.29602839165899],[127.78205100783377,26.296157580875164],[127.78076999536813,26.296475160653486],[127.78027611889127,26.29659087714628],[127.78036376648201,26.2971508819178],[127.77971194376752,26.297242058961796],[127.77937165400463,26.296179713412506],[127.77987090636971,26.295560357489478],[127.78012760412078,26.295231508118174],[127.77987682958157,26.294964675641456],[127.77968336851767,26.29439438180066],[127.77981976009244,26.29427324100756],[127.78048704166673,26.2943486974928],[127.78089404730643,26.29438158295586],[127.7817213672952,26.295270254390047],[127.78185262246184,26.295160743006615],[127.78213789629864,26.29355759515056],[127.78296748620991,26.293359430315725],[127.78335470603241,26.293535332128105],[127.78415783506638,26.29293403446791],[127.78366695630156,26.292481429432105],[127.78429685626902,26.291941154151985],[127.78409409197242,26.290998980821396],[127.78480633288738,26.290705335711145]]]},"properties":{"KEY_CODE":"47327010001","PREF":"47","CITY":"327","CITY_NAME":"北中城村","S_NAME":"字安谷屋石平行政区","SETAI":"160"}},{"type":"Feature","geometry":{"type":"Polygon","coordinates":[[[127.7978744892908,26.298701128313827],[127.79684673109995,26.29846595129351],[127.79618995540883,26.29730219225056],[127.79599913529213,26.297241019464924],[127.79581946357013,26.296370469413066],[127.7959783336326,26.29528521126513],[127.79630006347341,26.294701893435413],[127.79616137956853,26.29444115380955],[127.79719270322157,26.293941273887118],[127.79640786947616,26.293198888778104],[127.79418227361255,26.29284166398369],[127.79173820689023,26.29093693156289],[127.79138597406067,26.28982917306434],[127.79082985596342,26.288983678141335],[127.78968810895365,26.288794918888748],[127.78955883032512,26.288564480681227],[127.79084259091323,26.288392615879264],[127.79157423437502,26.287251266379325],[127.7925086508634,26.28727531533196],[127.79298961800859,26.28703134060278],[127.79342307058931,26.28716970888747],[127.79443833066075,26.286822262510572],[127.79525651310956,26.28699534991807],[127.79565444544517,26.288387799599686],[127.79629585563085,26.290031570611408],[127.796932132392,26.289629874651258],[127.79840117939492,26.290421060425373],[127.79832443257799,26.290861491787908],[127.79927643381423,26.29113005020675],[127.79939848403994,26.293195652043106],[127.79892208714244,26.293456040276958],[127.7990175163183,26.294127057549982],[127.79999595926938,26.29446772042351],[127.79956842814148,26.295240967799668],[127.79957981818116,26.296326535998965],[127.79895975848555,26.296930924791315],[127.79858174513656,26.29757802497598],[127.79818755862452,26.297904833370037],[127.7978744892908,26.298701128313827]]]},"properties":{"KEY_CODE":"473270110","PREF":"47","CITY":"327","CITY_NAME":"北中城村","S_NAME":"字荻道","SETAI":"195"}},{"type":"Feature","geometry":{"type":"Polygon","coordinates":[[[127.80288219768998,26.2914390690969],[127.80252124929446,26.291974136678157],[127.8028881928009,26.292827451415345],[127.80298323034536,26.295094042593327],[127.80277224717047,26.2952619729438],[127.8015042352602,26.295478307802426],[127.8006368966105,26.294532976682603],[127.79999595926938,26.29446772042351],[127.7990175163183,26.294127057549982],[127.79892208714244,26.293456040276958],[127.79939848403994,26.293195652043106],[127.79927643381423,26.29113005020675],[127.79832443257799,26.290861491787908],[127.79840117939492,26.290421060425373],[127.796932132392,26.289629874651258],[127.79629585563085,26.290031570611408],[127.79565444544517,26.288387799599686],[127.79525651310956,26.28699534991807],[127.79656268108377,26.28670736281569],[127.79875156591675,26.285011028058356],[127.79912055886541,26.2849820413395],[127.7997894962453,26.285427046601605],[127.80092958165244,26.28534414378051],[127.80159113630536,26.284673846839002],[127.80320520664117,26.28518512888081],[127.80462385803811,26.285093521406136],[127.80581268187875,26.285699763223025],[127.8059201086237,26.286248320751216],[127.8068104989275,26.28623823775341],[127.80686924034387,26.286699521150734],[127.80722699096223,26.286835276869347],[127.80762148330527,26.286549124091042],[127.80857099433014,26.28713410990691],[127.80804559300465,26.28755201558267],[127.80785605488225,26.287700288719236],[127.80760650891709,26.288004312009292],[127.80778913289757,26.288517538999958],[127.8064183540599,26.289216930450497],[127.80552010529105,26.28987837418999],[127.80514940806992,26.290077589485843],[127.80379789117342,26.290736064447024],[127.80375072494698,26.290852895429364],[127.80317788187752,26.291340474976646],[127.80288219768998,26.2914390690969]]]},"properties":{"KEY_CODE":"473270120","PREF":"47","CITY":"327","CITY_NAME":"北中城村","S_NAME":"字大城","SETAI":"133"}},{"type":"Feature","geometry":{"type":"Polygon","coordinates":[[[127.81864808987875,26.305148647620396],[127.81740220595428,26.305140540996838],[127.81695566332014,26.305194804370753],[127.81687763166843,26.305222056371708],[127.81678277950408,26.3053296669839],[127.81677073201412,26.305323385689658],[127.816729693765,26.3053307027785],[127.81672968889283,26.305328902841453],[127.81671065390394,26.30532803125027],[127.81620938403454,26.305137771859947],[127.81604789518198,26.30467596307117],[127.81550285938815,26.30384937962618],[127.81510116438083,26.30307036148667],[127.81500586812227,26.30301280940271],[127.8148498868727,26.302733320200563],[127.81478913664495,26.30248701632104],[127.81437684362929,26.301858755312903],[127.81420311236919,26.301676766240547],[127.81380175524936,26.301390616587117],[127.81344678442456,26.301224394021745],[127.8132964217002,26.301171441442307],[127.81312706587701,26.30113298918094],[127.81304290183469,26.301119631973293],[127.81289664375758,26.301101896250962],[127.81156197535556,26.29970655492343],[127.81138773709574,26.299330519448063],[127.81125304589945,26.298392923784583],[127.81153968288186,26.29847805885155],[127.8145339980058,26.298468833394235],[127.81453222447823,26.29780718598442],[127.81509895113034,26.293661720393],[127.81510070856484,26.29357326795541],[127.81507161804066,26.293556176995782],[127.81492142221485,26.293561913801092],[127.81488153287968,26.293624293495974],[127.81487567575138,26.29367936263473],[127.81487086444581,26.293752487028662],[127.8148729086342,26.29376332920937],[127.81448722109259,26.296706015101794],[127.81446755533287,26.296841459972256],[127.8144746464039,26.296874838244822],[127.81435975557329,26.29772180784726],[127.81319005196703,26.297718922902614],[127.81319678934886,26.295735731081944],[127.81259184747364,26.29570724509265],[127.81258953722127,26.2948379792957],[127.81071789754147,26.29484471923232],[127.8106462155501,26.294622816373767],[127.81100363149933,26.294206810093034],[127.81062792115911,26.29420525859907],[127.81083367569754,26.29318173212137],[127.81086951948974,26.293104926514037],[127.81116685873432,26.292693563037535],[127.81150717818821,26.29225773915152],[127.81230869460651,26.29127297948489],[127.8126246549651,26.291094451817397],[127.8146124089042,26.289969008065825],[127.81475933517838,26.28987630034347],[127.81533277902932,26.28912474484232],[127.81652012644257,26.289946569760335],[127.81672896496073,26.289546393245864],[127.82454613676322,26.287291688118952],[127.83644738619499,26.283727229341814],[127.85060354205227,26.27991158573464],[127.86429420348705,26.27591210949021],[127.8826113793943,26.2707813411776],[127.89535666590069,26.267059215136058],[127.90839560400124,26.263738490038868],[127.9088692196317,26.2636002446462],[127.87501555984838,26.280741079836925],[127.82876262008384,26.304076972976983],[127.82868010274034,26.304059108677034],[127.82853981131375,26.30402966765982],[127.82842358461757,26.30400193907029],[127.82811554321161,26.303804966267705],[127.82800822823752,26.30374653682577],[127.8276860700559,26.30349452107774],[127.8275897458257,26.303435152826882],[127.82714218552228,26.303119314696932],[127.82712410267975,26.30308776212402],[127.82695772120559,26.303044838590004],[127.82683357647993,26.303053233628624],[127.8266403718566,26.303085265556525],[127.82643324753019,26.303148003439386],[127.82617080375262,26.303132376941296],[127.8254921951233,26.302919069823595],[127.82531799986855,26.30293571692539],[127.82516278620629,26.30294146174943],[127.82507961087482,26.302925395925474],[127.82482200952069,26.302842936279685],[127.82457251110262,26.302797483930192],[127.8244172376648,26.302781580159973],[127.82433310995613,26.302781769611908],[127.82414282993662,26.30278219793228],[127.82404768992524,26.302782411997825],[127.82373729282575,26.30280475787622],[127.82344967556358,26.30282433850711],[127.82321961322913,26.3028330007256],[127.8230354367571,26.30286952106895],[127.82299840936803,26.3028840632869],[127.82276840866336,26.303008240458446],[127.8221173687415,26.303345483575693],[127.82199722499819,26.30335841156714],[127.82191619326228,26.30338927301975],[127.82176823964085,26.30348981174475],[127.82158946227383,26.3036626008278],[127.82148250085145,26.303739567290226],[127.82142350051758,26.303773092697977],[127.8212124173419,26.303856637292967],[127.82111335223641,26.303888452030527],[127.82109334952214,26.30389840439312],[127.82106238631869,26.30392735369228],[127.82103841102864,26.30395089300806],[127.82101645104775,26.303974422315346],[127.82099549287749,26.303999716827935],[127.82086473692522,26.304158895337633],[127.82079583039132,26.304232176334487],[127.82070295256582,26.30433076398663],[127.82035754672799,26.30473593654022],[127.82028668132872,26.304822729240716],[127.81963125572909,26.305028206766416],[127.81890450579229,26.30515347410609],[127.81874924322938,26.305142996823164],[127.81864808987875,26.305148647620396]]]},"properties":{"KEY_CODE":"473270130","PREF":"47","CITY":"327","CITY_NAME":"北中城村","S_NAME":"","SETAI":"0"}},{"type":"Feature","geometry":{"type":"Polygon","coordinates":[[[127.82222739893506,26.30693358285684],[127.82014028746724,26.306623569732903],[127.81918116515509,26.306484656747934],[127.81794918122355,26.306306248896078],[127.81755207829863,26.306242499737564],[127.81703260120878,26.30616465637224],[127.81751292610261,26.305143114918042],[127.81864808987875,26.305148647620396],[127.81874924322938,26.305142996823164],[127.81890450579229,26.30515347410609],[127.81963125572909,26.305028206766416],[127.82028668132872,26.304822729240716],[127.82035754672799,26.30473593654022],[127.82070295256582,26.30433076398663],[127.82079583039132,26.304232176334487],[127.82086473692522,26.304158895337633],[127.82099549287749,26.303999716827935],[127.82101645104775,26.303974422315346],[127.82103841102864,26.30395089300806],[127.82106238631869,26.30392735369228],[127.82109334952214,26.30389840439312],[127.82111335223641,26.303888452030527],[127.8212124173419,26.303856637292967],[127.82142350051758,26.303773092697977],[127.82148250085145,26.303739567290226],[127.82158946227383,26.3036626008278],[127.82176823964085,26.30348981174475],[127.82191619326228,26.30338927301975],[127.82199722499819,26.30335841156714],[127.8221173687415,26.303345483575693],[127.82276840866336,26.303008240458446],[127.82299840936803,26.3028840632869],[127.8230354367571,26.30286952106895],[127.82321961322913,26.3028330007256],[127.82344967556358,26.30282433850711],[127.82353866964553,26.302908130950826],[127.8241075851692,26.303342008622884],[127.82376657569861,26.303938678956374],[127.82336629784454,26.304633509120233],[127.822695684275,26.305229618008248],[127.82250171219934,26.30544697442548],[127.82244425353194,26.305840093114014],[127.82241467799486,26.30583981997732],[127.82223479762337,26.306609093457112],[127.82222739893506,26.30693358285684]]]},"properties":{"KEY_CODE":"473270140","PREF":"47","CITY":"327","CITY_NAME":"北中城村","S_NAME":"字美崎","SETAI":"371"}},{"type":"Feature","geometry":{"type":"Polygon","coordinates":[[[127.79741846546908,26.31769333287002],[127.79686751829638,26.31829925648093],[127.79637026261281,26.318231306277934],[127.79581182067582,26.31781704502143],[127.79535185231146,26.317926166477616],[127.795081145209,26.317696783450025],[127.79469515364816,26.31767687619922],[127.79457520503873,26.31722306835074],[127.7937136576458,26.31743832424042],[127.79367077875325,26.31615957872778],[127.79411372839554,26.316228734073484],[127.79566195283101,26.316117253431237],[127.7971584901652,26.316163830118576],[127.79904733643382,26.31616597312209],[127.79880686152443,26.31544269682384],[127.79923846599937,26.315357089050174],[127.7996262422166,26.31465889180286],[127.79932712001406,26.313778996339817],[127.79962121010965,26.313324346893875],[127.79913895873194,26.313133983460762],[127.7989554113161,26.313393432911614],[127.79770968962808,26.31207390581446],[127.7979457471477,26.311217562122998],[127.79872502443104,26.310804757506514],[127.80084085472444,26.31056915620903],[127.8013595729096,26.310918103887825],[127.80221361772892,26.310793789017115],[127.80241884341635,26.310741382752795],[127.80283249355878,26.310997776226326],[127.8027007248593,26.311709612128944],[127.80249155321455,26.313029153845445],[127.80204064486814,26.314045038794564],[127.80154800410774,26.31455357591453],[127.80156074977408,26.31566644466335],[127.80135475700168,26.31623668711328],[127.79944871206003,26.31648103325174],[127.79909440701601,26.31641866105228],[127.799218162044,26.317083009022337],[127.79847037709075,26.31754863556338],[127.79808697648019,26.317662087374647],[127.79753150123152,26.317686044641718],[127.79741846546908,26.31769333287002]]]},"properties":{"KEY_CODE":"473270150","PREF":"47","CITY":"327","CITY_NAME":"北中城村","S_NAME":"字比嘉","SETAI":"102"}},{"type":"Feature","geometry":{"type":"Polygon","coordinates":[[[127.79566195283101,26.316117253431237],[127.79411372839554,26.316228734073484],[127.79341138217318,26.315857498633733],[127.79206457334493,26.314206397121463],[127.7919483858142,26.314064937290652],[127.79340221027,26.314104433544824],[127.79336318669682,26.31338357998989],[127.79375872714544,26.313260563739984],[127.79352456832285,26.311930386003624],[127.79424375750666,26.31207819771979],[127.79497297896283,26.311328573379374],[127.79473335374819,26.310848153019048],[127.79506652843463,26.31055968100113],[127.79500778830584,26.30932980892749],[127.795136254578,26.308780229756835],[127.79568475649012,26.30875691078653],[127.79595738911736,26.308869572136356],[127.7973933103127,26.310131616457117],[127.79785796194393,26.309796068087806],[127.79776472342245,26.310355229777006],[127.79814159111999,26.310775494495388],[127.7979457471477,26.311217562122998],[127.79770968962808,26.31207390581446],[127.7989554113161,26.313393432911614],[127.79913895873194,26.313133983460762],[127.79962121010965,26.313324346893875],[127.79932712001406,26.313778996339817],[127.7996262422166,26.31465889180286],[127.79923846599937,26.315357089050174],[127.79880686152443,26.31544269682384],[127.79904733643382,26.31616597312209],[127.7971584901652,26.316163830118576],[127.79566195283101,26.316117253431237]]]},"properties":{"KEY_CODE":"473270160","PREF":"47","CITY":"327","CITY_NAME":"北中城村","S_NAME":"字ライカム","SETAI":"310"}}]}