{"type":"FeatureCollection","features":[{"type":"Feature","geometry":{"type":"Polygon","coordinates":[[[139.58421286715972,35.70830688087346],[139.58168249180667,35.708601505991815],[139.5802167137665,35.70907137015646],[139.57938494667397,35.707381630830255],[139.57941886652338,35.70736402824443],[139.58125184783356,35.7064160573095],[139.5832370676506,35.70552118997525],[139.58362806833506,35.70534619918818],[139.58605833847662,35.70421486311643],[139.58856199907788,35.70893548418367],[139.58746382413742,35.70884217797929],[139.58585431452642,35.70854940772848],[139.58421286715972,35.70830688087346]]]},"properties":{"KEY_CODE":"13203001001","PREF":"13","CITY":"203","CITY_NAME":"武蔵野市","S_NAME":"吉祥寺東町一丁目","SETAI":"1889"}},{"type":"Feature","geometry":{"type":"Polygon","coordinates":[[[139.58421286715972,35.70830688087346],[139.58585431452642,35.70854940772848],[139.58746382413742,35.70884217797929],[139.58856199907788,35.70893548418367],[139.58886182990756,35.70895892652728],[139.59063588928436,35.7091278406591],[139.5907997994371,35.709144173831056],[139.58893936599108,35.71033036610499],[139.5874925373258,35.71142774985161],[139.58671654441275,35.71173855746335],[139.5835388885253,35.71321185868263],[139.58255247640062,35.71358901613754],[139.58117056542878,35.710917459796455],[139.5802167137665,35.70907137015646],[139.58168249180667,35.708601505991815],[139.58421286715972,35.70830688087346]]]},"properties":{"KEY_CODE":"13203001002","PREF":"13","CITY":"203","CITY_NAME":"武蔵野市","S_NAME":"吉祥寺東町二丁目","SETAI":"2618"}},{"type":"Feature","geometry":{"type":"Polygon","coordinates":[[[139.59006305702692,35.703601325497544],[139.5906164112962,35.704658194163144],[139.59017885734167,35.704825905921915],[139.59042155691714,35.70530386119555],[139.5908790121519,35.705159754751385],[139.59228187060106,35.707840176191254],[139.5907997994371,35.709144173831056],[139.59063588928436,35.7091278406591],[139.58886182990756,35.70895892652728],[139.58856199907788,35.70893548418367],[139.58605833847662,35.70421486311643],[139.58748562179215,35.703527998159274],[139.5875325277133,35.703526192024746],[139.59006305702692,35.703601325497544]]]},"properties":{"KEY_CODE":"13203001003","PREF":"13","CITY":"203","CITY_NAME":"武蔵野市","S_NAME":"吉祥寺東町三丁目","SETAI":"1790"}},{"type":"Feature","geometry":{"type":"Polygon","coordinates":[[[139.59442878705775,35.703739281272355],[139.59549695435595,35.705675379096306],[139.59376635987695,35.7067288658768],[139.59328038513848,35.7070104543732],[139.59228187060106,35.707840176191254],[139.5908790121519,35.705159754751385],[139.59042155691714,35.70530386119555],[139.59017885734167,35.704825905921915],[139.5906164112962,35.704658194163144],[139.59006305702692,35.703601325497544],[139.59442878705775,35.703739281272355]]]},"properties":{"KEY_CODE":"13203001004","PREF":"13","CITY":"203","CITY_NAME":"武蔵野市","S_NAME":"吉祥寺東町四丁目","SETAI":"806"}},{"type":"Feature","geometry":{"type":"Polygon","coordinates":[[[139.5838700032144,35.700653850778735],[139.58036554229508,35.701985598102816],[139.5795491073332,35.7027804247794],[139.57980023059906,35.703271067872464],[139.57732912901798,35.703196273658754],[139.57656903066652,35.70169360940425],[139.57684980112205,35.70137756872125],[139.57892245157467,35.699989040252106],[139.57927962132229,35.69940320448754],[139.58025535037987,35.698783670054155],[139.58128756063635,35.69848859391801],[139.5825737044532,35.69798426023637],[139.5838700032144,35.700653850778735]]]},"properties":{"KEY_CODE":"13203002001","PREF":"13","CITY":"203","CITY_NAME":"武蔵野市","S_NAME":"吉祥寺南町一丁目","SETAI":"1231"}},{"type":"Feature","geometry":{"type":"Polygon","coordinates":[[[139.5875325277133,35.703526192024746],[139.58748562179215,35.703527998159274],[139.58068348889427,35.70335946700406],[139.57980023059906,35.703271067872464],[139.5795491073332,35.7027804247794],[139.58036554229508,35.701985598102816],[139.5838700032144,35.700653850778735],[139.58631702362814,35.699746969128434],[139.58793158262174,35.70333708550607],[139.5875325277133,35.703526192024746]]]},"properties":{"KEY_CODE":"13203002002","PREF":"13","CITY":"203","CITY_NAME":"武蔵野市","S_NAME":"吉祥寺南町二丁目","SETAI":"1759"}},{"type":"Feature","geometry":{"type":"Polygon","coordinates":[[[139.59139624514862,35.697870792472486],[139.58631702362814,35.699746969128434],[139.5838700032144,35.700653850778735],[139.5825737044532,35.69798426023637],[139.58298111494543,35.697995740180424],[139.58461436670217,35.69732355923736],[139.5849462213607,35.69683905759189],[139.58577891007508,35.695711585434864],[139.58637749417875,35.695140011137525],[139.58640364808645,35.69474124884901],[139.5864815242818,35.69451300276402],[139.58675690312808,35.69413957144071],[139.58812810380812,35.695577085561716],[139.5900686504065,35.69481986264144],[139.59139624514862,35.697870792472486]]]},"properties":{"KEY_CODE":"13203002003","PREF":"13","CITY":"203","CITY_NAME":"武蔵野市","S_NAME":"吉祥寺南町三丁目","SETAI":"2040"}},{"type":"Feature","geometry":{"type":"Polygon","coordinates":[[[139.59139624514862,35.697870792472486],[139.59182335879026,35.69888620886608],[139.59271505083754,35.70093527955223],[139.59025934110537,35.70211342093629],[139.58867261942095,35.702952169758504],[139.58852607756697,35.703026586354795],[139.58793158262174,35.70333708550607],[139.58631702362814,35.699746969128434],[139.59139624514862,35.697870792472486]]]},"properties":{"KEY_CODE":"13203002004","PREF":"13","CITY":"203","CITY_NAME":"武蔵野市","S_NAME":"吉祥寺南町四丁目","SETAI":"1612"}},{"type":"Feature","geometry":{"type":"Polygon","coordinates":[[[139.59442878705775,35.703739281272355],[139.59006305702692,35.703601325497544],[139.5875325277133,35.703526192024746],[139.58793158262174,35.70333708550607],[139.58852607756697,35.703026586354795],[139.58867261942095,35.702952169758504],[139.59025934110537,35.70211342093629],[139.59271505083754,35.70093527955223],[139.59284212519037,35.70087261355179],[139.59442878705775,35.703739281272355]]]},"properties":{"KEY_CODE":"13203002005","PREF":"13","CITY":"203","CITY_NAME":"武蔵野市","S_NAME":"吉祥寺南町五丁目","SETAI":"949"}},{"type":"Feature","geometry":{"type":"Polygon","coordinates":[[[139.57732912901798,35.703196273658754],[139.57729164246996,35.70319531328071],[139.57324561051055,35.703053985435375],[139.5704659190173,35.70298356512167],[139.57027728833273,35.7024424789363],[139.56860292747135,35.69992613854813],[139.5701939752512,35.699282745074],[139.57170945561904,35.698316014214186],[139.57253443426407,35.697253137977285],[139.57259307386158,35.69883807723673],[139.57323304335657,35.69904610385576],[139.57407861431813,35.699372803730284],[139.57407123929295,35.6997513597024],[139.57499268910368,35.70051801494177],[139.57492781179394,35.7010333418809],[139.57656903066652,35.70169360940425],[139.57732912901798,35.703196273658754]]]},"properties":{"KEY_CODE":"13203003001","PREF":"13","CITY":"203","CITY_NAME":"武蔵野市","S_NAME":"御殿山一丁目","SETAI":"1418"}},{"type":"Feature","geometry":{"type":"Polygon","coordinates":[[[139.5704659190173,35.70298356512167],[139.56877346184055,35.70294860607324],[139.56753821344685,35.702942655414425],[139.56662186281187,35.702947678101104],[139.56242545585152,35.70282542578388],[139.5617984669988,35.70246865048433],[139.5662794839206,35.70079985381275],[139.56860292747135,35.69992613854813],[139.57027728833273,35.7024424789363],[139.5704659190173,35.70298356512167]]]},"properties":{"KEY_CODE":"13203003002","PREF":"13","CITY":"203","CITY_NAME":"武蔵野市","S_NAME":"御殿山二丁目","SETAI":"1098"}},{"type":"Feature","geometry":{"type":"Polygon","coordinates":[[[139.5832370676506,35.70552118997525],[139.58125184783356,35.7064160573095],[139.57941886652338,35.70736402824443],[139.57729164246996,35.70319531328071],[139.57732912901798,35.703196273658754],[139.57980023059906,35.703271067872464],[139.58068348889427,35.70335946700406],[139.58748562179215,35.703527998159274],[139.58605833847662,35.70421486311643],[139.58362806833506,35.70534619918818],[139.5832370676506,35.70552118997525]]]},"properties":{"KEY_CODE":"13203004001","PREF":"13","CITY":"203","CITY_NAME":"武蔵野市","S_NAME":"吉祥寺本町一丁目","SETAI":"1477"}},{"type":"Feature","geometry":{"type":"Polygon","coordinates":[[[139.57729164246996,35.70319531328071],[139.57941886652338,35.70736402824443],[139.57938494667397,35.707381630830255],[139.57622846860463,35.70860003527891],[139.57408849219996,35.70476454859476],[139.57403606500006,35.70478461085764],[139.57324561051055,35.703053985435375],[139.57729164246996,35.70319531328071]]]},"properties":{"KEY_CODE":"13203004002","PREF":"13","CITY":"203","CITY_NAME":"武蔵野市","S_NAME":"吉祥寺本町二丁目","SETAI":"2190"}},{"type":"Feature","geometry":{"type":"Polygon","coordinates":[[[139.56662186281187,35.702947678101104],[139.56753821344685,35.702942655414425],[139.56877346184055,35.70294860607324],[139.5704659190173,35.70298356512167],[139.57324561051055,35.703053985435375],[139.57403606500006,35.70478461085764],[139.5700187489925,35.706314492424255],[139.5686170736556,35.706792459209495],[139.56690179825924,35.703731704333656],[139.56662186281187,35.702947678101104]]]},"properties":{"KEY_CODE":"13203004003","PREF":"13","CITY":"203","CITY_NAME":"武蔵野市","S_NAME":"吉祥寺本町三丁目","SETAI":"1855"}},{"type":"Feature","geometry":{"type":"Polygon","coordinates":[[[139.57403606500006,35.70478461085764],[139.57408849219996,35.70476454859476],[139.57622846860463,35.70860003527891],[139.57390690222442,35.709329865355144],[139.57057737888084,35.710316057722125],[139.5685800501091,35.70680751754045],[139.5686170736556,35.706792459209495],[139.5700187489925,35.706314492424255],[139.57403606500006,35.70478461085764]]]},"properties":{"KEY_CODE":"13203004004","PREF":"13","CITY":"203","CITY_NAME":"武蔵野市","S_NAME":"吉祥寺本町四丁目","SETAI":"2167"}},{"type":"Feature","geometry":{"type":"Polygon","coordinates":[[[139.58117056542878,35.710917459796455],[139.57917164576025,35.71168609202078],[139.57930175975343,35.71195288281066],[139.57603124843902,35.713201303653285],[139.57390690222442,35.709329865355144],[139.57622846860463,35.70860003527891],[139.57938494667397,35.707381630830255],[139.5802167137665,35.70907137015646],[139.58117056542878,35.710917459796455]]]},"properties":{"KEY_CODE":"13203005001","PREF":"13","CITY":"203","CITY_NAME":"武蔵野市","S_NAME":"吉祥寺北町一丁目","SETAI":"2106"}},{"type":"Feature","geometry":{"type":"Polygon","coordinates":[[[139.58117056542878,35.710917459796455],[139.58255247640062,35.71358901613754],[139.5813775273863,35.71417692212387],[139.5790252796106,35.715722621283625],[139.57791469640583,35.71663263683691],[139.57603124843902,35.713201303653285],[139.57930175975343,35.71195288281066],[139.57917164576025,35.71168609202078],[139.58117056542878,35.710917459796455]]]},"properties":{"KEY_CODE":"13203005002","PREF":"13","CITY":"203","CITY_NAME":"武蔵野市","S_NAME":"吉祥寺北町二丁目","SETAI":"1209"}},{"type":"Feature","geometry":{"type":"Polygon","coordinates":[[[139.57603124843902,35.713201303653285],[139.57791469640583,35.71663263683691],[139.57658969279248,35.717761731102186],[139.5750731066613,35.718789861795166],[139.57309764376052,35.71946161507157],[139.5722232302785,35.717900357941396],[139.57201286739877,35.71750826906096],[139.57167022916067,35.716896186342794],[139.57072664777908,35.71520921365506],[139.568378459489,35.71104450458733],[139.57057737888084,35.710316057722125],[139.57390690222442,35.709329865355144],[139.57603124843902,35.713201303653285]]]},"properties":{"KEY_CODE":"13203005003","PREF":"13","CITY":"203","CITY_NAME":"武蔵野市","S_NAME":"吉祥寺北町三丁目","SETAI":"1837"}},{"type":"Feature","geometry":{"type":"Polygon","coordinates":[[[139.568378459489,35.71104450458733],[139.57072664777908,35.71520921365506],[139.56977873729744,35.71553790261993],[139.56905866440167,35.71577555764274],[139.5679844995949,35.71614967610774],[139.56766904696894,35.716508680261],[139.5662174931301,35.71698941002738],[139.56599123519743,35.71660979355468],[139.56535268285128,35.71553039213236],[139.56466342534208,35.71435327487681],[139.5641115590002,35.71342067024185],[139.56375818185037,35.71282347183564],[139.56377008693352,35.712813322936995],[139.56419615686076,35.71270227458088],[139.56464615003878,35.712491421072684],[139.56508324764084,35.71230925147716],[139.568378459489,35.71104450458733]]]},"properties":{"KEY_CODE":"13203005004","PREF":"13","CITY":"203","CITY_NAME":"武蔵野市","S_NAME":"吉祥寺北町四丁目","SETAI":"1665"}},{"type":"Feature","geometry":{"type":"Polygon","coordinates":[[[139.57072664777908,35.71520921365506],[139.57167022916067,35.716896186342794],[139.57201286739877,35.71750826906096],[139.5722232302785,35.717900357941396],[139.57309764376052,35.71946161507157],[139.57172258223204,35.719833584015625],[139.57103709306563,35.72005430114003],[139.56849238626012,35.72081489625755],[139.56685953066562,35.718066596404924],[139.5662174931301,35.71698941002738],[139.56766904696894,35.716508680261],[139.5679844995949,35.71614967610774],[139.56905866440167,35.71577555764274],[139.56977873729744,35.71553790261993],[139.57072664777908,35.71520921365506]]]},"properties":{"KEY_CODE":"13203005005","PREF":"13","CITY":"203","CITY_NAME":"武蔵野市","S_NAME":"吉祥寺北町五丁目","SETAI":"763"}},{"type":"Feature","geometry":{"type":"Polygon","coordinates":[[[139.5617984669988,35.70246865048433],[139.56242545585152,35.70282542578388],[139.56662186281187,35.702947678101104],[139.56690179825924,35.703731704333656],[139.56380159170132,35.704825684411894],[139.56332552346413,35.704869901028516],[139.5601451360502,35.706049126878135],[139.55873436970415,35.70363257529814],[139.56064875000715,35.70290304534965],[139.5617984669988,35.70246865048433]]]},"properties":{"KEY_CODE":"13203006001","PREF":"13","CITY":"203","CITY_NAME":"武蔵野市","S_NAME":"中町一丁目","SETAI":"2244"}},{"type":"Feature","geometry":{"type":"Polygon","coordinates":[[[139.56690179825924,35.703731704333656],[139.5686170736556,35.706792459209495],[139.5685800501091,35.70680751754045],[139.567689378474,35.707074138942815],[139.5651755130015,35.70804960325759],[139.5641585809168,35.708600868818415],[139.5635052140083,35.70894527172894],[139.56304688351906,35.709143001567405],[139.56278796766725,35.7092467644935],[139.56220633630616,35.70947148651381],[139.56171621152305,35.708637051186386],[139.56155426611627,35.70835631566703],[139.5609740588934,35.70739627617359],[139.5601451360502,35.706049126878135],[139.56332552346413,35.704869901028516],[139.56380159170132,35.704825684411894],[139.56690179825924,35.703731704333656]]]},"properties":{"KEY_CODE":"13203006002","PREF":"13","CITY":"203","CITY_NAME":"武蔵野市","S_NAME":"中町二丁目","SETAI":"2587"}},{"type":"Feature","geometry":{"type":"Polygon","coordinates":[[[139.5685800501091,35.70680751754045],[139.57057737888084,35.710316057722125],[139.568378459489,35.71104450458733],[139.56508324764084,35.71230925147716],[139.56464615003878,35.712491421072684],[139.56419615686076,35.71270227458088],[139.56220633630616,35.70947148651381],[139.56278796766725,35.7092467644935],[139.56304688351906,35.709143001567405],[139.5635052140083,35.70894527172894],[139.5641585809168,35.708600868818415],[139.5651755130015,35.70804960325759],[139.567689378474,35.707074138942815],[139.5685800501091,35.70680751754045]]]},"properties":{"KEY_CODE":"13203006003","PREF":"13","CITY":"203","CITY_NAME":"武蔵野市","S_NAME":"中町三丁目","SETAI":"3309"}},{"type":"Feature","geometry":{"type":"Polygon","coordinates":[[[139.55873436970415,35.70363257529814],[139.5601451360502,35.706049126878135],[139.5609740588934,35.70739627617359],[139.55407388687385,35.70859288728817],[139.55232807145782,35.70611839240493],[139.55873436970415,35.70363257529814]]]},"properties":{"KEY_CODE":"13203007001","PREF":"13","CITY":"203","CITY_NAME":"武蔵野市","S_NAME":"西久保一丁目","SETAI":"1249"}},{"type":"Feature","geometry":{"type":"Polygon","coordinates":[[[139.56220633630616,35.70947148651381],[139.561059895297,35.7098645177041],[139.56091123012806,35.70962609712866],[139.5581288236108,35.7108662645127],[139.55798324850693,35.710653973201104],[139.55723995080848,35.71098799539354],[139.55742443586408,35.71127723838723],[139.5562677613041,35.711743400319165],[139.5556913206381,35.71090988744826],[139.5540803088333,35.70860207526748],[139.55407388687385,35.70859288728817],[139.5609740588934,35.70739627617359],[139.56155426611627,35.70835631566703],[139.56171621152305,35.708637051186386],[139.56220633630616,35.70947148651381]]]},"properties":{"KEY_CODE":"13203007002","PREF":"13","CITY":"203","CITY_NAME":"武蔵野市","S_NAME":"西久保二丁目","SETAI":"2669"}},{"type":"Feature","geometry":{"type":"Polygon","coordinates":[[[139.56220633630616,35.70947148651381],[139.56419615686076,35.71270227458088],[139.56377008693352,35.712813322936995],[139.5630278692162,35.71294996462814],[139.56268327708318,35.71301198820454],[139.5577859687217,35.71393326597573],[139.55741866432666,35.71338733454949],[139.55694697442374,35.71272926849242],[139.5562677613041,35.711743400319165],[139.55742443586408,35.71127723838723],[139.55723995080848,35.71098799539354],[139.55798324850693,35.710653973201104],[139.5581288236108,35.7108662645127],[139.56091123012806,35.70962609712866],[139.561059895297,35.7098645177041],[139.56220633630616,35.70947148651381]]]},"properties":{"KEY_CODE":"13203007003","PREF":"13","CITY":"203","CITY_NAME":"武蔵野市","S_NAME":"西久保三丁目","SETAI":"2730"}},{"type":"Feature","geometry":{"type":"Polygon","coordinates":[[[139.56375818185037,35.71282347183564],[139.5641115590002,35.71342067024185],[139.56466342534208,35.71435327487681],[139.55914569788737,35.716565948399214],[139.55763655376515,35.713969418531725],[139.5577859687217,35.71393326597573],[139.56268327708318,35.71301198820454],[139.5630278692162,35.71294996462814],[139.56377008693352,35.712813322936995],[139.56375818185037,35.71282347183564]]]},"properties":{"KEY_CODE":"13203008001","PREF":"13","CITY":"203","CITY_NAME":"武蔵野市","S_NAME":"緑町一丁目","SETAI":"1115"}},{"type":"Feature","geometry":{"type":"Polygon","coordinates":[[[139.56685953066562,35.718066596404924],[139.5640149389555,35.71912027322579],[139.56310956145813,35.719085997145875],[139.56243872771427,35.71876704616872],[139.560841695479,35.71939675902334],[139.55914569788737,35.716565948399214],[139.56466342534208,35.71435327487681],[139.56535268285128,35.71553039213236],[139.56599123519743,35.71660979355468],[139.5662174931301,35.71698941002738],[139.56685953066562,35.718066596404924]]]},"properties":{"KEY_CODE":"13203008002","PREF":"13","CITY":"203","CITY_NAME":"武蔵野市","S_NAME":"緑町二丁目","SETAI":"2460"}},{"type":"Feature","geometry":{"type":"Polygon","coordinates":[[[139.56685953066562,35.718066596404924],[139.56849238626012,35.72081489625755],[139.56638397382474,35.72128414838217],[139.56538097436405,35.72148071668625],[139.5621303401372,35.72180616234553],[139.5620667416515,35.721525736180126],[139.560841695479,35.71939675902334],[139.56243872771427,35.71876704616872],[139.56310956145813,35.719085997145875],[139.5640149389555,35.71912027322579],[139.56685953066562,35.718066596404924]]]},"properties":{"KEY_CODE":"13203008003","PREF":"13","CITY":"203","CITY_NAME":"武蔵野市","S_NAME":"緑町三丁目","SETAI":"308"}},{"type":"Feature","geometry":{"type":"Polygon","coordinates":[[[139.55763655376515,35.713969418531725],[139.55914569788737,35.716565948399214],[139.555444019082,35.718049012873095],[139.55362120234636,35.7150106453832],[139.55763655376515,35.713969418531725]]]},"properties":{"KEY_CODE":"13203009001","PREF":"13","CITY":"203","CITY_NAME":"武蔵野市","S_NAME":"八幡町一丁目","SETAI":"620"}},{"type":"Feature","geometry":{"type":"Polygon","coordinates":[[[139.560841695479,35.71939675902334],[139.5620667416515,35.721525736180126],[139.5621303401372,35.72180616234553],[139.5603671576355,35.72187471553915],[139.5573522013899,35.72148990068068],[139.55724943490324,35.72147278322244],[139.5572132311911,35.72102934597793],[139.555444019082,35.718049012873095],[139.55914569788737,35.716565948399214],[139.560841695479,35.71939675902334]]]},"properties":{"KEY_CODE":"13203009002","PREF":"13","CITY":"203","CITY_NAME":"武蔵野市","S_NAME":"八幡町二丁目","SETAI":"258"}},{"type":"Feature","geometry":{"type":"Polygon","coordinates":[[[139.55362120234636,35.7150106453832],[139.555444019082,35.718049012873095],[139.5540983652772,35.71858900770571],[139.55303326311304,35.71932666965564],[139.5524193454747,35.71887447624464],[139.55063728539824,35.71739450182525],[139.54923692854445,35.7165688830792],[139.54920636971246,35.71655462180332],[139.5498229926279,35.716337618067094],[139.55362120234636,35.7150106453832]]]},"properties":{"KEY_CODE":"13203009003","PREF":"13","CITY":"203","CITY_NAME":"武蔵野市","S_NAME":"八幡町三丁目","SETAI":"617"}},{"type":"Feature","geometry":{"type":"Polygon","coordinates":[[[139.555444019082,35.718049012873095],[139.5572132311911,35.72102934597793],[139.55724943490324,35.72147278322244],[139.55483088461213,35.72061079424647],[139.55303326311304,35.71932666965564],[139.5540983652772,35.71858900770571],[139.555444019082,35.718049012873095]]]},"properties":{"KEY_CODE":"13203009004","PREF":"13","CITY":"203","CITY_NAME":"武蔵野市","S_NAME":"八幡町四丁目","SETAI":"430"}},{"type":"Feature","geometry":{"type":"Polygon","coordinates":[[[139.55254834593987,35.709212868563796],[139.55221461511587,35.70925782844609],[139.54736820906155,35.711071743192036],[139.54496865040613,35.71197909673182],[139.54387662563428,35.7123856668607],[139.543654920744,35.70980691972524],[139.54364371288682,35.709427459978265],[139.5436359521073,35.70941879801977],[139.54417454664426,35.709232035806195],[139.54655146000798,35.70838375963634],[139.54828416612358,35.70776087509511],[139.54967099940308,35.70719271389181],[139.54977623326417,35.706703411204515],[139.5497061079881,35.70713445516876],[139.55232807145782,35.70611839240493],[139.55407388687385,35.70859288728817],[139.5540803088333,35.70860207526748],[139.55269776766832,35.709037716581676],[139.55254834593987,35.709212868563796]]]},"properties":{"KEY_CODE":"13203010001","PREF":"13","CITY":"203","CITY_NAME":"武蔵野市","S_NAME":"関前一丁目","SETAI":"225"}},{"type":"Feature","geometry":{"type":"Polygon","coordinates":[[[139.5556913206381,35.71090988744826],[139.5518060986178,35.71226707463453],[139.54790298043693,35.71344769520842],[139.54695598074898,35.71201430292046],[139.54658530903845,35.71212327548601],[139.5462940397247,35.711484239360374],[139.54736820906155,35.711071743192036],[139.55221461511587,35.70925782844609],[139.55254834593987,35.709212868563796],[139.55269776766832,35.709037716581676],[139.5540803088333,35.70860207526748],[139.5556913206381,35.71090988744826]]]},"properties":{"KEY_CODE":"13203010002","PREF":"13","CITY":"203","CITY_NAME":"武蔵野市","S_NAME":"関前二丁目","SETAI":"1142"}},{"type":"Feature","geometry":{"type":"Polygon","coordinates":[[[139.55694697442374,35.71272926849242],[139.55741866432666,35.71338733454949],[139.5577859687217,35.71393326597573],[139.55763655376515,35.713969418531725],[139.55362120234636,35.7150106453832],[139.5498229926279,35.716337618067094],[139.54790298043693,35.71344769520842],[139.5518060986178,35.71226707463453],[139.5556913206381,35.71090988744826],[139.5562677613041,35.711743400319165],[139.55694697442374,35.71272926849242]]]},"properties":{"KEY_CODE":"13203010003","PREF":"13","CITY":"203","CITY_NAME":"武蔵野市","S_NAME":"関前三丁目","SETAI":"1415"}},{"type":"Feature","geometry":{"type":"Polygon","coordinates":[[[139.54790298043693,35.71344769520842],[139.5498229926279,35.716337618067094],[139.54920636971246,35.71655462180332],[139.54767136362815,35.715734883379774],[139.54467441237037,35.714369080416766],[139.54403710970246,35.71413932826671],[139.54387662563428,35.7123856668607],[139.54496865040613,35.71197909673182],[139.5462940397247,35.711484239360374],[139.54658530903845,35.71212327548601],[139.54695598074898,35.71201430292046],[139.54790298043693,35.71344769520842]]]},"properties":{"KEY_CODE":"13203010004","PREF":"13","CITY":"203","CITY_NAME":"武蔵野市","S_NAME":"関前四丁目","SETAI":"756"}},{"type":"Feature","geometry":{"type":"Polygon","coordinates":[[[139.543654920744,35.70980691972524],[139.54387662563428,35.7123856668607],[139.54403710970246,35.71413932826671],[139.54401541417178,35.71412778045182],[139.5416993484344,35.71315564281169],[139.54029372905575,35.71249201274541],[139.53777524547064,35.71111061675373],[139.5367934381317,35.71113790726299],[139.53681655873055,35.71088098963374],[139.53687011066827,35.71086462509981],[139.5400404779494,35.710006469735085],[139.54301126895209,35.709553097980326],[139.54318490064082,35.70951117638734],[139.54364371288673,35.709427459978265],[139.543654920744,35.70980691972524]]]},"properties":{"KEY_CODE":"13203010005","PREF":"13","CITY":"203","CITY_NAME":"武蔵野市","S_NAME":"関前五丁目","SETAI":"907"}},{"type":"Feature","geometry":{"type":"Polygon","coordinates":[[[139.54992908620838,35.70613873149572],[139.54917843746242,35.706132494658824],[139.5482905185127,35.70597988079794],[139.5478152554507,35.70590302257117],[139.5478041720232,35.70570047190347],[139.54706052289987,35.70565149487786],[139.545260027808,35.70598779034099],[139.54390465016522,35.706108975787075],[139.54422562528362,35.70248663703285],[139.54399722060936,35.702232335413846],[139.54643950914493,35.702264750172276],[139.55030594633496,35.70236299586674],[139.55030789556056,35.70242215208012],[139.55023794157393,35.703369576123116],[139.54992908620838,35.70613873149572]]]},"properties":{"KEY_CODE":"13203011001","PREF":"13","CITY":"203","CITY_NAME":"武蔵野市","S_NAME":"境一丁目","SETAI":"2291"}},{"type":"Feature","geometry":{"type":"Polygon","coordinates":[[[139.54390465016522,35.706108975787075],[139.54384315112833,35.70696247777779],[139.54313810856868,35.7069782834231],[139.54122341705212,35.70639556338339],[139.53971102408204,35.706275207563685],[139.53967558899478,35.706432191168375],[139.5374503665509,35.7064150665],[139.53831617020882,35.70486618184764],[139.53858909824757,35.70202432645599],[139.53859143504096,35.70199947435967],[139.5401425199351,35.702087439075214],[139.54200108284127,35.70213915677047],[139.54200055310594,35.70213070525089],[139.54281558030198,35.70216981627185],[139.54399722060936,35.702232335413846],[139.54422562528362,35.70248663703285],[139.54390465016522,35.706108975787075]]]},"properties":{"KEY_CODE":"13203011002","PREF":"13","CITY":"203","CITY_NAME":"武蔵野市","S_NAME":"境二丁目","SETAI":"2140"}},{"type":"Feature","geometry":{"type":"Polygon","coordinates":[[[139.54967099940308,35.70719271389181],[139.54828416612358,35.70776087509511],[139.54655146000798,35.70838375963634],[139.54417454664426,35.709232035806195],[139.5436359521073,35.70941879801977],[139.54371445510364,35.70851989858436],[139.54374670818464,35.7081192942522],[139.54384315112833,35.70696247777779],[139.54390465016522,35.706108975787075],[139.545260027808,35.70598779034099],[139.54706052289987,35.70565149487786],[139.5478041720232,35.70570047190347],[139.5478152554507,35.70590302257117],[139.5482905185127,35.70597988079794],[139.54917843746242,35.706132494658824],[139.54992908620838,35.70613873149572],[139.54977623326417,35.706703411204515],[139.54967099940308,35.70719271389181]]]},"properties":{"KEY_CODE":"13203011003","PREF":"13","CITY":"203","CITY_NAME":"武蔵野市","S_NAME":"境三丁目","SETAI":"878"}},{"type":"Feature","geometry":{"type":"Polygon","coordinates":[[[139.54364371288673,35.709427459978265],[139.54318490064082,35.70951117638734],[139.54301126895209,35.709553097980326],[139.5400404779494,35.710006469735085],[139.53687011066827,35.71086462509981],[139.53753046630442,35.710212814472875],[139.5377453608427,35.70885389143381],[139.53762092774298,35.70838069266133],[139.53830172830197,35.70718249526894],[139.53704110540255,35.707126345577215],[139.5374503665509,35.7064150665],[139.53967558899478,35.706432191168375],[139.53971102408204,35.706275207563685],[139.54122341705212,35.70639556338339],[139.54313810856868,35.7069782834231],[139.54384315112833,35.70696247777779],[139.54374670818464,35.7081192942522],[139.54371445510364,35.70851989858436],[139.5436359521073,35.70941879801977],[139.54364371288673,35.709427459978265]]]},"properties":{"KEY_CODE":"13203011004","PREF":"13","CITY":"203","CITY_NAME":"武蔵野市","S_NAME":"境四丁目","SETAI":"961"}},{"type":"Feature","geometry":{"type":"Polygon","coordinates":[[[139.53412802960398,35.70700687613466],[139.53311119274386,35.70727697488996],[139.5322013368075,35.70749742412749],[139.5321934729038,35.707499147912955],[139.5321551144752,35.70670321547695],[139.53210152570577,35.70525238619865],[139.53209646344536,35.7020505739727],[139.5324198921018,35.70183621693618],[139.53858909824757,35.70202432645599],[139.53831617020882,35.70486618184764],[139.5374503665509,35.7064150665],[139.53704110540255,35.707126345577215],[139.5346554157741,35.70695631941367],[139.53412802960398,35.70700687613466]]]},"properties":{"KEY_CODE":"13203011005","PREF":"13","CITY":"203","CITY_NAME":"武蔵野市","S_NAME":"境五丁目","SETAI":"2262"}},{"type":"Feature","geometry":{"type":"Polygon","coordinates":[[[139.55050525033283,35.69485598741875],[139.55053048524834,35.69616858222907],[139.5504128093473,35.69966723370997],[139.55030594633496,35.70236299586674],[139.54643950914493,35.702264750172276],[139.546628174276,35.700122326153476],[139.5466334766966,35.69793608489293],[139.54670801796922,35.695735431290174],[139.54700603990452,35.69566093223821],[139.55050525033283,35.69485598741875]]]},"properties":{"KEY_CODE":"13203012001","PREF":"13","CITY":"203","CITY_NAME":"武蔵野市","S_NAME":"境南町一丁目","SETAI":"1250"}},{"type":"Feature","geometry":{"type":"Polygon","coordinates":[[[139.54643950914493,35.702264750172276],[139.54399722060936,35.702232335413846],[139.54281558030198,35.70216981627185],[139.54201133908464,35.70213816046361],[139.54200055310596,35.70213070525089],[139.5419733176915,35.70212986598099],[139.54193583742446,35.701374041136276],[139.54187326528822,35.70087691013127],[139.54152154611165,35.699528809929646],[139.54110046289924,35.69805963071439],[139.5415355929851,35.69807853471337],[139.54130381843822,35.69712122971151],[139.54184253490695,35.69698056866141],[139.54557181922598,35.695953523612985],[139.54670801796922,35.695735431290174],[139.5466334766966,35.69793608489293],[139.546628174276,35.700122326153476],[139.54643950914493,35.702264750172276]]]},"properties":{"KEY_CODE":"13203012002","PREF":"13","CITY":"203","CITY_NAME":"武蔵野市","S_NAME":"境南町二丁目","SETAI":"2855"}},{"type":"Feature","geometry":{"type":"Polygon","coordinates":[[[139.54130381843822,35.69712122971151],[139.5415355929851,35.69807853471337],[139.54110046289924,35.69805963071439],[139.54152154611165,35.699528809929646],[139.54187326528822,35.70087691013127],[139.54193583742446,35.701374041136276],[139.5419733176915,35.70212986598099],[139.54200055310594,35.70213070525089],[139.54200108284127,35.70213915677047],[139.5401425199351,35.702087439075214],[139.53859143504096,35.70199947435967],[139.53856935942548,35.70084332167708],[139.53816183844722,35.69939029037618],[139.5379429111623,35.697997117939586],[139.54130381843822,35.69712122971151]]]},"properties":{"KEY_CODE":"13203012003","PREF":"13","CITY":"203","CITY_NAME":"武蔵野市","S_NAME":"境南町三丁目","SETAI":"1455"}},{"type":"Feature","geometry":{"type":"Polygon","coordinates":[[[139.5379429111623,35.697997117939586],[139.53816183844722,35.69939029037618],[139.53856935942548,35.70084332167708],[139.53859143504096,35.70199947435967],[139.53858909824757,35.70202432645599],[139.5324198921018,35.70183621693618],[139.53241992480082,35.70171840640003],[139.5324987893442,35.70113236736537],[139.53330440465027,35.70116828126042],[139.53347542603333,35.700396071536964],[139.53355889427476,35.699938627660586],[139.5337432641591,35.698954560200775],[139.53466079464195,35.69890064200628],[139.5358714881116,35.69858150351696],[139.5379429111623,35.697997117939586]]]},"properties":{"KEY_CODE":"13203012004","PREF":"13","CITY":"203","CITY_NAME":"武蔵野市","S_NAME":"境南町四丁目","SETAI":"1533"}},{"type":"Feature","geometry":{"type":"Polygon","coordinates":[[[139.54006546858054,35.69522776300561],[139.54185096452107,35.695203818518415],[139.54184253490695,35.69698056866141],[139.54130381843822,35.69712122971151],[139.5379429111623,35.697997117939586],[139.5358714881116,35.69858150351696],[139.53606162160142,35.695199510312975],[139.5363293985829,35.695205487811954],[139.53790955503925,35.69529179314405],[139.53955435841712,35.695246377122274],[139.54006546858054,35.69522776300561]]]},"properties":{"KEY_CODE":"13203012005","PREF":"13","CITY":"203","CITY_NAME":"武蔵野市","S_NAME":"境南町五丁目","SETAI":"1162"}},{"type":"Feature","geometry":{"type":"Polygon","coordinates":[[[139.5346554157741,35.70695631941367],[139.53704110540255,35.707126345577215],[139.53830172830197,35.70718249526894],[139.53762092774298,35.70838069266133],[139.5377453608427,35.70885389143381],[139.53753046630442,35.710212814472875],[139.53687011066827,35.71086462509981],[139.53681655873055,35.71088098963374],[139.53650863926032,35.71097512114963],[139.53354068858528,35.71181110012808],[139.533132891896,35.70795952809496],[139.53311119274386,35.70727697488996],[139.53412802960398,35.70700687613466],[139.5346554157741,35.70695631941367]]]},"properties":{"KEY_CODE":"13203013001","PREF":"13","CITY":"203","CITY_NAME":"武蔵野市","S_NAME":"桜堤一丁目","SETAI":"1371"}},{"type":"Feature","geometry":{"type":"Polygon","coordinates":[[[139.53311119274386,35.70727697488996],[139.533132891896,35.70795952809496],[139.53354068858528,35.71181110012808],[139.53219475762756,35.712155316479205],[139.52926242796957,35.7123484811979],[139.5275151191266,35.7123961767523],[139.52738336077104,35.71142745231528],[139.5273192548627,35.71091875925296],[139.52721375335722,35.71008160012433],[139.52770009035828,35.70948756543468],[139.52772019862516,35.709698810433174],[139.52802912122743,35.7096682647926],[139.52812003104265,35.70962198371293],[139.53231018523462,35.70905748779035],[139.5322013368075,35.70749742412749],[139.53311119274386,35.70727697488996]]]},"properties":{"KEY_CODE":"13203013002","PREF":"13","CITY":"203","CITY_NAME":"武蔵野市","S_NAME":"桜堤二丁目","SETAI":"1884"}},{"type":"Feature","geometry":{"type":"Polygon","coordinates":[[[139.52926242796957,35.7123484811979],[139.52983367528878,35.71762526166591],[139.5275167716831,35.7184343413283],[139.5268442332856,35.71867694909987],[139.52643843582163,35.71744736835323],[139.524638747639,35.71249317894813],[139.5275151191266,35.7123961767523],[139.52926242796957,35.7123484811979]]]},"properties":{"KEY_CODE":"13203013003","PREF":"13","CITY":"203","CITY_NAME":"武蔵野市","S_NAME":"桜堤三丁目","SETAI":"492"}}]}