{"type":"FeatureCollection","features":[{"type":"Feature","geometry":{"type":"Polygon","coordinates":[[[139.5314018553335,35.694815978122925],[139.52760368517747,35.694420685435496],[139.52539388242442,35.69439154018981],[139.5232564646902,35.68999230585347],[139.5231651444703,35.68961705523136],[139.5228351156477,35.68894546415044],[139.52221125068226,35.68761054209599],[139.52306843872,35.68733758992123],[139.52330300762637,35.68817945403133],[139.5234881883494,35.68808232959333],[139.5237762683848,35.68791019134981],[139.52415165095223,35.68779517497548],[139.5241989469439,35.687589532051234],[139.52422912016496,35.6875268666877],[139.5246223137536,35.68726334514602],[139.52512534146436,35.68705612214089],[139.52525667148322,35.68700575629497],[139.5253936617533,35.68692519502743],[139.52542647525163,35.68689939989869],[139.52553174780127,35.6866941867954],[139.52553057768085,35.68667893809647],[139.52547898955063,35.68661507658272],[139.52547494667414,35.68661126417915],[139.5254161876937,35.68658322758138],[139.52522270949714,35.68649942767299],[139.52518377491694,35.686461583707704],[139.52516904923047,35.68644144206919],[139.5250661252235,35.68627699711971],[139.52502673023957,35.68619619652542],[139.52502331302523,35.6861422822826],[139.5250401062955,35.68604542914494],[139.5250404873466,35.686041733689265],[139.52504732502604,35.68596390333114],[139.52504464264268,35.6858423538221],[139.5250466599294,35.68580017874218],[139.52505142810983,35.685755474527255],[139.52516052466666,35.685667236769866],[139.52516555759354,35.68566591168721],[139.5254710001711,35.68559926661729],[139.52550382091417,35.6855939287847],[139.5255383361884,35.68557965099993],[139.52556396609404,35.685552993132575],[139.52558852870118,35.68550661420476],[139.52558912295544,35.6854867224468],[139.52556969406965,35.68535939106331],[139.52555334831658,35.6852836849901],[139.52571563648172,35.684728144531874],[139.525727807903,35.68471641458881],[139.52593286974871,35.68458648738403],[139.52626650071218,35.684060923406726],[139.52637855411157,35.68393762474955],[139.52641116444156,35.68393598258098],[139.52644482550028,35.68394205337507],[139.5265159125041,35.68397371159609],[139.5265357635037,35.68397943085637],[139.52662104131778,35.68399619694506],[139.52671004048034,35.683993465373064],[139.5273232326972,35.68390224854049],[139.52764245873058,35.683886052371996],[139.52696957289615,35.684809186430606],[139.52671818242987,35.685385064438535],[139.52664960206695,35.685617025531684],[139.52682637574483,35.68621480148025],[139.52621204600987,35.687623727749965],[139.5245058914563,35.68847988675245],[139.52516605045665,35.68929949293261],[139.52499815680756,35.689412614610745],[139.52566390492444,35.69005534636858],[139.52584769099698,35.68995756668704],[139.5263056483032,35.69010655790583],[139.5270306346542,35.689673276905864],[139.52749915344518,35.6899956123368],[139.52836860629873,35.689552486801546],[139.528905655871,35.69044605185284],[139.52998921937524,35.68985525869328],[139.52995511778727,35.68952011906084],[139.5307023589856,35.689462705593385],[139.5317293156765,35.68890055492254],[139.53231911967347,35.68862126928825],[139.53225053220172,35.689266452702206],[139.53191822530655,35.69131565726637],[139.53175274294117,35.692429763614385],[139.5314018553335,35.694815978122925]]]},"properties":{"KEY_CODE":"13210001001","PREF":"13","CITY":"210","CITY_NAME":"小金井市","S_NAME":"東町一丁目","SETAI":"1637"}},{"type":"Feature","geometry":{"type":"Polygon","coordinates":[[[139.52760368517747,35.694420685435496],[139.5314018553335,35.694815978122925],[139.53224201515943,35.69488272418168],[139.53314067277603,35.694958060881625],[139.53401071374597,35.69503384684062],[139.5337432641591,35.698954560200775],[139.53355889427476,35.699938627660586],[139.53347542603333,35.700396071536964],[139.5272363417334,35.696474787168974],[139.52748350684035,35.6961489536644],[139.52760368517747,35.694420685435496]]]},"properties":{"KEY_CODE":"13210001002","PREF":"13","CITY":"210","CITY_NAME":"小金井市","S_NAME":"東町二丁目","SETAI":"1480"}},{"type":"Feature","geometry":{"type":"Polygon","coordinates":[[[139.53347542603333,35.700396071536964],[139.53330440465027,35.70116828126042],[139.5324987893442,35.70113236736537],[139.53241992480082,35.70171840640003],[139.52980158480423,35.7016686776666],[139.5275939763517,35.70158377348012],[139.52699365249782,35.70156570081607],[139.52696919776747,35.70024014486538],[139.52720874427547,35.69986714611623],[139.52737493393877,35.697656803036786],[139.52716334635872,35.69761686649092],[139.5272363417334,35.696474787168974],[139.53347542603333,35.700396071536964]]]},"properties":{"KEY_CODE":"13210001003","PREF":"13","CITY":"210","CITY_NAME":"小金井市","S_NAME":"東町三丁目","SETAI":"1281"}},{"type":"Feature","geometry":{"type":"Polygon","coordinates":[[[139.52760368517747,35.694420685435496],[139.52748350684035,35.6961489536644],[139.5272363417334,35.696474787168974],[139.52716334635872,35.69761686649092],[139.52737493393877,35.697656803036786],[139.52720874427547,35.69986714611623],[139.52696919776747,35.70024014486538],[139.52699365249782,35.70156570081607],[139.52206894715798,35.70144003136192],[139.52218529383012,35.69629059642453],[139.52217862815456,35.69439983078206],[139.52539388242442,35.69439154018981],[139.52760368517747,35.694420685435496]]]},"properties":{"KEY_CODE":"13210001004","PREF":"13","CITY":"210","CITY_NAME":"小金井市","S_NAME":"東町四丁目","SETAI":"3663"}},{"type":"Feature","geometry":{"type":"Polygon","coordinates":[[[139.52217862815456,35.69439983078206],[139.5195042754623,35.69442433157883],[139.51908003683664,35.6931796262905],[139.51913194164047,35.69247367094895],[139.51835425024635,35.69153270705543],[139.51828888357824,35.69143384378431],[139.5188370049796,35.69112462448997],[139.51870651355293,35.69083764245141],[139.51925192217897,35.69047542336042],[139.5200989003952,35.6898106220939],[139.52026687930976,35.68966092589527],[139.52045263828722,35.68905791881512],[139.52076268352283,35.688617830627365],[139.5214199040538,35.68831356528621],[139.52204440886683,35.6872692128751],[139.52221125068226,35.68761054209599],[139.5228351156477,35.68894546415044],[139.5231651444703,35.68961705523136],[139.5232564646902,35.68999230585347],[139.52539388242442,35.69439154018981],[139.52217862815456,35.69439983078206]]]},"properties":{"KEY_CODE":"13210001005","PREF":"13","CITY":"210","CITY_NAME":"小金井市","S_NAME":"東町五丁目","SETAI":"1216"}},{"type":"Feature","geometry":{"type":"Polygon","coordinates":[[[139.5275939763517,35.70158377348012],[139.52980158480423,35.7016686776666],[139.53241992480082,35.70171840640003],[139.5324198921018,35.70183621693618],[139.53209646344536,35.7020505739727],[139.53210152570577,35.70525238619865],[139.52738080563643,35.70514635454104],[139.52741190984406,35.70364961111453],[139.5275939763517,35.70158377348012]]]},"properties":{"KEY_CODE":"13210002001","PREF":"13","CITY":"210","CITY_NAME":"小金井市","S_NAME":"梶野町一丁目","SETAI":"555"}},{"type":"Feature","geometry":{"type":"Polygon","coordinates":[[[139.5322013368075,35.70749742412749],[139.53231018523462,35.70905748779035],[139.52812003104265,35.70962198371293],[139.5280255121446,35.70944050440002],[139.52785676309676,35.70852426390427],[139.527410268531,35.70537212099039],[139.52733746123792,35.705141772992725],[139.52738080563643,35.70514635454104],[139.53210152570577,35.70525238619865],[139.5321551144752,35.70670321547695],[139.5321934729038,35.707499147912955],[139.5322013368075,35.70749742412749]]]},"properties":{"KEY_CODE":"13210002002","PREF":"13","CITY":"210","CITY_NAME":"小金井市","S_NAME":"梶野町二丁目","SETAI":"1197"}},{"type":"Feature","geometry":{"type":"Polygon","coordinates":[[[139.52770009035828,35.70948756543468],[139.52721375335722,35.71008160012433],[139.5273192548627,35.71091875925296],[139.52738336077104,35.71142745231528],[139.5275151191266,35.7123961767523],[139.524638747639,35.71249317894813],[139.5216338679249,35.71257303700593],[139.52174475471577,35.708872366563455],[139.52574394759137,35.70857942214959],[139.52575981068983,35.70868639298509],[139.52785676309676,35.70852426390427],[139.5280255121446,35.70944050440002],[139.52812003104265,35.70962198371293],[139.52802912122743,35.7096682647926],[139.52772019862516,35.709698810433174],[139.52770009035828,35.70948756543468]]]},"properties":{"KEY_CODE":"13210002003","PREF":"13","CITY":"210","CITY_NAME":"小金井市","S_NAME":"梶野町三丁目","SETAI":"1162"}},{"type":"Feature","geometry":{"type":"Polygon","coordinates":[[[139.52785676309676,35.70852426390427],[139.52575981068983,35.70868639298509],[139.52574394759137,35.70857942214959],[139.52174475471577,35.708872366563455],[139.52185048703,35.70622900932566],[139.52188548544498,35.705466215781016],[139.52189694439943,35.705216680882515],[139.52317643845709,35.704926014553706],[139.52462224613876,35.70487078382977],[139.52733746123792,35.705141772992725],[139.527410268531,35.70537212099039],[139.52785676309676,35.70852426390427]]]},"properties":{"KEY_CODE":"13210002004","PREF":"13","CITY":"210","CITY_NAME":"小金井市","S_NAME":"梶野町四丁目","SETAI":"1448"}},{"type":"Feature","geometry":{"type":"Polygon","coordinates":[[[139.52733746123792,35.705141772992725],[139.52462224613876,35.70487078382977],[139.52317643845709,35.704926014553706],[139.52189694439943,35.705216680882515],[139.52194625430457,35.704314319182544],[139.52205390093957,35.70145763189744],[139.52206894715798,35.70144003136192],[139.52699365249782,35.70156570081607],[139.5275939763517,35.70158377348012],[139.52741190984406,35.70364961111453],[139.52738080563643,35.70514635454104],[139.52733746123792,35.705141772992725]]]},"properties":{"KEY_CODE":"13210002005","PREF":"13","CITY":"210","CITY_NAME":"小金井市","S_NAME":"梶野町五丁目","SETAI":"1182"}},{"type":"Feature","geometry":{"type":"Polygon","coordinates":[[[139.524638747639,35.71249317894813],[139.52643843582163,35.71744736835323],[139.5229337138182,35.717521405628986],[139.52293099693804,35.718895658461655],[139.51822607327688,35.717911105510964],[139.5181895561345,35.7126143543654],[139.51930838630884,35.712606842289965],[139.5216338679249,35.71257303700593],[139.524638747639,35.71249317894813]]]},"properties":{"KEY_CODE":"13210003001","PREF":"13","CITY":"210","CITY_NAME":"小金井市","S_NAME":"関野町一丁目","SETAI":"310"}},{"type":"Feature","geometry":{"type":"Polygon","coordinates":[[[139.5144256796128,35.71258071597128],[139.5181895561345,35.7126143543654],[139.51822607327688,35.717911105510964],[139.5131586625666,35.71699588093398],[139.51314379880628,35.714366918741774],[139.51274522375988,35.712572269416356],[139.5144256796128,35.71258071597128]]]},"properties":{"KEY_CODE":"13210003002","PREF":"13","CITY":"210","CITY_NAME":"小金井市","S_NAME":"関野町二丁目","SETAI":"299"}},{"type":"Feature","geometry":{"type":"Polygon","coordinates":[[[139.5192979719691,35.70470033879811],[139.51742877493368,35.70496141726879],[139.51704588446123,35.70364273361239],[139.51689946260768,35.70309089696705],[139.51821332716364,35.70308079022297],[139.51715278217546,35.70147362074224],[139.51701884734243,35.70128675665759],[139.52205390093957,35.70145763189744],[139.52194625430457,35.704314319182544],[139.52133463159132,35.70438237966355],[139.5192979719691,35.70470033879811]]]},"properties":{"KEY_CODE":"13210004001","PREF":"13","CITY":"210","CITY_NAME":"小金井市","S_NAME":"緑町一丁目","SETAI":"948"}},{"type":"Feature","geometry":{"type":"Polygon","coordinates":[[[139.52194625430457,35.704314319182544],[139.52189694439943,35.705216680882515],[139.52188548544498,35.705466215781016],[139.52185048703,35.70622900932566],[139.52174475471577,35.708872366563455],[139.5216338679249,35.71257303700593],[139.51930838630884,35.712606842289965],[139.51926042897355,35.71145916451238],[139.5186495178538,35.710200045471865],[139.5183779449452,35.70960387289946],[139.51815982805945,35.70892939330572],[139.5178731427206,35.707991121705355],[139.5176853844577,35.70635229975556],[139.51753527171522,35.70588569669165],[139.5172421973457,35.70499599573551],[139.51742877493368,35.70496141726879],[139.5192979719691,35.70470033879811],[139.52133463159132,35.70438237966355],[139.52194625430457,35.704314319182544]]]},"properties":{"KEY_CODE":"13210004002","PREF":"13","CITY":"210","CITY_NAME":"小金井市","S_NAME":"緑町二丁目","SETAI":"1815"}},{"type":"Feature","geometry":{"type":"Polygon","coordinates":[[[139.5181895561345,35.7126143543654],[139.5144256796128,35.71258071597128],[139.51434264717784,35.71141098877101],[139.51265012306393,35.71136057282548],[139.51233759011427,35.709055955968054],[139.51212219241106,35.70816880923762],[139.51212646417616,35.70814780066173],[139.51424229154327,35.70833717415082],[139.5167990965973,35.70956590873799],[139.51766076056768,35.710161012295686],[139.5186495178538,35.710200045471865],[139.51926042897355,35.71145916451238],[139.51930838630884,35.712606842289965],[139.5181895561345,35.7126143543654]]]},"properties":{"KEY_CODE":"13210004003","PREF":"13","CITY":"210","CITY_NAME":"小金井市","S_NAME":"緑町三丁目","SETAI":"1207"}},{"type":"Feature","geometry":{"type":"Polygon","coordinates":[[[139.5186495178538,35.710200045471865],[139.51766076056768,35.710161012295686],[139.5167990965973,35.70956590873799],[139.51424229154327,35.70833717415082],[139.51212646417616,35.70814780066173],[139.51217907751067,35.707892356451815],[139.5115226215612,35.70556815759105],[139.5117324241875,35.70556678163692],[139.5142575255238,35.70553347318608],[139.51479942985557,35.70543206332945],[139.5169402970482,35.70505199320554],[139.5172421973457,35.70499599573551],[139.51753527171522,35.70588569669165],[139.5176853844577,35.70635229975556],[139.5178731427206,35.707991121705355],[139.51815982805945,35.70892939330572],[139.5183779449452,35.70960387289946],[139.5186495178538,35.710200045471865]]]},"properties":{"KEY_CODE":"13210004004","PREF":"13","CITY":"210","CITY_NAME":"小金井市","S_NAME":"緑町四丁目","SETAI":"1151"}},{"type":"Feature","geometry":{"type":"Polygon","coordinates":[[[139.51821332716364,35.70308079022297],[139.51689946260768,35.70309089696705],[139.51704588446123,35.70364273361239],[139.51742877493368,35.70496141726877],[139.51724219734564,35.70499599573551],[139.5169402970482,35.70505199320554],[139.51479942985557,35.70543206332945],[139.5142575255238,35.70553347318608],[139.5117324241875,35.70556678163692],[139.51167654044997,35.70533111674917],[139.5115231674456,35.704530538944034],[139.51151914470023,35.70445204649197],[139.51113689662438,35.7030898284671],[139.51121115389876,35.703055205231415],[139.51011129506026,35.7010955301141],[139.5122696260376,35.70114873583466],[139.51690672318054,35.70128030802724],[139.51701884734243,35.70128675665759],[139.51715278217546,35.70147362074224],[139.51821332716364,35.70308079022297]]]},"properties":{"KEY_CODE":"13210004005","PREF":"13","CITY":"210","CITY_NAME":"小金井市","S_NAME":"緑町五丁目","SETAI":"3106"}},{"type":"Feature","geometry":{"type":"Polygon","coordinates":[[[139.51035035499473,35.69739489086257],[139.5100442772704,35.69674346986649],[139.51008459639965,35.69615952460282],[139.50929766323017,35.69433577885363],[139.50926349143367,35.694263436945],[139.50871951797885,35.69334743872211],[139.5098572469679,35.693188644237004],[139.51145745402422,35.69357094312824],[139.51295555059505,35.693516984375506],[139.51780595810527,35.69182946066309],[139.51835425024635,35.69153270705543],[139.51913194164047,35.69247367094895],[139.51908003683664,35.6931796262905],[139.5195042754623,35.69442433157883],[139.51772456644449,35.694601430406955],[139.51395695477237,35.695659078922766],[139.51321239826385,35.69586930777451],[139.51076378890554,35.697220375110874],[139.51035035499473,35.69739489086257]]]},"properties":{"KEY_CODE":"13210005001","PREF":"13","CITY":"210","CITY_NAME":"小金井市","S_NAME":"中町一丁目","SETAI":"984"}},{"type":"Feature","geometry":{"type":"Polygon","coordinates":[[[139.52217862815456,35.69439983078206],[139.52218529383012,35.69629059642453],[139.52206894715798,35.70144003136192],[139.52205390093957,35.70145763189744],[139.51701884734243,35.70128675665759],[139.51690672318054,35.70128030802724],[139.51628336502847,35.700162846240815],[139.51590348371144,35.699129363845714],[139.51520159537375,35.698327693875434],[139.51460044287538,35.697336048545885],[139.51395695477237,35.695659078922766],[139.51772456644449,35.694601430406955],[139.5195042754623,35.69442433157883],[139.52217862815456,35.69439983078206]]]},"properties":{"KEY_CODE":"13210005002","PREF":"13","CITY":"210","CITY_NAME":"小金井市","S_NAME":"中町二丁目","SETAI":"2258"}},{"type":"Feature","geometry":{"type":"Polygon","coordinates":[[[139.51690672318054,35.70128030802724],[139.5122696260376,35.70114873583466],[139.5115016447665,35.69896190595029],[139.51076378890554,35.697220375110874],[139.51321239826385,35.69586930777451],[139.51395695477237,35.695659078922766],[139.51460044287538,35.697336048545885],[139.51520159537375,35.698327693875434],[139.51590348371144,35.699129363845714],[139.51628336502847,35.700162846240815],[139.51690672318054,35.70128030802724]]]},"properties":{"KEY_CODE":"13210005003","PREF":"13","CITY":"210","CITY_NAME":"小金井市","S_NAME":"中町三丁目","SETAI":"2041"}},{"type":"Feature","geometry":{"type":"Polygon","coordinates":[[[139.50871951797885,35.69334743872211],[139.50926349143367,35.694263436945],[139.50929766323017,35.69433577885363],[139.51008459639965,35.69615952460282],[139.5100442772704,35.69674346986649],[139.51035035499473,35.69739489086257],[139.50992235941226,35.69760503315388],[139.50633875845278,35.69874003947905],[139.50629895085189,35.69854163223434],[139.5062549948427,35.69796386838877],[139.50620546324973,35.69746735145487],[139.50547143749571,35.69509065827623],[139.505984247889,35.69390225538424],[139.50748525751615,35.69377059595542],[139.50871951797885,35.69334743872211]]]},"properties":{"KEY_CODE":"13210005004","PREF":"13","CITY":"210","CITY_NAME":"小金井市","S_NAME":"中町四丁目","SETAI":"1150"}},{"type":"Feature","geometry":{"type":"Polygon","coordinates":[[[139.51591383921817,35.690187771581556],[139.5131668085072,35.690786627097886],[139.51145263283476,35.690992748738736],[139.5098371275078,35.691366110571145],[139.5095200784528,35.69161559714473],[139.5068681569877,35.692762812363455],[139.50642940750973,35.69286232062253],[139.50840291257896,35.68875561622914],[139.5067632250622,35.6884892210425],[139.50585239664767,35.68751834518263],[139.5059432268587,35.687506866312845],[139.50621187371337,35.687192717721445],[139.50584286638266,35.68681395230345],[139.50685647942208,35.68632947589048],[139.51218097807129,35.68583681839081],[139.51221804315534,35.68583321976526],[139.51439157924494,35.685622322063615],[139.51473397961732,35.6880206069549],[139.51438695075623,35.688224184637505],[139.5149818756772,35.689522631898896],[139.51520069929717,35.690032656898694],[139.5159107924365,35.689839859533684],[139.51600811411657,35.690097004714744],[139.51591383921817,35.690187771581556]]]},"properties":{"KEY_CODE":"13210006001","PREF":"13","CITY":"210","CITY_NAME":"小金井市","S_NAME":"前原町一丁目","SETAI":"733"}},{"type":"Feature","geometry":{"type":"Polygon","coordinates":[[[139.51835425024635,35.69153270705543],[139.51780595810527,35.69182946066309],[139.51295555059505,35.693516984375506],[139.51145745402422,35.69357094312824],[139.5098572469679,35.693188644237004],[139.50871951797885,35.69334743872211],[139.50748525751615,35.69377059595542],[139.505984247889,35.69390225538424],[139.50642940750973,35.69286232062253],[139.5068681569877,35.692762812363455],[139.5095200784528,35.69161559714473],[139.5098371275078,35.691366110571145],[139.51145263283476,35.690992748738736],[139.5131668085072,35.690786627097886],[139.51591383921817,35.690187771581556],[139.51608017555853,35.69067364354847],[139.5165509283745,35.690639357109674],[139.51759890203758,35.690775414520594],[139.5182671144554,35.69141051443079],[139.51828888357824,35.69143384378431],[139.51835425024635,35.69153270705543]]]},"properties":{"KEY_CODE":"13210006002","PREF":"13","CITY":"210","CITY_NAME":"小金井市","S_NAME":"前原町二丁目","SETAI":"830"}},{"type":"Feature","geometry":{"type":"Polygon","coordinates":[[[139.50633875845278,35.69874003947905],[139.5007567274488,35.69921615529039],[139.49978430099972,35.69927141776175],[139.49926062616575,35.69934915107006],[139.49938055009386,35.697632923660116],[139.49914077854712,35.69718231731085],[139.49932933841325,35.69646795049931],[139.4996900398732,35.69647655640553],[139.49990606968976,35.69596873228852],[139.49908583976352,35.69578896752167],[139.49878529062633,35.696074770993654],[139.4987970152428,35.69427500682316],[139.49921364153536,35.69403561344746],[139.49917680306203,35.69323886207837],[139.49946097741693,35.69296424309026],[139.50013066259282,35.69303796086083],[139.5009150278853,35.69289872810938],[139.50171801990973,35.69361330084023],[139.50282190671527,35.69326607374737],[139.50403556420946,35.69332316593856],[139.50430186664119,35.69351346150725],[139.5045389760725,35.6935970982352],[139.50479118487533,35.693988154407116],[139.505984247889,35.69390225538424],[139.50547143749571,35.69509065827623],[139.50620546324973,35.69746735145487],[139.5062549948427,35.69796386838877],[139.50629895085189,35.69854163223434],[139.50633875845278,35.69874003947905]]]},"properties":{"KEY_CODE":"13210006003","PREF":"13","CITY":"210","CITY_NAME":"小金井市","S_NAME":"前原町三丁目","SETAI":"2327"}},{"type":"Feature","geometry":{"type":"Polygon","coordinates":[[[139.5055514625325,35.687194513158],[139.50564794980497,35.68729829175059],[139.50585239664767,35.68751834518263],[139.5067632250622,35.6884892210425],[139.50840291257896,35.68875561622914],[139.50642940750973,35.69286232062253],[139.505984247889,35.69390225538424],[139.50479118487533,35.693988154407116],[139.5045389760725,35.6935970982352],[139.50305890713165,35.69108718845456],[139.50265323411958,35.689598790737534],[139.50206809998332,35.68843481158956],[139.50122055548226,35.687500833920296],[139.50323337971508,35.687257192363084],[139.50198986483784,35.68514814556808],[139.50119317757282,35.685312174558916],[139.50079673460115,35.684256945644734],[139.5001061829858,35.68416493596341],[139.5019607705221,35.68380824229774],[139.50208856566675,35.68383721858087],[139.50212087765345,35.68386607355525],[139.5030453991899,35.684539879922355],[139.5040877035433,35.68562060092164],[139.50472355827569,35.686252868718],[139.5055514625325,35.687194513158]]]},"properties":{"KEY_CODE":"13210006004","PREF":"13","CITY":"210","CITY_NAME":"小金井市","S_NAME":"前原町四丁目","SETAI":"1923"}},{"type":"Feature","geometry":{"type":"Polygon","coordinates":[[[139.50403556420946,35.69332316593856],[139.50282190671527,35.69326607374737],[139.50171801990973,35.69361330084023],[139.5009150278853,35.69289872810938],[139.50013066259282,35.69303796086083],[139.49970922505304,35.69170365449396],[139.49874346396794,35.68947130393629],[139.49833748774716,35.68948105467811],[139.49845451997646,35.6889168319651],[139.49861339901722,35.68815981334125],[139.4979211005547,35.68831266750497],[139.49764042838328,35.68766121465043],[139.4976777002645,35.68720658819144],[139.4966922855061,35.68717795828899],[139.49675668781208,35.68740664728165],[139.49549605863888,35.68715577385489],[139.49542759293766,35.686776024998046],[139.49644374005263,35.68691044718985],[139.49752256084733,35.68672441995904],[139.49704208400067,35.68603579102002],[139.4977130972444,35.68597365290769],[139.49787276359672,35.685967947159185],[139.497983840225,35.68564995252617],[139.49870060958403,35.68563606644209],[139.49911980202512,35.68656063301373],[139.49999212656743,35.68732843393566],[139.50073329171897,35.68703479427134],[139.50122055548226,35.687500833920296],[139.50206809998332,35.68843481158956],[139.50265323411958,35.689598790737534],[139.50305890713165,35.69108718845456],[139.5045389760725,35.6935970982352],[139.50430186664119,35.69351346150725],[139.50403556420946,35.69332316593856]]]},"properties":{"KEY_CODE":"13210006005","PREF":"13","CITY":"210","CITY_NAME":"小金井市","S_NAME":"前原町五丁目","SETAI":"1164"}},{"type":"Feature","geometry":{"type":"Polygon","coordinates":[[[139.51076378890554,35.697220375110874],[139.5115016447665,35.69896190595029],[139.5122696260376,35.70114873583466],[139.51011129506026,35.7010955301141],[139.50721052282697,35.70100995934079],[139.5072102618582,35.70097334090053],[139.5072026000872,35.700374198205694],[139.50633875845278,35.69874003947905],[139.50992235941226,35.69760503315388],[139.51035035499473,35.69739489086257],[139.51076378890554,35.697220375110874]]]},"properties":{"KEY_CODE":"13210007001","PREF":"13","CITY":"210","CITY_NAME":"小金井市","S_NAME":"本町一丁目","SETAI":"2236"}},{"type":"Feature","geometry":{"type":"Polygon","coordinates":[[[139.51035415093423,35.70558315922786],[139.50969298609002,35.70559409162291],[139.50956822276123,35.70559058758508],[139.50919317599318,35.70558595038796],[139.5085884099781,35.70555474426566],[139.50786603701405,35.70552772150931],[139.50785649812286,35.70552741512186],[139.50722665008396,35.70204769318281],[139.50721052282697,35.70100995934079],[139.51011129506026,35.7010955301141],[139.51121115389876,35.703055205231415],[139.51113689662438,35.7030898284671],[139.51151914470023,35.70445204649197],[139.5115231674456,35.704530538944034],[139.51167654044997,35.70533111674917],[139.5115226215612,35.70556815759105],[139.51035415093423,35.70558315922786]]]},"properties":{"KEY_CODE":"13210007002","PREF":"13","CITY":"210","CITY_NAME":"小金井市","S_NAME":"本町二丁目","SETAI":"2128"}},{"type":"Feature","geometry":{"type":"Polygon","coordinates":[[[139.51212219241106,35.70816880923762],[139.510890961557,35.707765236803354],[139.51093496176168,35.709434049309934],[139.51058987095945,35.709259787430675],[139.50907389259456,35.70922646820675],[139.50797384433702,35.70920819831708],[139.50796306051222,35.70878651988867],[139.5079538865426,35.70862238495456],[139.50795072514234,35.70827963176025],[139.50798472532782,35.70653703670857],[139.50786603701405,35.70552772150931],[139.5085884099781,35.70555474426566],[139.50919317599318,35.70558595038796],[139.50956822276123,35.70559058758508],[139.50969298609002,35.70559409162291],[139.51035415093423,35.70558315922786],[139.5115226215612,35.70556815759105],[139.51217907751067,35.707892356451815],[139.51212646417616,35.70814780066173],[139.51212219241106,35.70816880923762]]]},"properties":{"KEY_CODE":"13210007003","PREF":"13","CITY":"210","CITY_NAME":"小金井市","S_NAME":"本町三丁目","SETAI":"1147"}},{"type":"Feature","geometry":{"type":"Polygon","coordinates":[[[139.50211984695764,35.70950375138964],[139.5007428016989,35.70960848396081],[139.50028130028113,35.70661841090775],[139.50086811567135,35.70650324507626],[139.5010317502389,35.706876740129545],[139.50155931702312,35.70673563399554],[139.50249043472488,35.706586411985214],[139.50381546999418,35.70600529288404],[139.50665499543143,35.705439303748996],[139.50785649812286,35.70552741512186],[139.50786603701405,35.70552772150931],[139.50798472532782,35.70653703670857],[139.50795072514234,35.70827963176025],[139.5079538865426,35.70862238495456],[139.50796306051222,35.70878651988867],[139.50592152670333,35.70890053334355],[139.5058766729402,35.708262646961344],[139.5044256941925,35.70837472039398],[139.50424684234108,35.70932507535216],[139.50211984695764,35.70950375138964]]]},"properties":{"KEY_CODE":"13210007004","PREF":"13","CITY":"210","CITY_NAME":"小金井市","S_NAME":"本町四丁目","SETAI":"1572"}},{"type":"Feature","geometry":{"type":"Polygon","coordinates":[[[139.50155931702312,35.70673563399554],[139.5010317502389,35.706876740129545],[139.50086811567135,35.70650324507626],[139.50028130028113,35.70661841090775],[139.50022230218138,35.70640237912349],[139.49985424484328,35.70365186257262],[139.499675420632,35.70300045118555],[139.4999310152546,35.70275064571968],[139.4993712517748,35.70078930844672],[139.50354802148286,35.70089103725048],[139.50404087934328,35.70090323131844],[139.5072102618582,35.70097334090053],[139.50721052282697,35.70100995934079],[139.50722665008396,35.70204769318281],[139.50785649812286,35.70552741512186],[139.50665499543143,35.705439303748996],[139.50381546999418,35.70600529288404],[139.50249043472488,35.706586411985214],[139.50155931702312,35.70673563399554]]]},"properties":{"KEY_CODE":"13210007005","PREF":"13","CITY":"210","CITY_NAME":"小金井市","S_NAME":"本町五丁目","SETAI":"3212"}},{"type":"Feature","geometry":{"type":"Polygon","coordinates":[[[139.5072102618582,35.70097334090053],[139.50404087934328,35.70090323131844],[139.50354802148286,35.70089103725048],[139.4993712517748,35.70078930844672],[139.49940277741393,35.700754855257856],[139.49926062616575,35.69934915107006],[139.49978430099972,35.69927141776175],[139.5007567274488,35.69921615529039],[139.50633875845278,35.69874003947905],[139.5072026000872,35.700374198205694],[139.5072102618582,35.70097334090053]]]},"properties":{"KEY_CODE":"13210007006","PREF":"13","CITY":"210","CITY_NAME":"小金井市","S_NAME":"本町六丁目","SETAI":"1572"}},{"type":"Feature","geometry":{"type":"Polygon","coordinates":[[[139.51212219241106,35.70816880923762],[139.51233759011427,35.709055955968054],[139.51265012306393,35.71136057282548],[139.51434264717784,35.71141098877101],[139.5144256796128,35.71258071597128],[139.51274522375988,35.712572269416356],[139.50803812281865,35.712509664485545],[139.50797384433702,35.70920819831708],[139.50907389259456,35.70922646820675],[139.51058987095945,35.709259787430675],[139.51093496176168,35.709434049309934],[139.510890961557,35.707765236803354],[139.51212219241106,35.70816880923762]]]},"properties":{"KEY_CODE":"13210008001","PREF":"13","CITY":"210","CITY_NAME":"小金井市","S_NAME":"桜町一丁目","SETAI":"1167"}},{"type":"Feature","geometry":{"type":"Polygon","coordinates":[[[139.50796306051222,35.70878651988867],[139.50797384433702,35.70920819831708],[139.50803812281865,35.712509664485545],[139.50328234508825,35.712498908830575],[139.50306514227293,35.711904685949904],[139.50277437023365,35.71110312174286],[139.5023923720581,35.71106122841283],[139.50221321297778,35.710288982479796],[139.50211984695764,35.70950375138964],[139.50424684234108,35.70932507535216],[139.5044256941925,35.70837472039398],[139.5058766729402,35.708262646961344],[139.50592152670333,35.70890053334355],[139.50796306051222,35.70878651988867]]]},"properties":{"KEY_CODE":"13210008002","PREF":"13","CITY":"210","CITY_NAME":"小金井市","S_NAME":"桜町二丁目","SETAI":"740"}},{"type":"Feature","geometry":{"type":"Polygon","coordinates":[[[139.50803812281865,35.712509664485545],[139.51274522375988,35.712572269416356],[139.51314379880628,35.714366918741774],[139.5131586625666,35.71699588093398],[139.50834050993868,35.71628490592744],[139.50803812281865,35.712509664485545]]]},"properties":{"KEY_CODE":"13210008003","PREF":"13","CITY":"210","CITY_NAME":"小金井市","S_NAME":"桜町三丁目","SETAI":"233"}},{"type":"Feature","geometry":{"type":"Polygon","coordinates":[[[139.4993712517748,35.70078930844672],[139.4999310152546,35.70275064571968],[139.499675420632,35.70300045118555],[139.4969315517208,35.703699248368714],[139.4936039206958,35.70409438465494],[139.4924505975215,35.701894697973394],[139.49184020282073,35.700575156199186],[139.49940277741393,35.700754855257856],[139.4993712517748,35.70078930844672]]]},"properties":{"KEY_CODE":"13210009001","PREF":"13","CITY":"210","CITY_NAME":"小金井市","S_NAME":"貫井北町一丁目","SETAI":"1081"}},{"type":"Feature","geometry":{"type":"Polygon","coordinates":[[[139.499675420632,35.70300045118555],[139.49985424484328,35.70365186257262],[139.50022230218138,35.70640237912349],[139.49899496135666,35.70690260786841],[139.4976364166081,35.70702680962524],[139.49595613841583,35.708347511701646],[139.49589255596402,35.70783382315776],[139.49591755740704,35.70711534093853],[139.4969315517208,35.703699248368714],[139.499675420632,35.70300045118555]]]},"properties":{"KEY_CODE":"13210009002","PREF":"13","CITY":"210","CITY_NAME":"小金井市","S_NAME":"貫井北町二丁目","SETAI":"1146"}},{"type":"Feature","geometry":{"type":"Polygon","coordinates":[[[139.50211984695764,35.70950375138964],[139.50221321297778,35.710288982479796],[139.5023923720581,35.71106122841283],[139.50277437023365,35.71110312174286],[139.50306514227293,35.711904685949904],[139.50328234508825,35.712498908830575],[139.50189099072233,35.71252339140121],[139.50051542414243,35.712628458613565],[139.49902659880567,35.712954257564824],[139.4974063220881,35.71326513028089],[139.49665637616232,35.71339913480983],[139.49616693497416,35.713490997806005],[139.4957231655142,35.71061667850358],[139.4955738071642,35.70976475812214],[139.49311327251442,35.71024822195672],[139.4928643726795,35.70890322567021],[139.49207629138957,35.70904906596759],[139.49193949106282,35.70823791320971],[139.49589255596402,35.70783382315776],[139.49595613841583,35.708347511701646],[139.4976364166081,35.70702680962524],[139.49899496135666,35.70690260786841],[139.50022230218138,35.70640237912349],[139.50028130028113,35.70661841090775],[139.5007428016989,35.70960848396081],[139.50211984695764,35.70950375138964]]]},"properties":{"KEY_CODE":"13210009003","PREF":"13","CITY":"210","CITY_NAME":"小金井市","S_NAME":"貫井北町三丁目","SETAI":"2510"}},{"type":"Feature","geometry":{"type":"Polygon","coordinates":[[[139.49193949106282,35.70823791320971],[139.4868906935627,35.708563517029255],[139.48568013470233,35.70863257493764],[139.48766505476522,35.70657138318091],[139.4873554062826,35.70447768656388],[139.49206989103632,35.70391121641265],[139.49215524269204,35.7043342163485],[139.4936039206958,35.70409438465494],[139.4969315517208,35.703699248368714],[139.49591755740704,35.70711534093853],[139.49589255596402,35.70783382315776],[139.49193949106282,35.70823791320971]]]},"properties":{"KEY_CODE":"13210009004","PREF":"13","CITY":"210","CITY_NAME":"小金井市","S_NAME":"貫井北町四丁目","SETAI":"104"}},{"type":"Feature","geometry":{"type":"Polygon","coordinates":[[[139.4936039206958,35.70409438465494],[139.49215524269204,35.7043342163485],[139.49206989103632,35.70391121641265],[139.4873554062826,35.70447768656388],[139.48766505476522,35.70657138318091],[139.48677200254872,35.70406765005332],[139.4855816106113,35.70462756511508],[139.48446719067894,35.70250847398141],[139.4862959462078,35.70183852034528],[139.48682017797276,35.702302045581234],[139.4880837445448,35.70194052245296],[139.48790515675347,35.701587953327376],[139.4881897485601,35.70119748939447],[139.48868234357192,35.70071885856933],[139.488683437799,35.70056478676337],[139.49005024384078,35.70052517484131],[139.49184020282073,35.700575156199186],[139.4924505975215,35.701894697973394],[139.4936039206958,35.70409438465494]]]},"properties":{"KEY_CODE":"13210009005","PREF":"13","CITY":"210","CITY_NAME":"小金井市","S_NAME":"貫井北町五丁目","SETAI":"1225"}},{"type":"Feature","geometry":{"type":"Polygon","coordinates":[[[139.49845451997646,35.6889168319651],[139.49833748774716,35.68948105467811],[139.49874346396794,35.68947130393629],[139.49970922505304,35.69170365449396],[139.49804592187724,35.69197250836578],[139.49764676517603,35.692056532225926],[139.49690547328024,35.692248220003876],[139.49454775300617,35.693125369077976],[139.49386053361295,35.69226566355698],[139.49295927427542,35.69077154405543],[139.49223377332115,35.689819261263686],[139.49213193898763,35.689652080413644],[139.49582955953167,35.6888421495189],[139.49575042708315,35.68804806079245],[139.4959678477261,35.6880049741515],[139.4962205673571,35.68857825718874],[139.49703224816383,35.6883793036583],[139.49684083944607,35.687916820976824],[139.4974546085771,35.68773354479865],[139.49764042838328,35.68766121465043],[139.4979211005547,35.68831266750499],[139.49861339901716,35.68815981334125],[139.49845451997646,35.6889168319651]]]},"properties":{"KEY_CODE":"13210010001","PREF":"13","CITY":"210","CITY_NAME":"小金井市","S_NAME":"貫井南町一丁目","SETAI":"1167"}},{"type":"Feature","geometry":{"type":"Polygon","coordinates":[[[139.49938055009386,35.697632923660116],[139.49809251609693,35.69772204737194],[139.49711744453788,35.6965859033169],[139.49653401685026,35.695485425619914],[139.49615860576128,35.695044853994986],[139.49454775300617,35.693125369077976],[139.49690547328024,35.692248220003876],[139.49764676517603,35.692056532225926],[139.49804592187724,35.69197250836578],[139.49970922505304,35.69170365449396],[139.50013066259282,35.69303796086083],[139.49946097741693,35.69296424309026],[139.49917680306203,35.69323886207837],[139.49921364153536,35.69403561344746],[139.4987970152428,35.69427500682316],[139.49878529062633,35.696074770993654],[139.49908583976352,35.69578896752167],[139.49990606968976,35.69596873228852],[139.4996900398732,35.69647655640553],[139.49932933841325,35.69646795049931],[139.49914077854712,35.69718231731085],[139.49938055009386,35.697632923660116]]]},"properties":{"KEY_CODE":"13210010002","PREF":"13","CITY":"210","CITY_NAME":"小金井市","S_NAME":"貫井南町二丁目","SETAI":"822"}},{"type":"Feature","geometry":{"type":"Polygon","coordinates":[[[139.49940277741393,35.700754855257856],[139.49184020282073,35.700575156199186],[139.49005024384078,35.70052517484131],[139.49125545764787,35.700354460346524],[139.49167305404987,35.70002679086299],[139.4915546615396,35.69836109365426],[139.49134250643266,35.69790220707817],[139.49260098105404,35.69821931274862],[139.49427011247698,35.69805618184465],[139.49820284799387,35.69799917099562],[139.49809251609693,35.69772204737194],[139.49938055009386,35.697632923660116],[139.49926062616575,35.69934915107006],[139.49940277741393,35.700754855257856]]]},"properties":{"KEY_CODE":"13210010003","PREF":"13","CITY":"210","CITY_NAME":"小金井市","S_NAME":"貫井南町三丁目","SETAI":"1380"}},{"type":"Feature","geometry":{"type":"Polygon","coordinates":[[[139.49809251609693,35.69772204737194],[139.49820284799387,35.69799917099562],[139.49427011247698,35.69805618184465],[139.49260098105404,35.69821931274862],[139.49134250643266,35.69790220707817],[139.49135869941549,35.69745579916495],[139.48976883219964,35.69538836421033],[139.48910730279502,35.69423829989267],[139.49005630978417,35.69399528194934],[139.49321991950538,35.69347537624913],[139.49454775300617,35.693125369077976],[139.49615860576128,35.695044853994986],[139.49653401685026,35.695485425619914],[139.49711744453788,35.6965859033169],[139.49809251609693,35.69772204737194]]]},"properties":{"KEY_CODE":"13210010004","PREF":"13","CITY":"210","CITY_NAME":"小金井市","S_NAME":"貫井南町四丁目","SETAI":"1505"}},{"type":"Feature","geometry":{"type":"Polygon","coordinates":[[[139.49223377332115,35.689819261263686],[139.49295927427542,35.69077154405543],[139.49386053361295,35.69226566355698],[139.49454775300617,35.693125369077976],[139.49321991950538,35.69347537624913],[139.49005630978417,35.69399528194934],[139.48910730279502,35.69423829989267],[139.4877301186579,35.691966452245566],[139.48831851270515,35.6919550759825],[139.48860050200062,35.69247698165312],[139.48932256236955,35.69250689677724],[139.48898676960144,35.69097601971374],[139.49057682578226,35.69054339379174],[139.49049282706858,35.690142190379234],[139.49223377332115,35.689819261263686]]]},"properties":{"KEY_CODE":"13210010005","PREF":"13","CITY":"210","CITY_NAME":"小金井市","S_NAME":"貫井南町五丁目","SETAI":"1168"}}]}