{"type":"FeatureCollection","features":[{"type":"Feature","geometry":{"type":"Polygon","coordinates":[[[139.54403710970246,35.71413932826671],[139.54467441237037,35.714369080416766],[139.54767136362815,35.715734883379774],[139.54920636971246,35.71655462180332],[139.54923692854445,35.7165688830792],[139.54931432006214,35.71908768462992],[139.54759960346092,35.71901902661913],[139.54634520282016,35.71872182331471],[139.5435789319426,35.71765166492589],[139.54379729477301,35.71631010347791],[139.54401541417178,35.71412778045182],[139.54403710970246,35.71413932826671]]]},"properties":{"KEY_CODE":"13229001001","PREF":"13","CITY":"229","CITY_NAME":"西東京市","S_NAME":"新町一丁目","SETAI":"1149"}},{"type":"Feature","geometry":{"type":"Polygon","coordinates":[[[139.54401541417178,35.71412778045182],[139.54379729477301,35.71631010347791],[139.5435789319426,35.71765166492589],[139.54354404013907,35.71762994508926],[139.54126976826126,35.716790232732535],[139.5412844698759,35.71619965218743],[139.54169923831068,35.71621188714733],[139.5417430765232,35.71493617224036],[139.5413530528277,35.7148180694773],[139.54145597320414,35.713336663935564],[139.5416993484344,35.71315564281169],[139.54401541417178,35.71412778045182]]]},"properties":{"KEY_CODE":"13229001002","PREF":"13","CITY":"229","CITY_NAME":"西東京市","S_NAME":"新町二丁目","SETAI":"315"}},{"type":"Feature","geometry":{"type":"Polygon","coordinates":[[[139.54126976826126,35.716790232732535],[139.54039106405796,35.71643865207805],[139.538811019148,35.71603305080921],[139.53815505564933,35.71595277293848],[139.53704050758117,35.71616275712425],[139.53402578588287,35.71645477011733],[139.53700752994968,35.71517826408135],[139.5416993484344,35.71315564281169],[139.54145597320414,35.713336663935564],[139.5413530528277,35.7148180694773],[139.5417430765232,35.71493617224036],[139.54169923831068,35.71621188714733],[139.5412844698759,35.71619965218743],[139.54126976826126,35.716790232732535]]]},"properties":{"KEY_CODE":"13229001003","PREF":"13","CITY":"229","CITY_NAME":"西東京市","S_NAME":"新町三丁目","SETAI":"409"}},{"type":"Feature","geometry":{"type":"Polygon","coordinates":[[[139.53681655873055,35.71088098963374],[139.5367934381317,35.71113790726299],[139.53777524547064,35.71111061675373],[139.54029372905575,35.71249201274541],[139.5416993484344,35.71315564281169],[139.53700752994968,35.71517826408135],[139.53675610453135,35.71232697142428],[139.53650863926032,35.71097512114963],[139.53681655873055,35.71088098963374]]]},"properties":{"KEY_CODE":"13229001004","PREF":"13","CITY":"229","CITY_NAME":"西東京市","S_NAME":"新町四丁目","SETAI":"563"}},{"type":"Feature","geometry":{"type":"Polygon","coordinates":[[[139.53650863926032,35.71097512114963],[139.53675610453135,35.71232697142428],[139.53700752994968,35.71517826408135],[139.53402578588287,35.71645477011733],[139.53361098599024,35.71649755863175],[139.53268452681692,35.716570142644336],[139.53219475762756,35.712155316479205],[139.53354068858528,35.71181110012808],[139.53650863926032,35.71097512114963]]]},"properties":{"KEY_CODE":"13229001005","PREF":"13","CITY":"229","CITY_NAME":"西東京市","S_NAME":"新町五丁目","SETAI":"1196"}},{"type":"Feature","geometry":{"type":"Polygon","coordinates":[[[139.53219475762756,35.712155316479205],[139.53268452681692,35.716570142644336],[139.53116083153094,35.71673123708045],[139.53043251683928,35.717315008653486],[139.52983367528878,35.71762526166591],[139.52926242796957,35.7123484811979],[139.53219475762756,35.712155316479205]]]},"properties":{"KEY_CODE":"13229001006","PREF":"13","CITY":"229","CITY_NAME":"西東京市","S_NAME":"新町六丁目","SETAI":"493"}},{"type":"Feature","geometry":{"type":"Polygon","coordinates":[[[139.55516119225751,35.72891129127379],[139.55272409599107,35.728678104590635],[139.55295065338447,35.72751222315411],[139.5528626898716,35.726142769811496],[139.5527057567969,35.72580455518315],[139.55666617359648,35.724887160602336],[139.55754386706997,35.724604206172216],[139.55756925452172,35.724616921937546],[139.55738749575005,35.72526088656275],[139.55661816768017,35.72625029712343],[139.55564886916702,35.72837845236166],[139.55516119225751,35.72891129127379]]]},"properties":{"KEY_CODE":"13229002001","PREF":"13","CITY":"229","CITY_NAME":"西東京市","S_NAME":"柳沢一丁目","SETAI":"917"}},{"type":"Feature","geometry":{"type":"Polygon","coordinates":[[[139.5574655440401,35.722352046157766],[139.55754386706997,35.724604206172216],[139.55666617359648,35.724887160602336],[139.5527057567969,35.72580455518315],[139.55215745812484,35.72596759889582],[139.55175217306217,35.72434048298173],[139.55181148459835,35.722843986026504],[139.55339523644972,35.72254570071085],[139.5574655440401,35.722352046157766]]]},"properties":{"KEY_CODE":"13229002002","PREF":"13","CITY":"229","CITY_NAME":"西東京市","S_NAME":"柳沢二丁目","SETAI":"1299"}},{"type":"Feature","geometry":{"type":"Polygon","coordinates":[[[139.5574655440401,35.722352046157766],[139.55339523644972,35.72254570071085],[139.55181148459835,35.722843986026504],[139.55141375149682,35.72134666652728],[139.5513513565128,35.719476631366014],[139.55224160870844,35.719428519090265],[139.5524193454747,35.71887447624464],[139.55303326311304,35.71932666965564],[139.55483088461213,35.72061079424647],[139.55724943490324,35.72147278322244],[139.5573522013899,35.72148990068068],[139.5574655440401,35.722352046157766]]]},"properties":{"KEY_CODE":"13229002003","PREF":"13","CITY":"229","CITY_NAME":"西東京市","S_NAME":"柳沢三丁目","SETAI":"1048"}},{"type":"Feature","geometry":{"type":"Polygon","coordinates":[[[139.54923692854445,35.7165688830792],[139.55063728539824,35.71739450182525],[139.5524193454747,35.71887447624464],[139.55224160870844,35.719428519090265],[139.5513513565128,35.719476631366014],[139.55141375149682,35.72134666652728],[139.54935214542388,35.72165492787951],[139.54931432006214,35.71908768462992],[139.54923692854445,35.7165688830792]]]},"properties":{"KEY_CODE":"13229002004","PREF":"13","CITY":"229","CITY_NAME":"西東京市","S_NAME":"柳沢四丁目","SETAI":"150"}},{"type":"Feature","geometry":{"type":"Polygon","coordinates":[[[139.55181148459835,35.722843986026504],[139.55175217306217,35.72434048298173],[139.55215745812484,35.72596759889582],[139.55131950462692,35.726224358629466],[139.5493189564136,35.727181259199085],[139.54910115667533,35.72616284988858],[139.54930145032412,35.724260707918255],[139.5493573249164,35.72174041086772],[139.54935214542388,35.72165492787951],[139.55141375149682,35.72134666652728],[139.55181148459835,35.722843986026504]]]},"properties":{"KEY_CODE":"13229002005","PREF":"13","CITY":"229","CITY_NAME":"西東京市","S_NAME":"柳沢五丁目","SETAI":"1197"}},{"type":"Feature","geometry":{"type":"Polygon","coordinates":[[[139.5527057567969,35.72580455518315],[139.5528626898716,35.726142769811496],[139.55295065338447,35.72751222315411],[139.55272409599107,35.728678104590635],[139.54987215211247,35.728453065876934],[139.54839005492857,35.728396950593805],[139.54840219824575,35.72837608270721],[139.5487571335254,35.727572305364326],[139.5493189564136,35.727181259199085],[139.55131950462692,35.726224358629466],[139.55215745812484,35.72596759889582],[139.5527057567969,35.72580455518315]]]},"properties":{"KEY_CODE":"13229002006","PREF":"13","CITY":"229","CITY_NAME":"西東京市","S_NAME":"柳沢六丁目","SETAI":"828"}},{"type":"Feature","geometry":{"type":"Polygon","coordinates":[[[139.5603971541305,35.7291691083152],[139.55773333150321,35.7291689449224],[139.5562729239577,35.72901023703032],[139.55516709154554,35.72891641020762],[139.55516119225751,35.72891129127379],[139.55564886916702,35.72837845236166],[139.55661816768017,35.72625029712343],[139.55738749575005,35.72526088656275],[139.55832838578405,35.726081104587514],[139.55865456752716,35.726154484661826],[139.55857571553935,35.72642025705317],[139.5589868155325,35.7273917696081],[139.56113223838733,35.72909399648974],[139.5603971541305,35.7291691083152]]]},"properties":{"KEY_CODE":"13229003001","PREF":"13","CITY":"229","CITY_NAME":"西東京市","S_NAME":"東伏見一丁目","SETAI":"175"}},{"type":"Feature","geometry":{"type":"Polygon","coordinates":[[[139.56250145312225,35.72572312417999],[139.56328359396895,35.72670783191467],[139.56326709328027,35.72706736909692],[139.5641782813229,35.72816712521249],[139.56502960831978,35.72872488792162],[139.56249947698439,35.728964091315376],[139.56113223838733,35.72909399648974],[139.5589868155325,35.7273917696081],[139.55857571553935,35.72642025705317],[139.55865456752716,35.726154484661826],[139.56042692240294,35.72652047753332],[139.56158430253677,35.72647524245838],[139.56250145312225,35.72572312417999]]]},"properties":{"KEY_CODE":"13229003002","PREF":"13","CITY":"229","CITY_NAME":"西東京市","S_NAME":"東伏見二丁目","SETAI":"577"}},{"type":"Feature","geometry":{"type":"Polygon","coordinates":[[[139.5656702609629,35.723118220528754],[139.56538760940225,35.72430718923764],[139.56610668043245,35.72625696588631],[139.56618422666028,35.727363112793185],[139.56685771359048,35.72850013554338],[139.56687054587468,35.72854947437694],[139.56502960831978,35.72872488792162],[139.5641782813229,35.72816712521249],[139.56326709328027,35.72706736909692],[139.56328359396895,35.72670783191467],[139.56250145312225,35.72572312417999],[139.56255967382555,35.725195609546844],[139.5621455668474,35.724559962843955],[139.56198465415486,35.72384402674358],[139.5634257790045,35.72340279579257],[139.5656702609629,35.723118220528754]]]},"properties":{"KEY_CODE":"13229003003","PREF":"13","CITY":"229","CITY_NAME":"西東京市","S_NAME":"東伏見三丁目","SETAI":"394"}},{"type":"Feature","geometry":{"type":"Polygon","coordinates":[[[139.56538097436405,35.72148071668625],[139.5656038562465,35.721814695589984],[139.565685214819,35.723049190203305],[139.5656702609629,35.723118220528754],[139.5634257790045,35.72340279579257],[139.56198465415486,35.72384402674358],[139.56089661063498,35.72422567047443],[139.5603671576355,35.72187471553915],[139.5621303401372,35.72180616234553],[139.56538097436405,35.72148071668625]]]},"properties":{"KEY_CODE":"13229003004","PREF":"13","CITY":"229","CITY_NAME":"西東京市","S_NAME":"東伏見四丁目","SETAI":"654"}},{"type":"Feature","geometry":{"type":"Polygon","coordinates":[[[139.56089661063498,35.72422567047443],[139.56022067504884,35.72444807154947],[139.55816161083527,35.724455767087086],[139.55756925452172,35.724616921937546],[139.55754386706997,35.724604206172216],[139.5574655440401,35.722352046157766],[139.5573522013899,35.72148990068068],[139.5603671576355,35.72187471553915],[139.56089661063498,35.72422567047443]]]},"properties":{"KEY_CODE":"13229003005","PREF":"13","CITY":"229","CITY_NAME":"西東京市","S_NAME":"東伏見五丁目","SETAI":"726"}},{"type":"Feature","geometry":{"type":"Polygon","coordinates":[[[139.56250145312225,35.72572312417999],[139.56158430253677,35.72647524245838],[139.56042692240294,35.72652047753332],[139.55865456752716,35.726154484661826],[139.55832838578405,35.726081104587514],[139.55738749575005,35.72526088656275],[139.55756925452172,35.724616921937546],[139.55816161083527,35.724455767087086],[139.56022067504884,35.72444807154947],[139.56089661063498,35.72422567047443],[139.56198465415486,35.72384402674358],[139.5621455668474,35.724559962843955],[139.56255967382555,35.725195609546844],[139.56250145312225,35.72572312417999]]]},"properties":{"KEY_CODE":"13229003006","PREF":"13","CITY":"229","CITY_NAME":"西東京市","S_NAME":"東伏見六丁目","SETAI":"275"}},{"type":"Feature","geometry":{"type":"Polygon","coordinates":[[[139.55644976018976,35.73542190244775],[139.55635254473472,35.73626534129325],[139.55601766644034,35.736901204326855],[139.55516542093844,35.73754356400896],[139.55473766272235,35.738289551570105],[139.55457250041619,35.73852468249871],[139.55346910705816,35.73738077294539],[139.55399915040806,35.73644454500456],[139.55465645403655,35.73204517885679],[139.55465766817898,35.732037541291646],[139.55698971361628,35.732030270689314],[139.55717593818895,35.73269266379601],[139.5576682390474,35.73326989967542],[139.55741744390775,35.73446247056783],[139.55659338985168,35.734430374943415],[139.55644976018976,35.73542190244775]]]},"properties":{"KEY_CODE":"13229004001","PREF":"13","CITY":"229","CITY_NAME":"西東京市","S_NAME":"保谷町一丁目","SETAI":"687"}},{"type":"Feature","geometry":{"type":"Polygon","coordinates":[[[139.55698971361628,35.732030270689314],[139.55465766817898,35.732037541291646],[139.55454621640618,35.72974621008046],[139.55516709154554,35.72891641020762],[139.5562729239577,35.72901023703032],[139.55631322955514,35.73041990825865],[139.55698971361628,35.732030270689314]]]},"properties":{"KEY_CODE":"13229004002","PREF":"13","CITY":"229","CITY_NAME":"西東京市","S_NAME":"保谷町二丁目","SETAI":"555"}},{"type":"Feature","geometry":{"type":"Polygon","coordinates":[[[139.55516709154554,35.72891641020762],[139.55454621640618,35.72974621008046],[139.55465766817898,35.732037541291646],[139.55465645403655,35.73204517885679],[139.55049390925126,35.73183794240409],[139.55036707377002,35.73140170356364],[139.55055803040193,35.7293193228308],[139.54987215211247,35.728453065876934],[139.55272409599107,35.728678104590635],[139.55516119225751,35.72891129127379],[139.55516709154554,35.72891641020762]]]},"properties":{"KEY_CODE":"13229004003","PREF":"13","CITY":"229","CITY_NAME":"西東京市","S_NAME":"保谷町三丁目","SETAI":"1475"}},{"type":"Feature","geometry":{"type":"Polygon","coordinates":[[[139.54987215211247,35.728453065876934],[139.55055803040193,35.7293193228308],[139.55036707377002,35.73140170356364],[139.55049390925126,35.73183794240409],[139.5465711813107,35.731461318708554],[139.54655428230802,35.731459430029894],[139.54604219581157,35.73124058347183],[139.54597048691303,35.7308398743293],[139.54679643239544,35.730662908567325],[139.5469342257661,35.73025553107536],[139.5475774409457,35.730244178339426],[139.54751485219418,35.72968927036048],[139.54839005492857,35.728396950593805],[139.54987215211247,35.728453065876934]]]},"properties":{"KEY_CODE":"13229004004","PREF":"13","CITY":"229","CITY_NAME":"西東京市","S_NAME":"保谷町四丁目","SETAI":"822"}},{"type":"Feature","geometry":{"type":"Polygon","coordinates":[[[139.55049390925126,35.73183794240409],[139.55048704376102,35.73307020790009],[139.55097696148417,35.735353502339485],[139.55105828117618,35.7369358114253],[139.54952196738964,35.73621964306762],[139.54808157435542,35.73621060830339],[139.5481600748227,35.73592285407366],[139.54676739581168,35.73579674090292],[139.5465711813107,35.731461318708554],[139.55049390925126,35.73183794240409]]]},"properties":{"KEY_CODE":"13229004005","PREF":"13","CITY":"229","CITY_NAME":"西東京市","S_NAME":"保谷町五丁目","SETAI":"1371"}},{"type":"Feature","geometry":{"type":"Polygon","coordinates":[[[139.55465645403655,35.73204517885679],[139.55399915040806,35.73644454500456],[139.55346910705816,35.73738077294539],[139.5534236398909,35.73740327150368],[139.5529240868651,35.73763945322178],[139.55219624621722,35.73723181511433],[139.55100255391966,35.73720388477525],[139.55105828117618,35.7369358114253],[139.55097696148417,35.735353502339485],[139.55048704376102,35.73307020790009],[139.55049390925126,35.73183794240409],[139.55465645403655,35.73204517885679]]]},"properties":{"KEY_CODE":"13229004006","PREF":"13","CITY":"229","CITY_NAME":"西東京市","S_NAME":"保谷町六丁目","SETAI":"1588"}},{"type":"Feature","geometry":{"type":"Polygon","coordinates":[[[139.5593862074079,35.73541421384792],[139.55644976018976,35.73542190244775],[139.55659338985168,35.734430374943415],[139.55741744390775,35.73446247056783],[139.5576682390474,35.73326989967542],[139.55717593818895,35.73269266379601],[139.55698971361628,35.732030270689314],[139.55891289485908,35.732020757150885],[139.56182646761522,35.73202200555456],[139.56342613991146,35.73248741928001],[139.56240070187815,35.73393492482869],[139.5622895856051,35.73534450082122],[139.56029571720123,35.73525343663332],[139.5593862074079,35.73541421384792]]]},"properties":{"KEY_CODE":"13229005001","PREF":"13","CITY":"229","CITY_NAME":"西東京市","S_NAME":"富士町一丁目","SETAI":"1573"}},{"type":"Feature","geometry":{"type":"Polygon","coordinates":[[[139.56944874639746,35.73402656655001],[139.5676214154781,35.73580170383939],[139.56638810809588,35.7356026515457],[139.56230974993994,35.735345285029474],[139.5622895856051,35.73534450082122],[139.56240070187815,35.73393492482869],[139.56342613991146,35.73248741928001],[139.56538682952464,35.73308513968617],[139.56811123780304,35.733703982779026],[139.56944874639746,35.73402656655001]]]},"properties":{"KEY_CODE":"13229005002","PREF":"13","CITY":"229","CITY_NAME":"西東京市","S_NAME":"富士町二丁目","SETAI":"883"}},{"type":"Feature","geometry":{"type":"Polygon","coordinates":[[[139.56876178350674,35.73260375368452],[139.56944874639746,35.73402656655001],[139.56811123780304,35.733703982779026],[139.56538682952464,35.73308513968617],[139.56342613991146,35.73248741928001],[139.56182646761522,35.73202200555456],[139.56193329175804,35.73201668204908],[139.568314343595,35.73153624869757],[139.56876178350674,35.73260375368452]]]},"properties":{"KEY_CODE":"13229005003","PREF":"13","CITY":"229","CITY_NAME":"西東京市","S_NAME":"富士町三丁目","SETAI":"558"}},{"type":"Feature","geometry":{"type":"Polygon","coordinates":[[[139.56687054587468,35.72854947437694],[139.568314343595,35.73153624869757],[139.56193329175804,35.73201668204908],[139.5619479037097,35.730888321614025],[139.56228763762795,35.73078723437169],[139.56206310081507,35.7298212103331],[139.56254876982436,35.72978608927162],[139.56249947698439,35.728964091315376],[139.56502960831978,35.72872488792162],[139.56687054587468,35.72854947437694]]]},"properties":{"KEY_CODE":"13229005004","PREF":"13","CITY":"229","CITY_NAME":"西東京市","S_NAME":"富士町四丁目","SETAI":"1767"}},{"type":"Feature","geometry":{"type":"Polygon","coordinates":[[[139.56182646761522,35.73202200555456],[139.55891289485908,35.732020757150885],[139.56041380793386,35.729691772267024],[139.5603971541305,35.7291691083152],[139.56113223838733,35.72909399648974],[139.56249947698439,35.728964091315376],[139.56254876982436,35.72978608927162],[139.56206310081507,35.7298212103331],[139.56228763762795,35.73078723437169],[139.5619479037097,35.730888321614025],[139.56193329175804,35.73201668204908],[139.56182646761522,35.73202200555456]]]},"properties":{"KEY_CODE":"13229005005","PREF":"13","CITY":"229","CITY_NAME":"西東京市","S_NAME":"富士町五丁目","SETAI":"588"}},{"type":"Feature","geometry":{"type":"Polygon","coordinates":[[[139.55891289485908,35.732020757150885],[139.55698971361628,35.732030270689314],[139.55631322955514,35.73041990825865],[139.5562729239577,35.72901023703032],[139.55773333150321,35.7291689449224],[139.5603971541305,35.7291691083152],[139.56041380793386,35.729691772267024],[139.55891289485908,35.732020757150885]]]},"properties":{"KEY_CODE":"13229005006","PREF":"13","CITY":"229","CITY_NAME":"西東京市","S_NAME":"富士町六丁目","SETAI":"730"}},{"type":"Feature","geometry":{"type":"Polygon","coordinates":[[[139.5597242232719,35.73910379751985],[139.5596777126764,35.74000627510063],[139.56004718891637,35.74048870243259],[139.5602638328437,35.741571658848635],[139.56023700999484,35.741895327085416],[139.55930102200105,35.74195951666609],[139.55933699533966,35.74226910311],[139.5585972000631,35.742535270501754],[139.55834169501193,35.74228509056572],[139.55457250041619,35.73852468249871],[139.55473766272235,35.738289551570105],[139.55671756844416,35.738936765450006],[139.55966088534154,35.73873916998029],[139.5597242232719,35.73910379751985]]]},"properties":{"KEY_CODE":"13229006001","PREF":"13","CITY":"229","CITY_NAME":"西東京市","S_NAME":"中町一丁目","SETAI":"329"}},{"type":"Feature","geometry":{"type":"Polygon","coordinates":[[[139.56290990399066,35.741566822832304],[139.56251590771885,35.74226126341923],[139.56228074137192,35.74266531971147],[139.56062705202328,35.744552325097416],[139.56034826157583,35.744281587872855],[139.5585972000631,35.742535270501754],[139.55933699533966,35.74226910311],[139.55930102200105,35.74195951666609],[139.56023700999484,35.741895327085416],[139.5602638328437,35.741571658848635],[139.5613232264955,35.741500506213924],[139.5613423188355,35.74130890673818],[139.56290990399066,35.741566822832304]]]},"properties":{"KEY_CODE":"13229006002","PREF":"13","CITY":"229","CITY_NAME":"西東京市","S_NAME":"中町二丁目","SETAI":"475"}},{"type":"Feature","geometry":{"type":"Polygon","coordinates":[[[139.56290990399066,35.741566822832304],[139.5613423188355,35.74130890673818],[139.5613232264955,35.741500506213924],[139.5602638328437,35.741571658848635],[139.56004718891637,35.74048870243259],[139.5596777126764,35.74000627510063],[139.5597242232719,35.73910379751985],[139.5636429139566,35.73861052104478],[139.56549916138377,35.73836890453829],[139.5649461017443,35.738961878870775],[139.56290990399066,35.741566822832304]]]},"properties":{"KEY_CODE":"13229006003","PREF":"13","CITY":"229","CITY_NAME":"西東京市","S_NAME":"中町三丁目","SETAI":"539"}},{"type":"Feature","geometry":{"type":"Polygon","coordinates":[[[139.5660452790214,35.737816085574096],[139.56549916138377,35.73836890453829],[139.5636429139566,35.73861052104478],[139.56383452893738,35.73756550536755],[139.5629954463748,35.737518187620054],[139.562702075827,35.73601554568369],[139.5622062617013,35.73597474951954],[139.56230974993994,35.735345285029474],[139.56638810809588,35.7356026515457],[139.5676214154781,35.73580170383939],[139.56734059701947,35.736162365720226],[139.56635018075843,35.73757276298354],[139.5660452790214,35.737816085574096]]]},"properties":{"KEY_CODE":"13229006004","PREF":"13","CITY":"229","CITY_NAME":"西東京市","S_NAME":"中町四丁目","SETAI":"527"}},{"type":"Feature","geometry":{"type":"Polygon","coordinates":[[[139.5636429139566,35.73861052104478],[139.5597242232719,35.73910379751985],[139.55966088534154,35.73873916998029],[139.55931083834489,35.73730820173825],[139.5593862074079,35.73541421384792],[139.56029571720123,35.73525343663332],[139.5622895856051,35.73534450082122],[139.56230974993994,35.735345285029474],[139.5622062617013,35.73597474951954],[139.562702075827,35.73601554568369],[139.5629954463748,35.737518187620054],[139.56383452893738,35.73756550536755],[139.5636429139566,35.73861052104478]]]},"properties":{"KEY_CODE":"13229006005","PREF":"13","CITY":"229","CITY_NAME":"西東京市","S_NAME":"中町五丁目","SETAI":"712"}},{"type":"Feature","geometry":{"type":"Polygon","coordinates":[[[139.55966088534154,35.73873916998029],[139.55671756844416,35.738936765450006],[139.55473766272235,35.738289551570105],[139.55516542093844,35.73754356400896],[139.55601766644034,35.736901204326855],[139.55635254473472,35.73626534129325],[139.55644976018976,35.73542190244775],[139.5593862074079,35.73541421384792],[139.55931083834489,35.73730820173825],[139.55966088534154,35.73873916998029]]]},"properties":{"KEY_CODE":"13229006006","PREF":"13","CITY":"229","CITY_NAME":"西東京市","S_NAME":"中町六丁目","SETAI":"516"}},{"type":"Feature","geometry":{"type":"Polygon","coordinates":[[[139.56567323778793,35.74419288538768],[139.56481584532457,35.74399547786718],[139.5638616360704,35.745097181583986],[139.563602596051,35.74633292688495],[139.56131264743348,35.74522920120928],[139.56062705202328,35.744552325097416],[139.56228074137192,35.74266531971147],[139.56251590771885,35.74226126341923],[139.56407132408535,35.74321576553945],[139.5646725008044,35.74336533895655],[139.564952062488,35.74281754628493],[139.56567842640735,35.74326829014658],[139.56567323778793,35.74419288538768]]]},"properties":{"KEY_CODE":"13229007001","PREF":"13","CITY":"229","CITY_NAME":"西東京市","S_NAME":"東町一丁目","SETAI":"397"}},{"type":"Feature","geometry":{"type":"Polygon","coordinates":[[[139.5632893183403,35.7476851602409],[139.561613733813,35.74760820590717],[139.5584429442906,35.74724988534371],[139.55858965267993,35.74703873793882],[139.55896711210087,35.74647884413562],[139.56062705202328,35.744552325097416],[139.56131264743348,35.74522920120928],[139.563602596051,35.74633292688495],[139.56358607038084,35.74709845375202],[139.5632893183403,35.7476851602409]]]},"properties":{"KEY_CODE":"13229007002","PREF":"13","CITY":"229","CITY_NAME":"西東京市","S_NAME":"東町二丁目","SETAI":"873"}},{"type":"Feature","geometry":{"type":"Polygon","coordinates":[[[139.569074121444,35.74780882640426],[139.56872521846327,35.74832777884869],[139.5657099673648,35.74802144489382],[139.56528636804967,35.747887218568586],[139.5632893183403,35.7476851602409],[139.56358607038084,35.74709845375202],[139.563602596051,35.74633292688495],[139.5638616360704,35.745097181583986],[139.56481584532457,35.74399547786718],[139.56567323778793,35.74419288538768],[139.56643764426485,35.74722545714011],[139.56651166349744,35.747578378772815],[139.569074121444,35.74780882640426]]]},"properties":{"KEY_CODE":"13229007003","PREF":"13","CITY":"229","CITY_NAME":"西東京市","S_NAME":"東町三丁目","SETAI":"967"}},{"type":"Feature","geometry":{"type":"Polygon","coordinates":[[[139.5659760373453,35.74052827952076],[139.56833753772005,35.74067317472009],[139.56822364922323,35.74278610179284],[139.56783303342004,35.74464721871929],[139.56723781724247,35.7460465866776],[139.5667309451357,35.74645423958564],[139.56684606169318,35.746949717822034],[139.56643764426485,35.74722545714011],[139.56567323778793,35.74419288538768],[139.56567842640735,35.74326829014658],[139.5659760373453,35.74052827952076]]]},"properties":{"KEY_CODE":"13229007004","PREF":"13","CITY":"229","CITY_NAME":"西東京市","S_NAME":"東町四丁目","SETAI":"899"}},{"type":"Feature","geometry":{"type":"Polygon","coordinates":[[[139.56833753772005,35.74067317472009],[139.5659760373453,35.74052827952076],[139.56582289747797,35.738390309418136],[139.5660452790214,35.737816085574096],[139.56635018075843,35.73757276298354],[139.56734059701947,35.736162365720226],[139.56793971626823,35.737777619210604],[139.56838393928209,35.73797434220677],[139.56825849416222,35.73930783914739],[139.56833753772005,35.74067317472009]]]},"properties":{"KEY_CODE":"13229007005","PREF":"13","CITY":"229","CITY_NAME":"西東京市","S_NAME":"東町五丁目","SETAI":"526"}},{"type":"Feature","geometry":{"type":"Polygon","coordinates":[[[139.56567842640735,35.74326829014658],[139.564952062488,35.74281754628493],[139.5646725008044,35.74336533895655],[139.56407132408535,35.74321576553945],[139.56251590771885,35.74226126341923],[139.56290990399066,35.741566822832304],[139.5649461017443,35.738961878870775],[139.56549916138377,35.73836890453829],[139.5660452790214,35.737816085574096],[139.56582289747797,35.738390309418136],[139.5659760373453,35.74052827952076],[139.56567842640735,35.74326829014658]]]},"properties":{"KEY_CODE":"13229007006","PREF":"13","CITY":"229","CITY_NAME":"西東京市","S_NAME":"東町六丁目","SETAI":"537"}},{"type":"Feature","geometry":{"type":"Polygon","coordinates":[[[139.55100255391966,35.73720388477525],[139.5506300009649,35.73777660135299],[139.54852964309242,35.74003383068384],[139.54714976346543,35.73909813998833],[139.54638136691247,35.738949315261515],[139.5468503059296,35.73685174731821],[139.54676739581168,35.73579674090292],[139.5481600748227,35.73592285407366],[139.54808157435542,35.73621060830339],[139.54952196738964,35.73621964306762],[139.55105828117618,35.7369358114253],[139.55100255391966,35.73720388477525]]]},"properties":{"KEY_CODE":"13229008001","PREF":"13","CITY":"229","CITY_NAME":"西東京市","S_NAME":"泉町一丁目","SETAI":"743"}},{"type":"Feature","geometry":{"type":"Polygon","coordinates":[[[139.5523918387595,35.741520707280465],[139.5520178873386,35.742322211697136],[139.55139188206263,35.742981955398704],[139.55138707659125,35.74297910928087],[139.55051729653732,35.74230413932936],[139.54982460558008,35.74120742511591],[139.54852964309242,35.74003383068384],[139.5506300009649,35.73777660135299],[139.55100255391966,35.73720388477525],[139.55219624621722,35.73723181511433],[139.5529240868651,35.73763945322178],[139.5534236398909,35.73740327150368],[139.55276207474938,35.73826806703037],[139.55255571845197,35.73907779838282],[139.5523918387595,35.741520707280465]]]},"properties":{"KEY_CODE":"13229008002","PREF":"13","CITY":"229","CITY_NAME":"西東京市","S_NAME":"泉町二丁目","SETAI":"794"}},{"type":"Feature","geometry":{"type":"Polygon","coordinates":[[[139.55457250041619,35.73852468249871],[139.55834169501193,35.74228509056572],[139.55653818703627,35.742028354153206],[139.55545304009974,35.741713516729064],[139.55347339674236,35.74152392876986],[139.5523918387595,35.741520707280465],[139.55255571845197,35.73907779838282],[139.55276207474938,35.73826806703037],[139.5534236398909,35.73740327150368],[139.55346910705816,35.73738077294539],[139.55457250041619,35.73852468249871]]]},"properties":{"KEY_CODE":"13229008003","PREF":"13","CITY":"229","CITY_NAME":"西東京市","S_NAME":"泉町三丁目","SETAI":"485"}},{"type":"Feature","geometry":{"type":"Polygon","coordinates":[[[139.55545304009974,35.741713516729064],[139.55526030820937,35.742727952977575],[139.5543694370965,35.74263676184705],[139.55420578734746,35.74463206176386],[139.5541459252204,35.7446942252808],[139.55276811766927,35.74393154944535],[139.55139188206263,35.742981955398704],[139.5520178873386,35.742322211697136],[139.5523918387595,35.741520707280465],[139.55347339674236,35.74152392876986],[139.55545304009974,35.741713516729064]]]},"properties":{"KEY_CODE":"13229008004","PREF":"13","CITY":"229","CITY_NAME":"西東京市","S_NAME":"泉町四丁目","SETAI":"318"}},{"type":"Feature","geometry":{"type":"Polygon","coordinates":[[[139.56034826157583,35.744281587872855],[139.5588839273956,35.74427204273412],[139.55771245135494,35.7440133461399],[139.5558120991436,35.74427907169822],[139.55550808245044,35.74469784989595],[139.55420578734746,35.74463206176386],[139.5543694370965,35.74263676184705],[139.55526030820937,35.742727952977575],[139.55545304009974,35.741713516729064],[139.55653818703627,35.742028354153206],[139.55834169501193,35.74228509056572],[139.5585972000631,35.742535270501754],[139.56034826157583,35.744281587872855]]]},"properties":{"KEY_CODE":"13229008005","PREF":"13","CITY":"229","CITY_NAME":"西東京市","S_NAME":"泉町五丁目","SETAI":"730"}},{"type":"Feature","geometry":{"type":"Polygon","coordinates":[[[139.56062705202328,35.744552325097416],[139.55896711210087,35.74647884413562],[139.55858965267993,35.74703873793882],[139.55750079089145,35.74634976507385],[139.5561957218059,35.74580296936863],[139.55548666776443,35.74564870614076],[139.55414330214305,35.744696931391005],[139.5541459252204,35.7446942252808],[139.55420578734746,35.74463206176386],[139.55550808245044,35.74469784989595],[139.5558120991436,35.74427907169822],[139.55771245135494,35.7440133461399],[139.5588839273956,35.74427204273412],[139.56034826157583,35.744281587872855],[139.56062705202328,35.744552325097416]]]},"properties":{"KEY_CODE":"13229008006","PREF":"13","CITY":"229","CITY_NAME":"西東京市","S_NAME":"泉町六丁目","SETAI":"631"}},{"type":"Feature","geometry":{"type":"Polygon","coordinates":[[[139.55138707659125,35.74297910928087],[139.55000636901983,35.74433690692853],[139.54945486967756,35.745358375331534],[139.54944068081656,35.744828764305275],[139.54828091971902,35.7446335733818],[139.54712676280798,35.74464231531602],[139.54723935367792,35.74320716666711],[139.54750163174296,35.742309117267574],[139.54742713426316,35.741475367500826],[139.54682177949067,35.73985898257523],[139.54629978180108,35.73894489536814],[139.54638136691247,35.738949315261515],[139.54714976346543,35.73909813998833],[139.54852964309242,35.74003383068384],[139.54982460558008,35.74120742511591],[139.55051729653732,35.74230413932936],[139.55138707659125,35.74297910928087]]]},"properties":{"KEY_CODE":"13229009001","PREF":"13","CITY":"229","CITY_NAME":"西東京市","S_NAME":"住吉町一丁目","SETAI":"750"}},{"type":"Feature","geometry":{"type":"Polygon","coordinates":[[[139.5497292429331,35.74725882480386],[139.5483824752254,35.747457394771686],[139.5482318569456,35.747667006894034],[139.54695237223393,35.74792541583618],[139.54688704002095,35.74889320688512],[139.5457513034395,35.748830525239015],[139.54619015188743,35.7481799069157],[139.5464616899858,35.746993694492],[139.5470466911045,35.74569906291122],[139.54712676280798,35.74464231531602],[139.54828091971902,35.7446335733818],[139.54944068081656,35.744828764305275],[139.54945486967756,35.745358375331534],[139.54943031268382,35.74634668494251],[139.54971318331448,35.74720813896771],[139.5497292429331,35.74725882480386]]]},"properties":{"KEY_CODE":"13229009002","PREF":"13","CITY":"229","CITY_NAME":"西東京市","S_NAME":"住吉町二丁目","SETAI":"434"}},{"type":"Feature","geometry":{"type":"Polygon","coordinates":[[[139.54831064683336,35.7504198612508],[139.54707570828373,35.75106675044112],[139.5447093290577,35.752029918839334],[139.54463450956177,35.751858589200836],[139.54440726935817,35.751224266761334],[139.54489590802126,35.75118910064896],[139.5451423237594,35.74994665596539],[139.5457513034395,35.748830525239015],[139.54688704002095,35.74889320688512],[139.54695237223393,35.74792541583618],[139.5482318569456,35.747667006894034],[139.5483824752254,35.747457394771686],[139.5497292429331,35.74725882480386],[139.54990624842245,35.748220567972],[139.55059032412572,35.74947790076491],[139.54831064683336,35.7504198612508]]]},"properties":{"KEY_CODE":"13229009003","PREF":"13","CITY":"229","CITY_NAME":"西東京市","S_NAME":"住吉町三丁目","SETAI":"866"}},{"type":"Feature","geometry":{"type":"Polygon","coordinates":[[[139.5517694646566,35.745814992229164],[139.5530509428284,35.74674437960481],[139.5532180954414,35.747175285165085],[139.554102699803,35.74799520696039],[139.55062196667808,35.74946459617324],[139.55059032412572,35.74947790076491],[139.54990624842245,35.748220567972],[139.5497292429331,35.74725882480386],[139.54971318331448,35.74720813896771],[139.55032843436774,35.74707367987414],[139.55153688494272,35.746331316381344],[139.5517694646566,35.745814992229164]]]},"properties":{"KEY_CODE":"13229009004","PREF":"13","CITY":"229","CITY_NAME":"西東京市","S_NAME":"住吉町四丁目","SETAI":"563"}},{"type":"Feature","geometry":{"type":"Polygon","coordinates":[[[139.55842377773592,35.74726621373481],[139.55739763461162,35.74717054694227],[139.55603164856922,35.74728703406348],[139.554102699803,35.74799520696039],[139.5532180954414,35.747175285165085],[139.5530509428284,35.74674437960481],[139.5517694646566,35.745814992229164],[139.55242074482896,35.745630996914215],[139.55391221274485,35.745676540758865],[139.55414330214305,35.744696931391005],[139.55548666776443,35.74564870614076],[139.5561957218059,35.74580296936863],[139.55750079089145,35.74634976507385],[139.55858965267993,35.74703873793882],[139.5584429442906,35.74724988534371],[139.55842377773592,35.74726621373481]]]},"properties":{"KEY_CODE":"13229009005","PREF":"13","CITY":"229","CITY_NAME":"西東京市","S_NAME":"住吉町五丁目","SETAI":"229"}},{"type":"Feature","geometry":{"type":"Polygon","coordinates":[[[139.55414330214305,35.744696931391005],[139.55391221274485,35.745676540758865],[139.55242074482896,35.745630996914215],[139.5517694646566,35.745814992229164],[139.55153688494272,35.746331316381344],[139.55032843436774,35.74707367987414],[139.54971318331448,35.74720813896771],[139.54943031268382,35.74634668494251],[139.54945486967756,35.745358375331534],[139.55000636901983,35.74433690692853],[139.55138707659125,35.74297910928087],[139.55139188206263,35.742981955398704],[139.55276811766927,35.74393154944535],[139.5541459252204,35.7446942252808],[139.55414330214305,35.744696931391005]]]},"properties":{"KEY_CODE":"13229009006","PREF":"13","CITY":"229","CITY_NAME":"西東京市","S_NAME":"住吉町六丁目","SETAI":"479"}},{"type":"Feature","geometry":{"type":"Polygon","coordinates":[[[139.54261593029509,35.749065034388614],[139.5433973786246,35.75000083305614],[139.54440726935817,35.751224266761334],[139.54463450956177,35.751858589200836],[139.54240688646922,35.75285531855192],[139.53939742042402,35.75023294753462],[139.53835453327198,35.749320900464554],[139.53914195850473,35.749063914779825],[139.54115064544249,35.74923832955808],[139.5415056329529,35.749417540117825],[139.54261593029509,35.749065034388614]]]},"properties":{"KEY_CODE":"13229010001","PREF":"13","CITY":"229","CITY_NAME":"西東京市","S_NAME":"ひばりが丘一丁目","SETAI":"1064"}},{"type":"Feature","geometry":{"type":"Polygon","coordinates":[[[139.54261593029509,35.749065034388614],[139.5415056329529,35.749417540117825],[139.54115064544249,35.74923832955808],[139.53914195850473,35.749063914779825],[139.53835453327198,35.749320900464554],[139.5364492064737,35.74764561052528],[139.53741931542908,35.747284198268574],[139.5368502305121,35.74650994549454],[139.53904091405437,35.74579176727156],[139.53959581718456,35.74560936478671],[139.54014133340334,35.746509525384774],[139.54192037367102,35.74826900617042],[139.54261593029509,35.749065034388614]]]},"properties":{"KEY_CODE":"13229010002","PREF":"13","CITY":"229","CITY_NAME":"西東京市","S_NAME":"ひばりが丘二丁目","SETAI":"1068"}},{"type":"Feature","geometry":{"type":"Polygon","coordinates":[[[139.53904091405437,35.74579176727156],[139.5368502305121,35.74650994549454],[139.53741931542908,35.747284198268574],[139.5364492064737,35.74764561052528],[139.53444650317587,35.74595062960083],[139.53317099755492,35.74454334169324],[139.53231441120064,35.74458203009328],[139.5326746112456,35.743639820969946],[139.53290245210798,35.743714715409766],[139.5330031119904,35.743471038378736],[139.5330359957693,35.74334591768025],[139.53283246687616,35.74295025911053],[139.5329162239533,35.74271645131899],[139.53287042736613,35.74262999639429],[139.53313690880182,35.741758225485356],[139.5333217726381,35.741361334731685],[139.5352019421733,35.74188167151562],[139.53617658675216,35.74243798604635],[139.5369858370053,35.74253310665364],[139.53679535979205,35.74301507109447],[139.53793961458848,35.74400242960991],[139.538802426782,35.7456311077045],[139.53904091405437,35.74579176727156]]]},"properties":{"KEY_CODE":"13229010003","PREF":"13","CITY":"229","CITY_NAME":"西東京市","S_NAME":"ひばりが丘三丁目","SETAI":"1664"}},{"type":"Feature","geometry":{"type":"Polygon","coordinates":[[[139.53290245210798,35.743714715409766],[139.5326746112456,35.743639820969946],[139.53231441120064,35.74458203009328],[139.52870687278423,35.74482759731097],[139.5273691053592,35.743678893112346],[139.52772946804507,35.743363313338776],[139.5288647575956,35.742400932303546],[139.53134423752206,35.7402533470161],[139.53144913013537,35.74016958358568],[139.53313690880182,35.741758225485356],[139.53287042736613,35.74262999639429],[139.5329162239533,35.74271645131899],[139.53283246687616,35.74295025911053],[139.5330359957693,35.74334591768025],[139.5330031119904,35.743471038378736],[139.53290245210798,35.743714715409766]]]},"properties":{"KEY_CODE":"13229010004","PREF":"13","CITY":"229","CITY_NAME":"西東京市","S_NAME":"ひばりが丘四丁目","SETAI":"684"}},{"type":"Feature","geometry":{"type":"Polygon","coordinates":[[[139.5510688737557,35.750702866236686],[139.55110992006098,35.751385521885226],[139.5515170148561,35.75276653935293],[139.55146851274657,35.75328116243665],[139.55031702163595,35.75306141939304],[139.5484814703276,35.75303232557937],[139.54854372312712,35.752209042767454],[139.54831064683336,35.7504198612508],[139.55059032412572,35.74947790076491],[139.55062196667808,35.74946459617324],[139.5510688737557,35.750702866236686]]]},"properties":{"KEY_CODE":"13229011001","PREF":"13","CITY":"229","CITY_NAME":"西東京市","S_NAME":"ひばりが丘北一丁目","SETAI":"549"}},{"type":"Feature","geometry":{"type":"Polygon","coordinates":[[[139.552822511981,35.75362876730169],[139.55240419425783,35.754067727354226],[139.55336518920993,35.75581944715109],[139.55303027698085,35.75609639549703],[139.55208664478351,35.75589335059113],[139.5521122841699,35.75554755509774],[139.55078246318868,35.75499804269992],[139.55064253010556,35.75536663144562],[139.54997653618832,35.755173462283736],[139.55021377533237,35.754301124533754],[139.54965304779307,35.75393990296594],[139.54816493991453,35.75358004273159],[139.5484814703276,35.75303232557937],[139.55031702163595,35.75306141939304],[139.55146851274657,35.75328116243665],[139.552822511981,35.75362876730169]]]},"properties":{"KEY_CODE":"13229011002","PREF":"13","CITY":"229","CITY_NAME":"西東京市","S_NAME":"ひばりが丘北二丁目","SETAI":"498"}},{"type":"Feature","geometry":{"type":"Polygon","coordinates":[[[139.54816493991453,35.75358004273159],[139.54802819611635,35.75382012485055],[139.5471128099967,35.75355114254473],[139.54676431987178,35.75394350910841],[139.54618406780003,35.753551435840784],[139.54571785598773,35.75262968280474],[139.5446684756989,35.75242900225972],[139.5447093290577,35.752029918839334],[139.54707570828373,35.75106675044112],[139.54831064683336,35.7504198612508],[139.54854372312712,35.752209042767454],[139.5484814703276,35.75303232557937],[139.54816493991453,35.75358004273159]]]},"properties":{"KEY_CODE":"13229011003","PREF":"13","CITY":"229","CITY_NAME":"西東京市","S_NAME":"ひばりが丘北三丁目","SETAI":"834"}},{"type":"Feature","geometry":{"type":"Polygon","coordinates":[[[139.54676431987178,35.75394350910841],[139.54739626545566,35.75457052929143],[139.54708301772519,35.75528394439034],[139.5444958330487,35.75454920175939],[139.54430192356878,35.754509532356096],[139.54247884170502,35.75291650970228],[139.54240688646922,35.75285531855192],[139.54463450956177,35.751858589200836],[139.5447093290577,35.752029918839334],[139.5446684756989,35.75242900225972],[139.54571785598773,35.75262968280474],[139.54618406780003,35.753551435840784],[139.54676431987178,35.75394350910841]]]},"properties":{"KEY_CODE":"13229011004","PREF":"13","CITY":"229","CITY_NAME":"西東京市","S_NAME":"ひばりが丘北四丁目","SETAI":"642"}},{"type":"Feature","geometry":{"type":"Polygon","coordinates":[[[139.55842377773592,35.74726621373481],[139.55782205716332,35.74824866298361],[139.55721070317577,35.75004881345978],[139.5565171420437,35.75166811422841],[139.5562497459219,35.751570693070946],[139.55556459611307,35.751196694325415],[139.55484032435055,35.750280472631474],[139.55269986592847,35.74970551061577],[139.55162018172925,35.750168981107315],[139.5510688737557,35.750702866236686],[139.55062196667808,35.74946459617324],[139.554102699803,35.74799520696039],[139.55603164856922,35.74728703406348],[139.55739763461162,35.74717054694227],[139.55842377773592,35.74726621373481]]]},"properties":{"KEY_CODE":"13229012001","PREF":"13","CITY":"229","CITY_NAME":"西東京市","S_NAME":"栄町一丁目","SETAI":"740"}},{"type":"Feature","geometry":{"type":"Polygon","coordinates":[[[139.5510688737557,35.750702866236686],[139.55162018172925,35.750168981107315],[139.55269986592847,35.74970551061577],[139.55484032435055,35.750280472631474],[139.55556459611307,35.751196694325415],[139.5551919662062,35.7517517828431],[139.5536581809559,35.75327835774719],[139.552822511981,35.75362876730169],[139.55146851274657,35.75328116243665],[139.5515170148561,35.75276653935293],[139.55110992006098,35.751385521885226],[139.5510688737557,35.750702866236686]]]},"properties":{"KEY_CODE":"13229012002","PREF":"13","CITY":"229","CITY_NAME":"西東京市","S_NAME":"栄町二丁目","SETAI":"618"}},{"type":"Feature","geometry":{"type":"Polygon","coordinates":[[[139.55556459611307,35.751196694325415],[139.5562497459219,35.751570693070946],[139.5553639345508,35.75360356538633],[139.55487799409093,35.75421528636474],[139.5542415295437,35.75459827609033],[139.5534116484574,35.75575698913022],[139.55336518920993,35.75581944715109],[139.55240419425783,35.754067727354226],[139.552822511981,35.75362876730169],[139.5536581809559,35.75327835774719],[139.5551919662062,35.7517517828431],[139.55556459611307,35.751196694325415]]]},"properties":{"KEY_CODE":"13229012003","PREF":"13","CITY":"229","CITY_NAME":"西東京市","S_NAME":"栄町三丁目","SETAI":"306"}},{"type":"Feature","geometry":{"type":"Polygon","coordinates":[[[139.55949349361555,35.75449865564874],[139.55755431412643,35.754383820495825],[139.55698454643078,35.75389656502317],[139.5553639345508,35.75360356538633],[139.5562497459219,35.751570693070946],[139.5565171420437,35.75166811422841],[139.55811475334247,35.752597977013885],[139.5594931067893,35.75295806386083],[139.55939355185794,35.7533420351261],[139.55984864474655,35.753734943405405],[139.55949349361555,35.75449865564874]]]},"properties":{"KEY_CODE":"13229013001","PREF":"13","CITY":"229","CITY_NAME":"西東京市","S_NAME":"北町一丁目","SETAI":"241"}},{"type":"Feature","geometry":{"type":"Polygon","coordinates":[[[139.55849134476304,35.75979363263732],[139.55788119612438,35.75991379896485],[139.5572921465841,35.759053715691486],[139.5564138756757,35.759042496582275],[139.55639914175782,35.75809741013924],[139.55565838608078,35.75742153187269],[139.55510744903418,35.75589683627827],[139.5534116484574,35.75575698913022],[139.5542415295437,35.75459827609033],[139.55487799409093,35.75421528636474],[139.5553639345508,35.75360356538633],[139.55698454643078,35.75389656502317],[139.55755431412643,35.754383820495825],[139.55949349361555,35.75449865564874],[139.55920587970485,35.75523422949094],[139.55901129769128,35.75555316436387],[139.55831689987687,35.75875595412497],[139.55849134476304,35.75979363263732]]]},"properties":{"KEY_CODE":"13229013002","PREF":"13","CITY":"229","CITY_NAME":"西東京市","S_NAME":"北町二丁目","SETAI":"733"}},{"type":"Feature","geometry":{"type":"Polygon","coordinates":[[[139.56152401473173,35.75871582768618],[139.56208654476183,35.759919065358616],[139.56003687166813,35.75939832148593],[139.559215997187,35.75958835905478],[139.55872033902432,35.75941377723704],[139.55849134476304,35.75979363263732],[139.55831689987687,35.75875595412497],[139.55901129769128,35.75555316436387],[139.55920587970485,35.75523422949094],[139.5592781369836,35.755496574629184],[139.56046906042906,35.75723462583413],[139.56152401473173,35.75871582768618]]]},"properties":{"KEY_CODE":"13229013003","PREF":"13","CITY":"229","CITY_NAME":"西東京市","S_NAME":"北町三丁目","SETAI":"359"}},{"type":"Feature","geometry":{"type":"Polygon","coordinates":[[[139.56291719838754,35.76155901221016],[139.56163598540658,35.761167987467246],[139.56163018308737,35.76024602059865],[139.56228782519165,35.76018740214061],[139.56208654476183,35.759919065358616],[139.56152401473173,35.75871582768618],[139.56193116703068,35.7585428340699],[139.5617002402769,35.75796031464079],[139.56263762186572,35.7579220085399],[139.5632873670537,35.75748880138474],[139.56399306932593,35.75748631683395],[139.56615767546194,35.75695058623112],[139.5653299571418,35.758486390457946],[139.56480425643022,35.75880911989073],[139.56448692809224,35.759262636190044],[139.5640078190329,35.75976892048103],[139.56388548291943,35.76029124652515],[139.5637076506241,35.76154946562454],[139.56291719838754,35.76155901221016]]]},"properties":{"KEY_CODE":"13229013004","PREF":"13","CITY":"229","CITY_NAME":"西東京市","S_NAME":"北町四丁目","SETAI":"259"}},{"type":"Feature","geometry":{"type":"Polygon","coordinates":[[[139.56615767546194,35.75695058623112],[139.56399306932593,35.75748631683395],[139.5632873670537,35.75748880138474],[139.56263762186572,35.7579220085399],[139.5617002402769,35.75796031464079],[139.56193116703068,35.7585428340699],[139.56152401473173,35.75871582768618],[139.56046906042906,35.75723462583413],[139.56127746842975,35.75636798416521],[139.56157284689505,35.754819350615726],[139.5612870164833,35.75461220654868],[139.56141882010564,35.75361759702365],[139.56179637284313,35.7533568859592],[139.56276123525905,35.75341491863894],[139.56331976674534,35.75391912871838],[139.5632250815564,35.7544280674679],[139.5638963300053,35.75521203153684],[139.56564418784424,35.75566559989273],[139.56675448607876,35.75558395253095],[139.56664460165018,35.75683931677989],[139.56615767546194,35.75695058623112]]]},"properties":{"KEY_CODE":"13229013005","PREF":"13","CITY":"229","CITY_NAME":"西東京市","S_NAME":"北町五丁目","SETAI":"551"}},{"type":"Feature","geometry":{"type":"Polygon","coordinates":[[[139.5594931067893,35.75295806386083],[139.56141882010564,35.75361759702365],[139.5612870164833,35.75461220654868],[139.56157284689505,35.754819350615726],[139.56127746842975,35.75636798416521],[139.56046906042906,35.75723462583413],[139.5592781369836,35.755496574629184],[139.55920587970485,35.75523422949094],[139.55949349361555,35.75449865564874],[139.55984864474655,35.753734943405405],[139.55939355185794,35.7533420351261],[139.5594931067893,35.75295806386083]]]},"properties":{"KEY_CODE":"13229013006","PREF":"13","CITY":"229","CITY_NAME":"西東京市","S_NAME":"北町六丁目","SETAI":"178"}},{"type":"Feature","geometry":{"type":"Polygon","coordinates":[[[139.5584429442906,35.74724988534371],[139.561613733813,35.74760820590717],[139.56100134957083,35.74905253234918],[139.55982961414355,35.751209109685306],[139.55844459125632,35.750434847306984],[139.55721070317577,35.75004881345978],[139.55782205716332,35.74824866298361],[139.55842377773592,35.74726621373481],[139.5584429442906,35.74724988534371]]]},"properties":{"KEY_CODE":"13229014001","PREF":"13","CITY":"229","CITY_NAME":"西東京市","S_NAME":"下保谷一丁目","SETAI":"360"}},{"type":"Feature","geometry":{"type":"Polygon","coordinates":[[[139.56276123525905,35.75341491863894],[139.56179637284313,35.7533568859592],[139.56141882010564,35.75361759702365],[139.5594931067893,35.75295806386083],[139.55811475334247,35.752597977013885],[139.5565171420437,35.75166811422841],[139.55721070317577,35.75004881345978],[139.55844459125632,35.750434847306984],[139.55982961414355,35.751209109685306],[139.5614367102132,35.75213689769022],[139.5633392932738,35.75261449669344],[139.56276123525905,35.75341491863894]]]},"properties":{"KEY_CODE":"13229014002","PREF":"13","CITY":"229","CITY_NAME":"西東京市","S_NAME":"下保谷二丁目","SETAI":"848"}},{"type":"Feature","geometry":{"type":"Polygon","coordinates":[[[139.56675448607876,35.75558395253095],[139.56564418784424,35.75566559989273],[139.5638963300053,35.75521203153684],[139.5632250815564,35.7544280674679],[139.56331976674534,35.75391912871838],[139.56276123525905,35.75341491863894],[139.5633392932738,35.75261449669344],[139.56359527076833,35.752000923046324],[139.56429717228937,35.75221573774063],[139.56529952871776,35.75181735124624],[139.56780458731745,35.751258404006],[139.56922702239916,35.75143110201732],[139.56889309619373,35.75240074406011],[139.56793509433516,35.753574518525525],[139.56801753238187,35.75505310689997],[139.56716860964318,35.755430005388966],[139.56675448607876,35.75558395253095]]]},"properties":{"KEY_CODE":"13229014003","PREF":"13","CITY":"229","CITY_NAME":"西東京市","S_NAME":"下保谷三丁目","SETAI":"912"}},{"type":"Feature","geometry":{"type":"Polygon","coordinates":[[[139.56922702239916,35.75143110201732],[139.56780458731745,35.751258404006],[139.56529952871776,35.75181735124624],[139.56429717228937,35.75221573774063],[139.56359527076833,35.752000923046324],[139.564147345459,35.75053416157099],[139.56509634984639,35.74907477923951],[139.56528636804967,35.747887218568586],[139.5657099673648,35.74802144489382],[139.56872521846327,35.74832777884869],[139.56812300367724,35.74932656061301],[139.56792878926612,35.75016875163968],[139.56938560292627,35.749956549744056],[139.56919240750173,35.750578284594354],[139.56923856405965,35.75139554877022],[139.56922702239916,35.75143110201732]]]},"properties":{"KEY_CODE":"13229014004","PREF":"13","CITY":"229","CITY_NAME":"西東京市","S_NAME":"下保谷四丁目","SETAI":"832"}},{"type":"Feature","geometry":{"type":"Polygon","coordinates":[[[139.5632893183403,35.7476851602409],[139.56528636804967,35.747887218568586],[139.56509634984639,35.74907477923951],[139.564147345459,35.75053416157099],[139.56359527076833,35.752000923046324],[139.5633392932738,35.75261449669344],[139.5614367102132,35.75213689769022],[139.55982961414355,35.751209109685306],[139.56100134957083,35.74905253234918],[139.561613733813,35.74760820590717],[139.5632893183403,35.7476851602409]]]},"properties":{"KEY_CODE":"13229014005","PREF":"13","CITY":"229","CITY_NAME":"西東京市","S_NAME":"下保谷五丁目","SETAI":"1268"}},{"type":"Feature","geometry":{"type":"Polygon","coordinates":[[[139.54655428230802,35.731459430029894],[139.54511353102689,35.73135255007077],[139.5432391488124,35.73169796061715],[139.5423932225444,35.73174790846625],[139.54154327313492,35.73175798344229],[139.54585598071628,35.729270720765804],[139.54752341652735,35.728290680074906],[139.54840219824575,35.72837608270721],[139.54839005492857,35.728396950593805],[139.54751485219418,35.72968927036048],[139.5475774409457,35.730244178339426],[139.5469342257661,35.73025553107536],[139.54679643239544,35.730662908567325],[139.54597048691303,35.7308398743293],[139.54604219581157,35.73124058347183],[139.54655428230802,35.731459430029894]]]},"properties":{"KEY_CODE":"13229015001","PREF":"13","CITY":"229","CITY_NAME":"西東京市","S_NAME":"田無町一丁目","SETAI":"965"}},{"type":"Feature","geometry":{"type":"Polygon","coordinates":[[[139.54585598071628,35.729270720765804],[139.54448410750462,35.72925756533199],[139.5433552074607,35.72879403896328],[139.53996250671275,35.729546522253564],[139.53953593700723,35.727571047273635],[139.54100332917665,35.72758037209577],[139.54355856983545,35.72783502791096],[139.54638060226617,35.72820788213042],[139.54752341652735,35.728290680074906],[139.54585598071628,35.729270720765804]]]},"properties":{"KEY_CODE":"13229015002","PREF":"13","CITY":"229","CITY_NAME":"西東京市","S_NAME":"田無町二丁目","SETAI":"1092"}},{"type":"Feature","geometry":{"type":"Polygon","coordinates":[[[139.54585598071628,35.729270720765804],[139.54154327313492,35.73175798344229],[139.5413851392692,35.7317581286668],[139.54049760375028,35.731813964973874],[139.53996250671275,35.729546522253564],[139.5433552074607,35.72879403896328],[139.54448410750462,35.72925756533199],[139.54585598071628,35.729270720765804]]]},"properties":{"KEY_CODE":"13229015003","PREF":"13","CITY":"229","CITY_NAME":"西東京市","S_NAME":"田無町三丁目","SETAI":"1061"}},{"type":"Feature","geometry":{"type":"Polygon","coordinates":[[[139.54100332917665,35.72758037209577],[139.53953593700723,35.727571047273635],[139.53996250671275,35.729546522253564],[139.5358042371797,35.730515087988195],[139.53500851856998,35.72897003359544],[139.53279497838807,35.72704192690189],[139.53225699898044,35.726585489848844],[139.5355906786266,35.72698575422851],[139.53606897575648,35.726853350826715],[139.53925250508834,35.72711971539843],[139.54103300192475,35.72730720290303],[139.54100332917665,35.72758037209577]]]},"properties":{"KEY_CODE":"13229015004","PREF":"13","CITY":"229","CITY_NAME":"西東京市","S_NAME":"田無町四丁目","SETAI":"1487"}},{"type":"Feature","geometry":{"type":"Polygon","coordinates":[[[139.53996250671275,35.729546522253564],[139.54049760375028,35.731813964973874],[139.538241714112,35.73202566710461],[139.5362044487576,35.73250927519568],[139.5360110434073,35.732182217623844],[139.53561584230698,35.73056553561041],[139.5358042371797,35.730515087988195],[139.53996250671275,35.729546522253564]]]},"properties":{"KEY_CODE":"13229015005","PREF":"13","CITY":"229","CITY_NAME":"西東京市","S_NAME":"田無町五丁目","SETAI":"904"}},{"type":"Feature","geometry":{"type":"Polygon","coordinates":[[[139.53279497838807,35.72704192690189],[139.53500851856998,35.72897003359544],[139.5358042371797,35.730515087988195],[139.53561584230698,35.73056553561041],[139.5337812566565,35.730564228872865],[139.530989067693,35.73021759237434],[139.53093514121304,35.73010197154157],[139.53056408533644,35.72939011675439],[139.53065886084633,35.72780987592468],[139.53162557415556,35.727638983949966],[139.53279497838807,35.72704192690189]]]},"properties":{"KEY_CODE":"13229015006","PREF":"13","CITY":"229","CITY_NAME":"西東京市","S_NAME":"田無町六丁目","SETAI":"908"}},{"type":"Feature","geometry":{"type":"Polygon","coordinates":[[[139.53561584230698,35.73056553561041],[139.5360110434073,35.732182217623844],[139.5362044487576,35.73250927519568],[139.53090711703635,35.733804054211994],[139.53082302215736,35.733825568031264],[139.5284744602176,35.7323934537438],[139.5309227880624,35.73157804198411],[139.53062007608494,35.73023626010043],[139.530989067693,35.73021759237434],[139.5337812566565,35.730564228872865],[139.53561584230698,35.73056553561041]]]},"properties":{"KEY_CODE":"13229015007","PREF":"13","CITY":"229","CITY_NAME":"西東京市","S_NAME":"田無町七丁目","SETAI":"1350"}},{"type":"Feature","geometry":{"type":"Polygon","coordinates":[[[139.5493189564136,35.727181259199085],[139.5487571335254,35.727572305364326],[139.54840219824575,35.72837608270721],[139.54752341652735,35.728290680074906],[139.54638060226617,35.72820788213042],[139.54355856983545,35.72783502791096],[139.54410304796176,35.7271326111669],[139.54507507901326,35.726333403748185],[139.5461075769863,35.72582464947823],[139.54770143857183,35.72540921830965],[139.54930145032412,35.724260707918255],[139.54910115667533,35.72616284988858],[139.5493189564136,35.727181259199085]]]},"properties":{"KEY_CODE":"13229016001","PREF":"13","CITY":"229","CITY_NAME":"西東京市","S_NAME":"南町一丁目","SETAI":"1070"}},{"type":"Feature","geometry":{"type":"Polygon","coordinates":[[[139.5493573249164,35.72174041086772],[139.54930145032412,35.724260707918255],[139.54770143857183,35.72540921830965],[139.5461075769863,35.72582464947823],[139.54507507901326,35.726333403748185],[139.54410304796176,35.7271326111669],[139.54516003796007,35.72432284941976],[139.54573858602106,35.723183138426805],[139.54637538583003,35.72244528094747],[139.54740639561217,35.722208465406084],[139.54733189932654,35.722019884601806],[139.54828186508874,35.721793450269644],[139.54834037828715,35.721984387522326],[139.5493573249164,35.72174041086772]]]},"properties":{"KEY_CODE":"13229016002","PREF":"13","CITY":"229","CITY_NAME":"西東京市","S_NAME":"南町二丁目","SETAI":"1042"}},{"type":"Feature","geometry":{"type":"Polygon","coordinates":[[[139.54240118064337,35.722164349988994],[139.5446851282629,35.7224402084431],[139.54573858602106,35.723183138426805],[139.54516003796007,35.72432284941976],[139.54410304796176,35.7271326111669],[139.54355856983545,35.72783502791096],[139.54100332917665,35.72758037209577],[139.54103300192475,35.72730720290303],[139.54182704624932,35.72433666941595],[139.54198384642635,35.72303603562152],[139.54240118064337,35.722164349988994]]]},"properties":{"KEY_CODE":"13229016003","PREF":"13","CITY":"229","CITY_NAME":"西東京市","S_NAME":"南町三丁目","SETAI":"1395"}},{"type":"Feature","geometry":{"type":"Polygon","coordinates":[[[139.54240118064337,35.722164349988994],[139.54198384642635,35.72303603562152],[139.54182704624932,35.72433666941595],[139.54103300192475,35.72730720290303],[139.53925250508834,35.72711971539843],[139.5394501083242,35.72667652830547],[139.5389900630671,35.725117051980305],[139.53872173469142,35.723578077345095],[139.5389240356981,35.72319993287963],[139.53900815782166,35.72252326106331],[139.5407507516613,35.722468420209275],[139.54070522218893,35.72208511091096],[139.54234649982834,35.722151930647165],[139.54240118064337,35.722164349988994]]]},"properties":{"KEY_CODE":"13229016004","PREF":"13","CITY":"229","CITY_NAME":"西東京市","S_NAME":"南町四丁目","SETAI":"1114"}},{"type":"Feature","geometry":{"type":"Polygon","coordinates":[[[139.53925250508834,35.72711971539843],[139.53606897575648,35.726853350826715],[139.53490874854282,35.72499359470783],[139.53510524733815,35.72484500519242],[139.53323059926177,35.72308157335358],[139.53413496997172,35.72304176404412],[139.53660445807554,35.72224682395788],[139.53716433053395,35.72202652429621],[139.53784885457029,35.722231236488035],[139.5389240356981,35.72319993287963],[139.53872173469142,35.723578077345095],[139.5389900630671,35.725117051980305],[139.5394501083242,35.72667652830547],[139.53925250508834,35.72711971539843]]]},"properties":{"KEY_CODE":"13229016005","PREF":"13","CITY":"229","CITY_NAME":"西東京市","S_NAME":"南町五丁目","SETAI":"961"}},{"type":"Feature","geometry":{"type":"Polygon","coordinates":[[[139.53606897575648,35.726853350826715],[139.5355906786266,35.72698575422851],[139.53225699898044,35.726585489848844],[139.53214602572697,35.726471769644505],[139.53073940142735,35.72523559557782],[139.5284582949537,35.72252051478206],[139.5283849607903,35.72224333946034],[139.52939880955856,35.722370751384],[139.5314654951127,35.722839347554185],[139.53207001827727,35.723240130246694],[139.53313148316602,35.723059250504],[139.53323059926177,35.72308157335358],[139.53510524733815,35.72484500519242],[139.53490874854282,35.72499359470783],[139.53606897575648,35.726853350826715]]]},"properties":{"KEY_CODE":"13229016006","PREF":"13","CITY":"229","CITY_NAME":"西東京市","S_NAME":"南町六丁目","SETAI":"872"}},{"type":"Feature","geometry":{"type":"Polygon","coordinates":[[[139.54089460108938,35.73219097886886],[139.5393946012401,35.73281051173953],[139.5385078955914,35.733380950793475],[139.5370575727136,35.73529954125157],[139.53656350945374,35.73401995727136],[139.5362044487576,35.73250927519568],[139.538241714112,35.73202566710461],[139.54049760375028,35.731813964973874],[139.5413851392692,35.7317581286668],[139.54089460108938,35.73219097886886]]]},"properties":{"KEY_CODE":"13229017001","PREF":"13","CITY":"229","CITY_NAME":"西東京市","S_NAME":"西原町一丁目","SETAI":"618"}},{"type":"Feature","geometry":{"type":"Polygon","coordinates":[[[139.5362044487576,35.73250927519568],[139.53656350945374,35.73401995727136],[139.5370575727136,35.73529954125157],[139.53641427198673,35.73647409732774],[139.53632605564462,35.736605050510434],[139.53474335836964,35.736394937864176],[139.53363538965445,35.73578474369657],[139.53248454563004,35.73468477971014],[139.53090711703635,35.733804054211994],[139.5362044487576,35.73250927519568]]]},"properties":{"KEY_CODE":"13229017002","PREF":"13","CITY":"229","CITY_NAME":"西東京市","S_NAME":"西原町二丁目","SETAI":"248"}},{"type":"Feature","geometry":{"type":"Polygon","coordinates":[[[139.53632079320687,35.73661484435185],[139.53381032369322,35.73783664945675],[139.53250988058323,35.738833907639616],[139.53192940937154,35.73849193206704],[139.53065818228652,35.73637144691599],[139.52917077836315,35.734783137660095],[139.5286115851619,35.73437173390106],[139.53082302215736,35.733825568031264],[139.53090711703635,35.733804054211994],[139.53248454563004,35.73468477971014],[139.53363538965445,35.73578474369657],[139.53474335836964,35.736394937864176],[139.53632605564462,35.736605050510434],[139.53632079320687,35.73661484435185]]]},"properties":{"KEY_CODE":"13229017003","PREF":"13","CITY":"229","CITY_NAME":"西東京市","S_NAME":"西原町三丁目","SETAI":"775"}},{"type":"Feature","geometry":{"type":"Polygon","coordinates":[[[139.5306614465391,35.74002671896104],[139.5291001547102,35.73961349719075],[139.52819554133242,35.73897563154574],[139.52642502564598,35.73771763623857],[139.5260749137706,35.7374438551419],[139.52351617223746,35.73567012278353],[139.52348694881863,35.735650260186894],[139.5286115851619,35.73437173390106],[139.52917077836315,35.734783137660095],[139.53065818228652,35.73637144691599],[139.53192940937154,35.73849193206704],[139.53250988058323,35.738833907639616],[139.5306614465391,35.74002671896104]]]},"properties":{"KEY_CODE":"13229017004","PREF":"13","CITY":"229","CITY_NAME":"西東京市","S_NAME":"西原町四丁目","SETAI":"1067"}},{"type":"Feature","geometry":{"type":"Polygon","coordinates":[[[139.53632079320687,35.73661484435185],[139.53571048154433,35.73790253429063],[139.53508694339106,35.738580525605485],[139.5338392748089,35.74025837939442],[139.5333217726381,35.741361334731685],[139.53313690880182,35.741758225485356],[139.53144913013537,35.74016958358568],[139.53134423752206,35.7402533470161],[139.5306614465391,35.74002671896104],[139.53250988058323,35.738833907639616],[139.53381032369322,35.73783664945675],[139.53632079320687,35.73661484435185]]]},"properties":{"KEY_CODE":"13229017005","PREF":"13","CITY":"229","CITY_NAME":"西東京市","S_NAME":"西原町五丁目","SETAI":"594"}},{"type":"Feature","geometry":{"type":"Polygon","coordinates":[[[139.54352947047974,35.73967283082342],[139.54250097687535,35.739490278253335],[139.54224251767698,35.74040631889889],[139.53947435949618,35.739884107009274],[139.53861046930567,35.74065837395731],[139.53861022582814,35.740923514619276],[139.53748886803825,35.74043386233029],[139.5375720238637,35.73996119205085],[139.53692674787774,35.73991519015601],[139.5358895067738,35.73942898635102],[139.53661503403552,35.73847071382259],[139.5368058642579,35.73649944321142],[139.53641427198673,35.73647409732774],[139.5370575727136,35.73529954125157],[139.5385078955914,35.733380950793475],[139.5393946012401,35.73281051173953],[139.54089460108938,35.73219097886886],[139.54103855033304,35.733241032370195],[139.5416753354679,35.733262344290154],[139.54141314582952,35.73432060329285],[139.54171262537844,35.73585758623877],[139.54164164677002,35.7364265504989],[139.54207748320107,35.737903706493206],[139.54244434577237,35.738087644053365],[139.54246087407836,35.73866060453909],[139.54345277593126,35.7386889604149],[139.54352947047974,35.73967283082342]]]},"properties":{"KEY_CODE":"13229018001","PREF":"13","CITY":"229","CITY_NAME":"西東京市","S_NAME":"緑町一丁目","SETAI":"621"}},{"type":"Feature","geometry":{"type":"Polygon","coordinates":[[[139.53641427198673,35.73647409732774],[139.5368058642579,35.73649944321142],[139.53661503403552,35.73847071382259],[139.5358895067738,35.73942898635102],[139.53692674787774,35.73991519015601],[139.5375720238637,35.73996119205085],[139.53748886803825,35.74043386233029],[139.53861022582814,35.740923514619276],[139.53617658675216,35.74243798604635],[139.5352019421733,35.74188167151562],[139.5333217726381,35.741361334731685],[139.5338392748089,35.74025837939442],[139.53508694339106,35.738580525605485],[139.53571048154433,35.73790253429063],[139.53632079320687,35.73661484435185],[139.53632605564462,35.736605050510434],[139.53641427198673,35.73647409732774]]]},"properties":{"KEY_CODE":"13229018002","PREF":"13","CITY":"229","CITY_NAME":"西東京市","S_NAME":"緑町二丁目","SETAI":"655"}},{"type":"Feature","geometry":{"type":"Polygon","coordinates":[[[139.54323474222568,35.74240410870439],[139.54102450435394,35.742080199032905],[139.54005347581577,35.7421190700588],[139.53853566260202,35.7424282520821],[139.5369858370053,35.74253310665364],[139.53617658675216,35.74243798604635],[139.53861022582814,35.740923514619276],[139.53861046930567,35.74065837395731],[139.53947435949618,35.739884107009274],[139.54224251767698,35.74040631889889],[139.54250097687535,35.739490278253335],[139.54352947047974,35.73967283082342],[139.54323474222568,35.74240410870439]]]},"properties":{"KEY_CODE":"13229018003","PREF":"13","CITY":"229","CITY_NAME":"西東京市","S_NAME":"緑町三丁目","SETAI":"517"}},{"type":"Feature","geometry":{"type":"Polygon","coordinates":[[[139.54750163174296,35.742309117267574],[139.54600038902183,35.74229864561528],[139.54558397837224,35.7437118724464],[139.54391640676465,35.744281310437124],[139.54303930718962,35.74432129384186],[139.54323474222568,35.74240410870439],[139.54352947047974,35.73967283082342],[139.54345277593126,35.7386889604149],[139.54343783308923,35.73860572620597],[139.54563777717058,35.73882006853514],[139.54629978180108,35.73894489536814],[139.54682177949067,35.73985898257523],[139.54742713426316,35.741475367500826],[139.54750163174296,35.742309117267574]]]},"properties":{"KEY_CODE":"13229020001","PREF":"13","CITY":"229","CITY_NAME":"西東京市","S_NAME":"谷戸町一丁目","SETAI":"1325"}},{"type":"Feature","geometry":{"type":"Polygon","coordinates":[[[139.5433973786246,35.75000083305614],[139.54261593029509,35.749065034388614],[139.54192037367102,35.74826900617042],[139.54014133340334,35.746509525384774],[139.53959581718456,35.74560936478671],[139.53904091405437,35.74579176727156],[139.538802426782,35.7456311077045],[139.53793961458848,35.74400242960991],[139.53679535979205,35.74301507109447],[139.5369858370053,35.74253310665364],[139.53853566260202,35.7424282520821],[139.54005347581577,35.7421190700588],[139.54102450435394,35.742080199032905],[139.54323474222568,35.74240410870439],[139.54303930718962,35.74432129384186],[139.54285925001358,35.7481604506877],[139.54344499575447,35.74945865986958],[139.5433973786246,35.75000083305614]]]},"properties":{"KEY_CODE":"13229020002","PREF":"13","CITY":"229","CITY_NAME":"西東京市","S_NAME":"谷戸町二丁目","SETAI":"2987"}},{"type":"Feature","geometry":{"type":"Polygon","coordinates":[[[139.5457513034395,35.748830525239015],[139.5451423237594,35.74994665596539],[139.54489590802126,35.75118910064896],[139.54440726935817,35.751224266761334],[139.5433973786246,35.75000083305614],[139.54344499575447,35.74945865986958],[139.54285925001358,35.7481604506877],[139.54303930718962,35.74432129384186],[139.54391640676465,35.744281310437124],[139.54558397837224,35.7437118724464],[139.54600038902183,35.74229864561528],[139.54750163174296,35.742309117267574],[139.54723935367792,35.74320716666711],[139.54712676280798,35.74464231531602],[139.5470466911045,35.74569906291122],[139.5464616899858,35.746993694492],[139.54619015188743,35.7481799069157],[139.5457513034395,35.748830525239015]]]},"properties":{"KEY_CODE":"13229020003","PREF":"13","CITY":"229","CITY_NAME":"西東京市","S_NAME":"谷戸町三丁目","SETAI":"1768"}},{"type":"Feature","geometry":{"type":"Polygon","coordinates":[[[139.54676739581168,35.73579674090292],[139.5468503059296,35.73685174731821],[139.54638136691247,35.738949315261515],[139.54629978180108,35.73894489536814],[139.54563777717058,35.73882006853514],[139.54592037790806,35.73752506963203],[139.54587611002478,35.736763147376635],[139.54507265715216,35.734877229327644],[139.54445828811598,35.73437321985665],[139.5431672716625,35.73297008378419],[139.5423932225444,35.73174790846625],[139.5432391488124,35.73169796061715],[139.54511353102689,35.73135255007077],[139.54655428230802,35.731459430029894],[139.5465711813107,35.731461318708554],[139.54676739581168,35.73579674090292]]]},"properties":{"KEY_CODE":"13229021001","PREF":"13","CITY":"229","CITY_NAME":"西東京市","S_NAME":"北原町一丁目","SETAI":"1059"}},{"type":"Feature","geometry":{"type":"Polygon","coordinates":[[[139.5431672716625,35.73297008378419],[139.54445828811598,35.73437321985665],[139.54507265715216,35.734877229327644],[139.54587611002478,35.736763147376635],[139.54592037790806,35.73752506963203],[139.54563777717058,35.73882006853514],[139.54343783308923,35.73860572620597],[139.5433493491966,35.7372173639464],[139.54305973920964,35.73649458255838],[139.5433173683271,35.734868651799324],[139.5431672716625,35.73297008378419]]]},"properties":{"KEY_CODE":"13229021002","PREF":"13","CITY":"229","CITY_NAME":"西東京市","S_NAME":"北原町二丁目","SETAI":"531"}},{"type":"Feature","geometry":{"type":"Polygon","coordinates":[[[139.5431672716625,35.73297008378419],[139.5433173683271,35.734868651799324],[139.54305973920964,35.73649458255838],[139.5433493491966,35.7372173639464],[139.54343783308923,35.73860572620597],[139.54345277593126,35.7386889604149],[139.54246087407836,35.73866060453909],[139.54244434577237,35.738087644053365],[139.54207748320107,35.737903706493206],[139.54164164677002,35.7364265504989],[139.54171262537844,35.73585758623877],[139.54141314582952,35.73432060329285],[139.5416753354679,35.733262344290154],[139.54103855033304,35.733241032370195],[139.54089460108938,35.73219097886886],[139.5413851392692,35.7317581286668],[139.54154327313492,35.73175798344229],[139.5423932225444,35.73174790846625],[139.5431672716625,35.73297008378419]]]},"properties":{"KEY_CODE":"13229021003","PREF":"13","CITY":"229","CITY_NAME":"西東京市","S_NAME":"北原町三丁目","SETAI":"535"}},{"type":"Feature","geometry":{"type":"Polygon","coordinates":[[[139.5493573249164,35.72174041086772],[139.54834037828715,35.721984387522326],[139.54828186508874,35.721793450269644],[139.54733189932654,35.722019884601806],[139.54740639561217,35.722208465406084],[139.54637538583003,35.72244528094747],[139.54573858602106,35.723183138426805],[139.5446851282629,35.7224402084431],[139.54240118064337,35.722164349988994],[139.54234649982834,35.722151930647165],[139.54283542233895,35.720921581581784],[139.54354404013907,35.71762994508926],[139.5435789319426,35.71765166492589],[139.54634520282016,35.71872182331471],[139.54759960346092,35.71901902661913],[139.54931432006214,35.71908768462992],[139.54935214542388,35.72165492787951],[139.5493573249164,35.72174041086772]]]},"properties":{"KEY_CODE":"13229022001","PREF":"13","CITY":"229","CITY_NAME":"西東京市","S_NAME":"向台町一丁目","SETAI":"1042"}},{"type":"Feature","geometry":{"type":"Polygon","coordinates":[[[139.54234649982834,35.722151930647165],[139.54070522218893,35.72208511091096],[139.5407507516613,35.722468420209275],[139.53900815782166,35.72252326106331],[139.539254098013,35.71888396067096],[139.538811019148,35.71603305080921],[139.54039106405796,35.71643865207805],[139.54126976826126,35.716790232732535],[139.54354404013907,35.71762994508926],[139.54283542233895,35.720921581581784],[139.54234649982834,35.722151930647165]]]},"properties":{"KEY_CODE":"13229022002","PREF":"13","CITY":"229","CITY_NAME":"西東京市","S_NAME":"向台町二丁目","SETAI":"843"}},{"type":"Feature","geometry":{"type":"Polygon","coordinates":[[[139.538811019148,35.71603305080921],[139.539254098013,35.71888396067096],[139.53900815782166,35.72252326106331],[139.5389240356981,35.72319993287963],[139.53784885457029,35.722231236488035],[139.53716433053395,35.72202652429621],[139.53660445807554,35.72224682395788],[139.53634979753775,35.72095976354654],[139.53625625668658,35.71855874737721],[139.534750233763,35.718736391399226],[139.5347304026587,35.718549663002605],[139.5329841594125,35.71883383073],[139.53268808675065,35.71690280665689],[139.53361098599024,35.71649755863175],[139.53402578588287,35.71645477011733],[139.53704050758117,35.71616275712425],[139.53815505564933,35.71595277293848],[139.538811019148,35.71603305080921]]]},"properties":{"KEY_CODE":"13229022003","PREF":"13","CITY":"229","CITY_NAME":"西東京市","S_NAME":"向台町三丁目","SETAI":"1555"}},{"type":"Feature","geometry":{"type":"Polygon","coordinates":[[[139.53323059926177,35.72308157335358],[139.53313148316602,35.723059250504],[139.53225877132576,35.72203835327161],[139.5313655448642,35.72122425227409],[139.5310052932689,35.720304077153834],[139.53094057475525,35.71951762504078],[139.53043251683928,35.717315008653486],[139.53116083153094,35.71673123708045],[139.53268452681692,35.716570142644336],[139.53361098599024,35.71649755863175],[139.53268808675065,35.71690280665689],[139.5329841594125,35.71883383073],[139.5347304026587,35.718549663002605],[139.534750233763,35.718736391399226],[139.53625625668658,35.71855874737721],[139.53634979753775,35.72095976354654],[139.53660445807554,35.72224682395788],[139.53413496997172,35.72304176404412],[139.53323059926177,35.72308157335358]]]},"properties":{"KEY_CODE":"13229022004","PREF":"13","CITY":"229","CITY_NAME":"西東京市","S_NAME":"向台町四丁目","SETAI":"1619"}},{"type":"Feature","geometry":{"type":"Polygon","coordinates":[[[139.53313148316602,35.723059250504],[139.53207001827727,35.723240130246694],[139.5314654951127,35.722839347554185],[139.52939880955856,35.722370751384],[139.5283849607903,35.72224333946034],[139.52832560229973,35.722195622477365],[139.52806524404048,35.7198161713093],[139.5275167716831,35.7184343413283],[139.52983367528878,35.71762526166591],[139.53043251683928,35.717315008653486],[139.53094057475525,35.71951762504078],[139.5310052932689,35.720304077153834],[139.5313655448642,35.72122425227409],[139.53225877132576,35.72203835327161],[139.53313148316602,35.723059250504]]]},"properties":{"KEY_CODE":"13229022005","PREF":"13","CITY":"229","CITY_NAME":"西東京市","S_NAME":"向台町五丁目","SETAI":"354"}},{"type":"Feature","geometry":{"type":"Polygon","coordinates":[[[139.52832560229973,35.722195622477365],[139.52745435093647,35.72224202061861],[139.525896820186,35.722820997028606],[139.52425918449663,35.72268958134218],[139.52370061603986,35.72243584049121],[139.52346024690286,35.72199202996265],[139.5247326592007,35.71927795164144],[139.52293099693804,35.718895658461655],[139.5229337138182,35.717521405628986],[139.52643843582163,35.71744736835323],[139.5268442332856,35.71867694909987],[139.5275167716831,35.7184343413283],[139.52806524404048,35.7198161713093],[139.52832560229973,35.722195622477365]]]},"properties":{"KEY_CODE":"13229022006","PREF":"13","CITY":"229","CITY_NAME":"西東京市","S_NAME":"向台町六丁目","SETAI":"731"}},{"type":"Feature","geometry":{"type":"Polygon","coordinates":[[[139.5283849607903,35.72224333946034],[139.5284582949537,35.72252051478206],[139.53073940142735,35.72523559557782],[139.53214602572697,35.726471769644505],[139.5237174825784,35.72555779214023],[139.52062770036454,35.7251888862252],[139.5232763823049,35.7230844435966],[139.52298747390319,35.72284280098131],[139.52346024690286,35.72199202996265],[139.52370061603986,35.72243584049121],[139.52425918449663,35.72268958134218],[139.525896820186,35.722820997028606],[139.52745435093647,35.72224202061861],[139.52832560229973,35.722195622477365],[139.5283849607903,35.72224333946034]]]},"properties":{"KEY_CODE":"13229023001","PREF":"13","CITY":"229","CITY_NAME":"西東京市","S_NAME":"芝久保町一丁目","SETAI":"2329"}},{"type":"Feature","geometry":{"type":"Polygon","coordinates":[[[139.52062770036454,35.7251888862252],[139.5237174825784,35.72555779214023],[139.53214602572697,35.726471769644505],[139.53225699898044,35.726585489848844],[139.53279497838807,35.72704192690189],[139.53162557415556,35.727638983949966],[139.53065886084633,35.72780987592468],[139.53056408533644,35.72939011675439],[139.52960526262908,35.72890560493783],[139.5273487288282,35.72823594223908],[139.52372551759512,35.727407779512156],[139.521181271182,35.7265447218154],[139.51949264761677,35.72607163196054],[139.52053200624658,35.72526329828383],[139.52062770036454,35.7251888862252]]]},"properties":{"KEY_CODE":"13229023002","PREF":"13","CITY":"229","CITY_NAME":"西東京市","S_NAME":"芝久保町二丁目","SETAI":"2021"}},{"type":"Feature","geometry":{"type":"Polygon","coordinates":[[[139.53093514121304,35.73010197154157],[139.52893673647534,35.72983443766922],[139.5262338551975,35.72967181420093],[139.52509432229743,35.72969016969026],[139.52284957526604,35.73016697889671],[139.52172198039958,35.73027802165624],[139.5167554586852,35.7303668288007],[139.51752880669224,35.72841011318797],[139.51774443107828,35.72745454359685],[139.51949264761677,35.72607163196054],[139.521181271182,35.7265447218154],[139.52372551759512,35.727407779512156],[139.5273487288282,35.72823594223908],[139.52960526262908,35.72890560493783],[139.53056408533644,35.72939011675439],[139.53093514121304,35.73010197154157]]]},"properties":{"KEY_CODE":"13229023003","PREF":"13","CITY":"229","CITY_NAME":"西東京市","S_NAME":"芝久保町三丁目","SETAI":"1742"}},{"type":"Feature","geometry":{"type":"Polygon","coordinates":[[[139.53062007608494,35.73023626010043],[139.52888849079454,35.730403363146344],[139.52722163940342,35.7309218342],[139.52525258933676,35.7321800057582],[139.52221786801675,35.73276851956211],[139.5198086255572,35.73304484509655],[139.51678145412893,35.73046991852418],[139.5167554586852,35.7303668288007],[139.52172198039958,35.73027802165624],[139.52284957526604,35.73016697889671],[139.52509432229743,35.72969016969026],[139.5262338551975,35.72967181420093],[139.52893673647534,35.72983443766922],[139.53093514121304,35.73010197154157],[139.530989067693,35.73021759237434],[139.53062007608494,35.73023626010043]]]},"properties":{"KEY_CODE":"13229023004","PREF":"13","CITY":"229","CITY_NAME":"西東京市","S_NAME":"芝久保町四丁目","SETAI":"1663"}},{"type":"Feature","geometry":{"type":"Polygon","coordinates":[[[139.53062007608494,35.73023626010043],[139.5309227880624,35.73157804198411],[139.5284744602176,35.7323934537438],[139.53082302215736,35.733825568031264],[139.5286115851619,35.73437173390106],[139.52348694881863,35.735650260186894],[139.5220422432087,35.73468085917898],[139.52027975701344,35.733487484256976],[139.5202719516457,35.733440952469465],[139.51987436580083,35.73310105106061],[139.5198086255572,35.73304484509655],[139.52221786801675,35.73276851956211],[139.52525258933676,35.7321800057582],[139.52722163940342,35.7309218342],[139.52888849079454,35.730403363146344],[139.53062007608494,35.73023626010043]]]},"properties":{"KEY_CODE":"13229023005","PREF":"13","CITY":"229","CITY_NAME":"西東京市","S_NAME":"芝久保町五丁目","SETAI":"1109"}}]}