{"type":"FeatureCollection","features":[{"type":"Feature","geometry":{"type":"Polygon","coordinates":[[[139.51602378029756,34.047960095099654],[139.517288536232,34.04780007560248],[139.5179564201231,34.047909136022945],[139.519140208462,34.047819045079834],[139.52043771156715,34.04680903874917],[139.52047607415474,34.047187244064524],[139.52222235605126,34.046934998002136],[139.52188147980277,34.04772542827788],[139.52230741718077,34.0482291468259],[139.523482142381,34.04903791499365],[139.52516398844892,34.04933671013501],[139.52606252189358,34.04912510954171],[139.52688949925428,34.048261073447094],[139.5275142868475,34.0473131306638],[139.52832886186025,34.04645947799975],[139.52920714372098,34.04648799492825],[139.52949896744005,34.0470953242351],[139.52995621316373,34.046481250608174],[139.52989259311545,34.047268445077016],[139.5308712655519,34.04715942310536],[139.5313237853358,34.04681975690468],[139.53204500248413,34.047674102213676],[139.53153282678596,34.048838026476716],[139.53250901922496,34.048284945963935],[139.53280746364197,34.04872083922387],[139.53339754067096,34.048837092848316],[139.5334822714164,34.04933543458062],[139.5339048193284,34.04944676993327],[139.53407516947897,34.05019297805403],[139.53364289831072,34.050541718775605],[139.53388896465347,34.05088422314952],[139.53408141178858,34.05188124303141],[139.5338257660264,34.052724040763415],[139.534477178882,34.053082322146295],[139.5365952083483,34.05330777767994],[139.53684984161242,34.05352660691979],[139.53792371755472,34.05364400284949],[139.53820192707443,34.053294878160884],[139.5387412653458,34.053634693145064],[139.53835482687566,34.054018354965955],[139.53909162998443,34.054697303668036],[139.53952492506875,34.05483442467362],[139.5397983447982,34.05548507233435],[139.54053363623802,34.056216837494986],[139.54147412208286,34.05662859450903],[139.54223321532925,34.056336810468444],[139.54334301840566,34.05623138141855],[139.54413758461934,34.05663488517381],[139.54527785962108,34.0559165638236],[139.5462326983296,34.05608080194426],[139.54617647303195,34.05632241177885],[139.5452392280183,34.05614708529311],[139.544308418796,34.056935490657814],[139.54322529719693,34.05638127570353],[139.54280456075568,34.05660737268548],[139.54371125373825,34.057068762259334],[139.54376286531948,34.057307807212666],[139.54565079532227,34.05819523983976],[139.5460704195771,34.05747212459513],[139.5450343827037,34.05687802690793],[139.54517861418492,34.056695791237445],[139.54638966477899,34.05735791597422],[139.54641259454996,34.057891885210545],[139.54924203152333,34.05809089215813],[139.55069964438326,34.058714243869325],[139.5511933672933,34.05946229766752],[139.5527246566285,34.060191311307086],[139.55338432637149,34.06010448833997],[139.55521163401903,34.06223951561392],[139.555209788732,34.06325550068364],[139.55540018807395,34.06358712871902],[139.55706548190201,34.06393194730702],[139.5572044172955,34.06445011658422],[139.5577246066265,34.06457455197682],[139.55872926308666,34.064296745096655],[139.55864436058172,34.065111940457406],[139.55889821307798,34.06524690362781],[139.55839535917605,34.06577870797388],[139.5591587617652,34.06563475282349],[139.5598050950693,34.06606811645433],[139.55979844743374,34.06720482365373],[139.56070623789623,34.06728530833035],[139.56103663081922,34.0678250286059],[139.5606213219302,34.06810938017013],[139.5610218070255,34.06871279174064],[139.56199015070496,34.06857546622096],[139.56282467422034,34.06865816854056],[139.56324076657043,34.06906381749056],[139.56281335091396,34.06986079463009],[139.56285050701604,34.07134866075033],[139.56345849951148,34.071754591192786],[139.5632727233725,34.072640711529786],[139.56382412808006,34.073877116378085],[139.56378451402372,34.07446349326623],[139.56320654821855,34.07468325776974],[139.562946079967,34.07783547271349],[139.56307891358708,34.078494497270285],[139.56366813118862,34.079277508942596],[139.565467270013,34.0794768352465],[139.5662502470613,34.08013825692542],[139.56633362226427,34.079622271423936],[139.56709945167506,34.07954518284545],[139.5668377086641,34.0803818366731],[139.56325509093165,34.080030707407055],[139.56302647158788,34.080461424439775],[139.56272636245745,34.081813590162454],[139.5618227656366,34.08230367655],[139.56143030001294,34.082907165556335],[139.56109158951585,34.084201624028765],[139.56132687401364,34.08583080385476],[139.56165205768164,34.086732278477136],[139.56233684720974,34.087376874365994],[139.56310438604254,34.0878130150369],[139.56333410366742,34.088537044483935],[139.56284610324983,34.090090649474355],[139.56330072528678,34.0911374915536],[139.56425890212319,34.09112325136658],[139.56392156720773,34.091670791345926],[139.56422230724786,34.09208167330945],[139.5646187037875,34.09202788190382],[139.56458543940477,34.092521992843274],[139.56633535489576,34.093227921684736],[139.56621231208067,34.0938976484908],[139.56526233914576,34.09376414359464],[139.56486374383292,34.094245341436775],[139.56514876366623,34.09537055699578],[139.56556806399968,34.095610253412225],[139.5654715931896,34.09696059995125],[139.56520878307256,34.09790824629404],[139.56468953818805,34.09869670785931],[139.5647175113769,34.09902838510254],[139.5638336636849,34.09946752179399],[139.56348075562033,34.09994177157999],[139.563640877228,34.10065466217202],[139.5652421786975,34.10095612068712],[139.56562696693192,34.101200390890604],[139.56507799314474,34.10235548165927],[139.56451358334684,34.10226690389727],[139.5636496112272,34.10249491220117],[139.56330063971453,34.103945710249775],[139.56349447638266,34.10544955525344],[139.56305603989404,34.105949400634934],[139.54788822467248,34.095911595237595],[139.54733274833134,34.09570420204758],[139.54685467792592,34.09514564335599],[139.54622936017375,34.094845803173776],[139.5461172636459,34.09475199859464],[139.5459573116421,34.09455777797317],[139.54541845945351,34.09402216929036],[139.54536012708135,34.09385946067886],[139.5454804124449,34.09311591982563],[139.54619272708078,34.09300855864593],[139.54655073630258,34.0932053568851],[139.54688817865792,34.09314374083052],[139.54750074678782,34.09246150305304],[139.5472778091916,34.0918953680409],[139.54714412289286,34.09185279285961],[139.54628364059624,34.09145209579489],[139.54647163962272,34.09126108778913],[139.54662841001536,34.09080938635264],[139.54689258396584,34.09025326633938],[139.5474018014417,34.0900496260241],[139.54740234051508,34.08988931045847],[139.54718402290592,34.089543655057575],[139.54739366807573,34.08928352563478],[139.54721266206545,34.08898923607148],[139.54704177581627,34.088864160242224],[139.5465082252898,34.088352936673566],[139.54615562166055,34.088147132298346],[139.54686881312398,34.08777253215849],[139.5469017136897,34.0875432638561],[139.5466724418716,34.087273229981854],[139.54686576951374,34.08708660207741],[139.54711232234385,34.08698927170055],[139.5473477899928,34.08700320769311],[139.54789925450925,34.08696885728679],[139.54746186009552,34.08651351134686],[139.54711409100472,34.08646367148547],[139.54643089740225,34.08588532523433],[139.54583163441245,34.08581276932049],[139.5454787089456,34.08571163281706],[139.54467227505287,34.08517750048981],[139.5446354740342,34.08497709006166],[139.5449842538812,34.084726174705516],[139.54494201431814,34.08455688411608],[139.54451957209275,34.08443120926471],[139.54393094383408,34.084389662756465],[139.54378071670254,34.08449172176576],[139.54339035749086,34.08437950190148],[139.54329974912426,34.08426348815542],[139.54368591328355,34.08403506396719],[139.5447668637981,34.08347723133982],[139.54519721906897,34.08288967765422],[139.54415314038718,34.08231525436026],[139.54352652320546,34.08202370506859],[139.54289168932098,34.081226395989034],[139.54328362388242,34.080220218861434],[139.54362613478847,34.079101927930054],[139.5440355480696,34.07881284016317],[139.54403630881956,34.0785889920893],[139.54338893138598,34.07855420846982],[139.54299237415742,34.077989629166204],[139.54388270986288,34.07688518132549],[139.5438740607199,34.07650381599752],[139.54397704892676,34.07550934950831],[139.5437295181894,34.075069518269046],[139.5424357968201,34.07470580785694],[139.54176056120056,34.074082523986895],[139.541333295513,34.073774821792384],[139.54122327031857,34.07390712138122],[139.5410817520927,34.07450366325558],[139.53980912443657,34.07380850322837],[139.53932314695598,34.07319383202776],[139.53930492196577,34.07270481735991],[139.5394562089437,34.07216225613989],[139.53776385330545,34.07186798039707],[139.5377745954628,34.07164430004754],[139.5375175133082,34.07109652822557],[139.53649170651707,34.07105262736171],[139.53629288808114,34.07093606582722],[139.53597415319,34.070935291894656],[139.53576542010077,34.07081039401896],[139.5351368741186,34.07057473414042],[139.5351558521782,34.07034529942201],[139.5352391661928,34.070192091451474],[139.5352994340434,34.07003375683855],[139.53522358868895,34.06992073396613],[139.53474650361542,34.069482446916474],[139.53448891057116,34.069268679962796],[139.5338670567676,34.06905205464232],[139.53342616139815,34.069167340458776],[139.5333245885711,34.069144270887186],[139.53329094868838,34.06907713387997],[139.53314769883755,34.06886533579679],[139.53300336161527,34.06895654987915],[139.5328387705558,34.068790623977605],[139.53287827766638,34.06839416610493],[139.53224085920866,34.06779333789752],[139.5320548306371,34.06770131535736],[139.53206823526003,34.0675004650204],[139.5324366832083,34.06750841124891],[139.5328812013404,34.067564157011574],[139.5329025555442,34.067514763233596],[139.53283141862184,34.06726792288389],[139.5327310559227,34.06690817268844],[139.53251145422794,34.06672436108633],[139.53254974595396,34.06667853117326],[139.53297729162387,34.06673958783482],[139.5331669295115,34.066683702541994],[139.5327784040058,34.066376074959514],[139.53241002147482,34.066326995106316],[139.5320948869993,34.06610716770773],[139.53182048888507,34.06628173918724],[139.53164083176773,34.06646527627624],[139.53138906689898,34.066193056824495],[139.53076824683882,34.066068830046696],[139.53068978784492,34.06591959426788],[139.5309222977831,34.06568364284223],[139.53108080367534,34.065521889343216],[139.5311927941055,34.06512335696506],[139.53101489131677,34.064811873952436],[139.53087016152182,34.065021275424535],[139.53085318683617,34.06535087401013],[139.53074267622367,34.06562417518193],[139.53055084130082,34.06566159761248],[139.53038848871907,34.065106725177735],[139.53023374118007,34.06498477031243],[139.53010448305457,34.06539467059678],[139.5300586808014,34.065440200057864],[139.52991331802784,34.065249805264145],[139.5296489828959,34.06513518597778],[139.52922935397515,34.065058218261136],[139.52881740844356,34.06538387956022],[139.52850520324762,34.065899683342806],[139.52800360078163,34.065769257922376],[139.52738432835955,34.06535749725945],[139.5268908898017,34.06550066134559],[139.5267359340495,34.06543195162932],[139.5261886164181,34.06532422572694],[139.52597818587822,34.06546034610864],[139.52569483399975,34.06556219189971],[139.5255750562653,34.06586575304943],[139.5253554264971,34.06601720451288],[139.52452572929099,34.06574168780474],[139.52425313436356,34.06539149762099],[139.52403587363932,34.06488958547536],[139.5236141956187,34.06537847760955],[139.5235115396963,34.065993550022455],[139.52239823110276,34.06589198621687],[139.5218677333029,34.066179289957354],[139.52118138068977,34.06664103004866],[139.52071490741142,34.06689046445118],[139.52031241169558,34.067113575172776],[139.51987169400195,34.06780386358043],[139.51983466943733,34.06794041655405],[139.5196411633327,34.06843382684575],[139.51946749101364,34.0684941033417],[139.51891163119313,34.068219257143724],[139.51899152558687,34.068834793815284],[139.51916326829556,34.069298561870546],[139.51863113648946,34.07001143665313],[139.51819061933023,34.07064085954595],[139.51807495545654,34.071655546617095],[139.51754687774107,34.07111846696999],[139.51744797461737,34.07000236696974],[139.51701219788066,34.05448133117934],[139.51697513813997,34.053824339577666],[139.51634279612995,34.05063598788646],[139.51602378029756,34.047960095099654]]]},"properties":{"KEY_CODE":"133810010","PREF":"13","CITY":"381","CITY_NAME":"三宅村","S_NAME":"坪田","SETAI":"342"}},{"type":"Feature","geometry":{"type":"Polygon","coordinates":[[[139.5038755249622,34.08299699948749],[139.5022509579021,34.08304730287351],[139.50108968320433,34.082722703026604],[139.50101221243273,34.083019173492865],[139.49999108510633,34.08307417324152],[139.49951915507933,34.082755788007184],[139.49868197595023,34.082801836682755],[139.49805019982443,34.08317343345133],[139.49618390779713,34.08311325823157],[139.49552188516506,34.08336459554284],[139.49456241618893,34.08407534603518],[139.49376777647447,34.08419698623621],[139.4919879550664,34.0840216110746],[139.49060417538757,34.08371080535742],[139.48985828225045,34.08334710466652],[139.48915281152264,34.082623297248205],[139.48800085875592,34.081995860814956],[139.48684523410006,34.08207840748865],[139.48621265016067,34.08174796756893],[139.48391283664878,34.08204589147014],[139.48330185081616,34.08264272828109],[139.48333942487662,34.08314082579529],[139.48275667370302,34.08406372383349],[139.48213720157787,34.0843263763747],[139.48180517397603,34.08342481888824],[139.48110404435994,34.0826499753108],[139.47941950812833,34.081538147663565],[139.47937329840116,34.080980010734784],[139.4781883514943,34.080238270664495],[139.4765901785503,34.07973945583431],[139.4762208666123,34.07992602830541],[139.4751416378858,34.078829702664365],[139.47480774872895,34.07890649202918],[139.4742274133096,34.078367221022475],[139.47368715513545,34.0785628658952],[139.47364179143273,34.07768818405694],[139.4729752177909,34.07649725055743],[139.47348271736615,34.07654945204413],[139.4736350908776,34.076116567781504],[139.47413435804899,34.07619353641211],[139.4744334748144,34.07556723635818],[139.47397255578838,34.075088606678875],[139.47489593680635,34.074381294360585],[139.4745652187092,34.07393009431082],[139.4752057411614,34.07392801742584],[139.4753390250186,34.07354297258785],[139.4763367337845,34.07271541773541],[139.47677762978168,34.07301295670689],[139.47853413984927,34.07255427910886],[139.47913779661758,34.072015624412174],[139.48028057908314,34.07060354307688],[139.47995809335774,34.07031720432017],[139.4802812442898,34.069650386416825],[139.48012657883646,34.06854238477049],[139.4794974603908,34.06878414875972],[139.4774077589779,34.06787412258978],[139.47748463239938,34.06774727605278],[139.47899488946246,34.06839614089815],[139.4796451956109,34.06809118764536],[139.4789022893777,34.066268100881196],[139.47944982200517,34.06605174426486],[139.4801604298495,34.06642245713709],[139.4793141238356,34.06638367785908],[139.47993206144088,34.067836043098595],[139.48053273531946,34.06765984344135],[139.48027992901538,34.06706899315632],[139.48057921175018,34.06697194426276],[139.48081894472412,34.0675571214619],[139.48185315404993,34.06753106234537],[139.48141665761256,34.066513120710205],[139.48005917691694,34.0661321049505],[139.48016696010012,34.06589771715022],[139.47862670270666,34.06491561134918],[139.4777707449241,34.063703868767305],[139.47828219107004,34.06336964204212],[139.47796344778757,34.06299554345622],[139.47796053692798,34.061946721809],[139.47761292187585,34.06191204680522],[139.47779774549636,34.06002204063829],[139.47840753913187,34.06014904056315],[139.47886347494912,34.059353708693465],[139.4784688955404,34.05776843185117],[139.47906858600243,34.05765464429391],[139.4790701620638,34.056994649792685],[139.47953417279902,34.057139396992014],[139.48011613832733,34.05776430137764],[139.4806438485551,34.05743053444941],[139.48131764399125,34.056322230898104],[139.48134060506197,34.05478647871255],[139.4810951029352,34.05366384711139],[139.48124351397226,34.05285494417549],[139.4815642335787,34.052472118558754],[139.48142136819453,34.05193906030714],[139.48183925072328,34.05214142609229],[139.48182711370833,34.051662838230826],[139.48237294680294,34.05144914095951],[139.48247567365792,34.05182528940595],[139.48308122212,34.05158752893968],[139.48466513629438,34.05253843286104],[139.48559666443492,34.0525430448468],[139.48654686498946,34.05200392417498],[139.48703824361698,34.05245442014635],[139.48803455088705,34.05233903019686],[139.48893657681336,34.0518801948002],[139.4888575924398,34.05105035967778],[139.48938728324052,34.05133514303964],[139.49025507866645,34.05080365181201],[139.49070410561808,34.05028338444428],[139.49069230024003,34.04971027088778],[139.4914635293601,34.049402493336935],[139.49195606791852,34.0495662924305],[139.49218777886875,34.04867942150159],[139.4926397026808,34.04821733581849],[139.49329115121287,34.048243934312566],[139.49359702708003,34.04861669123346],[139.49445458852347,34.0488786924203],[139.49688085039094,34.04818478642276],[139.4988449230832,34.04703905067791],[139.49900725187948,34.04676718005111],[139.49998657011056,34.04660445054304],[139.50081570527357,34.045856393313585],[139.50046994336782,34.04558328695323],[139.501666643116,34.04575387987758],[139.50183868955494,34.04525409577913],[139.50199269575356,34.04598832985993],[139.5027646221355,34.046109164861384],[139.5029077304624,34.0458585103947],[139.50353365778392,34.04661133679961],[139.5045971993031,34.04670209004446],[139.50482587498487,34.04715434601728],[139.50532600786323,34.04702494866201],[139.5054969201707,34.04738745377849],[139.506438956503,34.04771087365787],[139.50884577772692,34.047389148457256],[139.50935968801932,34.04759660360938],[139.50976417708375,34.048269922788094],[139.5112067116219,34.048374150176734],[139.51264178003422,34.0487489622516],[139.51388499093716,34.048601600190736],[139.51602378029756,34.047960095099654],[139.51634279612995,34.05063598788646],[139.51697513813997,34.053824339577666],[139.51701219788066,34.05448133117934],[139.51744797461737,34.07000236696974],[139.51754687774107,34.07111846696999],[139.51807495545654,34.071655546617095],[139.51823089298594,34.071809916580584],[139.51804733779028,34.07236687890301],[139.51735877367764,34.07201224226052],[139.51625393425087,34.0715838457655],[139.5151521048656,34.07146325242727],[139.5130584730608,34.0713975651926],[139.51226565727416,34.07151511475217],[139.5109280243326,34.0720823167895],[139.51062664689275,34.07234538786827],[139.509746276036,34.073601792285686],[139.50814539921907,34.075646016533916],[139.50706930143502,34.0766699932763],[139.50700831139005,34.07723473314332],[139.50661783889205,34.077679420641765],[139.50621971869495,34.078157896361496],[139.5059133357726,34.07843742012412],[139.5057240737982,34.07863188618598],[139.5056578701298,34.07909067677818],[139.50537502364415,34.07951648973902],[139.50494591125658,34.07966889888694],[139.50433151484881,34.0800963608301],[139.50444903546867,34.08060565198284],[139.50425554103435,34.08120370708206],[139.50416976755182,34.081625395205194],[139.50392668209813,34.08222895212856],[139.50375121809793,34.08265561180363],[139.5038755249622,34.08299699948749]]]},"properties":{"KEY_CODE":"133810020","PREF":"13","CITY":"381","CITY_NAME":"三宅村","S_NAME":"阿古","SETAI":"444"}},{"type":"Feature","geometry":{"type":"Polygon","coordinates":[[[139.50503035922395,34.09456102536254],[139.50424609518066,34.09471488107978],[139.50322561378792,34.09552682751254],[139.50235000014445,34.096760652012286],[139.50213378279645,34.098532974095804],[139.5016575454013,34.09879033907286],[139.50053659817354,34.10037116774622],[139.49904375410108,34.1010309288775],[139.49881098729549,34.10128401207763],[139.49793931868498,34.10138180574311],[139.49769606245707,34.10178629809496],[139.49701380319004,34.10185698985283],[139.49665069598794,34.10243485013447],[139.495374137045,34.10239177019418],[139.49533320176675,34.102714822512446],[139.4946682332311,34.103415676051924],[139.49398670740408,34.103521850536204],[139.49319205206842,34.10323241722956],[139.4927312569879,34.10199765237867],[139.491658474626,34.10109703437594],[139.4911125136991,34.100885335853434],[139.49015920961187,34.100911986823164],[139.48957962454915,34.10055762394011],[139.48899706197716,34.10124627850247],[139.48907822307677,34.10071851092109],[139.4885351184178,34.10049384896781],[139.48840565493654,34.10130674983975],[139.48980486413106,34.1019927685378],[139.4892187439439,34.10272170353034],[139.48895229358683,34.10258656560772],[139.48950968952542,34.10200955444045],[139.48828610082663,34.10134755022638],[139.4882393803501,34.100707712599245],[139.48850893862806,34.09994549570577],[139.4884272629951,34.099270764404764],[139.48803287522355,34.098634038801926],[139.48768289250296,34.09861333587576],[139.48787599210405,34.097341506759264],[139.48844806479195,34.09608876869467],[139.48845512198173,34.095633484665875],[139.48687277958444,34.09401294247227],[139.48632237006265,34.09381529811152],[139.48583610470814,34.093159707730045],[139.48483525074232,34.09288922227318],[139.4832890685713,34.09179615296556],[139.48260885574243,34.09074385214763],[139.48219141321306,34.08983373704099],[139.4823419855083,34.088765210218064],[139.48177324954491,34.08840294594037],[139.48230734365657,34.087680376269205],[139.48210187070868,34.08690159766468],[139.48187787082685,34.0872689222804],[139.48108934659246,34.086872216809816],[139.48105745293188,34.08596545860915],[139.48136541907064,34.08636980431464],[139.4811706204079,34.08545807203709],[139.4819396725074,34.085256849892374],[139.48213720157787,34.0843263763747],[139.48275667370302,34.08406372383349],[139.48333942487662,34.08314082579529],[139.48330185081616,34.08264272828109],[139.48391283664878,34.08204589147014],[139.48621265016067,34.08174796756893],[139.48684523410006,34.08207840748865],[139.48800085875592,34.081995860814956],[139.48915281152264,34.082623297248205],[139.48985828225045,34.08334710466652],[139.49060417538757,34.08371080535742],[139.4919879550664,34.0840216110746],[139.49376777647447,34.08419698623621],[139.49456241618893,34.08407534603518],[139.49552188516506,34.08336459554284],[139.49618390779713,34.08311325823157],[139.49805019982443,34.08317343345133],[139.49868197595023,34.082801836682755],[139.49951915507933,34.082755788007184],[139.49999108510633,34.08307417324152],[139.50101221243273,34.083019173492865],[139.50108968320433,34.082722703026604],[139.5022509579021,34.08304730287351],[139.5038755249622,34.08299699948749],[139.5040180910979,34.0837400666312],[139.50399151352906,34.08548654741936],[139.50353665841033,34.086852226752306],[139.50341239299618,34.088207946083116],[139.5027670744338,34.089232060049255],[139.5027455548061,34.08966659875498],[139.5022607550476,34.090212591656766],[139.50215981875135,34.09066889265089],[139.50159294678554,34.09191607398641],[139.50180325409173,34.09224121319695],[139.50187574276478,34.09230198445297],[139.50243048940573,34.09247393176537],[139.50298639151663,34.09234891876406],[139.50347971411855,34.093013050462666],[139.5037308463894,34.09304133347021],[139.50418720566634,34.09300944753739],[139.50468241245596,34.09318897406994],[139.50456883872835,34.09349464892868],[139.50413668892946,34.094106859832955],[139.50423461853043,34.094426059363194],[139.5049155156352,34.09446647445374],[139.50503035922395,34.09456102536254]]]},"properties":{"KEY_CODE":"133810030","PREF":"13","CITY":"381","CITY_NAME":"三宅村","S_NAME":"伊ヶ谷","SETAI":"79"}},{"type":"Feature","geometry":{"type":"Polygon","coordinates":[[[139.51200794005112,34.12024139397067],[139.51040720820805,34.12042568535667],[139.50969600631217,34.120621318285366],[139.50826018755677,34.12161632939655],[139.50795103389677,34.12220309775678],[139.50649188953676,34.12268932946661],[139.50538207140605,34.12218317207404],[139.50338026986128,34.121473446635406],[139.5018062533203,34.12129114858626],[139.50096607340382,34.12139707198259],[139.49977560110094,34.12183731999264],[139.49862484228288,34.12171811306184],[139.49833045709389,34.121845224956424],[139.4975198732928,34.12061177616272],[139.49633376262864,34.120154349775056],[139.49487479409362,34.120195961357645],[139.49450522921768,34.11986983871882],[139.4936848758588,34.119878846618235],[139.49316054941988,34.11954211841072],[139.491440279071,34.11794322319168],[139.49150164596927,34.11740469250192],[139.4911153470233,34.11679391741232],[139.49065131305983,34.115375436562196],[139.4900884170662,34.11477487321803],[139.49011854557554,34.11440305055129],[139.48929910557516,34.11328053564703],[139.48948684085056,34.11221718150514],[139.4906695069034,34.11093289403731],[139.49189498908368,34.109226658191986],[139.49188884928034,34.10812163011822],[139.49239809178945,34.10729357794852],[139.49320816453184,34.106745284030076],[139.49365995084196,34.106187544760076],[139.4942063763204,34.10449124282198],[139.49431255824038,34.10377082607297],[139.49398670740408,34.103521850536204],[139.4946682332311,34.103415676051924],[139.49533320176675,34.102714822512446],[139.495374137045,34.10239177019418],[139.49665069598794,34.10243485013447],[139.49701380319004,34.10185698985283],[139.49769606245707,34.10178629809496],[139.49793931868498,34.10138180574311],[139.49881098729549,34.10128401207763],[139.49904375410108,34.1010309288775],[139.50053659817354,34.10037116774622],[139.5016575454013,34.09879033907286],[139.50213378279645,34.098532974095804],[139.50235000014445,34.096760652012286],[139.50322561378792,34.09552682751254],[139.50424609518066,34.09471488107978],[139.50503035922395,34.09456102536254],[139.50505842054525,34.09470521329487],[139.50515504149098,34.09509019648142],[139.50579133710207,34.09586754285657],[139.50632308351763,34.09612745803441],[139.50657913284132,34.096508638779774],[139.50714435863722,34.09730043930325],[139.50739050313985,34.09794742113912],[139.50762879558457,34.09832488930696],[139.50856774234927,34.09892199579488],[139.50868259510148,34.099077400700224],[139.50914875070083,34.1002457700475],[139.50945777282547,34.100708226803846],[139.50993535180143,34.1012118409598],[139.51037805624424,34.101552793301884],[139.51187565008843,34.102372945422175],[139.51235251087624,34.10307222630628],[139.51280538861627,34.10307340874805],[139.51301761847952,34.10331034961024],[139.5137547464322,34.10329015224895],[139.51385127603942,34.103593283703574],[139.51409955980128,34.10369000558215],[139.5146953424059,34.103473620021205],[139.51466549661637,34.10432301571513],[139.5153586992677,34.104180697578876],[139.51558086120704,34.10413703804829],[139.5163439628915,34.10429411366296],[139.51635981662457,34.10480383818027],[139.51674135584344,34.104886107239984],[139.51755620622404,34.10545705765856],[139.51814236757798,34.10544377282963],[139.51860951798747,34.10560627248958],[139.51874821157725,34.10560254320032],[139.51891299043496,34.10802150354774],[139.51887028299245,34.1129280572717],[139.51860739763748,34.118163402283706],[139.51926261399234,34.119312924193345],[139.5192555863112,34.12013518927759],[139.51961531498551,34.12100516438719],[139.51967618000282,34.122015671909956],[139.51951246753603,34.12249690295034],[139.51863142283625,34.121971158354675],[139.51603826430244,34.120170871142285],[139.5148882519628,34.11903512118881],[139.51456432314518,34.118362026345714],[139.51402990386634,34.118572090312234],[139.5126078345145,34.118488647715125],[139.51201360686946,34.11874616324033],[139.51200794005112,34.12024139397067]]]},"properties":{"KEY_CODE":"133810040","PREF":"13","CITY":"381","CITY_NAME":"三宅村","S_NAME":"伊豆","SETAI":"244"}},{"type":"Feature","geometry":{"type":"Polygon","coordinates":[[[139.56305603989404,34.105949400634934],[139.56269546977498,34.106685804773896],[139.5620855217452,34.10729980014856],[139.56196965055966,34.10794644230746],[139.56154122383884,34.10869889427516],[139.5602215264957,34.109159867166696],[139.5590834978956,34.11042901203493],[139.55882310744792,34.110886839651414],[139.5591381149653,34.111565714907755],[139.55827767763884,34.11148039560994],[139.55784219054894,34.11184907699723],[139.55692460512623,34.111797993927674],[139.5562916833592,34.11244853747135],[139.5556071142242,34.11251010538701],[139.55357243379797,34.11420444134487],[139.55382634245817,34.11458368938536],[139.5545421890905,34.11489411104138],[139.55454095227947,34.1152322070924],[139.55398946890796,34.11529857558694],[139.55305135417103,34.1148495873854],[139.5514517449113,34.11560778120295],[139.55134873585757,34.116305719166654],[139.54979071494213,34.11682055546726],[139.5481726402731,34.11665170970674],[139.5473703018623,34.1169676597509],[139.54711625391968,34.11737729536083],[139.54730581280862,34.118261301093945],[139.5467894786345,34.11982380549402],[139.54555086001739,34.12060304016917],[139.54481108342793,34.12087572565485],[139.54437208577588,34.12134802880789],[139.54148948971562,34.122323381453235],[139.5409586293195,34.12265570734828],[139.54067848666838,34.12348450445925],[139.53979793747305,34.12369878434801],[139.5397881960232,34.12422619233049],[139.53937330790777,34.123824554732],[139.53732993833043,34.123344055270664],[139.53604829222726,34.12334602992135],[139.53585571007864,34.12398287651241],[139.53509123187908,34.12383169557185],[139.53438603182457,34.12406890244316],[139.53367778562455,34.124015331368085],[139.53344929873657,34.12439287791958],[139.53255182644693,34.12423628087576],[139.53224258631718,34.125410550854745],[139.5320312254821,34.12529733238632],[139.53233837171126,34.12443354381131],[139.53231324590516,34.12372122353445],[139.52992412466006,34.124089070670315],[139.52980776252988,34.12464889779363],[139.53126325650902,34.12441850186116],[139.53121918354086,34.12416538355986],[139.53206729667227,34.124053645155044],[139.531353869459,34.12462383765255],[139.52954011606835,34.12517130063927],[139.52885389371113,34.12489137112774],[139.52740286061416,34.12497298697769],[139.52646920388509,34.12460043568539],[139.52619970326856,34.12413797540957],[139.52524767580877,34.12386031700161],[139.524188082284,34.12420772160887],[139.52265167136957,34.124900179056546],[139.52150112540343,34.124805408700844],[139.52038965084046,34.1243544588186],[139.51918151879372,34.123574873338974],[139.51726821153898,34.12185523904966],[139.51681975859967,34.121827459151056],[139.51467712995458,34.12073394361222],[139.51352222453028,34.12038114999507],[139.51200794005112,34.12024139397067],[139.51201360686946,34.11874616324033],[139.5126078345145,34.118488647715125],[139.51402990386634,34.118572090312234],[139.51456432314518,34.118362026345714],[139.5148882519628,34.11903512118881],[139.51603826430244,34.120170871142285],[139.51863142283625,34.121971158354675],[139.51951246753603,34.12249690295034],[139.51967618000282,34.122015671909956],[139.51961531498551,34.12100516438719],[139.5192555863112,34.12013518927759],[139.51926261399234,34.119312924193345],[139.51860739763748,34.118163402283706],[139.51887028299245,34.1129280572717],[139.51891299043496,34.10802150354774],[139.51874821157725,34.10560254320032],[139.5194222437006,34.1054931179795],[139.51981354817372,34.10548989178423],[139.52027337119912,34.1057115346485],[139.52042733739074,34.1055965506502],[139.52056158410463,34.10546094843905],[139.5211365119171,34.10535943234212],[139.52181503833222,34.10537355312506],[139.52234446575565,34.10552112925233],[139.52286894764387,34.10567277662821],[139.52331973923606,34.105657437764265],[139.52396352380126,34.10569006120737],[139.52422192141094,34.10546193422681],[139.52469768294478,34.10538495153408],[139.52482146056857,34.10540174581286],[139.5251420271603,34.105779535118245],[139.52581075292414,34.10576473744199],[139.52596344766232,34.10599784621506],[139.5261418212726,34.10598603791735],[139.52697537349584,34.10559044115604],[139.52710424904012,34.105562025719856],[139.5277675066547,34.10568934547682],[139.52829766528578,34.105643195009534],[139.52841648469675,34.1056558883993],[139.52893079098425,34.10588580955013],[139.52960975746763,34.10577212200326],[139.53008000069235,34.10585781390678],[139.53027271276332,34.10598592362856],[139.5309345674552,34.10650879587609],[139.53119691096387,34.106558891129],[139.53141476765788,34.10658210994062],[139.53171589105526,34.10687122162667],[139.53190757321408,34.10728994824494],[139.53334219738807,34.10779822519523],[139.53340512287662,34.10821452025021],[139.5339868260813,34.10900074984592],[139.53438288002948,34.109059475537386],[139.53469553109085,34.10889330102404],[139.5358664587471,34.10833165883847],[139.53598547009474,34.10829701001914],[139.53665964647755,34.10813790199574],[139.53776442982812,34.1080767456857],[139.5387511068576,34.10755210358665],[139.5399028016834,34.10705390790012],[139.54148003010394,34.10643753108794],[139.54174246299942,34.106462805610406],[139.54254817869608,34.10694058585472],[139.54281594761687,34.10685472142757],[139.5430304880538,34.10639992133154],[139.54331399529346,34.10605037557814],[139.54383963923857,34.105872420409426],[139.5439796369353,34.10548548566907],[139.54432677569073,34.10536472559522],[139.54456899169014,34.105501238028175],[139.54466244965835,34.1056951599759],[139.5448699661769,34.105845960329695],[139.54526628185474,34.10582434839974],[139.5462830294465,34.10541874952066],[139.54654048505842,34.105450341980394],[139.54664996229488,34.10530225499143],[139.54665061623348,34.10510855390457],[139.54636390751108,34.10493897641781],[139.54648489141394,34.104310955710325],[139.54667340727525,34.10422686953333],[139.54707567586556,34.10390647006317],[139.54711569921884,34.1037890727882],[139.54709789096583,34.10319369413867],[139.54698055017448,34.102736140664994],[139.54685267895232,34.102470011992494],[139.54655559901892,34.10244058186194],[139.54651606854094,34.102411610399066],[139.54656114864136,34.10226337403035],[139.54666154114514,34.10187014458303],[139.545899363263,34.10170142898785],[139.5457221535924,34.10137967839662],[139.54541427811813,34.10062612017952],[139.54545465846022,34.10056606097449],[139.54601814907372,34.10032000254603],[139.54607468212788,34.10023983584537],[139.54595468846009,34.10006909625371],[139.54566632646072,34.09977413290173],[139.54558816053722,34.0991219786954],[139.5455333693035,34.09868724971569],[139.5458714599277,34.098534347206254],[139.5462360863361,34.09766247905985],[139.5458207835705,34.09688260617526],[139.5461840806629,34.096401947090335],[139.547294304089,34.09608362915743],[139.54738754999406,34.095880282123204],[139.54733274833134,34.09570420204758],[139.54788822467248,34.095911595237595],[139.56305603989404,34.105949400634934]]]},"properties":{"KEY_CODE":"133810050","PREF":"13","CITY":"381","CITY_NAME":"三宅村","S_NAME":"神着","SETAI":"268"}},{"type":"Feature","geometry":{"type":"Polygon","coordinates":[[[139.5387511068576,34.10755210358665],[139.53776442982812,34.1080767456857],[139.53665964647755,34.10813790199574],[139.53598547009474,34.10829701001914],[139.5358664587471,34.10833165883847],[139.53469553109085,34.10889330102404],[139.53438288002948,34.109059475537386],[139.5339868260813,34.10900074984592],[139.53340512287662,34.10821452025021],[139.53334219738807,34.10779822519523],[139.53190757321408,34.10728994824494],[139.53171589105526,34.10687122162667],[139.53141476765788,34.10658210994062],[139.53119691096387,34.106558891129],[139.5309345674552,34.10650879587609],[139.53027271276332,34.10598592362856],[139.53008000069235,34.10585781390678],[139.52960975746763,34.10577212200326],[139.52893079098425,34.10588580955013],[139.52841648469675,34.1056558883993],[139.52829766528578,34.105643195009534],[139.5277675066547,34.10568934547682],[139.52710424904012,34.105562025719856],[139.52697537349584,34.10559044115604],[139.5261418212726,34.10598603791735],[139.52596344766232,34.10599784621506],[139.52581075292414,34.10576473744199],[139.5251420271603,34.105779535118245],[139.52482146056857,34.10540174581286],[139.52469768294478,34.10538495153408],[139.52422192141094,34.10546193422681],[139.52396352380126,34.10569006120737],[139.52331973923606,34.105657437764265],[139.52286894764387,34.10567277662821],[139.52234446575565,34.10552112925233],[139.52181503833222,34.10537355312506],[139.5211365119171,34.10535943234212],[139.52056158410463,34.10546094843905],[139.52042733739074,34.1055965506502],[139.52027337119912,34.1057115346485],[139.51981354817372,34.10548989178423],[139.5194222437006,34.1054931179795],[139.51860951798747,34.10560627248958],[139.51814236757798,34.10544377282963],[139.51755620622404,34.10545705765856],[139.51674135584344,34.104886107239984],[139.51635981662457,34.10480383818027],[139.5163439628915,34.10429411366296],[139.51558086120704,34.10413703804829],[139.5153586992677,34.104180697578876],[139.51466549661637,34.10432301571513],[139.5146953424059,34.103473620021205],[139.51409955980128,34.10369000558215],[139.51385127603942,34.103593283703574],[139.5137547464322,34.10329015224895],[139.51301761847958,34.10331034961022],[139.51280538861627,34.10307340874805],[139.51235251087627,34.10307222630628],[139.51187565008843,34.102372945422175],[139.51037805624424,34.101552793301884],[139.50993535180143,34.1012118409598],[139.50945777282547,34.100708226803846],[139.50914875070083,34.1002457700475],[139.50868259510148,34.099077400700224],[139.50856774234927,34.09892199579488],[139.50762879558457,34.09832488930696],[139.50739050313985,34.09794742113912],[139.50714435863722,34.09730043930325],[139.50657913284132,34.096508638779774],[139.50632308351763,34.09612745803441],[139.50579133710204,34.095867542856546],[139.50515504149098,34.09509019648142],[139.50505842054525,34.09470521329487],[139.50503035922395,34.09456102536254],[139.5049155156352,34.09446647445374],[139.50423461853043,34.094426059363194],[139.50413668892946,34.094106859832955],[139.50456883872835,34.09349464892868],[139.50468241245596,34.09318897406994],[139.50418720566634,34.09300944753739],[139.5037308463894,34.09304133347021],[139.50347971411855,34.093013050462666],[139.50298639151663,34.09234891876406],[139.50243048940573,34.09247393176537],[139.50187574276478,34.09230198445297],[139.50180325409173,34.09224121319695],[139.50159294678554,34.09191607398641],[139.50215981875135,34.09066889265089],[139.5022607550476,34.090212591656766],[139.5027455548061,34.08966659875498],[139.5027670744338,34.089232060049255],[139.50341239299618,34.088207946083116],[139.50353665841033,34.086852226752306],[139.50399151352906,34.08548654741936],[139.5040180910979,34.0837400666312],[139.5038755249622,34.08299699948749],[139.50375121809793,34.08265561180363],[139.50392668209813,34.08222895212856],[139.50416976755182,34.081625395205194],[139.50425554103435,34.08120370708206],[139.50444903546867,34.08060565198284],[139.50433151484881,34.0800963608301],[139.50494591125658,34.07966889888694],[139.50537502364415,34.07951648973902],[139.5056578701298,34.07909067677818],[139.5057240737982,34.07863188618598],[139.5059133357726,34.07843742012412],[139.50621971869495,34.078157896361496],[139.50661783889205,34.077679420641765],[139.50700831139005,34.07723473314332],[139.50706930143502,34.0766699932763],[139.50814539921907,34.075646016533895],[139.509746276036,34.073601792285686],[139.51062664689275,34.07234538786827],[139.5109280243326,34.07208231678952],[139.51226565727416,34.07151511475214],[139.51305847306082,34.071397565192584],[139.5151521048656,34.07146325242727],[139.51625393425087,34.0715838457655],[139.51735877367764,34.07201224226052],[139.51804733779028,34.07236687890301],[139.51823089298594,34.071809916580584],[139.51807495545654,34.071655546617095],[139.51819061933023,34.07064085954595],[139.51863113648946,34.07001143665313],[139.51916326829556,34.069298561870546],[139.51899152558687,34.068834793815284],[139.51891163119313,34.068219257143724],[139.51946749101364,34.0684941033417],[139.5196411633327,34.06843382684575],[139.51983466943733,34.06794041655405],[139.51987169400195,34.06780386358043],[139.52031241169556,34.067113575172804],[139.52071490741142,34.06689046445118],[139.52118138068977,34.06664103004866],[139.5218677333029,34.066179289957354],[139.52239823110276,34.06589198621687],[139.5235115396963,34.065993550022455],[139.5236141956187,34.06537847760955],[139.52403587363932,34.06488958547536],[139.52425313436356,34.06539149762099],[139.52452572929099,34.06574168780474],[139.5253554264971,34.06601720451288],[139.5255750562653,34.06586575304943],[139.52569483399975,34.06556219189971],[139.52597818587822,34.06546034610864],[139.5261886164181,34.06532422572694],[139.5267359340495,34.06543195162932],[139.5268908898017,34.06550066134559],[139.52738432835955,34.06535749725943],[139.52800360078163,34.065769257922376],[139.52850520324762,34.065899683342806],[139.52881740844356,34.06538387956022],[139.52922935397515,34.065058218261136],[139.5296489828959,34.06513518597778],[139.52991331802784,34.065249805264145],[139.5300586808014,34.065440200057864],[139.53010448305457,34.06539467059678],[139.53023374118007,34.06498477031243],[139.53038848871907,34.065106725177735],[139.53055084130082,34.06566159761248],[139.53074267622367,34.06562417518193],[139.53085318683617,34.06535087401013],[139.53087016152182,34.065021275424535],[139.53101489131677,34.064811873952436],[139.5311927941055,34.06512335696506],[139.53108080367534,34.065521889343216],[139.5309222977831,34.06568364284223],[139.53068978784492,34.06591959426788],[139.53076824683882,34.066068830046696],[139.53138906689898,34.066193056824495],[139.53164083176773,34.06646527627624],[139.53182048888507,34.06628173918724],[139.5320948869993,34.06610716770773],[139.53241002147482,34.066326995106316],[139.5327784040058,34.066376074959514],[139.5331669295115,34.066683702541994],[139.53297729162387,34.06673958783482],[139.53254974595396,34.06667853117326],[139.53251145422794,34.06672436108633],[139.5327310559227,34.06690817268844],[139.53283141862184,34.06726792288389],[139.5329025555442,34.067514763233596],[139.5328812013404,34.067564157011574],[139.5324366832083,34.06750841124891],[139.53206823526003,34.0675004650204],[139.5320548306371,34.06770131535736],[139.53224085920866,34.06779333789752],[139.53287827766638,34.06839416610493],[139.5328387705558,34.068790623977605],[139.53300336161527,34.06895654987915],[139.53314769883755,34.06886533579679],[139.53329094868838,34.06907713387997],[139.5333245885711,34.069144270887186],[139.53342616139815,34.069167340458776],[139.5338670567676,34.06905205464232],[139.53448891057116,34.069268679962796],[139.53474650361542,34.069482446916474],[139.53522358868895,34.06992073396613],[139.5352994340434,34.07003375683855],[139.5352391661928,34.070192091451474],[139.5351558521782,34.07034529942201],[139.5351368741186,34.07057473414042],[139.53576542010077,34.07081039401896],[139.53597415319,34.070935291894656],[139.53629288808114,34.07093606582722],[139.53649170651707,34.07105262736171],[139.5375175133082,34.07109652822557],[139.5377745954628,34.07164430004754],[139.53776385330548,34.071867980397066],[139.5394562089437,34.07216225613989],[139.53930492196577,34.07270481735991],[139.53932314695598,34.07319383202776],[139.53980912443657,34.07380850322837],[139.5410817520927,34.07450366325558],[139.54122327031857,34.07390712138122],[139.541333295513,34.073774821792384],[139.54176056120056,34.074082523986895],[139.5424357968201,34.07470580785694],[139.5437295181894,34.075069518269046],[139.54397704892676,34.07550934950831],[139.5438740607199,34.07650381599752],[139.54388270986288,34.07688518132549],[139.54299237415742,34.077989629166204],[139.54338893138598,34.07855420846982],[139.54403630881956,34.0785889920893],[139.5440355480696,34.07881284016317],[139.54362613478847,34.079101927930054],[139.54328362388242,34.080220218861434],[139.54289168932098,34.081226395989034],[139.54352652320546,34.08202370506859],[139.54415314038718,34.08231525436026],[139.54519721906897,34.08288967765422],[139.5447668637981,34.08347723133982],[139.54368591328355,34.08403506396719],[139.54329974912426,34.08426348815542],[139.54339035749086,34.08437950190148],[139.54378071670254,34.08449172176576],[139.54393094383408,34.084389662756465],[139.54451957209275,34.08443120926471],[139.54494201431814,34.08455688411608],[139.5449842538812,34.084726174705516],[139.5446354740342,34.08497709006166],[139.54467227505287,34.08517750048981],[139.5454787089456,34.08571163281706],[139.54583163441245,34.08581276932049],[139.54643089740225,34.08588532523433],[139.54711409100472,34.08646367148547],[139.54746186009552,34.08651351134686],[139.54789925450925,34.08696885728679],[139.5473477899928,34.08700320769311],[139.54711232234385,34.08698927170055],[139.54686576951374,34.08708660207741],[139.5466724418716,34.087273229981854],[139.5469017136897,34.0875432638561],[139.54686881312398,34.08777253215849],[139.54615562166055,34.088147132298346],[139.5465082252898,34.088352936673566],[139.54704177581627,34.088864160242224],[139.54721266206545,34.08898923607148],[139.54739366807573,34.08928352563478],[139.54718402290592,34.089543655057575],[139.54740234051508,34.08988931045847],[139.5474018014417,34.0900496260241],[139.54689258396584,34.09025326633938],[139.54662841001536,34.09080938635264],[139.54647163962272,34.09126108778913],[139.54628364059624,34.09145209579489],[139.54714412289286,34.09185279285961],[139.5472778091916,34.0918953680409],[139.54750074678782,34.09246150305304],[139.54688817865792,34.09314374083052],[139.54655073630258,34.0932053568851],[139.54619272708078,34.09300855864593],[139.5454804124449,34.09311591982563],[139.54536012708135,34.09385946067886],[139.54541845945351,34.09402216929036],[139.5459573116421,34.09455777797317],[139.5461172636459,34.09475199859464],[139.54622936017375,34.094845803173776],[139.54685467792592,34.09514564335599],[139.54733274833134,34.09570420204758],[139.54738754999406,34.095880282123204],[139.547294304089,34.096083629157455],[139.5461840806629,34.096401947090335],[139.5458207835705,34.09688260617526],[139.5462360863361,34.09766247905985],[139.5458714599277,34.098534347206254],[139.5455333693035,34.09868724971569],[139.54558816053722,34.0991219786954],[139.54566632646072,34.09977413290173],[139.54595468846009,34.10006909625371],[139.54607468212788,34.10023983584537],[139.54601814907372,34.10032000254603],[139.54545465846022,34.10056606097449],[139.54541427811813,34.10062612017952],[139.5457221535924,34.10137967839662],[139.545899363263,34.10170142898785],[139.54666154114514,34.10187014458303],[139.54656114864136,34.10226337403035],[139.54651606854094,34.102411610399066],[139.54655559901892,34.10244058186194],[139.54685267895232,34.102470011992494],[139.54698055017448,34.102736140664994],[139.54709789096583,34.10319369413867],[139.54711569921884,34.1037890727882],[139.54707567586556,34.10390647006317],[139.54667340727525,34.10422686953333],[139.54648489141394,34.104310955710325],[139.54636390751108,34.10493897641781],[139.54665061623348,34.10510855390457],[139.54664996229488,34.10530225499143],[139.54654048505842,34.105450341980394],[139.5462830294465,34.10541874952066],[139.54526628185474,34.10582434839974],[139.5448699661769,34.105845960329695],[139.54466244965835,34.1056951599759],[139.54456899169014,34.105501238028175],[139.54432677569073,34.10536472559522],[139.5439796369353,34.10548548566907],[139.54383963923857,34.105872420409376],[139.54331399529346,34.10605037557814],[139.5430304880538,34.10639992133154],[139.54281594761687,34.10685472142757],[139.54254817869608,34.10694058585472],[139.54174246299942,34.106462805610406],[139.54148003010394,34.10643753108794],[139.5399028016834,34.10705390790012],[139.5387511068576,34.10755210358665]]]},"properties":{"KEY_CODE":"133810060","PREF":"13","CITY":"381","CITY_NAME":"三宅村","S_NAME":"雄山","SETAI":"0"}}]}