{"type":"FeatureCollection","features":[{"type":"Feature","geometry":{"type":"Polygon","coordinates":[[[140.34224520548585,29.793564339132125],[140.34267085657865,29.79403761776514],[140.342644253386,29.794539752401075],[140.34163998284373,29.79460324050225],[140.34104806179042,29.79402030272091],[140.3414870144767,29.793564339126306],[140.34224520548585,29.793564339132125]]]},"properties":{"KEY_CODE":"13","PREF":"13","CITY":"402","CITY_NAME":"青ヶ島村","S_NAME":"","SETAI":"0"}},{"type":"Feature","geometry":{"type":"Polygon","coordinates":[[[140.05131934327437,31.43677863752019],[140.05475115521278,31.438004336400315],[140.05416588497297,31.438946297749077],[140.05225045506063,31.438991693213318],[140.05089369221957,31.440569172782304],[140.0513193433384,31.442487079833885],[140.05038823157477,31.442793487371883],[140.04897826229472,31.44020601433924],[140.049151183021,31.43673324092523],[140.05131934327437,31.43677863752019]]]},"properties":{"KEY_CODE":"13","PREF":"13","CITY":"402","CITY_NAME":"青ヶ島村","S_NAME":"","SETAI":"0"}},{"type":"Feature","geometry":{"type":"Polygon","coordinates":[[[139.91973912241198,31.887623989916115],[139.91940759172908,31.88941148488595],[139.91692939972125,31.889094805229917],[139.91485733277997,31.886505028516876],[139.91694597619542,31.885329752527763],[139.91973912241198,31.887623989916115]]]},"properties":{"KEY_CODE":"13","PREF":"13","CITY":"402","CITY_NAME":"青ヶ島村","S_NAME":"","SETAI":"0"}},{"type":"Feature","geometry":{"type":"Polygon","coordinates":[[[139.76947434237437,32.46911181538899],[139.76837440806395,32.46981186906473],[139.7671244967671,32.470328362801396],[139.7647371866019,32.47095328590657],[139.76307482446697,32.47113638755834],[139.76217488366916,32.471544807533064],[139.76039999407453,32.47260288917334],[139.75943754546006,32.47337791404019],[139.75846260584527,32.47354446740112],[139.75778767137174,32.473411045090835],[139.7572127352485,32.472994442457036],[139.75615032341588,32.472777639762775],[139.75496295779053,32.47150277205033],[139.75472552912578,32.4703197969002],[139.75476309840883,32.46847808244829],[139.75432567358618,32.467203392326894],[139.75461320351008,32.46598664079791],[139.75448829804782,32.46375364859066],[139.75475081872122,32.462962157651525],[139.75480091716122,32.45991227432494],[139.75461352633783,32.45669596984985],[139.75481354405042,32.455646292381076],[139.75475107774767,32.45467142067009],[139.75435114566957,32.45348807797863],[139.75470114864336,32.452363255440815],[139.75452618902557,32.451404948534936],[139.7556011480095,32.44966366081761],[139.75713853491933,32.44931372443717],[139.75952588749905,32.447505559210214],[139.76010085453984,32.44651416269586],[139.75970089229412,32.44627240943616],[139.7609883079149,32.4460640374525],[139.7616882468553,32.44613094423999],[139.76258818815933,32.44570589353859],[139.7639630819829,32.445780772181415],[139.76540050292814,32.44498088207056],[139.76622545126966,32.44421447463582],[139.76648796167362,32.44349793103455],[139.76745039938976,32.44295620323395],[139.76847531265165,32.44288120280563],[139.77038765805156,32.44328968533998],[139.77181253309308,32.44381457772029],[139.77317488894502,32.44481459046527],[139.77644956861232,32.445947937965485],[139.7779869034071,32.44683948658591],[139.77938676721882,32.44747280206317],[139.78068658896467,32.44928916805203],[139.78052408999116,32.44967266443996],[139.7810865219721,32.45049752602628],[139.78096150024868,32.45128066954454],[139.7813864276813,32.452180718545385],[139.78102393814277,32.45296376263231],[139.78037396924367,32.453497266982964],[139.78011144701748,32.45469688804703],[139.78037386773067,32.456488565726154],[139.78068633113094,32.45706334024974],[139.7812237671265,32.457354974554896],[139.78026134297886,32.45776321396314],[139.78022382253096,32.458554846177535],[139.7798863368806,32.45867165822444],[139.77929886247077,32.459612982586506],[139.77848640424435,32.46043809107312],[139.7779614473061,32.460721373536856],[139.7774489637383,32.461629465771594],[139.77698650011445,32.46165462032188],[139.77596157044667,32.46212930604427],[139.77463664624446,32.46327092807198],[139.77358672505684,32.463795754782744],[139.7727617480245,32.46472059919206],[139.7725367525418,32.46523736337756],[139.77197428410108,32.46552906210365],[139.77129929833103,32.46654556513677],[139.7706992993431,32.467761917782695],[139.76998682913774,32.468403561391305],[139.7697743106227,32.46916185387299],[139.76947434237437,32.46911181538899]]]},"properties":{"KEY_CODE":"134020010","PREF":"13","CITY":"402","CITY_NAME":"青ヶ島村","S_NAME":"青ケ島村","SETAI":"118"}},{"type":"Feature","geometry":{"type":"Polygon","coordinates":[[[140.28641871653977,30.483506443609357],[140.28690331161943,30.482894707470074],[140.2886712835994,30.48229259072501],[140.28931011642314,30.481544426796912],[140.2901835640967,30.479512750480232],[140.2919119321519,30.47828207073835],[140.29306950041365,30.477303716829805],[140.2958082584305,30.474332858049465],[140.29746554977862,30.473461509542634],[140.29831703486025,30.472868722406098],[140.29910524995225,30.472994461127435],[140.2999129645048,30.472806641963885],[140.30078025455416,30.47295520427162],[140.3027124053379,30.47392367280056],[140.30505289264167,30.474393912027153],[140.3075985523509,30.474659260937436],[140.31018192348796,30.475463996408095],[140.31098992879114,30.47651143356563],[140.31127433063992,30.47756473180635],[140.31241243293698,30.47934955119946],[140.3128791840032,30.480355942364035],[140.31388642947226,30.48214292026182],[140.31387792205126,30.4841879179579],[140.3141837706239,30.485016166109986],[140.3146708350583,30.48696574104984],[140.3122023951302,30.49031713656148],[140.31081257197812,30.49145494127029],[140.3099197028371,30.492565544065616],[140.30844788129468,30.493546882176364],[140.30812047189113,30.494156996944785],[140.30706371219034,30.49495469465162],[140.30617341689452,30.494963564361804],[140.30555557153386,30.49546478131474],[140.3046210517573,30.495856068440315],[140.3037279068332,30.495730743389743],[140.30234198166175,30.49583496769933],[140.29989432270833,30.49527598519015],[140.29908401821743,30.495351614498432],[140.29865884088542,30.495063894346952],[140.29821883953636,30.494079911386006],[140.2953551440491,30.49365989708788],[140.29289991126552,30.492742221317478],[140.2914520880521,30.49116186061937],[140.29085413899224,30.490134428603415],[140.29008378962683,30.488389857224707],[140.28944206389514,30.487766829007597],[140.2884599644252,30.487147804934253],[140.28833141820613,30.48602569131866],[140.28805579317523,30.485377133904905],[140.28693758396167,30.484512183742023],[140.2869918347663,30.48336575194229],[140.28641871653977,30.483506443609357]]]},"properties":{"KEY_CODE":"134020020","PREF":"13","CITY":"402","CITY_NAME":"青ヶ島村","S_NAME":"","SETAI":"0"}}]}