{"type":"FeatureCollection","features":[{"type":"Feature","geometry":{"type":"Polygon","coordinates":[[[139.81894151540877,33.12536177883626],[139.8185415430413,33.12554488653743],[139.8182540897116,33.125203313704],[139.81894151540877,33.12536177883626]]]},"properties":{"KEY_CODE":"134010010","PREF":"13","CITY":"401","CITY_NAME":"八丈町","S_NAME":"三根","SETAI":"0"}},{"type":"Feature","geometry":{"type":"Polygon","coordinates":[[[139.83414413040566,33.117503173316194],[139.83358820182744,33.117657588723176],[139.83255987695142,33.117337721967765],[139.83062162989324,33.1170938969876],[139.82802272975678,33.11727410607548],[139.8262457792704,33.11766849414726],[139.8250436830172,33.11824945828985],[139.82370803127807,33.11933143121782],[139.82264534455132,33.11977233071249],[139.82170280131655,33.11973502687604],[139.82008701484662,33.120237270336105],[139.8189455679485,33.119877826202256],[139.8178926887151,33.11986302185105],[139.81709816205867,33.12020190255351],[139.81692949993132,33.1205696152228],[139.8175520357483,33.12075259390181],[139.81667877408015,33.12128279099751],[139.81712017534824,33.12190054700355],[139.81998958515277,33.12302699636161],[139.81938763041597,33.123692788745174],[139.81741595152343,33.12292067772838],[139.8168920374164,33.12337935347479],[139.81680618300464,33.12396208477391],[139.81614579153612,33.12511337887284],[139.81634969088898,33.12578999240106],[139.8152701543444,33.126415390419645],[139.8147812079382,33.12751682884734],[139.81357469008148,33.128364240778026],[139.8125501908666,33.12815045059862],[139.8116189395652,33.12870736862631],[139.81138325523725,33.128368044966344],[139.81082930304402,33.12869621923197],[139.8101876959877,33.129730539935665],[139.8104328839624,33.12981428394316],[139.80893918603195,33.130268487356545],[139.80873520492443,33.13001172908454],[139.80767197827632,33.1302146489315],[139.80638329632563,33.132916712494044],[139.80610809627,33.13282787988645],[139.8068047331939,33.1315346307657],[139.8067174220856,33.13109163312843],[139.8071549884067,33.13016351991519],[139.80667670062118,33.1297477590789],[139.8058810813397,33.12964442301526],[139.80481012296167,33.129893812787046],[139.80413921316696,33.13112281029932],[139.80319267533005,33.13156919371531],[139.80307996058974,33.13132343999248],[139.80198888722012,33.13169453556216],[139.8023404450297,33.132436593308746],[139.80345981678678,33.1320531031943],[139.80387928645177,33.131502314522464],[139.80483783408712,33.13158175258768],[139.80485143583053,33.13192159693084],[139.80581941185324,33.13203287262004],[139.80576531109202,33.13228534406018],[139.80471632273793,33.13212529740891],[139.80420171427136,33.132588990282436],[139.8033794601952,33.13251691070407],[139.80281620532406,33.13289266591317],[139.80232547292775,33.132898728072085],[139.8019592693894,33.13250017031981],[139.80116531494528,33.132447810609825],[139.79978981539483,33.132837684429035],[139.7995187552218,33.13326029101753],[139.7980831898015,33.13353262169853],[139.79776766298127,33.13407469106899],[139.79834052809738,33.134726095025464],[139.79893698899892,33.134704017890684],[139.79862645193398,33.13531541178239],[139.79758874467936,33.13516686283862],[139.7975570172427,33.135643646023745],[139.7971973245875,33.135438668196485],[139.7967433922002,33.13632391392298],[139.79700923517527,33.13671597375256],[139.79696738857146,33.13747363620254],[139.7960620688973,33.139141329670096],[139.79603766706137,33.13984580263059],[139.7963654033871,33.140047675311756],[139.79609864783126,33.141140659668935],[139.7966487311343,33.14163679625891],[139.7959639579835,33.14165657598691],[139.79604922673056,33.142465912053126],[139.79546372340153,33.142557862431836],[139.7949152201832,33.1421538667846],[139.79339123160923,33.14317286246932],[139.79305934148994,33.14372139595708],[139.7922616287478,33.143894411603426],[139.79198210058433,33.14417610312687],[139.7911898178689,33.14425668719525],[139.7904991293002,33.14487158372238],[139.79082342007604,33.14528904155183],[139.7902372936632,33.145123971983615],[139.78891436783354,33.145271688897886],[139.78919845330296,33.14591400734094],[139.78847954346614,33.14570632788984],[139.78843291923639,33.14609603001945],[139.7879409435402,33.146245750845615],[139.78754848886263,33.14707829691313],[139.7870302149567,33.14706653548965],[139.78674750676825,33.14783938328414],[139.78654396510908,33.1472579590474],[139.78621307064105,33.14786396417788],[139.7853618231295,33.1477889377776],[139.78421970030612,33.14861975100682],[139.783349453018,33.14876111304366],[139.78297822812775,33.149423448444296],[139.78247299893766,33.14978814902269],[139.7815468720897,33.151006780553324],[139.78151181075617,33.15134210169548],[139.7808434060007,33.15128402926274],[139.78046494930686,33.15202779791263],[139.77978607632292,33.15240678281521],[139.77886186854073,33.15339292292647],[139.77794143341004,33.15396622498365],[139.77782428082062,33.15466868510825],[139.7773359975851,33.15445146898067],[139.77631013778384,33.15486859394126],[139.77620650067274,33.15602108927777],[139.7749913566545,33.15615293527883],[139.77488113889228,33.15666659591386],[139.7742429566939,33.157131804853194],[139.77427542016375,33.157637364236244],[139.77379717389553,33.1574040771616],[139.77276991476057,33.157331696134285],[139.77225686577785,33.15747655657418],[139.7719936405906,33.15804959574272],[139.77219246259892,33.158565951268336],[139.77176145325578,33.15868295586673],[139.77140451391313,33.15830347239187],[139.77000844044682,33.15814099001674],[139.76827307041907,33.15758520099982],[139.76762299565087,33.15781563798823],[139.7677194679321,33.15822711538051],[139.766967540543,33.1584724291069],[139.76642758514757,33.15800152697877],[139.76498502865266,33.15820304482224],[139.76349411157994,33.15880861620822],[139.7628037262422,33.15870761176816],[139.7626694051975,33.159052734840735],[139.761197288068,33.15926771829792],[139.7600314032215,33.15902044111788],[139.75909921175224,33.159641235784164],[139.75825299827406,33.159540114519565],[139.75739609737258,33.159164227563046],[139.7567649415003,33.158153305393675],[139.75622757815165,33.158522121233545],[139.75609867728008,33.15810723352345],[139.75525554855562,33.15804808225165],[139.75481197548189,33.157629891268854],[139.75428006005416,33.15788711023266],[139.7532404612075,33.157914893802875],[139.75268364206278,33.15745773351599],[139.75233522017086,33.15766039644718],[139.75161534925152,33.157158037096316],[139.7500845959514,33.15716940216155],[139.74800055173287,33.15664776884992],[139.7473860456998,33.1561533497342],[139.7469066860696,33.15636689557584],[139.74668100515217,33.15606408715305],[139.74709014812564,33.15570339537359],[139.74630581210863,33.155700585299996],[139.74787134260447,33.154582958801605],[139.7534712841675,33.14943123103586],[139.75737504496752,33.1459213308686],[139.75926073578876,33.14385520337453],[139.7605288353652,33.14289674516755],[139.7625964399894,33.14076055975628],[139.7640453325718,33.14020204077543],[139.76654147314977,33.1363978156752],[139.76858479739516,33.13458113040943],[139.77913282523653,33.12539742645778],[139.7801771985366,33.12577748471551],[139.7815784816126,33.12487921809543],[139.78226678346846,33.12519907695054],[139.78255183083445,33.124939393704814],[139.78257811723603,33.12393426132828],[139.783404211525,33.123029796005035],[139.7849130580029,33.12092688638734],[139.78595427126118,33.119702105587145],[139.78699865746125,33.11870189700054],[139.78819314072885,33.119051253148996],[139.78867462349882,33.11852928479446],[139.78763939667448,33.11646669003628],[139.78782444824614,33.11447814211954],[139.79144063607484,33.11215841984477],[139.79237777837764,33.11227148870223],[139.79311586369096,33.112107754754085],[139.7941051073267,33.11079550321671],[139.79513593310594,33.110124341851645],[139.7952755331642,33.1094266604653],[139.79674016283644,33.10858965224163],[139.79814343330062,33.106684013448415],[139.79961642138264,33.105625744619736],[139.8001762071959,33.104848428359226],[139.80118280005283,33.10457227482484],[139.80254099928243,33.10338064772227],[139.80322183614194,33.102247440408746],[139.8037666416822,33.10091862538533],[139.8036076842029,33.09957468815495],[139.80373281345715,33.09901394284406],[139.8043993445556,33.098103062946734],[139.80565896935724,33.09730786285577],[139.8073144935149,33.096421440780205],[139.8093965850155,33.09551085315232],[139.81039595785265,33.09516051121777],[139.81202018956978,33.09365380443632],[139.81189575968133,33.09200669172662],[139.81364967203444,33.09177933520119],[139.81412844140075,33.0918625507933],[139.81527818431255,33.09244888438949],[139.81725471098525,33.09258023998248],[139.8183972123482,33.09316175284931],[139.81955255455526,33.0927507772668],[139.82029446673522,33.091245528167576],[139.82179705338203,33.089738111412395],[139.82238006727252,33.08980356254363],[139.82270637242266,33.08947784884947],[139.82347524010493,33.089277022228494],[139.8245494786782,33.08973421530558],[139.8258075516325,33.09063552377863],[139.8262246527322,33.09147784639312],[139.82651219558352,33.092776096084755],[139.82614034113215,33.09283411113348],[139.82667631600359,33.093762951994385],[139.82597159579845,33.095097744526804],[139.8265236735076,33.09557374343544],[139.82628084536515,33.096756127153604],[139.82568910304056,33.09788465857499],[139.82629846855974,33.0987864505676],[139.82769708625435,33.0994118556279],[139.82826821655541,33.100203166604004],[139.82975505760987,33.10055464697085],[139.83015324998146,33.10108161563518],[139.83106287035017,33.10140909529113],[139.831155818412,33.10208257738783],[139.83089846292458,33.102222899258294],[139.83195766787594,33.10322638778907],[139.8329488107829,33.10490507189096],[139.83368549795625,33.104968206892046],[139.83402605892863,33.10540697090302],[139.83530950473244,33.105855913627565],[139.83526210275986,33.10680557167702],[139.83670924339108,33.10909915319544],[139.83695353073645,33.10967684015899],[139.83792908335514,33.11022747686924],[139.8381444673709,33.11292765156719],[139.83752522113528,33.11394325041758],[139.837967587545,33.11433325601559],[139.83739237807785,33.11521190181976],[139.83773571972657,33.11569574661153],[139.83757231285838,33.11673980521369],[139.83677309773597,33.11699849772172],[139.83477945001016,33.1167693808816],[139.83414413040566,33.117503173316194]]]},"properties":{"KEY_CODE":"134010010","PREF":"13","CITY":"401","CITY_NAME":"八丈町","S_NAME":"三根","SETAI":"1860"}},{"type":"Feature","geometry":{"type":"Polygon","coordinates":[[[139.74630581210863,33.155700585299996],[139.74583953321567,33.15548524286985],[139.7447112910677,33.154444040840374],[139.74438390973717,33.153852032410406],[139.74333178629703,33.15385492600491],[139.74372550361903,33.15338743377397],[139.7438333256654,33.15278559607948],[139.74335937055096,33.15145094493448],[139.7427515288016,33.150555513426724],[139.74249305663122,33.149458290021386],[139.74158328486155,33.14875678852932],[139.74190284397645,33.14823485798511],[139.7414827020212,33.14803869753779],[139.74102283703598,33.14689651680224],[139.74024085094274,33.14636277108551],[139.73964285574752,33.146238609360836],[139.73941068338345,33.14583518383525],[139.73854171893325,33.14585621700129],[139.7395690107321,33.14538865762581],[139.73929530067124,33.14472820570231],[139.73966221505776,33.14369401750261],[139.73951911028294,33.14312440322473],[139.73904721362192,33.14317842958025],[139.7389724775114,33.14239723881435],[139.73842768389804,33.141536785300886],[139.73870409393052,33.14092522242134],[139.7386746060423,33.13978477752376],[139.73830661255647,33.13870325057988],[139.73849443080886,33.13761425873556],[139.73927866109878,33.13587393825081],[139.73933547097542,33.135375490682755],[139.739916518461,33.13428849309197],[139.73976922911018,33.133710988709296],[139.73932089657427,33.133401802831905],[139.73982336497892,33.133153924931406],[139.73998495364293,33.132612724058234],[139.73992430723058,33.13116003560064],[139.74101419850376,33.129632696637934],[139.74166160101626,33.128291567248056],[139.74247565645553,33.12721488511985],[139.74204807589015,33.12717793460705],[139.74211939732268,33.12672430360842],[139.74282832783518,33.12686656977704],[139.74252326159268,33.12624555845112],[139.74313669582244,33.12643312120663],[139.74340111584553,33.126221690058635],[139.7437426980424,33.12523595440582],[139.74415884095598,33.124627590281186],[139.7444046669585,33.12339718810801],[139.74415865742455,33.12316114996591],[139.7447311207169,33.12235479953931],[139.74446281527668,33.12169803108791],[139.74486549100922,33.121108536720264],[139.74555508382414,33.121225415585194],[139.74582618982546,33.120635541367754],[139.74648863042287,33.120204313092934],[139.74649837005282,33.119823618904334],[139.74769088883812,33.11913914438378],[139.74892095488306,33.117848548726236],[139.75017502635365,33.116296174910445],[139.7508797634272,33.11588214013911],[139.7517630068218,33.114297376313665],[139.75184014256257,33.1137175005864],[139.7525582472138,33.11175304635833],[139.7523653399289,33.11163991877499],[139.7521070159668,33.110258395668374],[139.75222228426628,33.1095204563347],[139.75272555320623,33.109299867395904],[139.753194739131,33.10754855322385],[139.75292956003224,33.107255594306245],[139.7534196457739,33.107057537258186],[139.7533743247999,33.10636260507778],[139.7546936922519,33.104749077793],[139.7551105380091,33.10518556488137],[139.75545291750566,33.10482790898664],[139.75507934646376,33.10431705766695],[139.75533655351362,33.1037919615188],[139.75606126228672,33.10378510156395],[139.75731991247727,33.10317497373181],[139.75746317701055,33.10293638542246],[139.75886781896438,33.10270788215076],[139.75941635054255,33.10298691359758],[139.76161878323504,33.102701946083165],[139.7616435847829,33.10208934169122],[139.76276488800121,33.10204182000657],[139.76322928269343,33.101619119588115],[139.76361762131344,33.101663024478256],[139.76395561380372,33.10225498687353],[139.76519641177597,33.10204407106614],[139.76518907888678,33.10122968369151],[139.7662173814387,33.101776098773946],[139.7665566247173,33.101515347687126],[139.76717023249012,33.10175154895766],[139.76821662020913,33.1005319574095],[139.76883832017057,33.10075913864357],[139.76930850395237,33.1006272297497],[139.76975074991896,33.10011882930608],[139.7696560073386,33.09966509138957],[139.76901302435706,33.09939281573318],[139.7699104388644,33.09914024497516],[139.77127796792718,33.100082153714844],[139.7704611792191,33.098979350366825],[139.77016303328054,33.09722418296779],[139.7707755518218,33.0974372602856],[139.7709523672118,33.0983331738621],[139.77081721898642,33.09880877052726],[139.77161402218914,33.098822711438295],[139.77133614288795,33.098329711133616],[139.77233105782548,33.09803264926828],[139.77230234064464,33.0976691208686],[139.77283012254716,33.09773194682319],[139.77257433990476,33.09808941297616],[139.77319405129566,33.09814523998016],[139.7735111102543,33.098707577347504],[139.77402027441696,33.09889860643384],[139.77479081039948,33.09882374730778],[139.77556273945234,33.09840396855301],[139.77596282686667,33.09911935638632],[139.7752846624761,33.09942054800803],[139.77557141395513,33.09989607417951],[139.77650977434544,33.09979169857509],[139.77656805127486,33.10025866089946],[139.77748573677565,33.10043972613707],[139.7778073429259,33.10001352162849],[139.77865693311017,33.10037771336549],[139.7785832130687,33.10073443224291],[139.77947156462378,33.10085854850806],[139.7796364843673,33.10006536815171],[139.77840972226846,33.10003972707025],[139.7774925326699,33.09959039906855],[139.77676413666455,33.09869225630032],[139.77628059210323,33.098452219048184],[139.77633739885582,33.09797516708202],[139.7768574847031,33.098054316848334],[139.77819102232488,33.09682039587993],[139.77917135415282,33.09474401472956],[139.77972306489934,33.0926612476058],[139.77995452108274,33.09130000747465],[139.78021731754313,33.09119811556814],[139.7800863153356,33.08998747319406],[139.78026557985154,33.08983397634408],[139.77989076557384,33.087952837411045],[139.77981517238203,33.08680054998523],[139.779629815468,33.086572494227866],[139.78079931081214,33.085650140748236],[139.78166984433938,33.08474539876349],[139.78195661276277,33.08412247498061],[139.78362769642973,33.084050766253185],[139.78503262692473,33.08431961952102],[139.7856753514589,33.08517146614581],[139.78622474557304,33.08547123573711],[139.7867488512528,33.08630752986817],[139.7869292933776,33.08749028955336],[139.7876628599958,33.08879528206477],[139.78768590196074,33.08978833078897],[139.78834569390528,33.09123813293716],[139.78836904752032,33.091694929528046],[139.78985635810213,33.09255637597878],[139.79171784098602,33.09435744310307],[139.7923070957571,33.095509348571966],[139.79339212588062,33.09606600092467],[139.79419391574797,33.096880392545614],[139.79532608189774,33.09759569607287],[139.79617543079982,33.09769516978654],[139.7968125659844,33.097496991112266],[139.79726111163868,33.09692113816487],[139.79839387526735,33.09632576766492],[139.7997153097183,33.095889094921425],[139.80070648552058,33.09531366818884],[139.80136608765736,33.0940195736858],[139.80217049520977,33.093333345507176],[139.80281154915602,33.093107801640315],[139.80339447241238,33.09248011899356],[139.80394228678156,33.092284133596806],[139.80559777632294,33.090479659569276],[139.80705462351082,33.09004830109734],[139.8072180245739,33.0893027109596],[139.80845336730195,33.08907727545939],[139.8098512431306,33.0908238621581],[139.811401400615,33.09182708961567],[139.81189575968133,33.09200669172662],[139.81202018956978,33.09365380443632],[139.81039595785265,33.09516051121777],[139.8093965850155,33.09551085315232],[139.8073144935149,33.096421440780205],[139.80565896935724,33.09730786285577],[139.8043993445556,33.098103062946734],[139.80373281345715,33.09901394284406],[139.8036076842029,33.09957468815495],[139.8037666416822,33.10091862538533],[139.80322183614194,33.102247440408746],[139.80254099928243,33.10338064772227],[139.80118280005283,33.10457227482484],[139.8001762071959,33.104848428359226],[139.79961642138264,33.105625744619736],[139.79814343330062,33.106684013448415],[139.79674016283644,33.10858965224163],[139.7952755331642,33.1094266604653],[139.79513593310594,33.110124341851645],[139.7941051073267,33.11079550321671],[139.79311586369096,33.112107754754085],[139.79237777837764,33.11227148870223],[139.79144063607484,33.11215841984477],[139.78782444824614,33.11447814211954],[139.78763939667448,33.11646669003628],[139.78867462349882,33.11852928479446],[139.78819314072885,33.119051253148996],[139.78699865746125,33.11870189700054],[139.78595427126118,33.119702105587145],[139.7849130580029,33.12092688638734],[139.783404211525,33.123029796005035],[139.78257811723603,33.12393426132828],[139.78255183083445,33.124939393704814],[139.78226678346846,33.12519907695054],[139.7815784816126,33.12487921809543],[139.7801771985366,33.12577748471551],[139.77913282523653,33.12539742645778],[139.76858479739516,33.13458113040943],[139.76654147314977,33.1363978156752],[139.7640453325718,33.14020204077543],[139.7625964399894,33.14076055975628],[139.7605288353652,33.14289674516755],[139.75926073578876,33.14385520337453],[139.75737504496752,33.1459213308686],[139.7534712841675,33.14943123103586],[139.74787134260447,33.154582958801605],[139.74630581210863,33.155700585299996]]]},"properties":{"KEY_CODE":"134010020","PREF":"13","CITY":"401","CITY_NAME":"八丈町","S_NAME":"大賀郷","SETAI":"1160"}},{"type":"Feature","geometry":{"type":"Polygon","coordinates":[[[139.81189575968133,33.09200669172662],[139.811401400615,33.09182708961567],[139.8098512431306,33.0908238621581],[139.80845336730195,33.08907727545939],[139.8072180245739,33.0893027109596],[139.80705462351082,33.09004830109734],[139.80559777632294,33.090479659569276],[139.80394228678156,33.092284133596806],[139.80339447241238,33.09248011899356],[139.80281154915602,33.093107801640315],[139.80217049520977,33.093333345507176],[139.80136608765736,33.0940195736858],[139.80070648552058,33.09531366818884],[139.7997153097183,33.095889094921425],[139.79839387526735,33.09632576766492],[139.79726111163868,33.09692113816487],[139.7968125659844,33.097496991112266],[139.79617543079982,33.09769516978654],[139.79532608189774,33.09759569607287],[139.79419391574797,33.096880392545614],[139.79339212588062,33.09606600092467],[139.7923070957571,33.095509348571966],[139.79171784098602,33.09435744310307],[139.78985635810213,33.09255637597878],[139.78836904752032,33.091694929528046],[139.78834569390528,33.09123813293716],[139.78768590196074,33.08978833078897],[139.7876628599958,33.08879528206477],[139.7869292933776,33.08749028955336],[139.7867488512528,33.08630752986817],[139.78622474557304,33.08547123573711],[139.7856753514589,33.08517146614581],[139.78503262692473,33.08431961952102],[139.78362769642973,33.084050766253185],[139.78195661276277,33.08412247498061],[139.78166984433938,33.08474539876349],[139.78079931081214,33.085650140748236],[139.779629815468,33.086572494227866],[139.7796299101175,33.08593310338446],[139.78022820713568,33.083731430247006],[139.78010219568043,33.08354200800512],[139.78044772684407,33.08142137627179],[139.78044987181576,33.079484601999404],[139.7802510273531,33.07759621213189],[139.78042547444693,33.07576801338343],[139.7796697761608,33.07561156067257],[139.77962599552347,33.075259862377116],[139.78025142272838,33.0753196015239],[139.7807085118364,33.074428210150955],[139.78139659783477,33.07244694115131],[139.78260721118158,33.07127379727787],[139.78393176594582,33.06977606178336],[139.78553161600814,33.06947858910019],[139.78694487319683,33.06893614471711],[139.7884859059598,33.06748889278215],[139.78994315974683,33.06672353244676],[139.79091273626412,33.06655002552141],[139.7921632212171,33.06604437746845],[139.7929644967265,33.06596716900905],[139.79387558583383,33.06551436147774],[139.79445451910183,33.064901376034065],[139.79530219119673,33.0633520761132],[139.79609969395352,33.062522456932875],[139.7964374666772,33.06305797536328],[139.7969144374927,33.06310349735872],[139.7974558510146,33.062522610239924],[139.79822591927726,33.06285705836244],[139.79926037225707,33.06301038872568],[139.80039054585788,33.06377692185489],[139.80132263713546,33.06399670914488],[139.8016417770966,33.06491037701635],[139.8015430833334,33.06595524240788],[139.80208346483622,33.066772879515455],[139.80197253721852,33.06766247353271],[139.8023286727546,33.068293792412774],[139.8042623722732,33.06955421886943],[139.80497364994804,33.06991876528664],[139.80507102814053,33.07041474841652],[139.80590499766697,33.07141617249481],[139.80570334260713,33.072207398137195],[139.80673892835358,33.07258694896086],[139.80808947476137,33.073874503014295],[139.80841931749106,33.07438265324607],[139.8083821460978,33.07537089323357],[139.8086382777418,33.0762828348222],[139.8093060527668,33.077564016871754],[139.8106210925349,33.07942018483204],[139.811171784529,33.08164644580151],[139.81110720092855,33.0833501381793],[139.8112319527094,33.08384104270405],[139.8111067212174,33.08506736921729],[139.81335473473888,33.085348189276466],[139.8127924121823,33.086469608230054],[139.81320841467993,33.08767885892263],[139.81393669687677,33.088765311722156],[139.81391547685038,33.09030728845654],[139.81364967203444,33.09177933520119],[139.81189575968133,33.09200669172662]]]},"properties":{"KEY_CODE":"134010030","PREF":"13","CITY":"401","CITY_NAME":"八丈町","S_NAME":"樫立","SETAI":"254"}},{"type":"Feature","geometry":{"type":"Polygon","coordinates":[[[139.82347524010493,33.089277022228494],[139.82270637242266,33.08947784884947],[139.82238006727252,33.08980356254363],[139.82179705338203,33.089738111412395],[139.82029446673522,33.091245528167576],[139.81955255455526,33.0927507772668],[139.8183972123482,33.09316175284931],[139.81725471098525,33.09258023998248],[139.81527818431255,33.09244888438949],[139.81412844140075,33.0918625507933],[139.81364967203444,33.09177933520119],[139.81391547685038,33.09030728845654],[139.81393669687677,33.088765311722156],[139.81320841467993,33.08767885892263],[139.8127924121823,33.086469608230054],[139.81335473473888,33.085348189276466],[139.8111067212174,33.08506736921729],[139.8112319527094,33.08384104270405],[139.81110720092855,33.0833501381793],[139.811171784529,33.08164644580151],[139.8106210925349,33.07942018483204],[139.8093060527668,33.077564016871754],[139.8086382777418,33.0762828348222],[139.8083821460978,33.07537089323357],[139.80841931749106,33.07438265324607],[139.80808947476137,33.073874503014295],[139.80673892835358,33.07258694896086],[139.80570334260713,33.072207398137195],[139.80590499766697,33.07141617249481],[139.80507102814053,33.07041474841652],[139.80497364994804,33.06991876528664],[139.8042623722732,33.06955421886943],[139.8023286727546,33.068293792412774],[139.80197253721852,33.06766247353271],[139.80208346483622,33.066772879515455],[139.8015430833334,33.06595524240788],[139.8016417770966,33.06491037701635],[139.80132263713546,33.06399670914488],[139.80228741922534,33.063831848700154],[139.8040562052776,33.06304330105659],[139.80553585741072,33.06189142017546],[139.8060329752041,33.061231011374886],[139.80627004358072,33.060410195295496],[139.80556458525325,33.060326608900276],[139.80584130188566,33.06000176521949],[139.8067186500046,33.05993660274153],[139.8075885101116,33.059368706372034],[139.8084846640957,33.05926972026763],[139.81017816614542,33.05864788225533],[139.8121300909398,33.05959342377567],[139.8129776534365,33.059742374230844],[139.81392771835394,33.05940439243398],[139.81402555435093,33.05828145006306],[139.8150264768544,33.05802462669875],[139.81553971932468,33.05810192585175],[139.8143041747135,33.05862416466649],[139.8144218076322,33.058991929748785],[139.8150429777243,33.059424596104755],[139.81721144294656,33.059348862666],[139.8181614564275,33.05904241011075],[139.81935319547725,33.0584268521609],[139.81996273941763,33.057890393098006],[139.82178351773146,33.05597383915362],[139.8219207380682,33.0555748305751],[139.82304393780623,33.054667843270714],[139.8244705816788,33.05320994932278],[139.82501766545883,33.05246942170096],[139.82551107894813,33.05214482601025],[139.8260086839427,33.05132397629282],[139.8274000798197,33.04994944485118],[139.8282712191902,33.049453526219466],[139.8294081424216,33.04859690864619],[139.83029130193754,33.04759119866386],[139.8302446926285,33.04704562958159],[139.83110972315447,33.04668636403814],[139.8316752466905,33.04596525258596],[139.8320903802911,33.04590101308865],[139.83226203277795,33.04539490220952],[139.83287180111418,33.04575139339478],[139.83174333220865,33.04646432401453],[139.83169691086047,33.04672639786998],[139.83244939205233,33.04627074490862],[139.83379162915728,33.04664669056511],[139.8355653865732,33.048359479822004],[139.83592255497555,33.049065951620776],[139.8366012338406,33.049226569447725],[139.8369721877073,33.04975775889982],[139.83665191794626,33.05008859903211],[139.83688864711382,33.05065332457639],[139.83637505604545,33.05123102492413],[139.83616300950405,33.0518831152991],[139.8346098135279,33.053543776104625],[139.83397251943893,33.05402931629543],[139.8333633738968,33.05489612810957],[139.8334920075564,33.056764750959005],[139.83366049190357,33.05762706436472],[139.8335383976472,33.05917978431056],[139.83384686102647,33.06084635998378],[139.83372549336477,33.06252785126806],[139.83376499402146,33.064051516252455],[139.8332605519441,33.06545991584753],[139.83351771479124,33.06699457580118],[139.83415871700535,33.06779826498411],[139.8354972387044,33.068670996726425],[139.83633505989974,33.068972519239935],[139.83582000920532,33.069707158083155],[139.8348177014082,33.070531683014785],[139.8346745045957,33.07083094967097],[139.83392161211583,33.070924495648185],[139.8325502896344,33.070854864843135],[139.8320416456605,33.071338413640284],[139.83111781624342,33.07165737574344],[139.83078418897773,33.07292347201963],[139.83137283456878,33.07334365397044],[139.83069448263183,33.07500312274185],[139.830304513345,33.0766741538661],[139.82970156245915,33.0770880808622],[139.82907430740886,33.077968654981504],[139.8281876975843,33.07835888483665],[139.82771601264005,33.07887622472317],[139.82620782214892,33.08163963084285],[139.82532212045706,33.08257481192596],[139.8230942968761,33.084687711568094],[139.82169248703408,33.08487464534438],[139.82109368204024,33.08535474073873],[139.82130444976806,33.08601274406391],[139.82248791028167,33.08678612097943],[139.8228310326831,33.087270002005035],[139.8229208491286,33.08823318767964],[139.82347524010493,33.089277022228494]]]},"properties":{"KEY_CODE":"134010040","PREF":"13","CITY":"401","CITY_NAME":"八丈町","S_NAME":"中之郷","SETAI":"323"}},{"type":"Feature","geometry":{"type":"Polygon","coordinates":[[[139.84656577035653,33.11697641265984],[139.84558389362968,33.11698437641245],[139.84521953801212,33.116778973548705],[139.84570042477029,33.11650447314591],[139.84656577035653,33.11697641265984]]]},"properties":{"KEY_CODE":"134010050","PREF":"13","CITY":"401","CITY_NAME":"八丈町","S_NAME":"末吉","SETAI":"0"}},{"type":"Feature","geometry":{"type":"Polygon","coordinates":[[[139.83633505989974,33.068972519239935],[139.83737158147488,33.070263138665226],[139.83780924310642,33.0715664468826],[139.8384238310997,33.07255498412182],[139.83914343627805,33.07440948005102],[139.83890846994765,33.07500097661696],[139.8399705663892,33.076027258186244],[139.8404664748902,33.075766863148104],[139.84169377735333,33.07608919540751],[139.8425454648415,33.07651551792113],[139.8436112195291,33.07582280457973],[139.84432756046894,33.07581233527054],[139.8449933210934,33.07620568174921],[139.84518751299143,33.07579903517674],[139.84643732587352,33.07686836455978],[139.8485001404901,33.077873043909726],[139.85003534367365,33.077995722819665],[139.85095589035018,33.07753880872835],[139.85186734204575,33.07740905592929],[139.85252818576106,33.07757578521669],[139.85474876443558,33.07742721350099],[139.8560123240631,33.07793649102018],[139.8575769429721,33.078860507048056],[139.85843364725298,33.0790364671549],[139.85844468972147,33.08001712070986],[139.85759064213372,33.07984115956446],[139.8573882900761,33.08038055718448],[139.85822907325394,33.08149659900999],[139.85826360476332,33.08222588429544],[139.85863525210337,33.08304809842545],[139.85938061344933,33.08403643894501],[139.85875261712937,33.084299539056374],[139.85839465057887,33.085286461610835],[139.85864631718937,33.085776459074296],[139.85767364637243,33.08688213074101],[139.85724489323437,33.087076928751415],[139.85629393802967,33.088309672068085],[139.85587679516647,33.089079892434775],[139.85575740578582,33.08980469256562],[139.85515474191328,33.090120683836254],[139.85444676321566,33.09106706720303],[139.85446271609294,33.09192738916431],[139.85469696073685,33.09251433372221],[139.8543405895311,33.09286832484845],[139.85446640118968,33.09370664958751],[139.85489902664884,33.09446968611531],[139.85501722773466,33.095360706481294],[139.85590698980832,33.09664920992014],[139.85665846534113,33.09709798320726],[139.85718524544566,33.09802527804492],[139.85743489644472,33.09911183460634],[139.85632940875914,33.09980185920764],[139.85553692355592,33.10061130445069],[139.8550610769647,33.1017095348064],[139.85412119148086,33.1019531504419],[139.85286945460942,33.10294524942357],[139.85150990146087,33.10448515047845],[139.85034871260183,33.106571118838325],[139.84984577418714,33.10786544723227],[139.8498804508276,33.10826446031177],[139.84954117206217,33.10947592224964],[139.84921474626933,33.11000713546581],[139.84933369227647,33.1105459078435],[139.84907060277993,33.11133185415563],[139.8482928499504,33.111680794598314],[139.84783039223305,33.11322534693617],[139.84598349272702,33.11483200903998],[139.84661750769274,33.11555617105633],[139.84661392033257,33.115998586627256],[139.84586516544687,33.11549197782667],[139.84496084504585,33.11661949547376],[139.84391154556437,33.11635044664528],[139.84248882873376,33.11625639948043],[139.8413858485484,33.116712389241485],[139.83927911382253,33.11710640035168],[139.83788099377782,33.11765761603103],[139.83668597192357,33.11793265676984],[139.83542536665016,33.1177455378438],[139.83441523763895,33.11797716257509],[139.83414413040566,33.117503173316194],[139.83477945001016,33.1167693808816],[139.83677309773597,33.11699849772172],[139.83757231285838,33.11673980521369],[139.83773571972657,33.11569574661153],[139.83739237807785,33.11521190181976],[139.837967587545,33.11433325601559],[139.83752522113528,33.11394325041758],[139.8381444673709,33.11292765156719],[139.83792908335514,33.11022747686924],[139.83695353073645,33.10967684015899],[139.83670924339108,33.10909915319544],[139.83526210275986,33.10680557167702],[139.83530950473244,33.105855913627565],[139.83402605892863,33.10540697090302],[139.83368549795625,33.104968206892046],[139.8329488107829,33.10490507189096],[139.83195766787594,33.10322638778907],[139.83089846292458,33.102222899258294],[139.831155818412,33.10208257738783],[139.83106287035017,33.10140909529113],[139.83015324998146,33.10108161563518],[139.82975505760987,33.10055464697085],[139.82826821655541,33.100203166604004],[139.82769708625435,33.0994118556279],[139.82629846855974,33.0987864505676],[139.82568910304056,33.09788465857499],[139.82628084536515,33.096756127153604],[139.8265236735076,33.09557374343544],[139.82597159579845,33.095097744526804],[139.82667631600359,33.093762951994385],[139.82614034113215,33.09283411113348],[139.82651219558352,33.092776096084755],[139.8262246527322,33.09147784639312],[139.8258075516325,33.09063552377863],[139.8245494786782,33.08973421530558],[139.82347524010493,33.089277022228494],[139.8229208491286,33.08823318767964],[139.8228310326831,33.087270002005035],[139.82248791028167,33.08678612097943],[139.82130444976806,33.08601274406391],[139.82109368204024,33.08535474073873],[139.82169248703408,33.08487464534438],[139.8230942968761,33.084687711568094],[139.82532212045706,33.08257481192596],[139.82620782214892,33.08163963084285],[139.82771601264005,33.07887622472317],[139.8281876975843,33.07835888483665],[139.82907430740886,33.077968654981504],[139.82970156245915,33.0770880808622],[139.830304513345,33.0766741538661],[139.83069448263183,33.07500312274185],[139.83137283456878,33.07334365397044],[139.83078418897773,33.07292347201963],[139.83111781624342,33.07165737574344],[139.8320416456605,33.071338413640284],[139.8325502896344,33.070854864843135],[139.83392161211583,33.070924495648185],[139.8346745045957,33.07083094967097],[139.8348177014082,33.070531683014785],[139.83582000920532,33.069707158083155],[139.83633505989974,33.068972519239935]]]},"properties":{"KEY_CODE":"134010050","PREF":"13","CITY":"401","CITY_NAME":"八丈町","S_NAME":"末吉","SETAI":"170"}},{"type":"Feature","geometry":{"type":"Polygon","coordinates":[[[139.83828298382477,33.118537661864124],[139.83841882481713,33.119228061493224],[139.8379841809693,33.11903531909145],[139.83828298382477,33.118537661864124]]]},"properties":{"KEY_CODE":"134010050","PREF":"13","CITY":"401","CITY_NAME":"八丈町","S_NAME":"末吉","SETAI":"0"}},{"type":"Feature","geometry":{"type":"Polygon","coordinates":[[[139.6992271145385,33.129597159984364],[139.698952109518,33.13020525550205],[139.6981021625414,33.13070507164315],[139.69796472044968,33.13009680618849],[139.69833969196904,33.12971369638542],[139.6992271145385,33.129597159984364]]]},"properties":{"KEY_CODE":"134010060","PREF":"13","CITY":"401","CITY_NAME":"八丈町","S_NAME":"八丈小島","SETAI":"0"}},{"type":"Feature","geometry":{"type":"Polygon","coordinates":[[[139.68349163663964,33.115823040802674],[139.68361661221562,33.116272927900376],[139.68305417142668,33.1159146612211],[139.68349163663964,33.115823040802674]]]},"properties":{"KEY_CODE":"134010060","PREF":"13","CITY":"401","CITY_NAME":"八丈町","S_NAME":"八丈小島","SETAI":"0"}},{"type":"Feature","geometry":{"type":"Polygon","coordinates":[[[139.68880374835783,33.1142651335003],[139.6881912899088,33.114581712075086],[139.68835380527435,33.11394843866151],[139.68880374835783,33.1142651335003]]]},"properties":{"KEY_CODE":"134010060","PREF":"13","CITY":"401","CITY_NAME":"八丈町","S_NAME":"八丈小島","SETAI":"0"}},{"type":"Feature","geometry":{"type":"Polygon","coordinates":[[[139.7010775595986,33.11741523266247],[139.70163999385042,33.117773431368974],[139.70137749171982,33.118448319145664],[139.7010775595986,33.11741523266247]]]},"properties":{"KEY_CODE":"134010060","PREF":"13","CITY":"401","CITY_NAME":"八丈町","S_NAME":"八丈小島","SETAI":"0"}},{"type":"Feature","geometry":{"type":"Polygon","coordinates":[[[139.6859654909701,33.13645415435249],[139.68417814901505,33.136453981689016],[139.6828657504973,33.1366124729621],[139.68246579197245,33.13643727348351],[139.68207836666159,33.13569566632854],[139.68064104732167,33.13486232768327],[139.67985360630908,33.135029037238766],[139.67937868504885,33.134304228558],[139.67862873188756,33.134420817683115],[139.67841621620346,33.135187331419566],[139.67787874283096,33.13547889210114],[139.67726623963014,33.136403838421465],[139.67675377659597,33.13651225415637],[139.67605387926318,33.13582068847526],[139.67595389687594,33.135462398385194],[139.6765163873581,33.1347873518761],[139.67581647106795,33.13428741043145],[139.67565401229234,33.13382083193945],[139.67600399064074,33.1335958323445],[139.6752790562199,33.13346247812686],[139.67554156814933,33.13294599106154],[139.6765789904224,33.13276270895363],[139.67655403961825,33.13188769463247],[139.67510420420444,33.13092100975308],[139.67542919466678,33.13067118003576],[139.67590420944614,33.129704641820084],[139.6762041938754,33.12950465525569],[139.67686663880673,33.12967962656121],[139.6786540921474,33.12774645213919],[139.67982904998374,33.12666327520752],[139.68100400797277,33.12513007573704],[139.68147901323127,33.123922058381865],[139.68201649693253,33.122955328000586],[139.68249150698256,33.12162219727214],[139.683241472863,33.12058921956259],[139.6838415036854,33.11852272841437],[139.6845414714485,33.117914616472376],[139.6856914055305,33.11728140223688],[139.68750376374965,33.116764776037485],[139.68774126067356,33.11633138038755],[139.68872868537258,33.11617332736386],[139.68926611751675,33.11667300353534],[139.6904284967434,33.117206370451036],[139.69184086973374,33.117473158062246],[139.69439063891434,33.11764822021274],[139.69564054832466,33.117465045829825],[139.69770289123994,33.11692347954553],[139.6983653375603,33.1166069158858],[139.69812787987337,33.1161152123806],[139.69847786027327,33.115890165956564],[139.6996027504913,33.116115140025705],[139.70005269592792,33.11640700163821],[139.6997901973489,33.11696522429484],[139.70062760615772,33.11737360408752],[139.70116503020142,33.117890144009955],[139.70114002007267,33.11835676238772],[139.70060255656793,33.118606692407305],[139.7000651116319,33.118448305042556],[139.6994276292917,33.11946487111067],[139.69911506326727,33.12155628124844],[139.69913999440513,33.12272266204474],[139.6989649068548,33.12453920657357],[139.69858991333294,33.125039263708516],[139.69787739036747,33.12670558211485],[139.6970774020423,33.12791388273254],[139.69606494277744,33.128863523179675],[139.69397761890875,33.12960508847865],[139.69236526983596,33.12994674103755],[139.69125284368906,33.13048819213519],[139.6907153744014,33.13097986823304],[139.68985293598175,33.131413109900855],[139.68876547126308,33.13257960902977],[139.68754049204654,33.134154272043375],[139.68761546606063,33.13447110573873],[139.68727792167383,33.13562101887612],[139.68746539250844,33.13588754278787],[139.6859654909701,33.13645415435249]]]},"properties":{"KEY_CODE":"134010060","PREF":"13","CITY":"401","CITY_NAME":"八丈町","S_NAME":"八丈小島","SETAI":"0"}},{"type":"Feature","geometry":{"type":"Polygon","coordinates":[[[139.67540421985015,33.130046121690754],[139.67502922081098,33.13060445684331],[139.67499175143618,33.13011295534179],[139.67540421985015,33.130046121690754]]]},"properties":{"KEY_CODE":"134010060","PREF":"13","CITY":"401","CITY_NAME":"八丈町","S_NAME":"八丈小島","SETAI":"0"}}]}