{"type":"FeatureCollection","features":[{"type":"Feature","geometry":{"type":"Polygon","coordinates":[[[132.71343079626595,34.9972897856305],[132.71085993865395,34.99695328938792],[132.7088541130036,34.99719099659444],[132.70463470622133,34.99801132475716],[132.703672484795,34.997795212262396],[132.70203679004632,34.996786728253454],[132.7002743203459,34.99498118368269],[132.69722864796958,34.99514401964866],[132.69332461333644,34.99475898392286],[132.6962432542687,34.993951971207686],[132.6989490518619,34.99397745118543],[132.70062679694053,34.99324114364555],[132.7042914857832,34.993879252228645],[132.7047211509907,34.99179292378657],[132.70525761829464,34.99038860394241],[132.70469651149742,34.98829609452342],[132.70325416201348,34.98619558200592],[132.7018243353944,34.98509015804297],[132.7019498669768,34.984419646147565],[132.70332514409554,34.98350085861362],[132.70368042165487,34.98276622842903],[132.70333013704803,34.98064620832249],[132.70111094304315,34.97795179418357],[132.7015426760909,34.977613966533994],[132.70335758223544,34.977253834886966],[132.70482834232814,34.976370601987874],[132.70615347058458,34.975940760238146],[132.70826556690906,34.97560803017704],[132.7096309676909,34.973015541670264],[132.7096628308065,34.971583219117434],[132.70874332609856,34.969975500593875],[132.70710581958204,34.96866846625295],[132.70618400552462,34.966695377357084],[132.7059812063947,34.96366805083496],[132.70488513343906,34.96300782445126],[132.7008242175165,34.96106443040121],[132.7010267621783,34.96044702577572],[132.7035073351339,34.95896021411697],[132.70460858334198,34.957712520489025],[132.70637454829108,34.95615592930648],[132.7067461435879,34.95523183277297],[132.70876722965193,34.9544591821045],[132.71050452224372,34.95445929405185],[132.71214187683054,34.95285947362823],[132.71415408992988,34.95350939504944],[132.7159414500624,34.95145960110072],[132.71697879736254,34.951209751119485],[132.7171163551798,34.949409882188874],[132.71867864038924,34.94855176198851],[132.7204409562675,34.948076742424256],[132.721653275842,34.94875180511615],[132.72379046807217,34.950818245228184],[132.72569026680418,34.95120157117806],[132.72753999531707,34.95320968873324],[132.72644013086065,34.953751342896936],[132.72616515071985,34.954584414509476],[132.72781492494653,34.95638435537914],[132.7293772210126,34.95658431703446],[132.7310525495276,34.957791459317335],[132.73257684417797,34.95741758310814],[132.7333142542477,34.95788423779788],[132.7335642085667,34.95883410486948],[132.73554227158874,34.95894295168929],[132.73708746843616,34.95966389920341],[132.73856358843992,34.96063396788478],[132.73865105522376,34.962342234173825],[132.73991343674285,34.96207548523235],[132.74055088579456,34.96108396820392],[132.74040100338357,34.95772605500617],[132.7405635019595,34.95680115447812],[132.74292575119338,34.95652627529755],[132.74372566807588,34.95740934802334],[132.74383812576625,34.95844259862256],[132.74598783990788,34.95954254504891],[132.7478501642645,34.959384264963866],[132.74964996939613,34.960234146314626],[132.75011239872305,34.961292549437616],[132.75032486054985,34.96321726702033],[132.75077482669252,34.965292049219464],[132.74954118778209,34.96560530523212],[132.74973741767093,34.9661252380253],[132.7514787293915,34.96668838918091],[132.75324395978348,34.96677700952093],[132.75190174442903,34.96765964659778],[132.751724981412,34.96935488097442],[132.74993533967813,34.97123504473115],[132.74913008662213,34.97170498113551],[132.74969853434982,34.97237954463834],[132.7483729080884,34.973121350183064],[132.74658769947138,34.975540777533055],[132.74530032424238,34.976148992736505],[132.74525032800736,34.976757218090135],[132.74656270239353,34.97751549974134],[132.7482250090629,34.9777488328653],[132.74861214425698,34.9788518254526],[132.74732611058346,34.98083286955164],[132.74378586994624,34.98235045293146],[132.74246960840273,34.98316511794195],[132.740242928553,34.9830361367176],[132.7393546686759,34.983934663346666],[132.738954263959,34.98617390546502],[132.7381504000874,34.98788515364264],[132.7383931962055,34.98877116243143],[132.73758703858564,34.99091405055302],[132.73680361523662,34.99118970751098],[132.73309409297588,34.99175284362512],[132.73133895173302,34.99286570247464],[132.73046529882527,34.99444791514321],[132.729641462603,34.99400657759218],[132.72779083255452,34.99408689937615],[132.72618856051653,34.99472606913042],[132.723007018335,34.99426692711145],[132.72154544242542,34.994413547305044],[132.71965412959582,34.992780569813554],[132.7176123717915,34.99191784637948],[132.71711559593612,34.992613222506904],[132.71512237944273,34.994269834798345],[132.71342426046758,34.994952448911],[132.71415988220298,34.99551831649609],[132.71323279135186,34.997057355462175],[132.71343079626595,34.9972897856305]]]},"properties":{"KEY_CODE":"323860010","PREF":"32","CITY":"386","CITY_NAME":"飯南町","S_NAME":"上赤名","SETAI":"100"}},{"type":"Feature","geometry":{"type":"Polygon","coordinates":[[[132.72154544242542,34.994413547305044],[132.72180184677592,34.996178512380816],[132.72164841761645,34.997301593562845],[132.7220299251041,34.99762049911015],[132.7218360891695,34.99930498944269],[132.72110575974656,35.00087826267765],[132.7199283140429,35.00097750927068],[132.71781776947142,35.002380130307756],[132.71708845110913,35.00232751872339],[132.71635019344168,35.00292673535774],[132.71613400729424,35.003900506991],[132.7153262720531,35.00325800039623],[132.714358547013,35.00087887417643],[132.71412333556677,34.99900245108121],[132.71308879427414,34.99772564096867],[132.71343079626595,34.9972897856305],[132.71323279135186,34.997057355462175],[132.71415988220298,34.99551831649609],[132.71342426046758,34.994952448911],[132.71512237944273,34.994269834798345],[132.71711559593612,34.992613222506904],[132.7176123717915,34.99191784637948],[132.71965412959582,34.992780569813554],[132.72154544242542,34.994413547305044]]]},"properties":{"KEY_CODE":"323860020","PREF":"32","CITY":"386","CITY_NAME":"飯南町","S_NAME":"赤名","SETAI":"177"}},{"type":"Feature","geometry":{"type":"Polygon","coordinates":[[[132.71715226297866,35.02300113720479],[132.7157259295031,35.022718295626156],[132.71341508631815,35.02286768755878],[132.71237772072504,35.02260115068173],[132.71091703505166,35.02596042193092],[132.7096028542129,35.02605068665614],[132.7077030842306,35.0244008492949],[132.70674065732865,35.02447591534303],[132.7056782580822,35.02501742638885],[132.70419091812445,35.0245424534232],[132.70091620181964,35.02472565815499],[132.69759149783008,35.02625876135575],[132.69591656441813,35.02914173754891],[132.695691440696,35.02915075255072],[132.69432916114442,35.028625127919874],[132.69171691467199,35.02604208874859],[132.6902545199074,35.0265337383348],[132.686192339655,35.024800542437106],[132.68619236823682,35.02327574066767],[132.6866799202241,35.02115092377794],[132.68750484605104,35.020251061900325],[132.68571928417003,35.02018851365458],[132.68723933850762,35.01907862636446],[132.68990471327962,35.01797349732643],[132.69172187888952,35.0176104737675],[132.69438626021812,35.016573838439264],[132.69721511194217,35.01419353316463],[132.6982544484836,35.01314209228196],[132.70119331917476,35.01218517807484],[132.70325409156976,35.01084875352452],[132.7041028119313,35.00848952383434],[132.70404851046067,35.00714378066748],[132.70325225829708,35.00476471847901],[132.70027034293474,35.000692204360924],[132.69884238308975,34.998576707240204],[132.69728468798698,34.9967888883368],[132.69332461333644,34.99475898392286],[132.69722864796958,34.99514401964866],[132.7002743203459,34.99498118368269],[132.70203679004632,34.996786728253454],[132.703672484795,34.997795212262396],[132.70463470622133,34.99801132475716],[132.7088541130036,34.99719099659444],[132.71085993865395,34.99695328938792],[132.71343079626595,34.9972897856305],[132.71308879427414,34.99772564096867],[132.71412333556677,34.99900245108121],[132.714358547013,35.00087887417643],[132.7153262720531,35.00325800039623],[132.71613400729424,35.003900506991],[132.71635019344168,35.00292673535774],[132.71708845110913,35.00232751872339],[132.71781776947142,35.002380130307756],[132.7199283140429,35.00097750927068],[132.72110575974656,35.00087826267765],[132.7218360891695,34.99930498944269],[132.7220299251041,34.99762049911015],[132.72164841761645,34.997301593562845],[132.72180184677592,34.996178512380816],[132.72154544242542,34.994413547305044],[132.723007018335,34.99426692711145],[132.72618856051653,34.99472606913042],[132.72779083255452,34.99408689937615],[132.729641462603,34.99400657759218],[132.73046529882527,34.99444791514321],[132.73189542503516,34.99543913192279],[132.73206250033107,34.99635318673862],[132.7316353224948,34.99824026194716],[132.7304936721828,34.99983944307908],[132.73241349130257,35.0009145834255],[132.73443311696812,35.00251333286404],[132.73497982328539,35.003271798552795],[132.73534924158685,35.0049141059093],[132.73452461554174,35.006899473579615],[132.73325074148227,35.00833415646922],[132.73160881731664,35.009598130732314],[132.73042357388172,35.0099625954009],[132.7299717744713,35.01158012244895],[132.72796818038216,35.012336041318086],[132.72674662327577,35.015069825538056],[132.72566480237148,35.01653219128646],[132.72427486169556,35.018929309246786],[132.72218434815028,35.01978602432232],[132.7206983587791,35.020919905100584],[132.71890416056783,35.021689172943205],[132.71715226297866,35.02300113720479]]]},"properties":{"KEY_CODE":"323860030","PREF":"32","CITY":"386","CITY_NAME":"飯南町","S_NAME":"下赤名","SETAI":"158"}},{"type":"Feature","geometry":{"type":"Polygon","coordinates":[[[132.68571928417003,35.02018851365458],[132.68516755445947,35.019534435056116],[132.68341768127132,35.01973440881053],[132.6817303433974,35.01851790222354],[132.68071793361634,35.01809283028607],[132.67936801463642,35.01800131126248],[132.67925555396795,35.017218017840214],[132.6774432248993,35.01584323095954],[132.6775307550271,35.01367669377407],[132.6763683444352,35.01322678744112],[132.6750560206409,35.01176871308495],[132.674618579108,35.01088536269272],[132.6710938510806,35.01116038893822],[132.67005653517114,35.009852016949694],[132.66794937455853,35.00896138937929],[132.66846394021098,35.00755270671304],[132.66859948075245,35.00600290511477],[132.67146839968345,35.003077329749225],[132.67227902958766,35.000778901428404],[132.67376850862482,34.997919485691035],[132.67578230903703,34.99540138163577],[132.6769861978716,34.99363882373076],[132.67684863108173,34.99224341916456],[132.67720405852916,34.990761071476385],[132.6795254424685,34.99034849450375],[132.67997108888497,34.989765169606756],[132.6834371666551,34.991013303084614],[132.68519117930538,34.99116320300932],[132.68707554754042,34.99094918279674],[132.68973136365332,34.991013428782374],[132.69152002542089,34.99235733772732],[132.69305764517216,34.99405970839021],[132.69332461333644,34.99475898392286],[132.69728468798698,34.9967888883368],[132.69884238308975,34.998576707240204],[132.70027034293474,35.000692204360924],[132.70325225829708,35.00476471847901],[132.70404851046067,35.00714378066748],[132.7041028119313,35.00848952383434],[132.70325409156976,35.01084875352452],[132.70119331917476,35.01218517807484],[132.6982544484836,35.01314209228196],[132.69721511194217,35.01419353316463],[132.69438626021812,35.016573838439264],[132.69172187888952,35.0176104737675],[132.68990471327962,35.01797349732643],[132.68723933850762,35.01907862636446],[132.68571928417003,35.02018851365458]]]},"properties":{"KEY_CODE":"323860040","PREF":"32","CITY":"386","CITY_NAME":"飯南町","S_NAME":"塩谷","SETAI":"28"}},{"type":"Feature","geometry":{"type":"Polygon","coordinates":[[[132.66794937455853,35.00896138937929],[132.66661937967686,35.00936041643121],[132.6657444857266,35.00929373038471],[132.66433217775193,35.008527089901484],[132.66371220605603,35.006692412901664],[132.66318138498488,35.005903412859695],[132.6627699215244,35.00555239842562],[132.66336992934984,35.0039526008851],[132.66339494729667,35.00265263536505],[132.664819891329,35.00111959736923],[132.66514490180035,35.0002696937207],[132.6646200278883,34.99832821172465],[132.66319522794828,34.99686170189642],[132.6633827562895,34.995061884899314],[132.66493265081365,34.994703619736036],[132.66539510487505,34.99416211817537],[132.66547015044463,34.99298717175493],[132.6662950730607,34.993012164558706],[132.66756997132694,34.992537315344],[132.66778250846977,34.99190401109902],[132.66732007603295,34.990754096462446],[132.66525787587932,34.989154250148154],[132.66494541136305,34.988370983965915],[132.6654298501661,34.98733894159911],[132.6651146651492,34.986614351375664],[132.66595587371518,34.98592608008961],[132.66722277431026,34.9857367768465],[132.66821413898563,34.98521140049414],[132.67108692446007,34.98538346128913],[132.673841997478,34.98258130714041],[132.67520457743277,34.980781581502264],[132.6757743096913,34.97943491076327],[132.67585242826632,34.97799318926062],[132.67559382283108,34.976877480503184],[132.6779058858458,34.97536254991051],[132.6794152329415,34.97321461201304],[132.6797895859764,34.97144444015843],[132.68028369034843,34.97095169153074],[132.68223502910706,34.97093324919464],[132.68394461482373,34.969029684691826],[132.6840202729847,34.9684683579757],[132.68341015624273,34.96704880933321],[132.68413754312846,34.966105174715366],[132.6853201646739,34.96640680998428],[132.6854457879339,34.964637833129274],[132.68516962829426,34.96405772922361],[132.68376984054703,34.96322461398001],[132.68340745312437,34.96162477525075],[132.68260758929978,34.96034166695332],[132.6818077251279,34.959733369278965],[132.6829701619818,34.958225245356175],[132.68348267071744,34.95691708381061],[132.68315783323962,34.9551172756389],[132.68277039430322,34.954350733712964],[132.68274548784314,34.95256759916014],[132.68515781818135,34.950651238707984],[132.6886198312509,34.951817656447716],[132.68914472445607,34.9522926630999],[132.69063207904864,34.95168436278774],[132.69180691645158,34.95201772781301],[132.69391919337673,34.95208430614686],[132.69590639017045,34.95319249886865],[132.6966687991592,34.95278427973865],[132.69835607114356,34.95363424691811],[132.70035584038814,34.95298423193445],[132.70161823246045,34.95215102550674],[132.70200569483893,34.951517807174454],[132.70310553326195,34.95214276442055],[132.7044303117786,34.95354259875375],[132.70593014423372,34.953517627936854],[132.7067461435879,34.95523183277297],[132.70637454829108,34.95615592930648],[132.70460858334198,34.957712520489025],[132.7035073351339,34.95896021411697],[132.7010267621783,34.96044702577572],[132.7008242175165,34.96106443040121],[132.70488513343906,34.96300782445126],[132.7059812063947,34.96366805083496],[132.70618400552462,34.966695377357084],[132.70710581958204,34.96866846625295],[132.70874332609856,34.969975500593875],[132.7096628308065,34.971583219117434],[132.7096309676909,34.973015541670264],[132.70826556690906,34.97560803017704],[132.70615347058458,34.975940760238146],[132.70482834232814,34.976370601987874],[132.70335758223544,34.977253834886966],[132.7015426760909,34.977613966533994],[132.70111094304315,34.97795179418357],[132.70333013704803,34.98064620832249],[132.70368042165487,34.98276622842903],[132.70332514409554,34.98350085861362],[132.7019498669768,34.984419646147565],[132.7018243353944,34.98509015804297],[132.70325416201348,34.98619558200592],[132.70469651149742,34.98829609452342],[132.70525761829464,34.99038860394241],[132.7047211509907,34.99179292378657],[132.7042914857832,34.993879252228645],[132.70062679694053,34.99324114364555],[132.6989490518619,34.99397745118543],[132.6962432542687,34.993951971207686],[132.69332461333644,34.99475898392286],[132.69305764517216,34.99405970839021],[132.69152002542089,34.99235733772732],[132.68973136365332,34.991013428782374],[132.68707554754042,34.99094918279674],[132.68519117930538,34.99116320300932],[132.6834371666551,34.991013303084614],[132.67997108888497,34.989765169606756],[132.6795254424685,34.99034849450375],[132.67720405852916,34.990761071476385],[132.67684863108173,34.99224341916456],[132.6769861978716,34.99363882373076],[132.67578230903703,34.99540138163577],[132.67376850862482,34.997919485691035],[132.67227902958766,35.000778901428404],[132.67146839968345,35.003077329749225],[132.66859948075245,35.00600290511477],[132.66846394021098,35.00755270671304],[132.66794937455853,35.00896138937929]]]},"properties":{"KEY_CODE":"323860050","PREF":"32","CITY":"386","CITY_NAME":"飯南町","S_NAME":"井戸谷","SETAI":"27"}},{"type":"Feature","geometry":{"type":"Polygon","coordinates":[[[132.6651146651492,34.986614351375664],[132.66223328115564,34.98582124257417],[132.66104584972075,34.98727100725198],[132.65972092785913,34.98819587442002],[132.6571086582991,34.98868745167412],[132.65675867703817,34.989345658527995],[132.65568377813358,34.989528940652654],[132.65505884149,34.98885402172944],[132.65288413254726,34.98763745674833],[132.65139676308107,34.987795727491275],[132.65073432034342,34.98754567604618],[132.64892209893574,34.9857042595125],[132.64892212735754,34.98477929095859],[132.6496096310363,34.98403780030725],[132.65098448331608,34.98421283300814],[132.65153442346477,34.983896122043596],[132.65160951271093,34.982338080307166],[132.65394681544663,34.98157152183123],[132.65598409826003,34.981529959989324],[132.65708403609298,34.981279954963064],[132.65785903299545,34.97968020743188],[132.65772156024087,34.97877199047855],[132.65675918478448,34.97830536034073],[132.65614683825038,34.97693054933059],[132.65454712790793,34.97514744234632],[132.65490965595637,34.97370603499003],[132.65589719476765,34.97208133953267],[132.65564722881192,34.97168142268404],[132.65619721382683,34.97073152095761],[132.65622231039922,34.96967344846414],[132.65699727985557,34.968656875421466],[132.65834715479025,34.968723614908896],[132.6593845620714,34.96823202374735],[132.66054694008486,34.96829871151163],[132.6613094051223,34.96754883595046],[132.66258787512555,34.96720874901223],[132.66504658456606,34.96700725045485],[132.66703383456098,34.96729892360314],[132.66918694248608,34.96468144341388],[132.66972126795255,34.9643411197951],[132.67183350065224,34.96485768797607],[132.67324580646152,34.965690885585666],[132.67533312539712,34.96541605378769],[132.67722042586303,34.965482604195635],[132.67945767076313,34.965824127262536],[132.68055753199846,34.9663574993884],[132.68341015624273,34.96704880933321],[132.6840202729847,34.9684683579757],[132.68394461482373,34.969029684691826],[132.68223502910706,34.97093324919464],[132.68028369034843,34.97095169153074],[132.6797895859764,34.97144444015843],[132.6794152329415,34.97321461201304],[132.6779058858458,34.97536254991051],[132.67559382283108,34.976877480503184],[132.67585242826632,34.97799318926062],[132.6757743096913,34.97943491076327],[132.67520457743277,34.980781581502264],[132.673841997478,34.98258130714041],[132.67108692446007,34.98538346128913],[132.66821413898563,34.98521140049414],[132.66722277431026,34.9857367768465],[132.66595587371518,34.98592608008961],[132.6651146651492,34.986614351375664]]]},"properties":{"KEY_CODE":"323860060","PREF":"32","CITY":"386","CITY_NAME":"飯南町","S_NAME":"畑田","SETAI":"19"}},{"type":"Feature","geometry":{"type":"Polygon","coordinates":[[[132.74386525794839,35.02164905930104],[132.7430518574968,35.02238457139727],[132.74166794237615,35.021548545180174],[132.74113794038286,35.02221692633445],[132.74135620867136,35.0234751103498],[132.74279393424493,35.02490429297624],[132.7433583450555,35.025993218272546],[132.7431161531332,35.026823349499445],[132.74192540558997,35.027318728731956],[132.74017781326617,35.02725514722413],[132.73875646436832,35.030126427639594],[132.73668039438513,35.033094091959576],[132.73521084518634,35.03408462579529],[132.73428689069402,35.03439043738743],[132.73246959386847,35.03437016579081],[132.73053630642585,35.033998621445086],[132.72811398692645,35.03237295307066],[132.7266432137047,35.031920259596745],[132.72451022597946,35.03171468215582],[132.72318333876495,35.03186421387448],[132.72133218722666,35.03328715081543],[132.71918424080417,35.03345486243453],[132.7179601465973,35.03330253910012],[132.7159520839018,35.03170028452841],[132.71557719335587,35.030117020210305],[132.71606468371488,35.02957540775406],[132.7150522663668,35.029308782125334],[132.7166897111789,35.0260174533858],[132.7169147403237,35.02461763821284],[132.71751473370904,35.023676070024685],[132.71715226297866,35.02300113720479],[132.71890416056783,35.021689172943205],[132.7206983587791,35.020919905100584],[132.72218434815028,35.01978602432232],[132.72427486169556,35.018929309246786],[132.72566480237148,35.01653219128646],[132.72674662327577,35.015069825538056],[132.72796818038216,35.012336041318086],[132.7299717744713,35.01158012244895],[132.73042357388172,35.0099625954009],[132.73160881731664,35.009598130732314],[132.73325074148227,35.00833415646922],[132.73452461554174,35.006899473579615],[132.73534924158685,35.0049141059093],[132.73497982328539,35.003271798552795],[132.73443311696812,35.00251333286404],[132.73241349130257,35.0009145834255],[132.7304936721828,34.99983944307908],[132.7316353224948,34.99824026194716],[132.73206250033107,34.99635318673862],[132.73189542503516,34.99543913192279],[132.733193170054,34.99622284451275],[132.73514390324897,34.99797987375865],[132.73686992375912,35.000053799731624],[132.7389905639496,35.0011063631605],[132.74058974552133,35.00477535146362],[132.74185245166876,35.00565324001317],[132.74253754646034,35.0070835931313],[132.7434356610075,35.01080191827809],[132.74425445290134,35.01123735033951],[132.7446973328977,35.012217970798545],[132.74650181985842,35.01721511415571],[132.74711246508386,35.01783321770329],[132.74450829225242,35.02059968946924],[132.74386525794839,35.02164905930104]]]},"properties":{"KEY_CODE":"323860070","PREF":"32","CITY":"386","CITY_NAME":"飯南町","S_NAME":"上来島","SETAI":"157"}},{"type":"Feature","geometry":{"type":"Polygon","coordinates":[[[132.76595128993017,34.99690179367362],[132.76614587238214,34.998507748121305],[132.76474689061584,34.99948582485887],[132.7681615693745,35.00108749126733],[132.7701216741568,35.00373670489781],[132.77196392283545,35.00564663114202],[132.77092134437152,35.006104168867246],[132.77070011856426,35.00708017070655],[132.76993641896962,35.008267612595176],[132.76853904857762,35.008608440773614],[132.76687971446643,35.00932915771694],[132.7656216650506,35.010375917096184],[132.7652528947431,35.011522580004375],[132.76397236329476,35.01147551097894],[132.76320817256686,35.01271313566374],[132.76302281164396,35.01380755125322],[132.76150211810824,35.01578729750585],[132.758370912547,35.01758317940015],[132.7568858889543,35.01744553905974],[132.75582169324525,35.016525380987765],[132.75333406189878,35.01691131292122],[132.75054799986415,35.01611617908081],[132.74878687421858,35.017120102294385],[132.74765111412626,35.017321888336014],[132.74711246508386,35.01783321770329],[132.74650181985842,35.01721511415571],[132.7446973328977,35.012217970798545],[132.74425445290134,35.01123735033951],[132.7434356610075,35.01080191827809],[132.74253754646034,35.0070835931313],[132.74185245166876,35.00565324001317],[132.74058974552133,35.00477535146362],[132.7389905639496,35.0011063631605],[132.73686992375912,35.000053799731624],[132.73514390324897,34.99797987375865],[132.733193170054,34.99622284451275],[132.73189542503516,34.99543913192279],[132.73046529882527,34.99444791514321],[132.73133895173302,34.99286570247464],[132.73309409297588,34.99175284362512],[132.73680361523662,34.99118970751098],[132.73758703858564,34.99091405055302],[132.7383931962055,34.98877116243143],[132.7381504000874,34.98788515364264],[132.738954263959,34.98617390546502],[132.7393546686759,34.983934663346666],[132.740242928553,34.9830361367176],[132.74246960840273,34.98316511794195],[132.74378586994624,34.98235045293146],[132.74732611058346,34.98083286955164],[132.74861214425698,34.9788518254526],[132.75124973445685,34.97829054845935],[132.75309958611717,34.97879877785531],[132.75441194232332,34.97813226479226],[132.7554743738541,34.97791570601028],[132.75597431794347,34.97729072086934],[132.75757413786994,34.97793241988036],[132.7585115888545,34.978882340818394],[132.75964898484548,34.978915672436266],[132.76118632708545,34.9798072943185],[132.76221120986335,34.9807405620779],[132.7633361045436,34.98119887134679],[132.7639485218747,34.98271536772134],[132.7645109915323,34.98300698215425],[132.766023346579,34.98252373939272],[132.7686230926551,34.983848693196975],[132.76853558065122,34.984615212294344],[132.76707321088227,34.9860316588278],[132.76693573775262,34.98735647319233],[132.7653608829281,34.98903959221514],[132.76574835167082,34.99001447831302],[132.76697321156482,34.991172627718406],[132.76656076375244,34.99171433415109],[132.76533590198667,34.992264203421485],[132.76402354282223,34.992389193081586],[132.76342359118894,34.993039140926115],[132.7653394215544,34.99399150416511],[132.76562451466884,34.99452187796893],[132.7657248203043,34.9966948719205],[132.76595128993017,34.99690179367362]]]},"properties":{"KEY_CODE":"323860080","PREF":"32","CITY":"386","CITY_NAME":"飯南町","S_NAME":"真木","SETAI":"49"}},{"type":"Feature","geometry":{"type":"Polygon","coordinates":[[[132.82758801468134,35.06118932788892],[132.82368867290552,35.06082265103744],[132.8215264910145,35.061305919008184],[132.81971431044053,35.06119754846005],[132.81660231886553,35.06208911110517],[132.81444386891923,35.06171505259219],[132.81294050525224,35.06033097446335],[132.81209070231347,35.05904782919232],[132.8121407342968,35.05843953126983],[132.81072861127547,35.056198242527834],[132.80860409157907,35.053840308913344],[132.80750434312068,35.05349030343222],[132.8063420606009,35.05270709735968],[132.80576723413023,35.05194042040606],[132.803317739115,35.0502406759476],[132.8019179861052,35.050407485566005],[132.80104317658333,35.04995743391688],[132.80073077165892,35.049015969864],[132.79939359443452,35.04829938618717],[132.79831879235905,35.048149377721074],[132.79763143862849,35.04743282485541],[132.7959568147092,35.046782965653506],[132.79510696918373,35.046766334077695],[132.79326984845923,35.045833058706314],[132.79310736588496,35.046366369169526],[132.79152016018,35.046666284423374],[132.7888705541883,35.04811609332403],[132.7872458778218,35.04814945162625],[132.78513380634044,35.047841131043306],[132.78439633096863,35.048457712713756],[132.7824132449268,35.04795492143551],[132.7812093131657,35.04662455298906],[132.78150590280487,35.046216710234404],[132.7814744876698,35.04457974931707],[132.78266892905484,35.04165356145819],[132.78215149686153,35.04048109760539],[132.7803599035996,35.03888339438865],[132.78007331387258,35.03777757260032],[132.78090193646935,35.035005143012384],[132.78011713988408,35.032884840202],[132.77712300945467,35.02907859782393],[132.77524390765137,35.027481247068614],[132.77266177251968,35.026844241691094],[132.76865614154113,35.026798068915916],[132.76655957891953,35.02694445039913],[132.76474288147267,35.02650524180679],[132.76160496483908,35.02602347830165],[132.75685097634258,35.02542794415924],[132.7524850458477,35.025398604554134],[132.7512647495274,35.024380782909965],[132.74927920084235,35.02462231285024],[132.74806974051634,35.02382131510177],[132.74669636692263,35.02368082929283],[132.7448608049179,35.02290819385822],[132.74386525794839,35.02164905930104],[132.74450829225242,35.02059968946924],[132.74711246508386,35.01783321770329],[132.74765111412626,35.017321888336014],[132.74878687421858,35.017120102294385],[132.75054799986415,35.01611617908081],[132.75333406189878,35.01691131292122],[132.75582169324525,35.016525380987765],[132.7568858889543,35.01744553905974],[132.758370912547,35.01758317940015],[132.76150211810824,35.01578729750585],[132.76302281164396,35.01380755125322],[132.76320817256686,35.01271313566374],[132.76397236329476,35.01147551097894],[132.7652528947431,35.011522580004375],[132.7656216650506,35.010375917096184],[132.76687971446643,35.00932915771694],[132.76853904857762,35.008608440773614],[132.76993641896962,35.008267612595176],[132.77070011856426,35.00708017070655],[132.77092134437152,35.006104168867246],[132.77196392283545,35.00564663114202],[132.7701216741568,35.00373670489781],[132.7681615693745,35.00108749126733],[132.76474689061584,34.99948582485887],[132.76614587238214,34.998507748121305],[132.76595128993017,34.99690179367362],[132.7664822066857,34.99643675260453],[132.76744821009672,34.996413875629884],[132.7701604197778,34.99767203896294],[132.77259764643898,34.997597078179155],[132.77444748825008,34.99828872430201],[132.77647227072825,34.998455350357546],[132.77732218678472,34.99888870828488],[132.77848454348506,35.00054687428219],[132.78047184348222,35.001755201422654],[132.78132177189423,35.00317989471615],[132.7833840680817,35.003430000968535],[132.78414648347706,35.00374662687422],[132.78552131077797,35.00358010906799],[132.78779599845487,35.00478832252462],[132.7879209846722,35.00616308461272],[132.78722107829824,35.00821286655744],[132.7865586372112,35.00891268726726],[132.78708357011718,35.01010434170263],[132.7866836285754,35.0109791647753],[132.78705854321683,35.013337201935194],[132.78788344387743,35.01414547291324],[132.78862080187696,35.015670267986145],[132.79010808582984,35.0170368179493],[132.79123293186805,35.01712848254873],[132.79255775687588,35.018403290295176],[132.79300767173748,35.019728108284745],[132.79535735521287,35.02023641377332],[132.7969321461726,35.020952955280826],[132.79863183747315,35.02127797013856],[132.80014404729693,35.02219452851191],[132.80058147029433,35.02286944174017],[132.80151881013623,35.02302776836155],[132.8024186166469,35.02416927005052],[132.8042557883724,35.024610940467305],[132.80550556379131,35.02568563229568],[132.80655534189162,35.027077217223436],[132.80655533692575,35.02768539839695],[132.80754264756908,35.02857700906927],[132.8088549190663,35.02866024560821],[132.80919232377892,35.030035168871585],[132.8109294689577,35.031734889231494],[132.8108544593206,35.03223480649596],[132.80974212393085,35.03360963501233],[132.80974211117078,35.0343345085602],[132.81109184345704,35.03522613127907],[132.81276653147947,35.0354177482213],[132.8133163864431,35.036117633303164],[132.8128789636833,35.036975835569706],[132.8127789198358,35.038592315374274],[132.8134787131546,35.04032542735734],[132.81512838968106,35.04101700592882],[132.81702798892326,35.04265004312692],[132.8180153010171,35.04309169387015],[132.8196399891164,35.04335826395076],[132.8224394427851,35.044899711435036],[132.82372668067075,35.04486644873683],[132.82397664091496,35.04538299105389],[132.82576377734048,35.04639117066069],[132.82752592675982,35.04710776045492],[132.8293505932827,35.046941139385495],[132.83063788259557,35.045741219771685],[132.83137524759752,35.045624626825926],[132.83288746793795,35.04659104088062],[132.834262218784,35.046607817179975],[132.83658682942436,35.047041119890224],[132.83679927255815,35.048982531782904],[132.83796155470318,35.05073234467399],[132.83712416071486,35.05244047291874],[132.83478701909078,35.05301536270152],[132.83288726301734,35.05495682628853],[132.83152496361595,35.05692324866831],[132.83050004677582,35.05915624917211],[132.82900028548335,35.060464418377954],[132.82758801468134,35.06118932788892]]]},"properties":{"KEY_CODE":"323860090","PREF":"32","CITY":"386","CITY_NAME":"飯南町","S_NAME":"小田","SETAI":"48"}},{"type":"Feature","geometry":{"type":"Polygon","coordinates":[[[132.7774847717143,35.045374643452845],[132.77654511441978,35.04511923207474],[132.77589145603494,35.043620808225],[132.7749295185746,35.04372979564383],[132.77289140553373,35.04209378516823],[132.77144569311213,35.041907211831145],[132.77024336339596,35.04139341879148],[132.76696104383745,35.04052818139083],[132.76615203692504,35.04002260331933],[132.7627674976078,35.040486938824294],[132.75716895915096,35.04264354336024],[132.75547173386798,35.043102747043086],[132.75337246638648,35.04395572268501],[132.74977183372198,35.04372185741181],[132.74775416580755,35.04340620218272],[132.74730624243094,35.043084819582894],[132.7449412509734,35.043922583917016],[132.74269393954935,35.04543604322231],[132.7407927265264,35.04787546847027],[132.7377908517121,35.046273634323164],[132.73720398395298,35.04453490638988],[132.73609719839598,35.04293143051373],[132.73591404394082,35.04051531069702],[132.73552003493015,35.039813666181125],[132.7336885087971,35.03831290453119],[132.7322460878045,35.036797478012375],[132.73246959386847,35.03437016579081],[132.73428689069402,35.03439043738743],[132.73521084518634,35.03408462579529],[132.73668039438513,35.033094091959576],[132.73875646436832,35.030126427639594],[132.74017781326617,35.02725514722413],[132.74192540558997,35.027318728731956],[132.7431161531332,35.026823349499445],[132.7433583450555,35.025993218272546],[132.74279393424493,35.02490429297624],[132.74135620867136,35.0234751103498],[132.74113794038286,35.02221692633445],[132.74166794237615,35.021548545180174],[132.7430518574968,35.02238457139727],[132.74386525794839,35.02164905930104],[132.7448608049179,35.02290819385822],[132.74669636692263,35.02368082929283],[132.74806974051634,35.02382131510177],[132.74927920084235,35.02462231285024],[132.7512647495274,35.024380782909965],[132.7524850458477,35.025398604554134],[132.75685097634258,35.02542794415924],[132.76160496483908,35.02602347830165],[132.76474288147267,35.02650524180679],[132.76655957891953,35.02694445039913],[132.76865614154113,35.026798068915916],[132.77266177251968,35.026844241691094],[132.77524390765137,35.027481247068614],[132.77712300945467,35.02907859782393],[132.78011713988408,35.032884840202],[132.78090193646935,35.035005143012384],[132.78007331387258,35.03777757260032],[132.7803599035996,35.03888339438865],[132.78215149686153,35.04048109760539],[132.78266892905484,35.04165356145819],[132.7814744876698,35.04457974931707],[132.78150590280487,35.046216710234404],[132.7812093131657,35.04662455298906],[132.7793470503646,35.046332925749],[132.77830961111593,35.04652457521456],[132.7774847717143,35.045374643452845]]]},"properties":{"KEY_CODE":"323860100","PREF":"32","CITY":"386","CITY_NAME":"飯南町","S_NAME":"野萱","SETAI":"168"}},{"type":"Feature","geometry":{"type":"Polygon","coordinates":[[[132.7535625420226,35.07054210221975],[132.75402305434937,35.07306195620886],[132.7531719047086,35.074124618311636],[132.75316036413227,35.075270019025474],[132.75173548396185,35.07496173636545],[132.75102299354612,35.075278360001214],[132.749410442706,35.077103120686225],[132.74974787106547,35.0775362730655],[132.74933524081095,35.07915276058307],[132.75091005343518,35.080202597172516],[132.75203480354,35.08180234035916],[132.75165976669436,35.082202326567675],[132.75012236598977,35.0822356901237],[132.7488599169927,35.08302720762063],[132.74742250342604,35.082935548131864],[132.74458535444003,35.08452986853169],[132.7431352370316,35.08397702698122],[132.7417102912392,35.08447699356676],[132.7413477628823,35.08546849699335],[132.73913533279122,35.08668498762317],[132.737528253628,35.086924010307655],[132.73717794088068,35.0863643357082],[132.73434824525023,35.08671000608815],[132.73293589035418,35.086268411997594],[132.73226094120622,35.086501715083784],[132.7313109473902,35.08747657521277],[132.7288861464768,35.087168256497655],[132.72771120438273,35.08809314666157],[132.72482392573502,35.088992997467976],[132.72331121459848,35.089127868289154],[132.72293068149108,35.09042747866076],[132.71908600962203,35.09097680224687],[132.71601160305468,35.09024943074911],[132.7152043691442,35.09074456892339],[132.71518720294762,35.09084274419168],[132.71394982124013,35.09046772982832],[132.71312496723473,35.08970119632974],[132.71175010478527,35.08967621060512],[132.71018779926098,35.088709602091576],[132.70897542290393,35.088284782460484],[132.70866305607117,35.08650163079094],[132.70757567213676,35.08556848284186],[132.70743822836735,35.0846936064639],[132.7066133627707,35.08431032553208],[132.70457608294046,35.08395209120274],[132.70342616886046,35.084043685614404],[132.70257628386346,35.08339379262576],[132.700614050158,35.08256057094721],[132.69930172642322,35.08109408820094],[132.69875184781924,35.07974430623741],[132.69786448284205,35.07916101311174],[132.6981395379694,35.0774029499072],[132.69775206845176,35.07679464215936],[132.69488992081452,35.075511524228524],[132.6940400445255,35.07425338202059],[132.69257770835426,35.07373671080117],[132.6911779234212,35.07229522576283],[132.6927778259067,35.070245498928614],[132.69494013933115,35.069270571893234],[132.69582756273337,35.06927071156069],[132.69582758508517,35.06805420859209],[132.69738995874562,35.06634614534507],[132.69906486550295,35.06501292928897],[132.6992273670863,35.06341317098252],[132.69963985532516,35.06264662357938],[132.70131475110594,35.06057186983013],[132.70175222632346,35.060521908880524],[132.70347710503503,35.059280437862476],[132.70386462280447,35.05754732783591],[132.7049895565726,35.057005768630376],[132.70633943250203,35.057272377492666],[132.70785179828468,35.05716407952074],[132.70845175838696,35.05646419254362],[132.70895170682488,35.057097468806894],[132.70998915086844,35.05603102783321],[132.711151556224,35.05587264571301],[132.71277637324664,35.056547621706414],[132.7127763674841,35.05736412542086],[132.71513862565908,35.05763087753478],[132.7155511302318,35.0570392771168],[132.71747598124344,35.056864355794524],[132.7185134385716,35.055847852442405],[132.719425870646,35.05555622696921],[132.71952587386133,35.05448968276054],[132.72068834846226,35.05239832188137],[132.7215383496115,35.05147341209782],[132.72243826523896,35.051131816424665],[132.72126338420313,35.05050687661324],[132.72057594931607,35.050665162068576],[132.71845115437517,35.04978190531864],[132.71790127092024,35.048640332035475],[132.71785129130495,35.04773206381238],[132.71693893063758,35.04672382607843],[132.71660152589615,35.04548233325688],[132.715089187087,35.04479061023966],[132.71487676066346,35.0426908177405],[132.71368943645413,35.041565897749294],[132.71332699355997,35.040824320685644],[132.7117896228718,35.04021599043744],[132.71291459488023,35.03886614173287],[132.71247712830953,35.03827455710498],[132.71378959596316,35.036791449779855],[132.71462576780795,35.03524912668413],[132.71526093289208,35.03542295472684],[132.71570005002826,35.0347233154096],[132.7172769287843,35.033341775255],[132.7179601465973,35.03330253910012],[132.71918424080417,35.03345486243453],[132.72133218722666,35.03328715081543],[132.72318333876495,35.03186421387448],[132.72451022597946,35.03171468215582],[132.7266432137047,35.031920259596745],[132.72811398692645,35.03237295307066],[132.73053630642585,35.033998621445086],[132.73246959386847,35.03437016579081],[132.7322460878045,35.036797478012375],[132.7336885087971,35.03831290453119],[132.73552003493015,35.039813666181125],[132.73591404394082,35.04051531069702],[132.73609719839598,35.04293143051373],[132.73720398395298,35.04453490638988],[132.7377908517121,35.046273634323164],[132.7407927265264,35.04787546847027],[132.74269393954935,35.04543604322231],[132.7449412509734,35.043922583917016],[132.74730624243094,35.043084819582894],[132.74775416580755,35.04340620218272],[132.74977183372198,35.04372185741181],[132.75337246638648,35.04395572268501],[132.75547173386798,35.043102747043086],[132.75716895915096,35.04264354336024],[132.7627674976078,35.040486938824294],[132.76615203692504,35.04002260331933],[132.76696104383745,35.04052818139083],[132.77024336339596,35.04139341879148],[132.77144569311213,35.041907211831145],[132.77289140553373,35.04209378516823],[132.7749295185746,35.04372979564383],[132.77589145603494,35.043620808225],[132.77654511441978,35.04511923207474],[132.7774847717143,35.045374643452845],[132.77695981986008,35.04538306235982],[132.7756724316817,35.046257925863436],[132.77401010964965,35.046674511362255],[132.77107287201557,35.046441184384875],[132.76976043366733,35.04745775503178],[132.76924794822654,35.04860750950842],[132.7684354978293,35.04919079165448],[132.76731060442222,35.049332447769245],[132.76551069934976,35.051232184266816],[132.76579096868724,35.05247031909856],[132.76537287704593,35.05288760924401],[132.76390285939755,35.05280270180404],[132.76164854350355,35.05135718548465],[132.75977370605008,35.0506905482643],[132.75772381209282,35.05020734393863],[132.7551114311266,35.05019896458952],[132.7559988795025,35.051207195053365],[132.7559238539054,35.0520403945017],[132.75483638794086,35.05366507836861],[132.75508634329867,35.054631601187346],[132.75459884079723,35.05568988337624],[132.7537488510932,35.05598148244591],[132.7533988552358,35.0567730384798],[132.7504364482593,35.05773127238838],[132.74938643259281,35.059397610258266],[132.74996139591454,35.06029750566731],[132.74898635950674,35.062597056132375],[132.74806134447846,35.063430311559294],[132.74803629243758,35.064780131887176],[132.75037363599327,35.06585493991621],[132.75067358977617,35.066729737538026],[132.75032356805616,35.06792120203773],[132.75249845128496,35.06976250332892],[132.75307342329586,35.069779210400995],[132.7535625420226,35.07054210221975]]]},"properties":{"KEY_CODE":"323860110","PREF":"32","CITY":"386","CITY_NAME":"飯南町","S_NAME":"下来島","SETAI":"80"}},{"type":"Feature","geometry":{"type":"Polygon","coordinates":[[[132.76866266712813,35.112253680860896],[132.7676052703248,35.1128062694137],[132.7662936427892,35.11266466840901],[132.76470577691302,35.11334549295524],[132.76405671913824,35.11301650480499],[132.76133456103244,35.11358906937277],[132.7608749189235,35.11395661582767],[132.75918006877615,35.113992107506476],[132.75795063588112,35.11363043747681],[132.75694815232558,35.11208452294159],[132.75671207379648,35.111505872743734],[132.75650014338117,35.10965335080519],[132.75671907096205,35.10739132335308],[132.75579336542066,35.1062887084586],[132.7549282768949,35.105800804420696],[132.75325725166817,35.10552857813922],[132.7523335037985,35.105731656260254],[132.75170311309995,35.10590316516198],[132.750865147731,35.105963349658055],[132.75006195563597,35.10577434413589],[132.74943605793027,35.1052217270795],[132.74804495185887,35.10425462475257],[132.7473384529094,35.10373295177863],[132.7465502266633,35.1032754684646],[132.74418897385002,35.10283298554067],[132.74294682489707,35.10261392240528],[132.74232809552123,35.10241976352953],[132.7403574390656,35.101941967293214],[132.737497489006,35.10234573003608],[132.73685816319946,35.10220114786652],[132.7363069727413,35.10194481080398],[132.73585309536227,35.101101471761304],[132.73568087375673,35.10098658080183],[132.7333082263011,35.09987647907174],[132.73304003213485,35.099891045726125],[132.73181944829702,35.100039148488534],[132.73124163605047,35.10011395904508],[132.72996741124095,35.09921914281886],[132.7288510428005,35.098435831015586],[132.72882179219764,35.098049354773984],[132.72860564440646,35.09727248564886],[132.72833919108018,35.096650989099714],[132.72801705091294,35.09609890324077],[132.72759996226236,35.095777535376875],[132.72631148292058,35.09575033934604],[132.72544632148802,35.095361602771106],[132.72516888847332,35.09521915531885],[132.72462529656573,35.09516835702391],[132.72383096232917,35.09534758122442],[132.72271078391861,35.09583399766838],[132.7222638772328,35.096035556554035],[132.7215283750867,35.095551766405634],[132.72077827665964,35.094662625548445],[132.7201594510629,35.09339000144625],[132.71975605464232,35.09255715136815],[132.71782522270766,35.09140065208512],[132.7166007372913,35.090901032867116],[132.7165786296673,35.090887964772605],[132.71631996471956,35.09081865062532],[132.71554515287323,35.09067196576343],[132.7152043691442,35.09074456892339],[132.71601160305468,35.09024943074911],[132.71908600962203,35.09097680224687],[132.72293068149108,35.09042747866076],[132.72331121459848,35.089127868289154],[132.72482392573502,35.088992997467976],[132.72771120438273,35.08809314666157],[132.7288861464768,35.087168256497655],[132.7313109473902,35.08747657521277],[132.73226094120622,35.086501715083784],[132.73293589035418,35.086268411997594],[132.73434824525023,35.08671000608815],[132.73717794088068,35.0863643357082],[132.737528253628,35.086924010307655],[132.73913533279122,35.08668498762317],[132.7413477628823,35.08546849699335],[132.7417102912392,35.08447699356676],[132.7431352370316,35.08397702698122],[132.74458535444003,35.08452986853169],[132.74742250342604,35.082935548131864],[132.7488599169927,35.08302720762063],[132.75012236598977,35.0822356901237],[132.75165976669436,35.082202326567675],[132.75203480354,35.08180234035916],[132.75091005343518,35.080202597172516],[132.74933524081095,35.07915276058307],[132.74974787106547,35.0775362730655],[132.749410442706,35.077103120686225],[132.75102299354612,35.075278360001214],[132.75173548396185,35.07496173636545],[132.75316036413227,35.075270019025474],[132.7531719047086,35.074124618311636],[132.75402305434937,35.07306195620886],[132.7535625420226,35.07054210221975],[132.75661454214443,35.06987471945648],[132.75866290780408,35.07034233848385],[132.75967898834668,35.071818535820846],[132.76200538351313,35.071210909776596],[132.76391195079884,35.071471162373435],[132.76477611292864,35.07255104622172],[132.7656866290371,35.07301829955549],[132.7658525533009,35.07506704560179],[132.76711252865226,35.07650811072682],[132.76788095659688,35.07830801128359],[132.76901343015942,35.07853103223082],[132.7696778521319,35.07803546943422],[132.77022350016844,35.078997525695335],[132.7715725685371,35.078506982428],[132.77358650344837,35.078222315400275],[132.77389174444997,35.078486837394756],[132.77272196377427,35.07912079674407],[132.77268163988282,35.079895639806885],[132.7734710956761,35.082263067069235],[132.77313838844807,35.082145371602984],[132.7716006639633,35.082072585496675],[132.77055326182312,35.082251343782005],[132.76921962058105,35.08191201816846],[132.7682623970287,35.081633056856276],[132.766427650937,35.081441967939696],[132.76562190210748,35.08189631220118],[132.76535073433868,35.08220800550973],[132.76454660072488,35.08423549153758],[132.76545468924712,35.085258309339736],[132.76564360820825,35.08630137775055],[132.76622843443565,35.08689819246865],[132.76675163968304,35.08751481757729],[132.76690119517235,35.088679000206696],[132.7659085578186,35.09056729612211],[132.76568749397367,35.09107578258624],[132.7655086967891,35.09224546426962],[132.76560441736132,35.09253710123602],[132.7659060746803,35.09341968704166],[132.7661344325112,35.0946508015383],[132.76578449923645,35.09510781609815],[132.7643371835101,35.095426242187315],[132.76259821077923,35.09612552200338],[132.76234080291678,35.097043477550066],[132.76254675882845,35.09806175719015],[132.76334688190357,35.0988435207337],[132.76530296458068,35.09989985412467],[132.76732715277393,35.100814343622446],[132.7687856268981,35.101129217876775],[132.77096043740133,35.101687620980755],[132.7725307297517,35.10180337213704],[132.77375973745976,35.102194968328206],[132.7744644304905,35.102949751561276],[132.7741652677569,35.10365478398751],[132.77378500662354,35.10478311862286],[132.77487672922038,35.10868165055649],[132.77367449103693,35.10901987166254],[132.77319568853304,35.10888043826232],[132.7724950891162,35.10873330880178],[132.7712455501454,35.10841081318832],[132.77084859245116,35.108419413223075],[132.77018041109616,35.10873979102922],[132.76996170205862,35.10902539263809],[132.76946311031622,35.10980401578366],[132.76848011107577,35.1107055401266],[132.7685039097168,35.11135423699199],[132.76866266712813,35.112253680860896]]]},"properties":{"KEY_CODE":"323860120","PREF":"32","CITY":"386","CITY_NAME":"飯南町","S_NAME":"長谷","SETAI":"43"}},{"type":"Feature","geometry":{"type":"Polygon","coordinates":[[[132.80947203599314,35.130989739696105],[132.80858534114125,35.13127853551448],[132.80660016695282,35.13050411576344],[132.80528443065762,35.13042240621824],[132.8045545687618,35.13084590999643],[132.80368037562408,35.13123474690449],[132.80186380808166,35.13139556889148],[132.8011934330697,35.13094633501037],[132.8007373492899,35.13082816141409],[132.79961885853157,35.13129149080256],[132.79863060013233,35.13127539014],[132.79790041257107,35.13072595442257],[132.79628914251245,35.13042342125535],[132.79438519559747,35.12989068639497],[132.7929367526073,35.1299667749209],[132.7917677008466,35.129851048971496],[132.79113084197215,35.13015314176784],[132.7908632505665,35.13037550996104],[132.79011957376662,35.13056413114077],[132.78945100792942,35.130344115008036],[132.78908163686276,35.12950670286317],[132.7885662581062,35.12916180787044],[132.78783369786785,35.12885936249487],[132.78716141100122,35.127957298357636],[132.78571978617458,35.12721163335663],[132.78463250670484,35.12685661763278],[132.7825599108815,35.1257146345567],[132.78103546550219,35.124868849793266],[132.7792886654835,35.124338682469414],[132.77645141001614,35.12436012766368],[132.77569605152186,35.12292052216939],[132.77352096250556,35.121326060975605],[132.77388899291532,35.11908881247172],[132.7737378473962,35.11870533592893],[132.77266272876602,35.117826476422465],[132.77196356686815,35.11774130835471],[132.7709620932039,35.11728172078578],[132.77037736931732,35.11590748993078],[132.76955562998356,35.113245813834716],[132.76866266712813,35.112253680860896],[132.7685039097168,35.11135423699199],[132.76848011107577,35.1107055401266],[132.76946311031622,35.10980401578366],[132.76996170205862,35.10902539263809],[132.77018041109616,35.10873979102922],[132.77084859245116,35.108419413223075],[132.7712455501454,35.10841081318832],[132.7724950891162,35.10873330880178],[132.77319568853304,35.10888043826232],[132.77367449103693,35.10901987166254],[132.77487672922038,35.10868165055649],[132.77601785272714,35.108550770392306],[132.77693253893335,35.10994794598978],[132.7780416871747,35.109986294517164],[132.7790203464348,35.1110449554523],[132.78056830379518,35.11220988591452],[132.78112368028468,35.11228326787819],[132.78343301561688,35.11108079459595],[132.7850855787215,35.11102532255448],[132.78647843705576,35.111712864645234],[132.78896472769893,35.11118426587911],[132.79010982876866,35.109092997216486],[132.79049617845595,35.10714316248361],[132.79252087394048,35.10632488779364],[132.7943481704565,35.10657212653931],[132.79630610439614,35.106448088608914],[132.79657515552321,35.106679440224454],[132.7973814459818,35.107410891295174],[132.79807605846665,35.1073957192435],[132.7994322409854,35.1064733362419],[132.79996841968088,35.10568748804479],[132.80061079683844,35.1032325943286],[132.80133379416532,35.10254253399439],[132.80311893915072,35.1043324762451],[132.8039571999971,35.104894624654506],[132.8058531555825,35.1049516663159],[132.8070186476582,35.10484613441697],[132.8078182272257,35.104778588710964],[132.80843695872804,35.10477749122511],[132.81077520632283,35.105206787325834],[132.81188049557738,35.10547945229015],[132.81254084615944,35.105764262324826],[132.81328276190993,35.106188496577836],[132.81377118600673,35.10733395178107],[132.81310203082282,35.10888029751001],[132.81288247331062,35.110831440994666],[132.81234152916863,35.112089488634346],[132.8105619793835,35.1142890548199],[132.81081193218864,35.11550916553659],[132.81053051792065,35.116060951338675],[132.8107145463665,35.11640287138668],[132.81106674213368,35.11706383479263],[132.81170050637138,35.11832817567204],[132.8111077565707,35.1193933163296],[132.81178267522532,35.12122405893454],[132.81117736381242,35.12304405644287],[132.81160539358945,35.12436349266967],[132.81102527720796,35.12572215045103],[132.81081029092698,35.12713020927709],[132.80993199793775,35.128486990073725],[132.80986284304595,35.130361741178234],[132.80947203599314,35.130989739696105]]]},"properties":{"KEY_CODE":"323860130","PREF":"32","CITY":"386","CITY_NAME":"飯南町","S_NAME":"都加賀","SETAI":"36"}},{"type":"Feature","geometry":{"type":"Polygon","coordinates":[[[132.79630610439614,35.106448088608914],[132.7943481704565,35.10657212653931],[132.79252087394048,35.10632488779364],[132.79049617845595,35.10714316248361],[132.79010982876866,35.109092997216486],[132.78896472769893,35.11118426587911],[132.78647843705576,35.111712864645234],[132.7850855787215,35.11102532255448],[132.78343301561688,35.11108079459595],[132.78112368028468,35.11228326787819],[132.78056830379518,35.11220988591452],[132.7790203464348,35.1110449554523],[132.7780416871747,35.109986294517164],[132.77693253893335,35.10994794598978],[132.77601785272714,35.108550770392306],[132.77487672922038,35.10868165055649],[132.77378500662354,35.10478311862286],[132.7741652677569,35.10365478398751],[132.7744644304905,35.102949751561276],[132.77375973745976,35.102194968328206],[132.7725307297517,35.10180337213704],[132.77096043740133,35.101687620980755],[132.7687856268981,35.101129217876775],[132.76732715277393,35.100814343622446],[132.76530296458068,35.09989985412467],[132.76334688190354,35.09884352073371],[132.76254675882845,35.09806175719015],[132.76234080291678,35.09704347755007],[132.76259821077923,35.096125522003376],[132.7643371835101,35.095426242187315],[132.76578449923645,35.09510781609815],[132.7661344325112,35.0946508015383],[132.7659060746803,35.09341968704166],[132.76560441736132,35.09253710123602],[132.7655086967891,35.09224546426962],[132.76568749397367,35.09107578258624],[132.7659085578186,35.09056729612211],[132.76690119517235,35.088679000206696],[132.76675163968304,35.08751481757729],[132.76622843443565,35.08689819246865],[132.76564360820825,35.08630137775055],[132.76545468924712,35.085258309339736],[132.76454660072488,35.08423549153758],[132.76535073433868,35.08220800550973],[132.76562190210748,35.08189631220118],[132.766427650937,35.081441967939696],[132.7682623970287,35.081633056856276],[132.76921962058105,35.08191201816846],[132.77055326182312,35.082251343782005],[132.7716006639633,35.082072585496675],[132.77313838844807,35.082145371602984],[132.7734710956761,35.082263067069235],[132.77441451124045,35.08362218567937],[132.77472967873427,35.083677713034234],[132.77514983696625,35.08368109132932],[132.77812318695916,35.08374756244672],[132.77998169699578,35.08361349981012],[132.7816797599226,35.08347663413511],[132.78232748763816,35.083437492734134],[132.78328760140607,35.083585271731],[132.78370232064424,35.08406314605408],[132.78405318632065,35.08487943673161],[132.7845056832632,35.08513796387766],[132.78801608589177,35.085479820440824],[132.78908935971066,35.08496940177061],[132.7910024013924,35.085069506594316],[132.79181929801274,35.08535008828565],[132.79364508471306,35.08611221312805],[132.7942755676337,35.0864022626715],[132.79500000271696,35.08686753104662],[132.79593749982288,35.088003525206524],[132.79534589453425,35.088734269165336],[132.79526211922413,35.08956646674794],[132.79545794841766,35.089905453496414],[132.79592592090208,35.09099387610652],[132.7957482777172,35.09135360117496],[132.7943663931865,35.09260731376401],[132.79308904745696,35.09338427303431],[132.79353899451488,35.09398624729127],[132.7947597528024,35.094983314904134],[132.79530083311218,35.09618875991767],[132.7944766397117,35.09786100440041],[132.7925789555676,35.10004366069293],[132.7925689347716,35.10087245322771],[132.79258860584176,35.10092361969741],[132.79491440559667,35.10370688722356],[132.79577294601944,35.10419997385188],[132.79672237205946,35.105084419982234],[132.79693045848,35.10596004320338],[132.79630610439614,35.106448088608914]]]},"properties":{"KEY_CODE":"323860140","PREF":"32","CITY":"386","CITY_NAME":"飯南町","S_NAME":"花栗","SETAI":"44"}},{"type":"Feature","geometry":{"type":"Polygon","coordinates":[[[132.7816797599226,35.08347663413511],[132.77998169699578,35.08361349981012],[132.77812318695916,35.08374756244672],[132.77514983696625,35.08368109132932],[132.77472967873427,35.083677713034234],[132.77441451124045,35.08362218567937],[132.7734710956761,35.082263067069235],[132.77268163988282,35.079895639806885],[132.77272196377427,35.07912079674407],[132.77389174444997,35.078486837394756],[132.77358650344837,35.078222315400275],[132.7715725685371,35.078506982428],[132.77022350016844,35.078997525695335],[132.7696778521319,35.07803546943422],[132.76901343015942,35.07853103223082],[132.76788095659688,35.07830801128359],[132.76711252865226,35.07650811072682],[132.7658525533009,35.07506704560179],[132.7656866290371,35.07301829955549],[132.76477611292864,35.07255104622172],[132.76391195079884,35.071471162373435],[132.76200538351313,35.071210909776596],[132.75967898834668,35.071818535820846],[132.75866290780408,35.07034233848385],[132.75661454214443,35.06987471945648],[132.7535625420226,35.07054210221975],[132.75307342329586,35.069779210400995],[132.75249845128496,35.06976250332892],[132.75032356805616,35.06792120203773],[132.75067358977617,35.066729737538026],[132.75037363599327,35.06585493991621],[132.74803629243758,35.064780131887176],[132.74806134447846,35.063430311559294],[132.74898635950674,35.062597056132375],[132.74996139591454,35.06029750566731],[132.74938643259281,35.059397610258266],[132.7504364482593,35.05773127238838],[132.7533988552358,35.0567730384798],[132.7537488510932,35.05598148244591],[132.75459884079723,35.05568988337624],[132.75508634329867,35.054631601187346],[132.75483638794086,35.05366507836861],[132.7559238539054,35.0520403945017],[132.7559988795025,35.051207195053365],[132.7551114311266,35.05019896458952],[132.75772381209282,35.05020734393863],[132.75977370605008,35.0506905482643],[132.76164854350355,35.05135718548465],[132.76390285939755,35.05280270180404],[132.76537287704593,35.05288760924401],[132.76579096868724,35.05247031909856],[132.76551069934976,35.051232184266816],[132.76731060442222,35.049332447769245],[132.7684354978293,35.04919079165448],[132.76924794822654,35.04860750950842],[132.76976043366733,35.04745775503178],[132.77107287201557,35.046441184384875],[132.77401010964965,35.046674511362255],[132.7756724316817,35.046257925863436],[132.77695981986008,35.04538306235982],[132.7774847717143,35.045374643452845],[132.77830961111593,35.04652457521456],[132.7793470503646,35.046332925749],[132.7812093131657,35.04662455298906],[132.7824132449268,35.04795492143551],[132.78237594424664,35.05073926739032],[132.78347715316875,35.052656759006744],[132.7824583011209,35.05505102224972],[132.7812003410554,35.056844802778],[132.7805289790715,35.06094635475595],[132.78032759828994,35.063955221120516],[132.78073466178634,35.06588770283199],[132.7806916545309,35.06679382169313],[132.77992802250648,35.067621834528225],[132.7769493798214,35.06739329981885],[132.7764597578072,35.06799068626887],[132.77566195905743,35.06996811801567],[132.77412229915222,35.0708754201829],[132.7740796404091,35.07241822174002],[132.77497235489778,35.07239880968525],[132.77723580157613,35.07186277175518],[132.77823084334136,35.07213450591978],[132.77836547861764,35.072680930726015],[132.77775657688343,35.073774061960904],[132.778020215907,35.075129260803095],[132.77767145374392,35.07685965932412],[132.77913451478773,35.078644348225055],[132.78023069848535,35.07884111410847],[132.7798735941702,35.07969284215694],[132.78017437735699,35.08041341771244],[132.78305933239142,35.08277863415933],[132.78328760140607,35.083585271731],[132.78232748763816,35.083437492734134],[132.7816797599226,35.08347663413511]]]},"properties":{"KEY_CODE":"323860150","PREF":"32","CITY":"386","CITY_NAME":"飯南町","S_NAME":"佐見","SETAI":"67"}},{"type":"Feature","geometry":{"type":"Polygon","coordinates":[[[132.8489683803423,35.103884176133135],[132.8468204983125,35.10442513794699],[132.84657129645402,35.10568178667727],[132.8453625152009,35.1073419204615],[132.8436440593658,35.10799548860589],[132.84271770460862,35.10910018879453],[132.8423268328197,35.11034295751664],[132.84185541159914,35.110478613013015],[132.8399562666825,35.10921139537996],[132.8380719326691,35.10857450617196],[132.83685474099326,35.107882074721566],[132.83480890051092,35.105796865160826],[132.83458596519023,35.10456540315826],[132.8337638872629,35.10464999188568],[132.83014408758459,35.10356578876996],[132.82875282206794,35.1039218339649],[132.82754506483292,35.103182975957175],[132.82627643439372,35.10358910249061],[132.8249870510424,35.103545883892224],[132.8234934659125,35.10442405403905],[132.82284047022972,35.10426462268289],[132.82116930728893,35.103110865073695],[132.82020790165737,35.103119417823144],[132.81884764626344,35.10383441332093],[132.81775548802653,35.10406752683715],[132.8159714250455,35.10487159599007],[132.81384752873433,35.1048174996737],[132.81328276190993,35.106188496577836],[132.81254084615944,35.105764262324826],[132.81188049557738,35.10547945229015],[132.81077520632283,35.105206787325834],[132.80843695872804,35.10477749122511],[132.8078182272257,35.104778588710964],[132.8070186476582,35.10484613441697],[132.8058531555825,35.1049516663159],[132.8039571999971,35.104894624654506],[132.80311893915072,35.1043324762451],[132.80133379416532,35.10254253399439],[132.80061079683844,35.1032325943286],[132.79996841968088,35.10568748804479],[132.7994322409854,35.1064733362419],[132.79807605846665,35.1073957192435],[132.7973814459818,35.107410891295174],[132.79657515552321,35.106679440224454],[132.79693045848,35.105960043203396],[132.79672237205946,35.105084419982234],[132.79577294601944,35.10419997385188],[132.79491440559667,35.103706887223545],[132.79258860584176,35.10092361969741],[132.7925689347716,35.10087245322771],[132.7925789555676,35.10004366069293],[132.7944766397117,35.09786100440041],[132.79530083311218,35.09618875991767],[132.7947597528024,35.094983314904134],[132.79353899451488,35.09398624729127],[132.79308904745696,35.09338427303431],[132.79436639318658,35.09260731376401],[132.7957482777172,35.09135360117496],[132.79592592090208,35.09099387610652],[132.79545794841766,35.089905453496414],[132.79526211922413,35.08956646674794],[132.7953458945343,35.08873426916533],[132.79593749982288,35.088003525206524],[132.79500000271696,35.08686753104662],[132.7942755676337,35.0864022626715],[132.79364508471306,35.08611221312805],[132.79181929801274,35.08535008828565],[132.7910024013924,35.085069506594316],[132.78908935971066,35.08496940177061],[132.78801608589177,35.085479820440824],[132.7845056832632,35.08513796387766],[132.78405318632065,35.08487943673161],[132.78370232064424,35.08406314605408],[132.78328760140607,35.083585271731],[132.78305933239142,35.08277863415933],[132.78017437735699,35.08041341771244],[132.7798735941702,35.07969284215694],[132.78023069848535,35.07884111410847],[132.77913451478773,35.078644348225055],[132.77767145374392,35.07685965932412],[132.778020215907,35.075129260803095],[132.77775657688343,35.073774061960904],[132.77836547861764,35.072680930726015],[132.77823084334136,35.07213450591978],[132.77723580157613,35.07186277175518],[132.77497235489778,35.07239880968525],[132.7740796404091,35.07241822174002],[132.77412229915222,35.0708754201829],[132.77566195905743,35.06996811801567],[132.7764597578072,35.06799068626887],[132.7769493798214,35.06739329981885],[132.77992802250648,35.067621834528225],[132.7806916545309,35.06679382169313],[132.78073466178634,35.06588770283199],[132.78032759828994,35.063955221120516],[132.7805289790715,35.06094635475595],[132.7812003410554,35.056844802778],[132.7824583011209,35.05505102224972],[132.78347715316875,35.052656759006744],[132.78237594424664,35.05073926739032],[132.7824132449268,35.04795492143551],[132.78439633096863,35.048457712713756],[132.78513380634044,35.047841131043306],[132.7872458778218,35.04814945162625],[132.7888705541883,35.04811609332403],[132.79152016018,35.046666284423374],[132.79310736588496,35.046366369169526],[132.79326984845923,35.045833058706314],[132.79510696918373,35.046766334077695],[132.7959568147092,35.046782965653506],[132.79763143862849,35.04743282485541],[132.79831879235905,35.048149377721074],[132.79939359443452,35.04829938618717],[132.80073077165892,35.049015969864],[132.80104317658333,35.04995743391688],[132.8019179861052,35.050407485566005],[132.803317739115,35.0502406759476],[132.80576723413023,35.05194042040606],[132.8063420606009,35.05270709735968],[132.80750434312068,35.05349030343222],[132.80860409157907,35.053840308913344],[132.81072861127547,35.056198242527834],[132.8121407342968,35.05843953126983],[132.81209070231347,35.05904782919232],[132.81294050525224,35.06033097446335],[132.81444386891923,35.06171505259219],[132.81660231886553,35.06208911110517],[132.81971431044053,35.06119754846005],[132.8215264910145,35.061305919008184],[132.82368867290552,35.06082265103744],[132.82758801468134,35.06118932788892],[132.82786292145647,35.06235586997148],[132.83064992522173,35.06457225940012],[132.83089986416053,35.06578871399535],[132.83176222327856,35.06650524951978],[132.83277456264324,35.06674693555949],[132.83423681445876,35.06766345636226],[132.83501167422892,35.06912164570059],[132.83567409855854,35.069621657330075],[132.83803620839427,35.07057143990606],[132.83882357558588,35.07066320724452],[132.8398483862027,35.07241297098988],[132.8404107752997,35.074371068725966],[132.84301036890085,35.076245825492784],[132.84429770273366,35.07677912350091],[132.84523505595,35.07855388332196],[132.8456099341695,35.08093694810931],[132.84754713133754,35.08250333814694],[132.84848448683215,35.08353659127981],[132.8501842789838,35.08411989332207],[132.85293396359123,35.08551969033784],[132.85457122045517,35.087319499654136],[132.8561709944031,35.08784448685095],[132.85865815365366,35.08928595023416],[132.85993296676182,35.09065248383124],[132.8596038046911,35.09266335731648],[132.85853093855872,35.095401038240524],[132.85795095209315,35.09617007793217],[132.8560297922919,35.097181339656856],[132.85468878815985,35.09744841046481],[132.85395976119622,35.09797361701127],[132.85237125223608,35.097878747298004],[132.851727435292,35.09940037334563],[132.85066692156838,35.10069427124324],[132.85053543138667,35.101562279266325],[132.84907385049394,35.102697148380976],[132.8489683803423,35.103884176133135]]]},"properties":{"KEY_CODE":"323860160","PREF":"32","CITY":"386","CITY_NAME":"飯南町","S_NAME":"頓原","SETAI":"362"}},{"type":"Feature","geometry":{"type":"Polygon","coordinates":[[[132.6907468092919,35.16852294239526],[132.68964933887722,35.16978960152266],[132.68783698529694,35.170547782366135],[132.68564978213786,35.17014782214194],[132.68418745810922,35.17045606532723],[132.68333746324342,35.17173921771327],[132.67977533396484,35.172689039500156],[132.67796301174087,35.17295565982834],[132.67730053477553,35.17353888321045],[132.67537575394948,35.17385551524062],[132.6741133589689,35.174530395742075],[132.6731510393783,35.17367217611261],[132.6712888229303,35.172572290998225],[132.66977663131655,35.170864165923],[132.66620214807008,35.17025590484128],[132.66463986456253,35.16998094902411],[132.66301501658918,35.17027256488308],[132.66200261096148,35.17093080063663],[132.66080277424032,35.17032255121917],[132.6603029200314,35.169147706345946],[132.66044048656758,35.1680228616644],[132.65920329624439,35.16499830957977],[132.65892842415488,35.16371515122578],[132.6579410795414,35.16340686021531],[132.657803635909,35.16220708098024],[132.65695376867578,35.16158216814998],[132.65612887437507,35.16216537392793],[132.65370426666402,35.16074893523721],[132.65226706654855,35.15804930876279],[132.6523296394437,35.15696616822833],[132.65034258883955,35.15313329625655],[132.65029261658026,35.151983497875506],[132.65081757477589,35.15081695819613],[132.64954275982905,35.15070030372247],[132.64891786874938,35.149217238894245],[132.64828046452877,35.149550487472744],[132.64740556372865,35.148675594337035],[132.64589328094277,35.14856731908095],[132.64408096796635,35.148792257029086],[132.6421561895478,35.14836732602642],[132.64046893333986,35.14663423761036],[132.6392940901635,35.14681751045006],[132.63761927675571,35.14634257873402],[132.6348946347947,35.14426779888074],[132.63411975040722,35.143367965509945],[132.63195757342254,35.14177642690382],[132.63132018344962,35.139951650471595],[132.63008285031412,35.13736028112273],[132.62893164172237,35.13628037410847],[132.63134530077187,35.13535221073598],[132.6330826446509,35.1350772623465],[132.64649385668102,35.12657023129315],[132.64717509769636,35.1261986538119],[132.64838114895926,35.12521216147473],[132.64948101398173,35.12526214500903],[132.65033094136228,35.124828888392265],[132.65176831441224,35.12347911004541],[132.65259325904276,35.121379372944645],[132.65104345261454,35.12034620837878],[132.65113099249695,35.11962127387119],[132.65341825486283,35.11897138877598],[132.6536643989965,35.11846609932671],[132.65473063648986,35.11833821348097],[132.65596798094865,35.11767997421583],[132.65778029169184,35.11797158158549],[132.65913017514146,35.11763834956096],[132.65959261541965,35.11787999021352],[132.66357967386912,35.11817163064448],[132.66572937617576,35.12057968715314],[132.66732715662508,35.120991181069485],[132.66940238146694,35.12189327796322],[132.671108167536,35.12332110863279],[132.6724456875972,35.12409671929113],[132.67260089866525,35.12674861776674],[132.673092997132,35.12806416462799],[132.6739290288782,35.129388696020044],[132.67538948437087,35.130762912295786],[132.67552847225082,35.13200895740159],[132.67411342308517,35.13286035218518],[132.67399718261228,35.133530707661016],[132.6765953092136,35.13763363971996],[132.6765760512353,35.139084912314395],[132.67541312409912,35.14186480751765],[132.6758398609709,35.14387229146201],[132.67775945366014,35.14547446370109],[132.67898113054937,35.14711161717233],[132.6792139857601,35.14857774463925],[132.67684184174567,35.15229265182497],[132.67681019223306,35.15302165974102],[132.67528463402874,35.154838779530756],[132.6746101554549,35.15639533447301],[132.67594142506832,35.156847675464824],[132.67721811907418,35.15887239295925],[132.67799388273082,35.15969817761806],[132.68109690560536,35.16150233869225],[132.68421911142326,35.16150439416485],[132.68699109291623,35.16206390491995],[132.6886987807972,35.161882956451855],[132.6901333317435,35.16213154804179],[132.6906871321297,35.16345704607104],[132.69063704168727,35.16463191784108],[132.69104943457253,35.16566513663358],[132.69107433858525,35.16697327515938],[132.6907468092919,35.16852294239526]]]},"properties":{"KEY_CODE":"323860170","PREF":"32","CITY":"386","CITY_NAME":"飯南町","S_NAME":"角井","SETAI":"60"}},{"type":"Feature","geometry":{"type":"Polygon","coordinates":[[[132.6901333317435,35.16213154804179],[132.6886987807972,35.161882956451855],[132.68699109291623,35.16206390491995],[132.68421911142326,35.16150439416485],[132.68109690560536,35.16150233869225],[132.67799388273082,35.15969817761806],[132.67721811907418,35.15887239295925],[132.67594142506832,35.156847675464824],[132.6746101554549,35.15639533447301],[132.67528463402874,35.154838779530756],[132.67681019223306,35.15302165974102],[132.67684184174567,35.15229265182497],[132.6792139857601,35.14857774463925],[132.67898113054937,35.14711161717233],[132.67775945366014,35.14547446370109],[132.6758398609709,35.14387229146201],[132.67541312409912,35.14186480751765],[132.6765760512353,35.139084912314395],[132.6765953092136,35.13763363971996],[132.67399718261228,35.133530707661016],[132.67411342308517,35.13286035218518],[132.67552847225082,35.13200895740159],[132.67538948437087,35.130762912295786],[132.6739290288782,35.129388696020044],[132.673092997132,35.12806416462799],[132.67260089866525,35.12674861776674],[132.6724456875972,35.12409671929113],[132.671108167536,35.12332110863279],[132.66940238146694,35.12189327796322],[132.66732715662508,35.120991181069485],[132.66894156023335,35.11917989787563],[132.67132879893603,35.118305027893946],[132.67201628383216,35.117238565870075],[132.67188234928926,35.11664609803885],[132.67292977327074,35.11706185500687],[132.6774263654446,35.11732918646385],[132.67856994054708,35.117690892948794],[132.67911271756526,35.11842203931021],[132.6795393274816,35.11982353340025],[132.6813616065267,35.12176099577902],[132.6826020789948,35.12153217988979],[132.6832608667206,35.12050865628518],[132.6859550327262,35.120480598787374],[132.68771870608475,35.11988260886462],[132.6908586622506,35.119804583239336],[132.69332025118484,35.11990501657421],[132.69735196850485,35.12042869171594],[132.69979454558555,35.12131050820823],[132.70173242503355,35.120376609385964],[132.70351552967392,35.120145068178275],[132.7039029834188,35.119792415990034],[132.7048321318395,35.117108936822866],[132.70578140452756,35.11622741313583],[132.70625051727097,35.11532338998154],[132.70816500432,35.11553047184837],[132.71204115356886,35.11528907677742],[132.71360194371883,35.11377561751868],[132.71529706976105,35.11305676307779],[132.7162435060162,35.113129317957544],[132.71669152686573,35.11328975677133],[132.71870738972422,35.11372674370632],[132.72035516825818,35.114309035862476],[132.72082063652414,35.11478522530523],[132.72153847381207,35.11591406467243],[132.72192629821976,35.11619926429265],[132.72336074311988,35.1164794503399],[132.7256667467259,35.115910318477894],[132.7266165001535,35.11598544430668],[132.7282258578926,35.11691863782595],[132.7300098470372,35.11805818311357],[132.73063032720123,35.118406073744346],[132.73161922725825,35.11889562630948],[132.7321238032586,35.11972243091012],[132.73224049731624,35.12020027216304],[132.73189252311155,35.121382051241554],[132.73102111068013,35.12245478581427],[132.73024305399906,35.12337679479993],[132.72878429067703,35.12325842233998],[132.72778351313818,35.123711088872945],[132.72747801859958,35.12474209092714],[132.72628847713122,35.12518970106223],[132.72570640041155,35.12600809712377],[132.72286447751054,35.12578235418786],[132.72155435205605,35.12523392474637],[132.72027661523157,35.12563816555758],[132.7182024880781,35.12563820753412],[132.7172891611833,35.124118611025544],[132.7162766965232,35.12370355889985],[132.71465845459892,35.12423576937462],[132.71316359703195,35.125343120373486],[132.71256694648176,35.12615675124075],[132.7122487110606,35.12811816562371],[132.71292051577635,35.128854015067716],[132.71414236234963,35.12934025465524],[132.71523300402896,35.13023250777157],[132.71563452508752,35.13168472610515],[132.71316763257656,35.13285915759634],[132.71096461241407,35.13516003488699],[132.71096742645835,35.13688596061181],[132.71039006071553,35.138451325838346],[132.70864541793802,35.13908572737644],[132.70709132751233,35.1384779717944],[132.70657156480743,35.138740371975786],[132.70522509907542,35.13859744457661],[132.70446917135482,35.1393077255031],[132.70263355137948,35.13992230538304],[132.70165981610808,35.141260085220495],[132.70166305962405,35.14175655284013],[132.70379561666937,35.142704628347154],[132.70492424434065,35.14411222183515],[132.70495513967518,35.14596450195011],[132.7044424851087,35.147535469865566],[132.70435470590783,35.14891813308815],[132.7026768975979,35.14859558278012],[132.70272556331548,35.15025017919354],[132.7035237503489,35.152231451401875],[132.70346527023375,35.15407700023231],[132.702818232158,35.155386134506436],[132.70364206462705,35.15818767188013],[132.70290790097158,35.1587346615906],[132.70159360353585,35.15826767452433],[132.70122782006516,35.15852105283946],[132.70122939160925,35.160528287927306],[132.70074858897533,35.1617066079569],[132.69983603416006,35.161599089353246],[132.69854872034375,35.16059089603093],[132.69763632334326,35.16065758581599],[132.6967114638317,35.160182631959806],[132.69494921523338,35.16003259726095],[132.694311794744,35.16095748353503],[132.69291190468667,35.161832309545005],[132.69151211660298,35.16172395254235],[132.6901333317435,35.16213154804179]]]},"properties":{"KEY_CODE":"323860180","PREF":"32","CITY":"386","CITY_NAME":"飯南町","S_NAME":"志津見","SETAI":"37"}},{"type":"Feature","geometry":{"type":"Polygon","coordinates":[[[132.7162435060162,35.113129317957544],[132.71529706976105,35.11305676307779],[132.71360194371883,35.11377561751868],[132.71204115356886,35.11528907677742],[132.70816500432,35.11553047184837],[132.70625051727097,35.11532338998154],[132.70578140452756,35.11622741313583],[132.7048321318395,35.117108936822866],[132.7039029834188,35.119792415990034],[132.70351552967392,35.120145068178275],[132.70173242503355,35.120376609385964],[132.69979454558555,35.12131050820823],[132.69735196850485,35.12042869171594],[132.69332025118484,35.11990501657421],[132.6908586622506,35.119804583239336],[132.68771870608475,35.11988260886462],[132.6859550327262,35.120480598787374],[132.6832608667206,35.12050865628518],[132.6826020789948,35.12153217988979],[132.6813616065267,35.12176099577902],[132.6795393274816,35.11982353340025],[132.67911271756526,35.11842203931021],[132.67856994054708,35.117690892948794],[132.6774263654446,35.11732918646385],[132.67292977327074,35.11706185500687],[132.67188234928926,35.11664609803885],[132.67047904161493,35.113030826119754],[132.670941526641,35.11259756100953],[132.67057907245606,35.111905972077544],[132.66816684903688,35.11152268209094],[132.6647547678561,35.10870634919362],[132.66365494973638,35.1070649497557],[132.66484233915818,35.105215211716526],[132.66604224973955,35.1047153420962],[132.66637976731272,35.10325719002638],[132.66849205480256,35.10234902652938],[132.66684232309146,35.09928280664898],[132.66689234864288,35.09806632909329],[132.66631745410385,35.097083058359],[132.66375519095436,35.095574897812284],[132.66310526875458,35.09471670081678],[132.66290528241768,35.09376679719165],[132.66095546284305,35.093208463597996],[132.66043053529083,35.09068379042288],[132.6592556449553,35.09052552823058],[132.65881818437492,35.090033842327166],[132.65799326108174,35.08850067570244],[132.65768078067003,35.08683423229387],[132.65831823842282,35.0865009422137],[132.6576932866713,35.08585099917022],[132.6580307624927,35.08540110829506],[132.65998061892668,35.08517615707854],[132.66176794754642,35.086184396036856],[132.66479268289402,35.08514301146192],[132.66388029806117,35.084176450058074],[132.6656426483037,35.082776668483504],[132.66946729458334,35.084326635767354],[132.67012973314704,35.083401690680496],[132.67187961582073,35.08272680622759],[132.67171712188673,35.08094377909177],[132.67089220781915,35.08038543404446],[132.67015477878678,35.07907726787662],[132.67064225458515,35.07758584417656],[132.6699798461973,35.07651095974347],[132.67082978043643,35.07603601111668],[132.67155470049383,35.0766192804062],[132.67306704793322,35.07725257127031],[132.674241943087,35.077385903956724],[132.6753418266004,35.07691100391467],[132.67732913857967,35.076769340816384],[132.67742916023346,35.075486211775434],[132.6788415470654,35.07523630758389],[132.68037890759703,35.074111540712416],[132.6806789551798,35.07215339052046],[132.6824288446621,35.07005380110345],[132.68244490193393,35.06922363807201],[132.68350374895428,35.06982879913423],[132.68435367188488,35.070928584145484],[132.68744079182997,35.07295342085232],[132.68842817918213,35.07327008952326],[132.68982805406065,35.07238684445024],[132.6911779234212,35.07229522576283],[132.69257770835426,35.07373671080117],[132.6940400445255,35.07425338202059],[132.69488992081452,35.075511524228524],[132.69775206845176,35.07679464215936],[132.6981395379694,35.0774029499072],[132.69786448284205,35.07916101311174],[132.69875184781924,35.07974430623741],[132.69930172642322,35.08109408820094],[132.700614050158,35.08256057094721],[132.70257628386346,35.08339379262576],[132.70342616886046,35.084043685614404],[132.70457608294046,35.08395209120274],[132.7066133627707,35.08431032553208],[132.70743822836735,35.0846936064639],[132.70757567213676,35.08556848284186],[132.70866305607117,35.08650163079094],[132.70897542290393,35.088284782460484],[132.71018779926098,35.088709602091576],[132.71175010478527,35.08967621060512],[132.71312496723473,35.08970119632974],[132.71394982124013,35.09046772982832],[132.71518720294762,35.09084274419168],[132.7151035675696,35.09117508962969],[132.71527910749188,35.091408935277045],[132.71618706521554,35.091861629305974],[132.71618704109008,35.09185141834898],[132.71746855826765,35.09264485969908],[132.7175904660975,35.092929508266664],[132.7175904145705,35.094275748275656],[132.71719370363047,35.095696043626056],[132.7165223730917,35.09598071393561],[132.71408116802954,35.09768949680033],[132.71337926754637,35.09797421537487],[132.7126468126238,35.09888960777066],[132.71118218331728,35.09986603716848],[132.71014481743265,35.100008234639574],[132.70947347813654,35.100293224032136],[132.7088263466785,35.10032642545423],[132.70834848384462,35.1003509026773],[132.70949553530494,35.10236818217042],[132.71046510532398,35.10357559428549],[132.71166761428745,35.10551538057322],[132.71204590636486,35.10725113643706],[132.71250946546397,35.1079486685989],[132.7134717630398,35.10883979227807],[132.71430562296345,35.10974480022089],[132.71560504464728,35.11138119759081],[132.7162435060162,35.113129317957544]]]},"properties":{"KEY_CODE":"323860190","PREF":"32","CITY":"386","CITY_NAME":"飯南町","S_NAME":"八神","SETAI":"91"}},{"type":"Feature","geometry":{"type":"Polygon","coordinates":[[[132.73174916004407,35.12315126346285],[132.73024305399906,35.12337679479993],[132.73102111068013,35.12245478581427],[132.7318925231116,35.121382051241554],[132.73224049731624,35.12020027216304],[132.7321238032586,35.11972243091012],[132.73161922725825,35.11889562630948],[132.73063032720123,35.118406073744346],[132.7300098470372,35.11805818311357],[132.7282258578926,35.11691863782595],[132.7266165001535,35.11598544430668],[132.7256667467259,35.115910318477894],[132.72336074311988,35.1164794503399],[132.72192629821976,35.11619926429265],[132.72153847381207,35.11591406467243],[132.72082063652414,35.11478522530523],[132.72035516825818,35.114309035862476],[132.71870738972422,35.11372674370632],[132.71669152686573,35.11328975677133],[132.7162435060162,35.113129317957544],[132.71560504464728,35.11138119759081],[132.71430562296345,35.10974480022089],[132.7134717630398,35.10883979227807],[132.71250946546397,35.1079486685989],[132.71204590636486,35.10725113643706],[132.71166761428745,35.10551538057322],[132.71046510532398,35.10357559428549],[132.70949553530494,35.10236818217042],[132.70834848384465,35.100350902677285],[132.7088263466785,35.10032642545423],[132.70947347813654,35.100293224032136],[132.71014481743265,35.100008234639574],[132.71118218331728,35.09986603716848],[132.7126468126238,35.09888960777066],[132.71337926754637,35.09797421537487],[132.71408116802954,35.09768949680033],[132.71652237309175,35.09598071393561],[132.71719370363047,35.095696043626056],[132.7175904145705,35.094275748275656],[132.7175904660975,35.092929508266664],[132.71746855826765,35.09264485969908],[132.71618704109008,35.09185141834898],[132.71618706521554,35.091861629305974],[132.71527910749188,35.091408935277045],[132.7151035675696,35.09117508962969],[132.71518720294762,35.0908427441917],[132.7152043691442,35.09074456892339],[132.71554515287323,35.09067196576343],[132.71631996471956,35.09081865062532],[132.7165786296673,35.090887964772605],[132.7166007372913,35.090901032867116],[132.71782522270766,35.09140065208512],[132.71975605464232,35.09255715136815],[132.7201594510629,35.09339000144625],[132.72077827665964,35.094662625548445],[132.7215283750867,35.095551766405634],[132.7222638772328,35.096035556554035],[132.72271078391861,35.09583399766838],[132.72383096232917,35.09534758122442],[132.72462529656573,35.09516835702391],[132.72516888847332,35.09521915531885],[132.72544632148802,35.095361602771106],[132.72631148292058,35.09575033934604],[132.72759996226236,35.095777535376875],[132.72801705091294,35.09609890324077],[132.72833919108018,35.096650989099714],[132.72860564440646,35.09727248564886],[132.72882179219764,35.098049354773984],[132.7288510428005,35.098435831015586],[132.72996741124095,35.09921914281886],[132.73124163605047,35.10011395904508],[132.73181944829702,35.100039148488534],[132.73304003213485,35.099891045726125],[132.7333082263011,35.09987647907174],[132.73568087375673,35.10098658080183],[132.73585309536227,35.101101471761304],[132.7363069727413,35.10194481080398],[132.73685816319946,35.10220114786652],[132.73749748900593,35.10234573003608],[132.7403574390656,35.101941967293214],[132.74232809552123,35.10241976352953],[132.74294682489707,35.10261392240528],[132.74418897385002,35.10283298554067],[132.7465502266633,35.1032754684646],[132.7473384529094,35.10373295177863],[132.74804495185887,35.10425462475257],[132.74943605793027,35.1052217270795],[132.75006195563597,35.10577434413589],[132.750865147731,35.105963349658055],[132.75170311309995,35.10590316516198],[132.7523335037985,35.105731656260254],[132.75325725166817,35.10552857813922],[132.7549282768949,35.105800804420696],[132.75579336542066,35.1062887084586],[132.75671907096205,35.10739132335308],[132.7565001433812,35.109653350805175],[132.75671207379648,35.111505872743734],[132.75694815232558,35.11208452294159],[132.75795063588112,35.11363043747681],[132.757084299329,35.113946788591505],[132.75587689468702,35.11487121670375],[132.75561597722103,35.11524249521354],[132.75401603781765,35.116866292555386],[132.75304159268168,35.11754483483093],[132.75115779949854,35.11613892063872],[132.7501186985819,35.116038721669824],[132.74929315472968,35.11578973706269],[132.74884091984438,35.11538521611563],[132.7480788069501,35.11534754253192],[132.7469749526299,35.11464473024221],[132.745684893668,35.11305736467171],[132.74502306103093,35.112943488228446],[132.74355720939886,35.11379219157942],[132.74224233911417,35.11379253965201],[132.74159823870957,35.11435596180469],[132.7410719120029,35.116317214263354],[132.74065627430113,35.117014332950816],[132.74088978933688,35.119100850785784],[132.74024140926971,35.12008865173442],[132.73914604091874,35.121421316708144],[132.73783998892895,35.121671006218115],[132.7375433064225,35.121881633589545],[132.73634200605326,35.122695891214036],[132.73532924134287,35.12245240646354],[132.7338826614267,35.122792567550576],[132.73174916004407,35.12315126346285]]]},"properties":{"KEY_CODE":"323860200","PREF":"32","CITY":"386","CITY_NAME":"飯南町","S_NAME":"獅子","SETAI":"18"}}]}