{"type":"FeatureCollection","features":[{"type":"Feature","geometry":{"type":"Polygon","coordinates":[[[133.05155135365206,36.002485388767106],[133.05157544124037,36.00295027172616],[133.05046808016172,36.002616849570074],[133.05155135365206,36.002485388767106]]]},"properties":{"KEY_CODE":"325270010","PREF":"32","CITY":"527","CITY_NAME":"知夫村","S_NAME":"","SETAI":"0"}},{"type":"Feature","geometry":{"type":"Polygon","coordinates":[[[133.07122067733414,36.00793746268147],[133.07061258056095,36.008309765035804],[133.07062551964736,36.00788696944472],[133.07122067733414,36.00793746268147]]]},"properties":{"KEY_CODE":"325270010","PREF":"32","CITY":"527","CITY_NAME":"知夫村","S_NAME":"","SETAI":"0"}},{"type":"Feature","geometry":{"type":"Polygon","coordinates":[[[133.02929662271305,35.994935203730556],[133.02770012158996,35.99477993482775],[133.02692686139122,35.994251019967784],[133.0274001507238,35.99218097839459],[133.02805269375028,35.99303612128547],[133.0288298532714,35.99331895049926],[133.02958634511714,35.99424093427644],[133.02929662271305,35.994935203730556]]]},"properties":{"KEY_CODE":"325270010","PREF":"32","CITY":"527","CITY_NAME":"知夫村","S_NAME":"","SETAI":"0"}},{"type":"Feature","geometry":{"type":"Polygon","coordinates":[[[133.07467920870607,36.01091981324074],[133.07408715595056,36.01152814335888],[133.07319205168594,36.01085984896641],[133.07402656950038,36.01040831561168],[133.07467920870607,36.01091981324074]]]},"properties":{"KEY_CODE":"325270010","PREF":"32","CITY":"527","CITY_NAME":"知夫村","S_NAME":"","SETAI":"0"}},{"type":"Feature","geometry":{"type":"Polygon","coordinates":[[[133.02009273065008,36.031939867714094],[133.02059010197632,36.03216885828288],[133.01990199625067,36.032565806675436],[133.02009273065008,36.031939867714094]]]},"properties":{"KEY_CODE":"325270010","PREF":"32","CITY":"527","CITY_NAME":"知夫村","S_NAME":"","SETAI":"0"}},{"type":"Feature","geometry":{"type":"Polygon","coordinates":[[[133.00436374203937,36.03275278412424],[133.00135083263007,36.03220057010226],[133.00081755795674,36.03235208660666],[132.9994983539611,36.03110217208437],[132.9999997988648,36.03098242626468],[133.00004431446868,36.029940245877],[133.0019326035806,36.028870822421666],[133.00101235466042,36.026723182278],[133.00289602099429,36.02542935850021],[133.0031802470058,36.02460812022747],[133.00459677705018,36.02331211928206],[133.00552675045265,36.02312266300683],[133.00434742049384,36.022190874168814],[133.0044050405979,36.021237825854],[133.00204256954302,36.02193746122678],[133.00183735533224,36.02130799795288],[133.00247213292727,36.020268014323534],[133.00363326791043,36.02043386771933],[133.00421620529113,36.0191175404634],[133.0052244611792,36.01940882445581],[133.00779207917236,36.0186040372935],[133.0078014045226,36.01677257197044],[133.0062774900644,36.017439376048955],[133.00452466095484,36.01712446346881],[133.00313964204477,36.01613280472443],[133.00368626330481,36.01358828628781],[133.00475144224265,36.01349973567916],[133.00461064049125,36.012986989534326],[133.00685736286385,36.01206549105915],[133.0072768165748,36.010928743470316],[133.00778433779732,36.010986473961],[133.0096817734719,36.01008810418218],[133.00971423272458,36.00959577901913],[133.00838743811912,36.00844154499044],[133.0080550398252,36.00607982563589],[133.0066872965387,36.00555044140059],[133.0056160365338,36.00411318314461],[133.00638232425683,36.00346431281902],[133.00868304058096,36.00369695051937],[133.00998280181287,36.0031497644325],[133.0107655146201,36.003429066337176],[133.01094655263702,36.00251119075751],[133.0117507128239,36.002201799254756],[133.01319648597652,36.00276212300748],[133.01402965161992,36.002775171227924],[133.01659346129895,36.00498770300061],[133.02005581276336,36.00606449166913],[133.02249357722326,36.006435581212386],[133.02365707052252,36.00694010074746],[133.0247022063837,36.006861429703065],[133.02543165800773,36.00579360880353],[133.0265526704595,36.00596042674353],[133.0279607661276,36.00477867094567],[133.02833229426457,36.00324383828767],[133.0274537315334,36.002729205782636],[133.02719415236203,36.00180725464663],[133.02785807727668,36.00145459601917],[133.02859718060336,36.00200718188545],[133.02971496330358,36.00197751553145],[133.02904315392877,36.00068990907622],[133.02986022902954,36.00003961705394],[133.0312442731883,36.001241875038936],[133.03066436947873,36.001876047831885],[133.03107754123434,36.003043836311484],[133.03068721938095,36.00590098018714],[133.0315052903628,36.00584641691765],[133.03314733694833,36.0063879505122],[133.0340616015908,36.00479059783655],[133.0354251585538,36.00431657652301],[133.0357484579214,36.00345442037275],[133.0351363082259,36.002354787340174],[133.03614490981195,36.00249168667588],[133.03616397126675,36.00170202635961],[133.0369342383281,36.000534689407154],[133.03823181898713,36.000719946895266],[133.03770146325994,36.001007702249204],[133.03801204042975,36.00191483930821],[133.0378342901768,36.00289762547635],[133.0393522526204,36.00305693461901],[133.03998650558688,36.00353810640817],[133.03946952327706,36.005645442507735],[133.04117213922729,36.006543331992184],[133.04187272921394,36.00800459685975],[133.0419514566886,36.00941091202085],[133.04153297561254,36.010792011060424],[133.04040102896482,36.01175560946987],[133.04056442438332,36.01238711780571],[133.04213238959161,36.012929075267],[133.04337753179587,36.01137068768803],[133.04564637299157,36.01010312256266],[133.04641701805588,36.00907723161333],[133.04790268271728,36.009203324005455],[133.04849754197932,36.00853561436416],[133.04678410260632,36.0076730560487],[133.0467158358849,36.00711386463082],[133.0456028966247,36.006781340076174],[133.04571335129086,36.0061460325922],[133.04689652685008,36.0062103615699],[133.0474694658293,36.005466209288805],[133.04693909812536,36.00455260252479],[133.04800919963398,36.004130158838976],[133.04999841044256,36.004061452147745],[133.05052641951477,36.00357357743142],[133.05240692081793,36.00351013790421],[133.05447757968932,36.00398332441171],[133.05641370413383,36.005221756199084],[133.0574116646109,36.0053846918466],[133.05807242866084,36.00456863436674],[133.05718819020663,36.00386048836085],[133.05720252722895,36.002176794009785],[133.05595280442878,36.001513710155],[133.05645582685207,36.000580760963906],[133.05526567900895,35.99889968200179],[133.05520447880107,35.997198519315845],[133.055706399592,35.99666304581663],[133.05682079829594,35.996734094867776],[133.0567705961366,35.99582147124843],[133.05785782695048,35.9955583370805],[133.05696399647087,35.9946736071821],[133.0593792976801,35.994062618005636],[133.06020322050674,35.99543093870059],[133.06030285569403,35.99463166205676],[133.06211705425355,35.994408143218976],[133.0640282409391,35.995901710748406],[133.06443168546343,35.99529123218624],[133.06558111893102,35.995914425526976],[133.06612378921255,35.997409187614466],[133.06523696147224,35.998030502711366],[133.06544455519156,35.998440833079314],[133.06457472674077,35.999202615281405],[133.0659621047575,35.99986638583711],[133.06425617022708,36.001332918532185],[133.0661644792355,36.00176927129713],[133.06504983261368,36.00295198575809],[133.06628931225353,36.003093215098644],[133.06562512146547,36.003698442184394],[133.06446624445172,36.003818875332],[133.06452447385794,36.00474314993122],[133.06521046727278,36.005469853055104],[133.06623913731514,36.00570188654518],[133.0653223911252,36.006145873779836],[133.0663612848417,36.00698709292255],[133.06770308042627,36.00656424192644],[133.06810337065028,36.00596368972031],[133.06944793017064,36.006074353847175],[133.06972737790855,36.006748208718975],[133.06899898423168,36.00737016067899],[133.06932587170542,36.0083131414314],[133.07077570334133,36.00967036444434],[133.07232814411637,36.009432438185975],[133.07297957680996,36.010619911067074],[133.07160452543204,36.01075285829331],[133.06919163299418,36.01162003078023],[133.06900992897732,36.01192692906134],[133.06638983129588,36.01164197065689],[133.06547251583652,36.011942660521505],[133.064876973989,36.01059250169958],[133.06423547537062,36.0107595311151],[133.0620327545838,36.01020187302852],[133.06176986251614,36.01059679052416],[133.05952846284836,36.01122545530874],[133.05822974847976,36.01135137736945],[133.05596005506018,36.01262820516536],[133.05478863502998,36.01292529066503],[133.05317273163882,36.014743399219554],[133.0508695251507,36.01651337952636],[133.04806832417424,36.01781200462364],[133.04639753572556,36.018005424497794],[133.04430197231713,36.01892024488743],[133.04329465768208,36.02012630664009],[133.04250592389292,36.02043219131369],[133.0423246839624,36.02139607447975],[133.0434189720855,36.02213253806048],[133.04223047585725,36.023011848875385],[133.04209764081355,36.02354096517926],[133.04112382784749,36.02397437069761],[133.04129939729592,36.02510058566596],[133.0406342627806,36.02545061965453],[133.04112022560915,36.02294153359626],[133.0386206821764,36.02638006647602],[133.03742690087714,36.0262850909427],[133.03703384730437,36.02706214085061],[133.03570798414646,36.02838400817829],[133.03473424699573,36.02831895651818],[133.03470605094162,36.02766844148043],[133.03398163708565,36.02788187570511],[133.03343076996717,36.028848417620296],[133.0325653497223,36.0291610999956],[133.03132982062903,36.0284931546272],[133.03032221250942,36.028787916787216],[133.02984761239085,36.03013963986948],[133.02833535104654,36.03045604055162],[133.02735516447393,36.03133100438725],[133.02706905197863,36.03237222527442],[133.02570176088275,36.02989090305774],[133.02440552538738,36.02996867398192],[133.02378796911157,36.03042462598022],[133.02325003762923,36.02962723375585],[133.02234246600892,36.029733753457165],[133.0205532704377,36.03050536833644],[133.01754712151293,36.031204475567336],[133.01627285925466,36.03178220960695],[133.01630314589815,36.03118715367905],[133.0153300248201,36.03056674924807],[133.01317766047268,36.0308000601545],[133.01153737720773,36.03202022954616],[133.00995292034952,36.03243874901761],[133.00988754687347,36.03193269246659],[133.00854285369795,36.032261185999516],[133.00811879504738,36.03182253509061],[133.00671489282962,36.03190627610618],[133.00562622884317,36.03262409686169],[133.00436374203937,36.03275278412424]]]},"properties":{"KEY_CODE":"325270010","PREF":"32","CITY":"527","CITY_NAME":"知夫村","S_NAME":"","SETAI":"350"}},{"type":"Feature","geometry":{"type":"Polygon","coordinates":[[[133.01194294737388,36.03269873868086],[133.0121123805368,36.03287329396159],[133.01135185261617,36.03293813180194],[133.01194294737388,36.03269873868086]]]},"properties":{"KEY_CODE":"325270010","PREF":"32","CITY":"527","CITY_NAME":"知夫村","S_NAME":"","SETAI":"0"}},{"type":"Feature","geometry":{"type":"Polygon","coordinates":[[[133.02752783806545,36.03262219172094],[133.0275342367771,36.033003382627506],[133.02705853652475,36.03303203227121],[133.02752783806545,36.03262219172094]]]},"properties":{"KEY_CODE":"325270010","PREF":"32","CITY":"527","CITY_NAME":"知夫村","S_NAME":"","SETAI":"0"}},{"type":"Feature","geometry":{"type":"Polygon","coordinates":[[[133.03910988893284,35.99696062851813],[133.0379858217542,35.997616817852425],[133.0375057921745,35.996931724614136],[133.03925798352353,35.99570316392553],[133.03957047681826,35.99487351412213],[133.04047389021653,35.99463350576123],[133.0417315066029,35.995029016024624],[133.04152140746197,35.99588586417533],[133.04028218410102,35.99554880192665],[133.04018225504248,35.99654454422473],[133.03962137414695,35.996276440359864],[133.03910988893284,35.99696062851813]]]},"properties":{"KEY_CODE":"325270010","PREF":"32","CITY":"527","CITY_NAME":"知夫村","S_NAME":"","SETAI":"0"}},{"type":"Feature","geometry":{"type":"Polygon","coordinates":[[[133.03881564034154,35.99833902393677],[133.03838798322084,35.99808346514999],[133.03916223627104,35.99808684989842],[133.03881564034154,35.99833902393677]]]},"properties":{"KEY_CODE":"325270010","PREF":"32","CITY":"527","CITY_NAME":"知夫村","S_NAME":"","SETAI":"0"}},{"type":"Feature","geometry":{"type":"Polygon","coordinates":[[[133.03385138272188,35.991263885315604],[133.0340005331807,35.991417828256736],[133.03375195651637,35.99160799343569],[133.03385138272188,35.991263885315604]]]},"properties":{"KEY_CODE":"325270010","PREF":"32","CITY":"527","CITY_NAME":"知夫村","S_NAME":"","SETAI":"0"}},{"type":"Feature","geometry":{"type":"Polygon","coordinates":[[[133.05300534441275,35.994148628476076],[133.05283222175075,35.994628487292324],[133.05241792748595,35.99447742763813],[133.05300534441275,35.994148628476076]]]},"properties":{"KEY_CODE":"325270010","PREF":"32","CITY":"527","CITY_NAME":"知夫村","S_NAME":"","SETAI":"0"}},{"type":"Feature","geometry":{"type":"Polygon","coordinates":[[[133.0797169072822,35.99690820241657],[133.07867033468222,35.99858442457668],[133.07726527323715,35.99985688033403],[133.07634890112766,35.99983228244272],[133.07573971279058,35.99913570096945],[133.07594693286717,35.99776508962848],[133.0767118726043,35.99715363427976],[133.07607391700316,35.99568577919668],[133.07667695000623,35.9945059408886],[133.076598075681,35.99381705968806],[133.07803720891303,35.993202286234904],[133.07963021102864,35.9950621411826],[133.07934732459202,35.99621432398327],[133.0797169072822,35.99690820241657]]]},"properties":{"KEY_CODE":"325270010","PREF":"32","CITY":"527","CITY_NAME":"知夫村","S_NAME":"","SETAI":"0"}},{"type":"Feature","geometry":{"type":"Polygon","coordinates":[[[133.07276041152173,35.99785948049944],[133.07327034238483,35.99997093273002],[133.0723254609704,36.0001736417848],[133.07276041152173,35.99785948049944]]]},"properties":{"KEY_CODE":"325270010","PREF":"32","CITY":"527","CITY_NAME":"知夫村","S_NAME":"","SETAI":"0"}},{"type":"Feature","geometry":{"type":"Polygon","coordinates":[[[133.0507548655828,36.001379082036],[133.05077963342106,36.00181241492277],[133.05049634609816,36.001570255644445],[133.0507548655828,36.001379082036]]]},"properties":{"KEY_CODE":"325270010","PREF":"32","CITY":"527","CITY_NAME":"知夫村","S_NAME":"","SETAI":"0"}},{"type":"Feature","geometry":{"type":"Polygon","coordinates":[[[133.0541033135972,36.002066370534926],[133.05391008192086,36.0026392106265],[133.0526855006884,36.00203719356356],[133.05206193141947,36.002214843085056],[133.05111568656014,36.00111505133128],[133.05002906907038,36.0004479982177],[133.04927386904052,36.00066355464184],[133.04925557873298,36.00160372479562],[133.0480257374517,36.00122521569365],[133.04889673464498,35.999665906897974],[133.04828150511017,35.999097214763864],[133.04902906514752,35.99850047928979],[133.05107915041043,35.99823933484464],[133.0501391271171,35.997194466189306],[133.04922128472285,35.997134527493394],[133.04891180321349,35.99623462069237],[133.05060238007994,35.99646732582178],[133.04989931416657,35.99328827698792],[133.05072195721547,35.99306681204668],[133.05086914317576,35.993631732267914],[133.0523142822095,35.994134804265194],[133.05213156463,35.995849488134496],[133.05310403424963,35.996223548746265],[133.05258508881045,35.99762436638238],[133.05374489820048,35.99887848979149],[133.05293333311835,36.00019494957965],[133.05382388198487,36.00107883234162],[133.0541033135972,36.002066370534926]]]},"properties":{"KEY_CODE":"325270010","PREF":"32","CITY":"527","CITY_NAME":"知夫村","S_NAME":"","SETAI":"0"}},{"type":"Feature","geometry":{"type":"Polygon","coordinates":[[[133.03126374108874,35.99459207552559],[133.03191063425535,35.99370325244539],[133.03227326577743,35.99390342566193],[133.03126374108874,35.99459207552559]]]},"properties":{"KEY_CODE":"325270010","PREF":"32","CITY":"527","CITY_NAME":"知夫村","S_NAME":"","SETAI":"0"}}]}