{"type":"FeatureCollection","features":[{"type":"Feature","geometry":{"type":"Polygon","coordinates":[[[140.3401676294602,40.36314870388931],[140.33800635860237,40.362390043469205],[140.33582042582984,40.36329502410944],[140.33475661204835,40.36356689814726],[140.3323329857192,40.363975396567284],[140.33143370697874,40.36423063940757],[140.32831376599248,40.364881833758915],[140.3245201245918,40.36525091954525],[140.32086427403556,40.365655385981796],[140.31737598594034,40.36597405456733],[140.31329771283765,40.367015389441065],[140.31005886061533,40.36808603842828],[140.30401182379876,40.370878515274775],[140.30100811874365,40.37320871720407],[140.29725702093785,40.377075539968786],[140.29563580613407,40.378990747446025],[140.29498596679173,40.37944259791246],[140.2935086751552,40.38030116439774],[140.29279964526182,40.38075304350888],[140.26249412728495,40.36202866115109],[140.26237503951478,40.36130634007543],[140.26691057659954,40.34676737297306],[140.266199621143,40.34545829080068],[140.24448869139243,40.32803588379639],[140.24330463241435,40.325733436309775],[140.2434778059223,40.320992812666205],[140.24489505946536,40.31986391837517],[140.24548491002508,40.31864482210444],[140.24492727737064,40.31762123920097],[140.2431996941726,40.316803098411995],[140.24237118583068,40.31520948530606],[140.24049061366227,40.31414837190363],[140.24252525285246,40.31282099912447],[140.24128311185578,40.31133123329023],[140.24140003304126,40.30984129976214],[140.24453214840082,40.31047301279004],[140.24399876302562,40.30866710925652],[140.2429348310447,40.308215764366764],[140.24411583787634,40.30744806952757],[140.24488265323546,40.306048368627884],[140.24458648675133,40.30519058147299],[140.2454122713102,40.303700550130834],[140.2448799810277,40.30306851998159],[140.24588386872247,40.3025717544575],[140.24641329610677,40.3000884861851],[140.24446394732283,40.30031451572307],[140.24428603046647,40.29954700786857],[140.2461759693597,40.2990049270251],[140.2458788316088,40.29710872529633],[140.24534676489026,40.29665732006557],[140.24652694095022,40.29525752749964],[140.24735205079517,40.29327084768609],[140.24735037376885,40.29151005043579],[140.24782178758363,40.29029095564178],[140.24965160432455,40.28898133458919],[140.2494730882265,40.28762690066198],[140.2482139563112,40.28611332329228],[140.2501404902298,40.28655496140696],[140.2507445943329,40.28474557400329],[140.25221779887602,40.28347570863912],[140.252458318018,40.28209630318817],[140.25168198912894,40.280843183954296],[140.24874337666748,40.278623467189476],[140.25030877855724,40.27793120301253],[140.25302419019434,40.277349678273936],[140.2559645392497,40.27756885417252],[140.25733142624586,40.27723242050971],[140.25985018855872,40.27571097773148],[140.2616307374178,40.27218209022175],[140.26170927648056,40.271014175749634],[140.2611842460751,40.26949700778486],[140.25928136386898,40.26738367231513],[140.26001307122053,40.26624827277079],[140.26770175296988,40.266612322167134],[140.26983404785128,40.26557075592179],[140.274570089166,40.2657725734287],[140.2789809654224,40.266481919585864],[140.2793483195403,40.266782544166546],[140.28068047672718,40.27075405527243],[140.28079952633223,40.27174813946159],[140.28169400563246,40.27233344106688],[140.28244463594524,40.27387665177543],[140.28356521290846,40.27424919227394],[140.28478889946976,40.27579461415458],[140.28679774067464,40.27749298694443],[140.28808380276416,40.281056650502634],[140.28783690192145,40.282034032100285],[140.28845043820164,40.28303498711482],[140.2875141348038,40.284116500741845],[140.28690844954136,40.2856346561488],[140.28844054731596,40.2876804964922],[140.29037946913368,40.28883629124712],[140.29258283318563,40.289684514570524],[140.29321470270986,40.29199594482261],[140.29486060234558,40.29389968021735],[140.29737963561985,40.29465808025564],[140.30143615610376,40.29492810702486],[140.30434408383596,40.29618432476002],[140.30747337444555,40.297266973269835],[140.30896157290778,40.29716465718749],[140.31361359783742,40.297710926588465],[140.31789130606373,40.297799004890145],[140.32401283508258,40.29842811073974],[140.32311045029007,40.300127485011714],[140.32279500369899,40.30214638759846],[140.32412059454995,40.30415149575111],[140.32433502014754,40.30519361011795],[140.32587219569203,40.307376738705905],[140.32536317516787,40.30808553301295],[140.32575551411267,40.31007256218209],[140.32543506263673,40.31191637126083],[140.32875904116474,40.31248455650091],[140.3300963228551,40.314667664819666],[140.3333861664929,40.31477310288405],[140.33363359516858,40.31597865158863],[140.33261728716843,40.317875516263044],[140.3325329148544,40.32000048202134],[140.33392258092505,40.32085732243906],[140.33292073561233,40.32264572731107],[140.33458288602012,40.32349181330072],[140.33620767623924,40.32497503939279],[140.33668255356946,40.326216607212395],[140.33624506152745,40.32690819914884],[140.33644204334578,40.32931358092618],[140.3354573687003,40.33141599487643],[140.3384818980648,40.336048931339576],[140.34163155335727,40.33772381510291],[140.34500551142375,40.342224618830855],[140.34668096124068,40.343806601536514],[140.3467684532695,40.34458983018076],[140.3509935958258,40.34941004972418],[140.35078660748215,40.35083425198606],[140.35109280406687,40.35270574640868],[140.35305506827692,40.35491392818016],[140.35221753638928,40.356980329967136],[140.3536673196085,40.359296802777635],[140.35304232083837,40.36060497569617],[140.3557670129959,40.36422960167782],[140.35635443544143,40.366729315025296],[140.35517947615014,40.36772082736834],[140.3533812113188,40.37012762295649],[140.35062845316696,40.36816017121471],[140.34940031633238,40.36737455050968],[140.34707375749196,40.36701520492512],[140.34482568156238,40.36609521652702],[140.34283641434976,40.36468845771507],[140.3401676294602,40.36314870388931]]]},"properties":{"KEY_CODE":"053460010","PREF":"05","CITY":"346","CITY_NAME":"藤里町","S_NAME":"藤琴","SETAI":"547"}},{"type":"Feature","geometry":{"type":"Polygon","coordinates":[[[140.32401283508258,40.29842811073974],[140.31789130606373,40.297799004890145],[140.31361359783742,40.297710926588465],[140.30896157290778,40.29716465718749],[140.30747337444555,40.297266973269835],[140.30434408383596,40.29618432476002],[140.30143615610376,40.29492810702486],[140.29737963561985,40.29465808025564],[140.29486060234558,40.29389968021735],[140.29321470270986,40.29199594482261],[140.29258283318563,40.289684514570524],[140.29037946913368,40.28883629124712],[140.28844054731596,40.2876804964922],[140.28690844954136,40.2856346561488],[140.2875141348038,40.284116500741845],[140.28845043820164,40.28303498711482],[140.28783690192145,40.282034032100285],[140.28808380276416,40.281056650502634],[140.28679774067464,40.27749298694443],[140.28478889946976,40.27579461415458],[140.28356521290846,40.27424919227394],[140.28244463594524,40.27387665177543],[140.28169400563246,40.27233344106688],[140.28079952633223,40.27174813946159],[140.28068047672718,40.27075405527243],[140.2793483195403,40.266782544166546],[140.2789809654224,40.266481919585864],[140.274570089166,40.2657725734287],[140.26983404785128,40.26557075592179],[140.26770175296988,40.266612322167134],[140.26001307122053,40.26624827277079],[140.25968374595394,40.26307305002313],[140.25935145542337,40.2623628571484],[140.2571316585429,40.26004624615525],[140.2557615946601,40.25781900851679],[140.25511159279785,40.25580910984081],[140.25689227378138,40.25439811436465],[140.25840823230473,40.25263645282421],[140.26030272302378,40.25110664286902],[140.2606615103653,40.24962063525009],[140.26021560551237,40.2462423683602],[140.26062293886883,40.244310343346065],[140.2598261519531,40.24268416970194],[140.26004189470584,40.24240650296667],[140.26025819011866,40.242318451863746],[140.26069755537452,40.24235692317831],[140.26188624525037,40.242737354272805],[140.26234463958878,40.242904503362766],[140.26269984881344,40.243129123233864],[140.26348129148937,40.243732507586],[140.26504683922292,40.24397959383299],[140.26595488208852,40.243338103100825],[140.26804417779914,40.24299184626834],[140.26828732861307,40.243299951719266],[140.26866128637437,40.24352525999018],[140.27016407832525,40.24440967338393],[140.27143382784806,40.244643532102096],[140.27220260394043,40.24446904049072],[140.27422608304084,40.2426934228489],[140.2745029312534,40.24257595201912],[140.2752231137503,40.24227746413788],[140.2761321532701,40.24162804581964],[140.27745522172575,40.24358275715353],[140.2794049876472,40.24506597713535],[140.28049703526804,40.245397940571046],[140.28205469689826,40.24701585899054],[140.2826045589602,40.24877401735573],[140.28396690997548,40.24984893224806],[140.2845793167668,40.250932153175],[140.28754144059826,40.25360693756585],[140.2883913859282,40.25360696080759],[140.28996631159254,40.252323795637615],[140.29302856528102,40.25189891452606],[140.29522836318165,40.25229891225591],[140.2964532013529,40.252973880364976],[140.30030283584577,40.25293227825642],[140.30106530708005,40.25237402417215],[140.30295255465433,40.25360725673509],[140.30608987659545,40.252149143657455],[140.3075897006702,40.25244080111445],[140.30996428711967,40.255407195925486],[140.31032667113246,40.25716534129482],[140.30965165853527,40.25815689905332],[140.31085141218193,40.260448344225765],[140.3106887945092,40.26223147329009],[140.31107888113007,40.26441280125191],[140.31210102695596,40.264789556125216],[140.31464343796446,40.267460692523365],[140.31461300856782,40.26862253637013],[140.31720866074275,40.27002077042063],[140.31878744759243,40.27023910810423],[140.31906239725222,40.27116401583096],[140.32094963902875,40.27251389690203],[140.3228694025465,40.27231719830244],[140.32363761490245,40.27487682111971],[140.32329660857272,40.27692541780874],[140.32224014350675,40.27778557295814],[140.32312482219817,40.27900272259225],[140.3234746065241,40.28065501978306],[140.32600456616888,40.280045494978324],[140.3261694915591,40.28109414918505],[140.3262210299904,40.28175824183595],[140.32517451248987,40.283506144515826],[140.32619317563166,40.2841515701669],[140.32637461542797,40.28744368770286],[140.32733324465636,40.28946488713352],[140.3269313240807,40.29033046936937],[140.32676100792716,40.292664672249025],[140.325048079908,40.29463653697973],[140.3238730431128,40.297294511599624],[140.32401283508258,40.29842811073974]]]},"properties":{"KEY_CODE":"053460020","PREF":"05","CITY":"346","CITY_NAME":"藤里町","S_NAME":"大沢","SETAI":"143"}},{"type":"Feature","geometry":{"type":"Polygon","coordinates":[[[140.25511159279785,40.25580910984081],[140.25044973973866,40.257417319634534],[140.24991344209022,40.25827585316455],[140.24816046725678,40.25879201795553],[140.24801942026278,40.25996122586353],[140.24632637645465,40.260369515058485],[140.24581791705202,40.26096863359763],[140.2433644778336,40.26190606779298],[140.2386592581047,40.26301833656491],[140.2344828252044,40.263744026312985],[140.2319901873,40.26396305739761],[140.2271237881831,40.26374091258336],[140.2235532478948,40.26342248529063],[140.2205214006037,40.26270437842232],[140.22053394682166,40.26172948083335],[140.21891948438537,40.259105157009785],[140.2195467426953,40.257913150955034],[140.22083417039752,40.25663832027136],[140.22132168125253,40.255421789742186],[140.2260676782478,40.25417458870193],[140.22742120713775,40.25234738435961],[140.22848363124442,40.25219745697731],[140.23030850877103,40.25106431730143],[140.23085977606735,40.250169952501146],[140.23064511368173,40.248543313296],[140.23215856097832,40.24778970660992],[140.23395394446896,40.248462537335236],[140.2341353873081,40.24866644840803],[140.2349380915878,40.24906003875404],[140.2369433418874,40.248502733491954],[140.23869509427217,40.24735003331277],[140.23931001547095,40.24703637182658],[140.24073601662795,40.24714599472558],[140.24314195333307,40.24561043513482],[140.24374325200617,40.24561846183746],[140.2442967355221,40.245924905498306],[140.2444300505373,40.245958586492534],[140.24473717000905,40.245841337944036],[140.24488031962514,40.24573646576749],[140.24501115159885,40.245563856097576],[140.24527818624145,40.24534080202646],[140.245505031576,40.24515629784555],[140.24562201656911,40.245087581569905],[140.24568673005825,40.245079660572145],[140.24596611601763,40.24505221277406],[140.2460918427859,40.24497034754655],[140.24617251782595,40.24486350318699],[140.24736477166536,40.244326636227136],[140.247686669457,40.24424079833059],[140.24794189465285,40.244139778370865],[140.24805603918298,40.24389944287676],[140.24915731725474,40.24501550785556],[140.249765121913,40.24584730881003],[140.25221985035435,40.24083267885961],[140.25233237377972,40.24068269825915],[140.25483211505414,40.24119935430337],[140.25763057362678,40.24209095067689],[140.25821161872415,40.242199432526824],[140.2588500062964,40.24240556281024],[140.25912021785635,40.24256532469446],[140.2597603404596,40.24283864792178],[140.2598261519531,40.24268416970194],[140.26062293886883,40.244310343346065],[140.26021560551237,40.2462423683602],[140.2606615103653,40.24962063525009],[140.26030272302378,40.25110664286902],[140.25840823230473,40.25263645282421],[140.25689227378138,40.25439811436465],[140.25511159279785,40.25580910984081]]]},"properties":{"KEY_CODE":"053460030","PREF":"05","CITY":"346","CITY_NAME":"藤里町","S_NAME":"矢坂","SETAI":"102"}},{"type":"Feature","geometry":{"type":"Polygon","coordinates":[[[140.23646428240795,40.436721388846884],[140.23518672671477,40.43632550889117],[140.23337443911433,40.435042300340044],[140.23177462363202,40.43432566502713],[140.22787504242663,40.43368395863211],[140.2251503131765,40.43263401196735],[140.22388799840041,40.43179242094271],[140.22022588557672,40.43116737491209],[140.21841358235383,40.43166722019972],[140.216851180956,40.433416978051156],[140.21425143505172,40.43428342652192],[140.21162667542532,40.43594149835174],[140.21015172078674,40.438366163599326],[140.20842692291185,40.43826610979945],[140.20570229528656,40.43657453875281],[140.20341508033923,40.436424456030714],[140.19836568458297,40.43505774836557],[140.19595340451284,40.43457441568956],[140.1938910251078,40.43489099381906],[140.1901285534526,40.43809886948191],[140.18740362347546,40.43954031306377],[140.18594106639168,40.44174834513689],[140.1856035133698,40.44328149341847],[140.1820037947674,40.442156479252404],[140.18000400498556,40.44097320849853],[140.1772417168126,40.44026487495489],[140.1738669310609,40.44015643134813],[140.1709797610259,40.43812319918217],[140.16897978031145,40.43968964454802],[140.16710491441847,40.439889541123286],[140.16216777862346,40.43929777931525],[140.15770567655693,40.43748113593982],[140.1557559471659,40.4362395616289],[140.15195639410675,40.43492297301074],[140.1495191039005,40.43572279286849],[140.1471191922446,40.43810578580333],[140.14214461518264,40.43775573515651],[140.13998224039437,40.4392971593824],[140.13726993307228,40.439572076037976],[140.13584506640024,40.4393470706688],[140.13395778240144,40.43810552485709],[140.13120809777013,40.438188735840654],[140.12879592516643,40.43709707356182],[140.12635866262943,40.437163639853225],[140.12469638362782,40.43674692180924],[140.1206968145831,40.436288473814706],[140.11787213465794,40.4349135720029],[140.11452233295083,40.43620499144926],[140.1114851254076,40.4354883472047],[140.1076228845748,40.4358632041031],[140.10612304455503,40.43471332405863],[140.10337332325068,40.43378836270601],[140.10254854118935,40.43106367390931],[140.1030235917363,40.42878898882433],[140.10151144687086,40.42583927093656],[140.10183648219794,40.424372780947756],[140.1025864807494,40.42382286627064],[140.10267396690642,40.42349792761344],[140.10161166068127,40.42273964377649],[140.10082434217117,40.421073145703026],[140.09993706491184,40.41903169408014],[140.09993712284546,40.41833178856332],[140.10106205078029,40.41703201331747],[140.10254943160172,40.41670710088862],[140.10352435367057,40.41670709812641],[140.10676158034534,40.41629057308861],[140.10744900952042,40.41614062246073],[140.1064243014529,40.413166015471184],[140.10683684371628,40.411574564166976],[140.10803689535902,40.40887495850669],[140.10788699497436,40.407500171798965],[140.1099368615246,40.40605045159498],[140.10993687418878,40.40540053548792],[140.10996188376126,40.40532554947391],[140.11049938744856,40.40463400666606],[140.11307418743775,40.402867671549714],[140.11422413247254,40.40174289114522],[140.11552396386193,40.401792914363774],[140.1178237127015,40.40263455427086],[140.11958586240158,40.404817673196085],[140.1246478863625,40.404367953202765],[140.12828493060437,40.40554295379941],[140.1386967401128,40.401110602315065],[140.14018411435768,40.40068573139582],[140.1417839221908,40.40169398852006],[140.14414618199908,40.40211901914736],[140.14658351074388,40.40124421247924],[140.14903323460507,40.402994041777276],[140.15104556138968,40.40331066611837],[140.15478289504807,40.40118599463444],[140.15607030163702,40.40086940310698],[140.15535794381137,40.39814473850402],[140.15544549567733,40.39651994757464],[140.1550830758232,40.39503680195645],[140.15382079005656,40.392670394589004],[140.15444580273262,40.39104560203978],[140.15615823191396,40.38953745147454],[140.15705823370917,40.388112631116556],[140.15958311413888,40.38738775336237],[140.16283294417624,40.385763017916105],[140.16395789638918,40.38488813986957],[140.1626955261201,40.38353826895484],[140.159695893354,40.3809718623499],[140.1583460699653,40.37869708242063],[140.1579836885547,40.377113940875965],[140.1560589800391,40.37531410962981],[140.15581344016493,40.37438643182231],[140.16070807315919,40.3716651147278],[140.16245107250177,40.37133657228799],[140.16425501595225,40.371484984724],[140.16715056233002,40.3699527504139],[140.16841464833394,40.36742029158415],[140.16898089544893,40.36741727522532],[140.17052415017156,40.36460374441987],[140.16968670656533,40.36329940431122],[140.1704168002642,40.36159103374213],[140.171908936294,40.36086835484962],[140.17447582545043,40.3618284293855],[140.17764279911333,40.36178043209078],[140.1779314383974,40.36021644674824],[140.18014809105733,40.35871469640943],[140.18262594405434,40.357482024672095],[140.182731735858,40.3559610060375],[140.18347282548868,40.35522084656964],[140.1855581607853,40.35487321186784],[140.18677305472008,40.35324473200258],[140.19049625880203,40.35165586591546],[140.1934153292284,40.34987177971381],[140.19316851771782,40.34756780447157],[140.19410020527636,40.34592666086795],[140.1952675264359,40.34471947149169],[140.19648611072844,40.344689503582714],[140.19798780903542,40.34208721024481],[140.1950810070822,40.33855495843278],[140.19475842122506,40.33761149771739],[140.19530064194936,40.33662024758708],[140.1948085619872,40.335345115983166],[140.1957154263502,40.33280561379233],[140.19435902490486,40.33221885428794],[140.19388393616669,40.329904146218134],[140.19535895277244,40.32734616871141],[140.19461481573865,40.32339843610436],[140.19577124527524,40.322293804936265],[140.19523435531462,40.31956374456314],[140.1964898849162,40.31929115524998],[140.19766574144174,40.31842557075328],[140.19822021601473,40.31781198629644],[140.19832165832153,40.31669746019353],[140.19859668521977,40.31559760596222],[140.1988841595386,40.3153226550206],[140.19960911829006,40.314697717661545],[140.2001965904419,40.31395617086249],[140.20100308002014,40.313515601066776],[140.20193279438922,40.313003328195386],[140.20221227977967,40.31079019775484],[140.20183410298952,40.310089955319064],[140.2021591978741,40.3078568848362],[140.2018593562184,40.30479053807462],[140.20112205616545,40.30266575938244],[140.20200949688888,40.301632569004326],[140.20447393772224,40.30075627846533],[140.20461441287807,40.29714275582699],[140.208108515069,40.29719680486177],[140.208884901473,40.29679412198539],[140.20884635630074,40.29954135550544],[140.20973376614677,40.29877478686307],[140.2108086611138,40.29919146722786],[140.21179598452835,40.300707971330255],[140.21237091137937,40.300666345653944],[140.21239833225496,40.29940171200654],[140.21179610059292,40.29750834223446],[140.21329594276858,40.29796668592566],[140.2142832934391,40.29892494263152],[140.2143708073357,40.29826667017481],[140.2125210326198,40.29710842206754],[140.21335859146268,40.29395879515648],[140.21392096490698,40.29524201702853],[140.21464590983643,40.29486708015218],[140.21427064751057,40.29329210230667],[140.21354611315542,40.29271729258098],[140.21434608873722,40.292000726236594],[140.21353366551622,40.29120079231456],[140.21344627135915,40.28921769962339],[140.21400872529102,40.28854280116603],[140.21392845942188,40.28719266447539],[140.21449623861693,40.28676802202903],[140.21667095863555,40.287934628296],[140.21685838144222,40.28924281785107],[140.21622091250836,40.2906176344056],[140.2169583033733,40.29229246369494],[140.21729578690778,40.2906926588849],[140.21884564739113,40.29025109938284],[140.2192456844847,40.287701423018746],[140.21792092249896,40.28512668147985],[140.2184709731493,40.28215205361939],[140.21665873774094,40.280043893608216],[140.2165713073887,40.27888570655056],[140.21760875225772,40.27751922824484],[140.21593255414552,40.275746949415385],[140.21313454091228,40.27519294860853],[140.21117219364285,40.27416855304741],[140.21103702853563,40.27113549559101],[140.2120534829294,40.27053230684739],[140.211566425844,40.26957083639568],[140.21438437218995,40.2682951426338],[140.21512666768194,40.268464303664416],[140.21688413389992,40.2670537264061],[140.21854200632242,40.268005873224496],[140.22264974650088,40.26726503541665],[140.2228335717492,40.2652708770879],[140.22367103079378,40.26412104715475],[140.2235532478948,40.26342248529063],[140.2271237881831,40.26374091258336],[140.2319901873,40.26396305739761],[140.2344828252044,40.263744026312985],[140.2386592581047,40.26301833656491],[140.2433644778336,40.26190606779298],[140.24581791705202,40.26096863359763],[140.24632637645465,40.260369515058485],[140.24801942026278,40.25996122586353],[140.24816046725678,40.25879201795553],[140.24991344209022,40.25827585316455],[140.25044973973866,40.257417319634534],[140.25511159279785,40.25580910984081],[140.2557615946601,40.25781900851679],[140.2571316585429,40.26004624615525],[140.25935145542337,40.2623628571484],[140.25968374595394,40.26307305002313],[140.26001307122053,40.26624827277079],[140.25928136386898,40.26738367231513],[140.2611842460751,40.26949700778486],[140.26170927648056,40.271014175749634],[140.2616307374178,40.27218209022175],[140.25985018855872,40.27571097773148],[140.25733142624586,40.27723242050971],[140.2559645392497,40.27756885417252],[140.25302419019434,40.277349678273936],[140.25030877855724,40.27793120301253],[140.24874337666748,40.278623467189476],[140.25168198912894,40.280843183954296],[140.252458318018,40.28209630318817],[140.25221779887602,40.28347570863912],[140.2507445943329,40.28474557400329],[140.2501404902298,40.28655496140696],[140.2482139563112,40.28611332329228],[140.2494730882265,40.28762690066198],[140.24965160432455,40.28898133458919],[140.24782178758363,40.29029095564178],[140.24735037376885,40.29151005043579],[140.24735205079517,40.29327084768609],[140.24652694095022,40.29525752749964],[140.24534676489026,40.29665732006557],[140.2458788316088,40.29710872529633],[140.2461759693597,40.2990049270251],[140.24428603046647,40.29954700786857],[140.24446394732283,40.30031451572307],[140.24641329610677,40.3000884861851],[140.24588386872247,40.3025717544575],[140.2448799810277,40.30306851998159],[140.2454122713102,40.303700550130834],[140.24458648675133,40.30519058147299],[140.24488265323546,40.306048368627884],[140.24411583787634,40.30744806952757],[140.2429348310447,40.308215764366764],[140.24399876302562,40.30866710925652],[140.24453214840082,40.31047301279004],[140.24140003304126,40.30984129976214],[140.24128311185578,40.31133123329023],[140.24252525285246,40.31282099912447],[140.24049061366227,40.31414837190363],[140.24237118583068,40.31520948530606],[140.2431996941726,40.316803098411995],[140.24492727737064,40.31762123920097],[140.24548491002508,40.31864482210444],[140.24489505946536,40.31986391837517],[140.2434778059223,40.320992812666205],[140.24330463241435,40.325733436309775],[140.24448869139243,40.32803588379639],[140.266199621143,40.34545829080068],[140.26691057659954,40.34676737297306],[140.26237503951478,40.36130634007543],[140.26249412728495,40.36202866115109],[140.29279964526182,40.38075304350888],[140.28635322151922,40.38718712449225],[140.28420412480432,40.389331734825404],[140.27775615084994,40.39576535567457],[140.27560737065025,40.39791024981328],[140.27131426510238,40.402202846392456],[140.26487329254977,40.408641598306986],[140.26055690023915,40.41292108708239],[140.25623160072357,40.417195496266366],[140.2410888524259,40.43215454705284],[140.23646428240795,40.436721388846884]]]},"properties":{"KEY_CODE":"053460040","PREF":"05","CITY":"346","CITY_NAME":"藤里町","S_NAME":"粕毛","SETAI":"334"}},{"type":"Feature","geometry":{"type":"Polygon","coordinates":[[[140.23646428240795,40.436721388846884],[140.2410888524259,40.43215454705284],[140.25623160072357,40.417195496266366],[140.26055690023915,40.41292108708239],[140.26487329254977,40.408641598306986],[140.27131426510238,40.402202846392456],[140.27560737065025,40.39791024981328],[140.27775615084994,40.39576535567457],[140.28420412480432,40.389331734825404],[140.28635322151922,40.38718712449225],[140.29279964526182,40.38075304350888],[140.2935086751552,40.38030116439774],[140.29498596679173,40.37944259791246],[140.29563580613407,40.378990747446025],[140.29725702093785,40.377075539968786],[140.30100811874365,40.37320871720407],[140.30401182379876,40.370878515274775],[140.31005886061533,40.36808603842828],[140.31329771283765,40.367015389441065],[140.31737598594034,40.36597405456733],[140.32086427403556,40.365655385981796],[140.3245201245918,40.36525091954525],[140.32831376599248,40.364881833758915],[140.33143370697874,40.36423063940757],[140.3323329857192,40.363975396567284],[140.33475661204835,40.36356689814726],[140.33582042582984,40.36329502410944],[140.33800635860234,40.362390043469205],[140.3401676294602,40.36314870388931],[140.34283641434976,40.36468845771507],[140.34482568156238,40.36609521652697],[140.34707375749193,40.36701520492512],[140.34940031633238,40.367374550509666],[140.35062845316696,40.36816017121471],[140.3533812113188,40.37012762295649],[140.35051708599377,40.37187021005595],[140.35015456563792,40.37288677667215],[140.34916703481827,40.37395328892377],[140.34725464621883,40.374919791738876],[140.34711600104745,40.37520083632668],[140.34607967271305,40.375852996173656],[140.34371732616464,40.37506966826079],[140.3427299023248,40.375361291215036],[140.3420549353334,40.37569454869606],[140.34040498643768,40.376736076103214],[140.3398674776275,40.377394313497426],[140.33838005111892,40.37842745773821],[140.3381425215812,40.37907739596835],[140.33760495380807,40.382568609413504],[140.3373299103796,40.38360182347861],[140.33676742921696,40.383985097588024],[140.3357800241373,40.3846182964935],[140.3346550579798,40.38556815282632],[140.3340050519821,40.38711795431295],[140.33348008804558,40.387884495609796],[140.33401751672469,40.3889677223566],[140.3345549600258,40.38949269327189],[140.33447990817194,40.39142577642877],[140.3348173182666,40.39295060799474],[140.3342923356517,40.39381717007986],[140.33392980990723,40.3948753482854],[140.33316728101656,40.396275100455895],[140.3332047159372,40.397483280817134],[140.33316717478047,40.397991542961115],[140.333929536229,40.39973299095357],[140.33355448784968,40.40098279805124],[140.33324188364438,40.40276585386117],[140.33399175608426,40.40385741559666],[140.33622897040968,40.40558228916725],[140.33672874462266,40.40845694923623],[140.33670367620152,40.409706811643616],[140.33649120292284,40.410173413129414],[140.33647861375877,40.411923174028985],[140.33605360659652,40.412381430750926],[140.33532864298445,40.413789565080656],[140.33557854358898,40.41525605378787],[140.33429112866457,40.41608921785906],[140.33342863926768,40.418188889499746],[140.33270360731797,40.419372041066104],[140.33267863832748,40.419505374467676],[140.33309109685467,40.419938652096945],[140.33352851947149,40.420613587311394],[140.3336660142952,40.42078857379496],[140.33454090029625,40.421380198327384],[140.3357282595901,40.42209687939227],[140.336165703389,40.42232185497898],[140.33556571631553,40.42318006538042],[140.33641559513921,40.42432997370767],[140.33629441878023,40.42501544380287],[140.33604061154898,40.42538817820323],[140.3355156255802,40.42549644410848],[140.33414078544996,40.42586301091006],[140.33334081519484,40.427279493158935],[140.33469057011916,40.42932932044782],[140.33445306221796,40.4309957694708],[140.33551534311448,40.43287063507744],[140.33549031641326,40.434037164315846],[140.33546530302823,40.434470452620985],[140.3355277368605,40.43577031027721],[140.33497778700357,40.4363618912339],[140.33484026841973,40.43712845512914],[140.3350027000828,40.43777839031402],[140.3353026028605,40.438861610348944],[140.33511512567492,40.43935322836961],[140.33355272986114,40.439961429969394],[140.33217787758343,40.44003635896862],[140.33121549148152,40.43936142012827],[140.32711586468747,40.439044674399895],[140.32401612303764,40.4393445190481],[140.32214128546784,40.43921113884601],[140.32101639981582,40.43851118753571],[140.31940406175605,40.43880276452242],[140.31782919041305,40.43961924880965],[140.31532957057496,40.43738607487023],[140.31324229754094,40.437302650733514],[140.31099260533423,40.43619432999165],[140.3096677096143,40.43646923734488],[140.30796781264291,40.43786900941609],[140.30849266250107,40.439852162437596],[140.30771765118683,40.44170194463763],[140.30588028310527,40.44269344267455],[140.30248058900338,40.442718278996736],[140.30074323532352,40.44400140630032],[140.30005571340556,40.44535123508012],[140.2985807679065,40.446259451717566],[140.29473112448986,40.44635099668674],[140.29303127418373,40.44590098893499],[140.29110639023557,40.44653423687746],[140.28813174024742,40.444892679682894],[140.28675679352804,40.44583420049155],[140.28379455111659,40.44539252544789],[140.28239463646338,40.44590911969052],[140.27944486258798,40.445959036802314],[140.27437038258645,40.44289255490159],[140.27315800629827,40.44244256833889],[140.26997074470634,40.44197589304119],[140.2670835199553,40.440717616673176],[140.26304630057692,40.440767470532],[140.26172140210875,40.441009097289005],[140.26070890658949,40.441800621428214],[140.25862159088624,40.441333967879075],[140.25334714990703,40.44151713401866],[140.25183481920246,40.4417670633775],[140.24995995939662,40.44298353545517],[140.24803524922962,40.440817036992236],[140.24574802467467,40.43927548867971],[140.24569806383872,40.43841724050371],[140.24319835869682,40.437350635441575],[140.23927373070293,40.43745051879547],[140.23646428240795,40.436721388846884]]]},"properties":{"KEY_CODE":"053460050","PREF":"05","CITY":"346","CITY_NAME":"藤里町","S_NAME":"太良","SETAI":"0"}}]}