{"type":"FeatureCollection","features":[{"type":"Feature","geometry":{"type":"Polygon","coordinates":[[[130.8342704881913,32.893183673726185],[130.83394121909654,32.893248231740635],[130.83352168803236,32.89383112394518],[130.8333672745455,32.894011120432886],[130.83320879271147,32.89449243944046],[130.8330097930132,32.89510220230645],[130.83264868640583,32.89533214831465],[130.83235141752738,32.89514268910641],[130.8317986398048,32.894893795633386],[130.83136137054333,32.8946657411122],[130.83087764322792,32.89401073882166],[130.83073803658903,32.89377127383955],[130.83069991299143,32.89357033335428],[130.83060911147072,32.8934431841768],[130.82976461440325,32.89285564091886],[130.8296249776887,32.892633892950755],[130.829383204594,32.892719235322915],[130.8292818929281,32.89259797126705],[130.82894678192574,32.892059859488924],[130.82828859170866,32.892014653481866],[130.82777017192655,32.89211438230356],[130.82765117363957,32.89208763092713],[130.8271450213543,32.89217998580553],[130.82682636644907,32.89219136405251],[130.82640933444182,32.89236508047715],[130.82589753224823,32.89265978197017],[130.8252300898559,32.89286417959258],[130.82476522092196,32.892441075179306],[130.8241604751478,32.89192620992144],[130.82298253031627,32.892645369508756],[130.82306392727256,32.89309303912381],[130.82336427034704,32.89348931277533],[130.82271019734893,32.8940098058838],[130.82239795653194,32.89431659532364],[130.82196998702636,32.89470002969266],[130.82166742755854,32.89453859743927],[130.8213737240815,32.89433434150687],[130.82122691493734,32.8942011968697],[130.82111496384007,32.89415377228873],[130.82104499148284,32.89413003563553],[130.82070928024683,32.89390799892571],[130.8203695900455,32.89393114229092],[130.82006530105187,32.893771192817844],[130.81987816108418,32.89366900492965],[130.819657967321,32.89347666908823],[130.8190459974179,32.893082881295534],[130.81785191273042,32.89312843201158],[130.81774050182847,32.89247264196675],[130.8160233819077,32.892026234840316],[130.815929478987,32.89199664808779],[130.81583278205682,32.89202595594322],[130.81488143165848,32.89189432709735],[130.8146135377244,32.89228009440084],[130.81432640442802,32.892229834166066],[130.81384321324347,32.892224594451896],[130.81247027055608,32.892160273410305],[130.81198166073992,32.89217993181018],[130.81186487662643,32.892180884421585],[130.81172246532066,32.89224635103786],[130.81154261696702,32.892246081673775],[130.81137086230842,32.892218646437186],[130.81106770830323,32.892134396503245],[130.8109657053987,32.892125181233375],[130.81056998205898,32.89202380356941],[130.81022692178456,32.89176962092787],[130.80970166231864,32.89134982387362],[130.80955441701343,32.89116841312477],[130.80912053051128,32.89133648669401],[130.80886273854387,32.8913836580484],[130.8084414789869,32.89129921990885],[130.8081648491717,32.89135995010109],[130.80815125469647,32.891439196799965],[130.80756012872723,32.89170327119412],[130.806991187777,32.89164124339093],[130.80656161094882,32.891676819121166],[130.80603412531647,32.89168392919186],[130.80561248582984,32.89176481536377],[130.80518815018607,32.89185701280185],[130.80506439704112,32.89198138005235],[130.80489923910375,32.892013962427406],[130.8044589943107,32.89202007484228],[130.80412096377674,32.89192895358685],[130.80404578990883,32.89192883596474],[130.80393568152942,32.89195130410673],[130.80380149628803,32.89193977806911],[130.8028058692694,32.89181364572947],[130.8018831705064,32.89141038270996],[130.80004512007554,32.89004537110763],[130.79924697270428,32.8909362011075],[130.7979445997006,32.88989898594522],[130.7968532480583,32.89140596154785],[130.79506095425668,32.89073620341512],[130.7945361502159,32.89056401792362],[130.7946955924226,32.88950101137018],[130.7943885378214,32.88888857454589],[130.79545951729864,32.88718581688067],[130.79499700129153,32.88650514352288],[130.7947112779236,32.88508152775166],[130.79274743467948,32.88656593106616],[130.79060981905846,32.88687656202634],[130.78955494761612,32.88346229515868],[130.7873767758843,32.88391230754571],[130.78592674770812,32.879084750126815],[130.78538465949805,32.8791940134214],[130.78514946711107,32.87993684121241],[130.7837687548822,32.878691856173724],[130.78800850405534,32.877473595875166],[130.78888362377327,32.87806183581679],[130.78914540330422,32.878781573636026],[130.78981621528072,32.879228458853945],[130.79064323268395,32.878614380166745],[130.7917876066278,32.87839659112259],[130.7934304238744,32.87855693716265],[130.79465704334885,32.878906075279275],[130.79474476395575,32.878056262839785],[130.795243822385,32.87896382209577],[130.79884654004638,32.87931183375628],[130.7994934401299,32.87882025735741],[130.79920874844754,32.87975021860181],[130.79952653122953,32.88019351202391],[130.79995636847963,32.8790319767307],[130.80203159712383,32.878872586914014],[130.80438042094136,32.87898050964132],[130.8063198304575,32.87922980241238],[130.80936971340253,32.879123703881724],[130.80963081404312,32.879818362127764],[130.81191343038034,32.879632176050514],[130.8126726334621,32.87979441405066],[130.81264101284293,32.88031870833731],[130.8133260972848,32.88028338930728],[130.81345196661107,32.88097900227022],[130.81528091252525,32.881669338430065],[130.8180349625257,32.88029195859535],[130.81902175619732,32.88072568441111],[130.81842097809113,32.8816695070362],[130.81743828621018,32.882201948915046],[130.8179735340269,32.88274318106806],[130.81979468947043,32.883457612279784],[130.82019716276048,32.884005222210966],[130.8239639802951,32.88443896175191],[130.82405072442253,32.88534422819133],[130.82543313749375,32.88547138322423],[130.82553160552263,32.88404561741567],[130.82174719483282,32.88323701917945],[130.82047290305675,32.88277404764988],[130.82109666692904,32.882121515839295],[130.82185071601978,32.88263227955733],[130.82383940344934,32.88292947846068],[130.8265900747834,32.883722019614105],[130.82681330348635,32.885416178659746],[130.8290393822757,32.88554446418729],[130.82905077811063,32.8867439508604],[130.83120369224002,32.88710753653285],[130.8319029652857,32.886919231342155],[130.83183679838248,32.888371403522086],[130.83388625341814,32.88910545898399],[130.83436672789355,32.88961774356905],[130.8340636702502,32.89016932579289],[130.8360026652821,32.89109687472745],[130.83607539343248,32.892096136802884],[130.83550460690213,32.89301053103641],[130.8350066892406,32.89271493450126],[130.8348282798092,32.89262903687197],[130.83473708515427,32.89271457948542],[130.83449136364044,32.89304216966568],[130.8342704881913,32.893183673726185]]]},"properties":{"KEY_CODE":"432160010","PREF":"43","CITY":"216","CITY_NAME":"合志市","S_NAME":"大字福原","SETAI":"282"}},{"type":"Feature","geometry":{"type":"Polygon","coordinates":[[[130.83210801282564,32.901527870393096],[130.83101110156312,32.90279290157101],[130.82998569485247,32.9034852505552],[130.82845036747548,32.90309047215068],[130.82866556575252,32.904137908139916],[130.82829148564485,32.90438480847722],[130.82852672381674,32.905674319199136],[130.8280111388259,32.90783704120488],[130.82615751702392,32.90816438758549],[130.8241594124256,32.90789540293842],[130.82322366188697,32.90645160378362],[130.8237223166871,32.905389139548355],[130.82566561058493,32.90464889690917],[130.82538270470425,32.904267424400324],[130.82510558172274,32.90361564977969],[130.82471269609334,32.903951874112416],[130.82407882801783,32.90396575511297],[130.82244362460062,32.902987114258885],[130.8221158555361,32.90315946453283],[130.82179699370275,32.90326241135657],[130.82134198163388,32.90314654786568],[130.82091136205563,32.90308981018329],[130.82079229560648,32.90308668198896],[130.8203298839341,32.90317169306036],[130.81982711015036,32.90329948018211],[130.81864301407373,32.9028112530191],[130.81410634822143,32.90163459654343],[130.81199976823166,32.90107956623663],[130.80923348326084,32.9003478768734],[130.80792345205612,32.900016716168516],[130.80786401089375,32.90000860073618],[130.80700423007934,32.899936020744214],[130.80642181344146,32.89975449887424],[130.80592619777164,32.89958614420947],[130.80431306190417,32.89918123123865],[130.80325603528226,32.899016006959094],[130.80265922337355,32.89890066306403],[130.80267428842305,32.898004613154235],[130.80276487386172,32.896828723317775],[130.8027794299341,32.89655160453423],[130.80215440914338,32.89575299735737],[130.80070070569275,32.89602571174155],[130.8002062784104,32.89586837604263],[130.7998433142488,32.89542829826885],[130.79960670044787,32.89486599452486],[130.7990224886166,32.89443959737722],[130.79878690693772,32.89391504738696],[130.79851894692126,32.89372592883749],[130.79828513770553,32.89365878118283],[130.79846457579305,32.89343264725204],[130.79724773189005,32.89291687982664],[130.79581973950727,32.89295230837086],[130.79574179386682,32.892426769822315],[130.7946343322428,32.89223046893778],[130.79506095425668,32.89073620341512],[130.7968532480583,32.89140596154785],[130.7979445997006,32.88989898594522],[130.79924697270428,32.8909362011075],[130.80004512007554,32.89004537110763],[130.8018831705064,32.89141038270996],[130.8028058692694,32.89181364572947],[130.80380149628803,32.89193977806911],[130.80393568152942,32.89195130410673],[130.80404578990883,32.89192883596474],[130.80412096377674,32.89192895358685],[130.8044589943107,32.89202007484228],[130.80489923910375,32.892013962427406],[130.80506439704112,32.89198138005235],[130.80518815018607,32.89185701280185],[130.80561248582984,32.89176481536377],[130.80603412531647,32.89168392919186],[130.80656161094882,32.891676819121166],[130.806991187777,32.89164124339093],[130.80756012872723,32.89170327119412],[130.80815125469647,32.891439196799965],[130.8081648491717,32.89135995010109],[130.8084414789869,32.89129921990885],[130.80886273854387,32.8913836580484],[130.80912053051128,32.89133648669401],[130.80955441701343,32.89116841312477],[130.80970166231864,32.89134982387362],[130.81022692178456,32.89176962092787],[130.81056998205898,32.89202380356941],[130.8109657053987,32.892125181233375],[130.81106770830323,32.892134396503245],[130.81137086230842,32.892218646437186],[130.81154261696702,32.892246081673775],[130.81172246532066,32.89224635103786],[130.81186487662643,32.892180884421585],[130.81198166073992,32.89217993181018],[130.81247027055608,32.892160273410305],[130.81384321324347,32.892224594451896],[130.81432640442802,32.892229834166066],[130.8146135377244,32.89228009440084],[130.81488143165848,32.89189432709735],[130.81583278205682,32.89202595594322],[130.815929478987,32.89199664808779],[130.8160233819077,32.892026234840316],[130.81774050182847,32.89247264196675],[130.81785191273042,32.89312843201158],[130.8190459974179,32.893082881295534],[130.819657967321,32.89347666908823],[130.81987816108418,32.89366900492965],[130.82006530105187,32.893771192817844],[130.8203695900455,32.89393114229092],[130.82070928024683,32.89390799892571],[130.82104499148284,32.89413003563553],[130.82111496384007,32.89415377228873],[130.82122691493734,32.8942011968697],[130.8213737240815,32.89433434150687],[130.82166742755854,32.89453859743927],[130.82196998702636,32.89470002969266],[130.82239795653194,32.89431659532364],[130.82271019734893,32.8940098058838],[130.82336427034704,32.89348931277533],[130.82306392727256,32.89309303912381],[130.82298253031627,32.892645369508735],[130.8241604751478,32.89192620992144],[130.82476522092196,32.892441075179306],[130.8252300898559,32.89286417959258],[130.82589753224823,32.89265978197017],[130.82640933444182,32.89236508047715],[130.82682636644907,32.89219136405251],[130.8271450213543,32.89217998580553],[130.82765117363957,32.89208763092713],[130.82777017192655,32.89211438230356],[130.82828859170866,32.892014653481866],[130.82894678192574,32.892059859488924],[130.8292818929281,32.89259797126705],[130.829383204594,32.892719235322915],[130.8296249776887,32.892633892950755],[130.82976461440325,32.89285564091886],[130.83060911147072,32.8934431841768],[130.83069991299143,32.89357033335428],[130.83073803658903,32.89377127383955],[130.83087764322792,32.89401073882166],[130.83136137054333,32.8946657411122],[130.8317986398048,32.894893795633386],[130.83235141752738,32.89514268910641],[130.83264868640583,32.89533214831465],[130.8330097930132,32.89510220230645],[130.83320879271147,32.89449243944046],[130.8333672745455,32.894011120432886],[130.83352168803236,32.89383112394518],[130.83394121909654,32.893248231740635],[130.8342704881913,32.893183673726185],[130.83449136364044,32.89304216966568],[130.83473708515427,32.89271457948542],[130.8348282798092,32.89262903687197],[130.8350066892406,32.89271493450126],[130.83550460690213,32.89301053103641],[130.83536638457326,32.8931360649153],[130.83480149275917,32.89358649439617],[130.83432273824323,32.89404664455272],[130.83396571862326,32.894598824469846],[130.83372754215824,32.895051055961474],[130.8333504602376,32.89588845741543],[130.83317509405768,32.89664384637584],[130.83422456871938,32.89696887414762],[130.83493909190113,32.89648023516415],[130.83519947027202,32.89632424206312],[130.8354857154914,32.89624507655364],[130.83626483081193,32.89598143008852],[130.83757296999914,32.89531940069927],[130.83796857521108,32.894989416234154],[130.83843432471636,32.89452924558358],[130.83859378107502,32.894447161772284],[130.8390931261965,32.89427090486565],[130.84068407267043,32.893603710434995],[130.84115414855785,32.89343563311011],[130.84189203366398,32.89348044985404],[130.8433540686289,32.893074994733105],[130.8445148188629,32.892985924938856],[130.84593748146438,32.89277511456003],[130.8466655421753,32.89286104460223],[130.8470229470499,32.89344629181184],[130.84314574227528,32.89430277375756],[130.84069222444077,32.89474387712293],[130.8367977689725,32.89713496372533],[130.83560122392578,32.8974384892023],[130.83463437499552,32.89828722855586],[130.8331724458623,32.89900375755688],[130.83277282756944,32.899968022573354],[130.83174453644634,32.901069568725866],[130.83210801282564,32.901527870393096]]]},"properties":{"KEY_CODE":"432160020","PREF":"43","CITY":"216","CITY_NAME":"合志市","S_NAME":"大字竹迫","SETAI":"273"}},{"type":"Feature","geometry":{"type":"Polygon","coordinates":[[[130.7837687548822,32.878691856173724],[130.78514946711107,32.87993684121241],[130.78538465949805,32.8791940134214],[130.78592674770812,32.879084750126815],[130.7873767758843,32.88391230754571],[130.78955494761612,32.88346229515868],[130.79060981905846,32.88687656202634],[130.79274743467948,32.88656593106616],[130.7947112779236,32.88508152775166],[130.79499700129153,32.88650514352288],[130.79545951729864,32.88718581688067],[130.7943885378214,32.88888857454589],[130.7946955924226,32.88950101137018],[130.7945361502159,32.89056401792362],[130.79230202309722,32.88951186130402],[130.79101797465538,32.88832367830023],[130.79017149346802,32.88717635303524],[130.7866676792567,32.88426854335775],[130.78443441521978,32.88223982116378],[130.78245501951253,32.880471510760515],[130.78188236374828,32.87974013642156],[130.7837687548822,32.878691856173724]]]},"properties":{"KEY_CODE":"432160020","PREF":"43","CITY":"216","CITY_NAME":"合志市","S_NAME":"大字竹迫","SETAI":"0"}},{"type":"Feature","geometry":{"type":"Polygon","coordinates":[[[130.82092884423255,32.90957562474623],[130.81716400138777,32.908668062682196],[130.81473631620602,32.91006146988386],[130.8143143374487,32.91065012499963],[130.81259406591107,32.91120585910137],[130.81148060172018,32.91180544411548],[130.80814319836225,32.91318034193104],[130.80556428134454,32.913517278778826],[130.8054753260205,32.91300119682539],[130.80510368120557,32.91155298860637],[130.80499691334674,32.9107624571814],[130.80477779722858,32.90932952131294],[130.8046953277554,32.90853495804228],[130.80464460213483,32.907565370503654],[130.80463291356398,32.907535621062756],[130.804174239783,32.906879185449505],[130.80381562491652,32.90524515190846],[130.80356300149114,32.904389198162974],[130.8034246756094,32.904080121742474],[130.80326174178336,32.903389477455654],[130.80314159700973,32.90193419855096],[130.80284755880382,32.90122189009611],[130.80212039933747,32.90070871908345],[130.8020444556161,32.90052526368847],[130.80098693036473,32.90068543514942],[130.7983622973733,32.90036904074497],[130.79814937180365,32.900162245407365],[130.79812606977814,32.90007962941754],[130.7980643863459,32.89964680601053],[130.79802547228215,32.89954434133],[130.79790443889954,32.8993888955709],[130.79761494967894,32.899269503081605],[130.797329010267,32.89932190060007],[130.79664720565665,32.89953881658409],[130.79728873561027,32.8976224735201],[130.79743383536717,32.896590750088116],[130.79608136326985,32.89667855297953],[130.79512036961742,32.89635912562522],[130.7942180525409,32.89643138311584],[130.7936151124579,32.89579394341546],[130.7924260842134,32.89599643227077],[130.79115259910262,32.89466423004056],[130.79052263031872,32.894890223635834],[130.79016029656617,32.89266882999886],[130.7903453867285,32.89181255065087],[130.79027941605818,32.89155499164826],[130.79002601685806,32.890782232237136],[130.7894682410599,32.88850410299459],[130.7894105318882,32.88827698411017],[130.78909012722812,32.887696029740134],[130.78878566754062,32.88740998691338],[130.78813710862633,32.88718421604448],[130.7877548443008,32.88696357690347],[130.78653242670697,32.886603428086865],[130.78619957503201,32.88660286285419],[130.7851448774263,32.886858506518514],[130.78472331977662,32.8868343787374],[130.78309542122665,32.88667478504228],[130.78179993279917,32.88296831544725],[130.78443441521978,32.88223982116378],[130.7866676792567,32.88426854335775],[130.79017149346802,32.88717635303524],[130.79101797465538,32.88832367830023],[130.79230202309722,32.88951186130402],[130.7945361502159,32.89056401792362],[130.79506095425668,32.89073620341512],[130.7946343322428,32.89223046893778],[130.79574179386682,32.892426769822315],[130.79581973950727,32.89295230837086],[130.79724773189005,32.89291687982664],[130.79846457579305,32.89343264725204],[130.79828513770553,32.89365878118283],[130.79851894692126,32.89372592883749],[130.79878690693772,32.89391504738696],[130.7990224886166,32.89443959737722],[130.79960670044787,32.89486599452486],[130.7998433142488,32.89542829826885],[130.8002062784104,32.89586837604263],[130.80070070569275,32.89602571174155],[130.80215440914338,32.89575299735737],[130.8027794299341,32.89655160453423],[130.80276487386172,32.896828723317775],[130.80267428842305,32.898004613154235],[130.80265922337355,32.89890066306403],[130.80325603528226,32.899016006959094],[130.80431306190417,32.89918123123865],[130.80592619777164,32.89958614420947],[130.80642181344146,32.89975449887424],[130.80700423007934,32.899936020744214],[130.80786401089375,32.90000860073618],[130.80792345205612,32.900016716168516],[130.80923348326084,32.9003478768734],[130.81199976823166,32.90107956623663],[130.81410634822143,32.90163459654343],[130.81864301407373,32.9028112530191],[130.81982711015036,32.90329948018211],[130.8203298839341,32.90317169306036],[130.82079229560648,32.90308668198896],[130.82091136205563,32.90308981018329],[130.82134198163388,32.90314654786568],[130.82179699370275,32.90326241135657],[130.8221158555361,32.90315946453283],[130.82244362460062,32.902987114258885],[130.82407882801783,32.90396575511297],[130.82471269609334,32.903951874112416],[130.82510558172274,32.90361564977969],[130.82538270470425,32.904267424400324],[130.82566561058493,32.90464889690917],[130.8237223166871,32.905389139548355],[130.82322366188697,32.90645160378362],[130.8223607174722,32.90772904669861],[130.82220379858032,32.90797227344854],[130.82177408721708,32.90840168037123],[130.82142225055634,32.90899956001437],[130.82092884423255,32.90957562474623]]]},"properties":{"KEY_CODE":"43216003001","PREF":"43","CITY":"216","CITY_NAME":"合志市","S_NAME":"大字幾久富幾久富","SETAI":"199"}},{"type":"Feature","geometry":{"type":"Polygon","coordinates":[[[130.7844829054272,32.86963196048629],[130.78774737401636,32.87078303283203],[130.7875316106475,32.87123681794669],[130.78712384646212,32.87209438349673],[130.78676508864834,32.87287862195706],[130.78667924124656,32.873071038123605],[130.7865613907072,32.87325737378698],[130.78613844232785,32.87362372827184],[130.78589175374387,32.874493953007025],[130.78460776705785,32.873992918111256],[130.78395324986653,32.873808797096764],[130.78350163652667,32.87366624574403],[130.78215295995565,32.87324779651928],[130.7814618628555,32.873073981955116],[130.78033147420152,32.872734998938085],[130.77947961107532,32.87255333707012],[130.7792504819643,32.871739763097615],[130.77969212879685,32.87071562923874],[130.7800234910274,32.86998081235491],[130.78101692416394,32.870311571567434],[130.78125490954682,32.8697972975218],[130.7802556744447,32.86956992634873],[130.78074726276253,32.86844673118217],[130.7844829054272,32.86963196048629]]]},"properties":{"KEY_CODE":"43216003002","PREF":"43","CITY":"216","CITY_NAME":"合志市","S_NAME":"大字幾久富杉並台","SETAI":"927"}},{"type":"Feature","geometry":{"type":"Polygon","coordinates":[[[130.77969212879685,32.87071562923874],[130.7792504819643,32.871739763097615],[130.7786371724367,32.87109761602499],[130.77658605697138,32.87035148588393],[130.7767580661908,32.869899847885264],[130.77420996035326,32.869703201568626],[130.77486932831437,32.8682841245867],[130.77361385463132,32.867880120678414],[130.7730832573737,32.86770488387391],[130.77377171898576,32.866148343888],[130.7734750495557,32.86604316241461],[130.77386951687456,32.86543616189709],[130.77404979827108,32.86414862874853],[130.77503340248822,32.86413686953652],[130.77590169236328,32.86402226695385],[130.77808340751048,32.864235200001986],[130.77929339302318,32.864580862743516],[130.7806439094382,32.86506770343643],[130.78198288071707,32.86554594133379],[130.78134500897428,32.866872040310085],[130.78074726276253,32.86844673118217],[130.7802556744447,32.86956992634873],[130.78125490954682,32.8697972975218],[130.78101692416394,32.870311571567434],[130.78002349102744,32.86998081235491],[130.77969212879685,32.87071562923874]]]},"properties":{"KEY_CODE":"43216003003","PREF":"43","CITY":"216","CITY_NAME":"合志市","S_NAME":"大字幾久富永江団地","SETAI":"1315"}},{"type":"Feature","geometry":{"type":"Polygon","coordinates":[[[130.7734750495557,32.86604316241461],[130.77295018445008,32.866786857466415],[130.77245717136182,32.86660036973525],[130.77209591578543,32.86733756797781],[130.77104516610066,32.86700029035304],[130.77080105467266,32.86604793328131],[130.76926341558152,32.865566933517606],[130.7685086349756,32.86582578168735],[130.76732153552015,32.86519586260893],[130.76672168471504,32.86488647004044],[130.76717622913955,32.86393270550116],[130.7679557096211,32.862129703402985],[130.76870388448117,32.8604801508466],[130.77065313416836,32.86101231046118],[130.77082001674395,32.86036706409853],[130.77495335286108,32.861562358670355],[130.77472063737176,32.863462020321535],[130.77503340248822,32.86413686953652],[130.77404979827108,32.86414862874853],[130.77386951687456,32.86543616189709],[130.7734750495557,32.86604316241461]]]},"properties":{"KEY_CODE":"43216003004","PREF":"43","CITY":"216","CITY_NAME":"合志市","S_NAME":"大字幾久富武蔵野台","SETAI":"1142"}},{"type":"Feature","geometry":{"type":"Polygon","coordinates":[[[130.78800850405534,32.877473595875166],[130.7837687548822,32.878691856173724],[130.78188236374828,32.87974013642156],[130.78093390322869,32.87780025148462],[130.78012067272067,32.87693104229104],[130.77916230321912,32.876023968591355],[130.77847598200466,32.87552756905174],[130.77810441128443,32.875419053825745],[130.7779033578511,32.87526507910354],[130.77713247170726,32.87452992375858],[130.77669595892718,32.87405520700779],[130.77664615148413,32.873842673721335],[130.77575640473364,32.87323153845063],[130.77657824480679,32.871777636889504],[130.7750671043645,32.870779865510535],[130.77308663262957,32.86984061860728],[130.77247037072132,32.86950302909538],[130.77197986873927,32.86921204889537],[130.77096692214178,32.86861334198588],[130.76842603906803,32.86717001939496],[130.7683133515037,32.86711073788668],[130.76790826250382,32.86691232022068],[130.7673292336223,32.866600275135575],[130.76705548060409,32.866418962254386],[130.76652230872662,32.866051552857336],[130.76686416899034,32.86542125070872],[130.766269330847,32.86461401115187],[130.76650025925218,32.86472871378773],[130.76672168471504,32.86488647004041],[130.76732153552015,32.86519586260893],[130.7685086349756,32.86582578168735],[130.76926341558152,32.865566933517606],[130.77080105467266,32.86604793328131],[130.77104516610066,32.86700029035304],[130.77209591578543,32.86733756797781],[130.77245717136182,32.86660036973525],[130.77295018445008,32.866786857466415],[130.7734750495557,32.86604316241461],[130.7737717189857,32.86614834388796],[130.7730832573737,32.867704883873905],[130.77361385463132,32.867880120678414],[130.77486932831437,32.8682841245867],[130.77420996035326,32.869703201568626],[130.7767580661908,32.869899847885264],[130.77658605697138,32.87035148588393],[130.7786371724367,32.87109761602499],[130.7792504819643,32.871739763097615],[130.77947961107532,32.87255333707012],[130.78033147420152,32.872734998938085],[130.7814618628555,32.873073981955116],[130.78215295995565,32.87324779651928],[130.78350163652667,32.87366624574403],[130.78395324986653,32.873808797096764],[130.78460776705785,32.873992918111256],[130.78589175374387,32.874493953007025],[130.78613844232785,32.87362372827184],[130.78689778444647,32.87384972443174],[130.78684884555514,32.874344349717724],[130.78781881867988,32.87538473439087],[130.78931459249756,32.8760550764274],[130.79151558001408,32.87596282181916],[130.7926243795795,32.87567911031836],[130.7940261793989,32.874905442979795],[130.79443307760206,32.87544230449162],[130.79530144551563,32.875234467727644],[130.7987821509268,32.875798074215055],[130.800016171546,32.87610518678629],[130.80174291620526,32.87669424476517],[130.8033284003582,32.8769408499588],[130.80332225612443,32.87815685811886],[130.80167006769392,32.87809567320895],[130.79882541298247,32.87837671105606],[130.79781548773786,32.878342397553],[130.79555669199,32.877704471471596],[130.79470881236915,32.87796901231525],[130.79245485062032,32.877492327268975],[130.79293084105367,32.87718359983738],[130.79074871279008,32.876929333520444],[130.78800850405534,32.877473595875166]]]},"properties":{"KEY_CODE":"43216003005","PREF":"43","CITY":"216","CITY_NAME":"合志市","S_NAME":"大字幾久富群","SETAI":"693"}},{"type":"Feature","geometry":{"type":"Polygon","coordinates":[[[130.76842603906803,32.86717001939496],[130.77096692214178,32.86861334198588],[130.77030429923698,32.86955738574155],[130.76863009961795,32.86864025885565],[130.76802654260757,32.868069712175796],[130.7682192044445,32.86761319103195],[130.76842603906803,32.86717001939496]]]},"properties":{"KEY_CODE":"43216003006","PREF":"43","CITY":"216","CITY_NAME":"合志市","S_NAME":"大字幾久富桜路","SETAI":"93"}},{"type":"Feature","geometry":{"type":"Polygon","coordinates":[[[130.80556428134454,32.913517278778826],[130.8041338017785,32.91406779684733],[130.80353608301542,32.91368965267525],[130.80298509202143,32.91396733771617],[130.8025424400272,32.912694284438],[130.80278052612312,32.911587704622434],[130.80137232285648,32.91140701977457],[130.80077194298892,32.910703880972775],[130.79943176211324,32.91087727288611],[130.7979832531267,32.911790386332264],[130.79634098263261,32.912420294285134],[130.79663099962983,32.91271237721894],[130.79585903286622,32.913329171859274],[130.79585946413715,32.913887725814696],[130.7952152369892,32.9143045128474],[130.79375257639197,32.914595187267444],[130.793871938292,32.915045129560255],[130.7927294169924,32.91523766352472],[130.7925140253423,32.9146627893522],[130.79178763064982,32.91482039403556],[130.79182181561507,32.914247374217965],[130.79140128845108,32.913692555217295],[130.79305678272138,32.91323886099293],[130.79280172030897,32.912897219742284],[130.79237325225216,32.91204053315571],[130.7917916888249,32.91233997788201],[130.79068931159378,32.91136551013241],[130.79134417377887,32.91076873003604],[130.7913126760175,32.910238411354484],[130.79064991286057,32.910475937758434],[130.79029339052073,32.91064741834742],[130.79045659723414,32.91108077402517],[130.7905217122471,32.91132585665985],[130.787115347145,32.91309918255541],[130.78610988390477,32.91362132721803],[130.78153666553078,32.90722419030998],[130.78348633537556,32.90620069459721],[130.7826097368884,32.90461693570768],[130.78236460127528,32.90467248820664],[130.78136761147186,32.90224895112143],[130.78029891611283,32.9020296693476],[130.78046004358626,32.90136369105471],[130.78060534980418,32.90090863598371],[130.78118875461936,32.89973320086447],[130.7817929897719,32.89942748939075],[130.78415230956125,32.89935512668657],[130.78455273431732,32.89944192235687],[130.7847949697447,32.8995176753842],[130.78490208607826,32.89953939012427],[130.7851699135842,32.899591506356046],[130.7863065296116,32.8996677095058],[130.78679935256952,32.89953076491465],[130.78727785264164,32.89948076760192],[130.789595286323,32.89958060021138],[130.79086104217018,32.89905368890818],[130.79140196243387,32.89796947455766],[130.79224048067496,32.89720896543642],[130.79220412183597,32.89662674315139],[130.79078230949855,32.89591658612613],[130.79052263031872,32.894890223635834],[130.79115259910262,32.89466423004056],[130.7924260842134,32.89599643227077],[130.7936151124579,32.89579394341546],[130.7942180525409,32.89643138311584],[130.79512036961742,32.89635912562522],[130.79608136326985,32.89667855297953],[130.79743383536717,32.896590750088116],[130.79728873561027,32.8976224735201],[130.79664720565665,32.89953881658409],[130.797329010267,32.89932190060007],[130.79761494967894,32.899269503081605],[130.79790443889954,32.8993888955709],[130.79802547228215,32.89954434133],[130.7980643863459,32.89964680601053],[130.79812606977814,32.90007962941754],[130.79814937180365,32.900162245407365],[130.7983622973733,32.90036904074497],[130.80098693036473,32.90068543514942],[130.8020444556161,32.90052526368847],[130.80212039933747,32.90070871908345],[130.80284755880382,32.90122189009611],[130.80314159700973,32.90193419855096],[130.80326174178336,32.903389477455654],[130.8034246756094,32.904080121742474],[130.80356300149114,32.904389198162974],[130.80381562491652,32.90524515190846],[130.804174239783,32.906879185449505],[130.80463291356398,32.907535621062756],[130.80464460213483,32.907565370503654],[130.8046953277554,32.90853495804228],[130.80477779722858,32.90932952131294],[130.80499691334674,32.9107624571814],[130.80510368120557,32.91155298860637],[130.8054753260205,32.91300119682539],[130.80556428134454,32.913517278778826]]]},"properties":{"KEY_CODE":"432160040","PREF":"43","CITY":"216","CITY_NAME":"合志市","S_NAME":"大字上庄","SETAI":"206"}},{"type":"Feature","geometry":{"type":"Polygon","coordinates":[[[130.78415230956125,32.89935512668657],[130.7817929897719,32.89942748939075],[130.7811887546194,32.89973320086445],[130.78007408286098,32.89867870197336],[130.78068555969034,32.898441181118024],[130.78029140434373,32.89694374996962],[130.7814522505332,32.89640337178086],[130.78035734843465,32.8954248396419],[130.77621938830117,32.89073327349525],[130.77503539627796,32.89075025606263],[130.77572018279997,32.88908613250431],[130.77547611049997,32.888710258453564],[130.77163693564992,32.88577931568652],[130.78179993279917,32.88296831544725],[130.78309542122665,32.88667478504228],[130.78472331977662,32.8868343787374],[130.7851448774263,32.886858506518514],[130.78619957503201,32.88660286285419],[130.78653242670697,32.886603428086865],[130.7877548443008,32.88696357690347],[130.78813710862633,32.88718421604448],[130.78878566754062,32.88740998691338],[130.78909012722812,32.887696029740134],[130.7894105318882,32.88827698411017],[130.7894682410599,32.88850410299459],[130.79002601685806,32.890782232237136],[130.79027941605818,32.89155499164826],[130.7903453867285,32.89181255065087],[130.79016029656617,32.89266882999886],[130.79052263031872,32.894890223635834],[130.79078230949855,32.89591658612613],[130.79220412183597,32.89662674315139],[130.79224048067496,32.89720896543642],[130.79140196243387,32.89796947455766],[130.79086104217018,32.89905368890818],[130.789595286323,32.89958060021138],[130.78727785264164,32.89948076760192],[130.78679935256952,32.89953076491465],[130.7863065296116,32.8996677095058],[130.7851699135842,32.899591506356046],[130.78490208607826,32.89953939012427],[130.7847949697447,32.8995176753842],[130.78455273431732,32.89944192235687],[130.78415230956125,32.89935512668657]]]},"properties":{"KEY_CODE":"43216005001","PREF":"43","CITY":"216","CITY_NAME":"合志市","S_NAME":"大字豊岡原口","SETAI":"224"}},{"type":"Feature","geometry":{"type":"Polygon","coordinates":[[[130.77503539627796,32.89075025606263],[130.7725146697325,32.89078083072428],[130.77209363707473,32.89027658670172],[130.769958378704,32.891444269847106],[130.76695144321644,32.887004393093136],[130.76520529076865,32.8863558333756],[130.76557386081353,32.88542978497341],[130.76317081366892,32.88475881524341],[130.76372599638992,32.883448039687295],[130.7596393341879,32.88226181116343],[130.76125484092495,32.87830404003631],[130.75757435090773,32.87723276647069],[130.75869580530795,32.87425159972821],[130.75810493386817,32.87394156141125],[130.75637349486047,32.87171448766293],[130.75594448830745,32.87090541292791],[130.7563134473008,32.8701041207283],[130.75724718530626,32.86859002983292],[130.7590631611388,32.86942083855199],[130.75926918090153,32.869518782388965],[130.76159270988774,32.87058716515357],[130.76394358722996,32.87164788353541],[130.76799250516072,32.87345136276834],[130.7685046101341,32.87261460548637],[130.7687547543805,32.872000353292314],[130.7689158950508,32.87154744547491],[130.7690724714864,32.87121145222191],[130.7693494192777,32.87071174939878],[130.7696772329282,32.87038606510431],[130.76738140634134,32.86901946400352],[130.76802654260757,32.868069712175796],[130.76863009961795,32.86864025885565],[130.77030429923698,32.86955738574158],[130.77096692214178,32.86861334198588],[130.77197986873927,32.86921204889537],[130.77247037072132,32.86950302909538],[130.77308663262957,32.86984061860728],[130.7750671043645,32.870779865510535],[130.77657824480679,32.871777636889504],[130.77575640473364,32.87323153845063],[130.77664615148413,32.873842673721335],[130.77669595892718,32.87405520700779],[130.77713247170726,32.87452992375858],[130.7779033578511,32.87526507910354],[130.77810441128443,32.875419053825745],[130.77847598200466,32.87552756905174],[130.77916230321912,32.876023968591355],[130.78012067272067,32.87693104229104],[130.78093390322869,32.87780025148462],[130.78188236374828,32.87974013642156],[130.78245501951253,32.880471510760515],[130.78443441521978,32.88223982116378],[130.78179993279917,32.88296831544725],[130.77163693564992,32.88577931568652],[130.77547611049997,32.888710258453564],[130.77572018279997,32.88908613250431],[130.77503539627796,32.89075025606263]]]},"properties":{"KEY_CODE":"43216005002","PREF":"43","CITY":"216","CITY_NAME":"合志市","S_NAME":"大字豊岡黒石原","SETAI":"1258"}},{"type":"Feature","geometry":{"type":"Polygon","coordinates":[[[130.76802654260757,32.868069712175796],[130.76738140634134,32.86901946400352],[130.7696772329282,32.87038606510431],[130.7693494192777,32.87071174939878],[130.7690724714864,32.87121145222191],[130.7689158950508,32.87154744547491],[130.7687547543805,32.872000353292314],[130.7685046101341,32.87261460548637],[130.76799250516072,32.87345136276834],[130.76394358722996,32.87164788353541],[130.76159270988774,32.87058716515357],[130.75926918090153,32.869518782388965],[130.7599065025544,32.868571535283245],[130.7605109778568,32.86899286282347],[130.76140782195665,32.868885757508124],[130.76162481242278,32.868939695884656],[130.76234595884142,32.86928506903324],[130.76605480618795,32.865783573135936],[130.76641568807457,32.86598730458358],[130.76652230872662,32.866051552857336],[130.76705548060409,32.866418962254386],[130.7673292336223,32.866600275135575],[130.76790826250382,32.86691232022068],[130.7683133515037,32.86711073788668],[130.7682192044445,32.86761319103195],[130.76802654260757,32.868069712175796]]]},"properties":{"KEY_CODE":"43216005003","PREF":"43","CITY":"216","CITY_NAME":"合志市","S_NAME":"大字豊岡泉ヶ丘","SETAI":"1242"}},{"type":"Feature","geometry":{"type":"Polygon","coordinates":[[[130.75926918090153,32.869518782388965],[130.7590631611388,32.86942083855199],[130.75725798371874,32.868572077741796],[130.75737512408435,32.868323732499796],[130.75759061872535,32.86786573371274],[130.75777145740497,32.86763138122158],[130.75802581764728,32.86733743514522],[130.75818323620982,32.867118825989245],[130.75827115958919,32.866967796614446],[130.75875037773994,32.86654943265004],[130.75884681206924,32.86632986907605],[130.7593424969631,32.8656029909081],[130.7595871479863,32.865260641859955],[130.75979544974172,32.864930560225794],[130.7601844673696,32.86430628879607],[130.76043641917164,32.863961318826604],[130.76083336435448,32.863333083092144],[130.76242981880188,32.86395616497629],[130.76531771438013,32.86534200654906],[130.76605480618795,32.865783573135936],[130.76234595884142,32.86928506903324],[130.76162481242278,32.868939695884656],[130.76140782195665,32.868885757508124],[130.7605109778568,32.86899286282347],[130.7599065025544,32.868571535283245],[130.75926918090153,32.869518782388965]]]},"properties":{"KEY_CODE":"43216005004","PREF":"43","CITY":"216","CITY_NAME":"合志市","S_NAME":"大字豊岡すずかけ台","SETAI":"735"}},{"type":"Feature","geometry":{"type":"Polygon","coordinates":[[[130.78610988390477,32.91362132721803],[130.78005804697128,32.91680413243254],[130.77845597530484,32.916575330208126],[130.77579282003333,32.91756953354631],[130.7748661741446,32.9182547252996],[130.77315740368374,32.91851708640723],[130.77242714048242,32.91810602097706],[130.77180588971376,32.91696602397538],[130.7707551844044,32.91610814461403],[130.77048448367347,32.91445544319611],[130.76835075549334,32.91323242100201],[130.76797214819285,32.91254633240644],[130.76786952849326,32.91142473602623],[130.766572889663,32.91012160067516],[130.76600674384423,32.90911583619957],[130.76655027881998,32.908842707260725],[130.76678925874572,32.908028020841705],[130.76746554340977,32.9072330850084],[130.76719311071756,32.90629786399143],[130.76595065575938,32.905447517975986],[130.7660367727913,32.904265892526084],[130.7658572331019,32.90416932031343],[130.76596539405506,32.90379330359573],[130.76542503444185,32.9035312710522],[130.76543223302198,32.90210808454519],[130.764641641744,32.89842757385168],[130.76684331782448,32.89859206449382],[130.76667406356205,32.896192953250896],[130.7632554999444,32.896260641837365],[130.76328298568853,32.89535511630391],[130.7623141671792,32.89564104927497],[130.76231441995714,32.89461063332789],[130.76136047829482,32.89495582807662],[130.75984182534245,32.892672080315414],[130.75902326003816,32.89304291016624],[130.75812726042435,32.892211011066706],[130.75715686206735,32.89141439155565],[130.75910971444958,32.89075798492313],[130.7586867388497,32.88860536624944],[130.75592722833895,32.88988015565231],[130.75373301386426,32.88985686381222],[130.75305261272774,32.889241940585606],[130.75080556913287,32.885708312274524],[130.75143303069396,32.885510652807966],[130.7499059878739,32.88280782771138],[130.75090999584248,32.88246282574504],[130.74959748467276,32.88106165299031],[130.75088085142178,32.88034269090086],[130.7528993442932,32.879462247224104],[130.7536876160962,32.87822601364592],[130.75429929535116,32.87557185338131],[130.75545592118894,32.871687318364664],[130.75594448830745,32.87090541292791],[130.75637349486047,32.87171448766293],[130.75810493386817,32.87394156141125],[130.75869580530795,32.87425159972821],[130.75757435090773,32.87723276647069],[130.76125484092495,32.87830404003631],[130.7596393341879,32.88226181116343],[130.76372599638992,32.883448039687295],[130.76317081366892,32.88475881524341],[130.76557386081353,32.88542978497341],[130.76520529076865,32.8863558333756],[130.76695144321644,32.887004393093136],[130.769958378704,32.891444269847106],[130.77209363707473,32.89027658670172],[130.7725146697325,32.89078083072428],[130.77503539627796,32.89075025606263],[130.77621938830117,32.89073327349525],[130.78035734843465,32.8954248396419],[130.7814522505332,32.89640337178086],[130.78029140434373,32.89694374996962],[130.78068555969034,32.898441181118024],[130.78007408286098,32.89867870197336],[130.7811887546194,32.89973320086445],[130.78060534980418,32.90090863598371],[130.78046004358626,32.90136369105471],[130.78029891611283,32.9020296693476],[130.78136761147186,32.90224895112143],[130.78236460127528,32.90467248820664],[130.7826097368884,32.90461693570768],[130.78348633537556,32.90620069459721],[130.78153666553078,32.90722419030998],[130.78610988390477,32.91362132721803]]]},"properties":{"KEY_CODE":"432160060","PREF":"43","CITY":"216","CITY_NAME":"合志市","S_NAME":"大字栄","SETAI":"838"}},{"type":"Feature","geometry":{"type":"Polygon","coordinates":[[[130.73753530039934,32.91614889783599],[130.73659042977005,32.915317200716565],[130.73547090819088,32.91633537100083],[130.73323631966352,32.91505891844192],[130.73301682236644,32.91324372608944],[130.73236648371577,32.91128037242499],[130.73148529332292,32.90994279746545],[130.7306821523523,32.909982661281866],[130.73047130621697,32.910439570653054],[130.72880880846884,32.91144947582919],[130.7275698389243,32.91196046718594],[130.72772417680204,32.912199007077014],[130.7276350460474,32.91247081137806],[130.72680748843928,32.91272473438356],[130.72630333549088,32.91296410898814],[130.72581338338426,32.91318133803438],[130.72506087183294,32.91331613297896],[130.72459958495847,32.91341745155449],[130.72483162071754,32.914233148117845],[130.7250766921917,32.91474872080291],[130.72436854825062,32.914860226642546],[130.7242779446388,32.9145604126739],[130.72410620796188,32.91420291333536],[130.723926398193,32.913884181102084],[130.72387291877078,32.91374227543777],[130.72378658882613,32.91345985559887],[130.72371082259514,32.913347332139935],[130.72309831836216,32.911425249754494],[130.72304378879002,32.91111079917659],[130.72286376753036,32.910357357645],[130.72267486049728,32.9094059360295],[130.72262503228183,32.90911155802834],[130.722318723274,32.90817325284331],[130.72220421798164,32.907775735389684],[130.7220689298138,32.90742767506461],[130.7219479297821,32.90707829882514],[130.72194519085838,32.90693115901074],[130.72183400344494,32.90648817933466],[130.72184706667935,32.90636247437557],[130.72189578825765,32.90599609895327],[130.7219157800689,32.9056831509122],[130.7220491685064,32.90510695721428],[130.72236834252382,32.90290469304826],[130.72242278061842,32.90273360187679],[130.72233916272947,32.90259833103797],[130.72246771423522,32.90204486775226],[130.7226963784932,32.901423409027416],[130.72274673752523,32.901031612905584],[130.7227390123146,32.90045109348388],[130.72269962464347,32.90035346381225],[130.7224445152597,32.89980708692053],[130.72208006619684,32.89923513956368],[130.7216849645325,32.89882765049238],[130.72116672743155,32.89793095497695],[130.72021581591977,32.896613399078845],[130.7210060638776,32.89471655632713],[130.72088477786232,32.89401443034783],[130.72196336893745,32.89188986971665],[130.72202511015175,32.89132530502465],[130.72188784372878,32.89072587363424],[130.72206236468762,32.89015143039355],[130.72259016227014,32.890140453455295],[130.72306547231065,32.889273178664],[130.7230660265872,32.8890950641627],[130.7231911443372,32.88897794614901],[130.72367247948876,32.88770586564989],[130.73029687750505,32.88800901550783],[130.7302560237517,32.88336888755778],[130.7302329697997,32.88154371660316],[130.73023336672736,32.8808498788038],[130.73009149674056,32.87968603345702],[130.7306195805861,32.8791625015375],[130.73079365028386,32.8788095779961],[130.73216202578413,32.878768994572006],[130.7325266691187,32.87876719072975],[130.73256998213216,32.879653969261504],[130.73253695359605,32.880050954590935],[130.73246600408376,32.881629584457954],[130.73240252521077,32.88356836892584],[130.73319993052175,32.88401284085438],[130.73574912644096,32.884785402549944],[130.73559426308884,32.88549059431284],[130.7386462032506,32.885778312585316],[130.73839410931484,32.88704855668487],[130.74097298606995,32.88731120336159],[130.7402241719772,32.888004587614525],[130.73912068748933,32.888137432862784],[130.73888929482695,32.88895149034094],[130.739329790866,32.889307253351625],[130.739312432903,32.890634483120465],[130.73842064436693,32.890539184039774],[130.7382963109196,32.8931126042615],[130.7411579109409,32.893076572916414],[130.74126723547528,32.894533868900844],[130.7422376021483,32.89440011353289],[130.74221954114304,32.895460263728936],[130.74485164932142,32.89503703742454],[130.7450460388356,32.89578066813345],[130.7476368910147,32.89639681063603],[130.74713540455429,32.896880862988944],[130.7485899175008,32.89808847818122],[130.748389718107,32.89831957297374],[130.74982133359268,32.899248303811156],[130.75066873701516,32.89948775748286],[130.75052779129692,32.90038917317356],[130.74926564145062,32.90260359858332],[130.75031389698376,32.90372620934248],[130.75092876568917,32.90327919637081],[130.75199437068645,32.90375215175353],[130.7521918809314,32.90421969605889],[130.75004025051436,32.90818941049983],[130.75129483941146,32.90993013847952],[130.75021642525923,32.91047451494079],[130.75130525079877,32.91072148331696],[130.75150335024327,32.91134109169666],[130.74961593463547,32.91312770429329],[130.74917135120066,32.9126406633709],[130.74843203294188,32.9130100546954],[130.7455546117588,32.91373711794678],[130.7438850053661,32.91428201439997],[130.7426966322286,32.9142494334826],[130.7413615990673,32.91349321113668],[130.74042199963554,32.9142495913968],[130.7384531048973,32.91526522834633],[130.73753530039934,32.91614889783599]]]},"properties":{"KEY_CODE":"432160070","PREF":"43","CITY":"216","CITY_NAME":"合志市","S_NAME":"大字野々島","SETAI":"1226"}},{"type":"Feature","geometry":{"type":"Polygon","coordinates":[[[130.75828565452633,32.91032646858055],[130.75778662579003,32.91051776643183],[130.7573590691588,32.910617071568396],[130.7569217591552,32.91080848323423],[130.75699185366923,32.91122111708652],[130.75526802059517,32.91142568820657],[130.75441421034776,32.91153334935182],[130.75406376212646,32.91149410518012],[130.75156215040997,32.91034095098352],[130.75130525079877,32.91072148331696],[130.75021642525923,32.91047451494079],[130.75129483941146,32.90993013847952],[130.75004025051436,32.90818941049983],[130.7521918809314,32.90421969605889],[130.75199437068645,32.90375215175353],[130.75092876568917,32.90327919637081],[130.75031389698376,32.90372620934248],[130.74926564145062,32.90260359858332],[130.75052779129692,32.90038917317356],[130.75066873701516,32.89948775748286],[130.74982133359268,32.899248303811156],[130.748389718107,32.89831957297374],[130.7485899175008,32.89808847818122],[130.74713540455429,32.896880862988944],[130.7476368910147,32.89639681063603],[130.7450460388356,32.89578066813345],[130.74485164932142,32.89503703742454],[130.74221954114304,32.895460263728936],[130.7422376021483,32.89440011353289],[130.74126723547528,32.894533868900844],[130.7411579109409,32.893076572916414],[130.7382963109196,32.8931126042615],[130.73842064436693,32.890539184039774],[130.739312432903,32.890634483120465],[130.739329790866,32.889307253351625],[130.73888929482695,32.88895149034094],[130.73912068748933,32.888137432862784],[130.7402241719772,32.888004587614525],[130.74097298606995,32.88731120336159],[130.7411081918822,32.887169129747456],[130.7471010632241,32.883495059830985],[130.74872933717228,32.88259757743387],[130.74801600480788,32.88133109448081],[130.75088085142178,32.88034269090086],[130.74959748467276,32.88106165299031],[130.75090999584248,32.88246282574504],[130.7499059878739,32.88280782771138],[130.75143303069396,32.885510652807966],[130.75080556913287,32.885708312274524],[130.75305261272774,32.889241940585606],[130.75373301386426,32.88985686381222],[130.75592722833895,32.88988015565231],[130.7586867388497,32.88860536624944],[130.75910971444958,32.89075798492313],[130.75715686206735,32.89141439155565],[130.75812726042435,32.892211011066706],[130.75562369321852,32.89329938741363],[130.75736475675137,32.895998080371506],[130.75858275109863,32.8959034095568],[130.75971522974223,32.89767517092875],[130.75850947781836,32.89775160523466],[130.75968031085117,32.899545453451374],[130.7599405823382,32.90014386433305],[130.75951060908417,32.9001874715002],[130.75871744322555,32.90020013871505],[130.7582845294643,32.90018042649162],[130.75722045117487,32.90030749444096],[130.7573334757163,32.900639259756694],[130.7595736285548,32.900422478413404],[130.75960623905888,32.901062475248835],[130.7578556284664,32.901330590659946],[130.75795133470982,32.902211074785185],[130.75835418116506,32.90346203476107],[130.75864731477657,32.90403942015502],[130.7590111943421,32.905945971641174],[130.75925794821563,32.90709205515057],[130.75936179163114,32.90783481071369],[130.75945797783953,32.91000186839893],[130.7586755337183,32.91011494657777],[130.75857563711514,32.91018684862184],[130.75828565452633,32.91032646858055]]]},"properties":{"KEY_CODE":"432160080","PREF":"43","CITY":"216","CITY_NAME":"合志市","S_NAME":"大字御代志","SETAI":"1791"}},{"type":"Feature","geometry":{"type":"Polygon","coordinates":[[[130.7398426768534,32.920479041445795],[130.73833916483656,32.92113702336473],[130.73628713938058,32.921727731371696],[130.73656380112524,32.923043535860614],[130.7361197644861,32.92358625742333],[130.73542953720258,32.925767273300885],[130.73368964601485,32.926429695212626],[130.73272244889498,32.92633789548581],[130.73241104450977,32.92695326552082],[130.73106942796235,32.926707665942835],[130.72988778572517,32.92737307348059],[130.7291159267341,32.927201532930134],[130.7285792694396,32.925824036014994],[130.7285091280896,32.92542127576502],[130.72834817902654,32.925150737529975],[130.7280409693876,32.92447727583374],[130.727861559905,32.92402212563767],[130.7277051863272,32.92329148054288],[130.7276818996501,32.92312691162418],[130.7271732710386,32.92245702783326],[130.7269759095889,32.9221663389457],[130.72583462033404,32.91991675867466],[130.7256565190653,32.9195592475874],[130.7256347124181,32.919430789157346],[130.72492945300863,32.91773857153578],[130.72475031130267,32.916688183822885],[130.7245736829858,32.9158544923919],[130.72440028512395,32.914996730571005],[130.72436854825062,32.914860226642546],[130.7250766921917,32.91474872080291],[130.72483162071754,32.914233148117845],[130.72459958495847,32.91341745155449],[130.72506087183294,32.91331613297896],[130.72581338338426,32.91318133803438],[130.72630333549088,32.91296410898814],[130.72680748843928,32.91272473438356],[130.7276350460474,32.91247081137806],[130.72772417680204,32.912199007077014],[130.7275698389243,32.91196046718594],[130.72880880846884,32.91144947582919],[130.73047130621697,32.910439570653054],[130.7306821523523,32.909982661281866],[130.73148529332292,32.90994279746545],[130.73236648371577,32.91128037242499],[130.73301682236644,32.91324372608944],[130.73323631966352,32.91505891844192],[130.73547090819088,32.91633537100083],[130.73659042977005,32.915317200716565],[130.73753530039934,32.91614889783599],[130.73789235911903,32.91746028452197],[130.7390740578624,32.91875857149469],[130.7398426768534,32.920479041445795]]]},"properties":{"KEY_CODE":"432160090","PREF":"43","CITY":"216","CITY_NAME":"合志市","S_NAME":"大字上生","SETAI":"85"}},{"type":"Feature","geometry":{"type":"Polygon","coordinates":[[[130.7688033823591,32.92105712895266],[130.76693000469632,32.92165565954631],[130.7658396234833,32.92166262820006],[130.7635427785537,32.92273633883025],[130.76306482947385,32.9234117614324],[130.76151491209143,32.92380750633398],[130.75957979931022,32.92524456309639],[130.75788473735992,32.925595153079506],[130.75776329248683,32.92532721636349],[130.75382654771843,32.9265383145466],[130.75218298086338,32.92685513579864],[130.75159156389137,32.926494712647674],[130.74888996378218,32.92631509163627],[130.74658002797935,32.92635938888756],[130.74537675699085,32.926570620401066],[130.7449922013751,32.92434701732807],[130.74465643477967,32.92498426528755],[130.74357542396825,32.92503078517197],[130.74213799470417,32.92564719398873],[130.74152022339976,32.923847080255705],[130.7401206404405,32.92136338932714],[130.7398426768534,32.920479041445795],[130.7390740578624,32.91875857149469],[130.73789235911903,32.91746028452197],[130.73753530039934,32.91614889783599],[130.7384531048973,32.91526522834633],[130.74042199963554,32.9142495913968],[130.7413615990673,32.91349321113668],[130.7426966322286,32.9142494334826],[130.7438850053661,32.91428201439997],[130.7455546117588,32.91373711794678],[130.74843203294188,32.9130100546954],[130.74917135120066,32.9126406633709],[130.74961593463547,32.91312770429329],[130.75150335024327,32.91134109169666],[130.75130525079877,32.91072148331696],[130.75156215040997,32.91034095098352],[130.75406376212646,32.91149410518012],[130.75441421034776,32.91153334935182],[130.75526802059517,32.91142568820657],[130.75699185366923,32.91122111708652],[130.7569217591552,32.91080848323423],[130.7573590691588,32.910617071568396],[130.75778662579003,32.91051776643183],[130.75828565452633,32.91032646858055],[130.75857563711514,32.91018684862184],[130.7586755337183,32.91011494657777],[130.75945797783953,32.91000186839893],[130.75936179163114,32.90783481071369],[130.75925794821563,32.90709205515057],[130.7590111943421,32.905945971641174],[130.75864731477657,32.90403942015502],[130.75835418116506,32.90346203476107],[130.75795133470982,32.902211074785185],[130.7578556284664,32.901330590659946],[130.75960623905888,32.901062475248835],[130.7595736285548,32.900422478413404],[130.7573334757163,32.900639259756694],[130.75722045117487,32.90030749444096],[130.7582845294643,32.90018042649162],[130.75871744322555,32.90020013871505],[130.75951060908417,32.9001874715002],[130.7599405823382,32.90014386433305],[130.75968031085117,32.899545453451374],[130.75850947781836,32.89775160523466],[130.75971522974223,32.89767517092875],[130.75858275109863,32.8959034095568],[130.75736475675137,32.895998080371506],[130.75562369321852,32.89329938741363],[130.75812726042435,32.892211011066706],[130.75902326003816,32.89304291016624],[130.75984182534245,32.892672080315414],[130.76136047829482,32.89495582807662],[130.76231441995714,32.89461063332789],[130.7623141671792,32.89564104927497],[130.76328298568853,32.89535511630391],[130.7632554999444,32.896260641837365],[130.76667406356205,32.896192953250896],[130.76684331782448,32.89859206449382],[130.764641641744,32.89842757385168],[130.76543223302198,32.90210808454519],[130.76542503444185,32.9035312710522],[130.76596539405506,32.90379330359573],[130.7658572331019,32.90416932031343],[130.7660367727913,32.904265892526084],[130.76595065575938,32.905447517975986],[130.76719311071756,32.90629786399143],[130.76746554340977,32.9072330850084],[130.76678925874572,32.908028020841705],[130.76655027881998,32.908842707260725],[130.76600674384423,32.90911583619957],[130.766572889663,32.91012160067516],[130.76786952849326,32.91142473602623],[130.76797214819285,32.91254633240644],[130.76835075549334,32.91323242100201],[130.77048448367347,32.91445544319611],[130.7707551844044,32.91610814461403],[130.77180588971376,32.91696602397538],[130.77242714048242,32.91810602097706],[130.77315740368374,32.91851708640723],[130.77336195609996,32.919295029896006],[130.77335546482533,32.92027423347762],[130.7703333544613,32.9206003683551],[130.76937836079105,32.92092660575194],[130.7688033823591,32.92105712895266]]]},"properties":{"KEY_CODE":"432160100","PREF":"43","CITY":"216","CITY_NAME":"合志市","S_NAME":"大字合生","SETAI":"529"}},{"type":"Feature","geometry":{"type":"Polygon","coordinates":[[[130.75088085142178,32.88034269090086],[130.74801600480788,32.88133109448081],[130.74872933717228,32.88259757743387],[130.7471010632241,32.883495059830985],[130.7411081918822,32.887169129747456],[130.74097298606995,32.88731120336159],[130.73839410931484,32.88704855668487],[130.7386462032506,32.885778312585316],[130.73559426308884,32.88549059431284],[130.73574912644096,32.884785402549944],[130.73319993052175,32.88401284085438],[130.73240252521077,32.88356836892584],[130.73246600408376,32.881629584457954],[130.73253695359605,32.880050954590935],[130.73256998213216,32.879653969261504],[130.7325266691187,32.87876719072975],[130.73423529108786,32.8790019065016],[130.73377921589807,32.87851836604268],[130.73382584919375,32.87644056582323],[130.73357991865475,32.875998631481096],[130.73387733929593,32.874975925805145],[130.73234666262937,32.87499822506955],[130.7328991139208,32.874743920296744],[130.73240644107034,32.87302832500512],[130.73297717248812,32.87172517429118],[130.73207432109118,32.87173065984243],[130.73391514472422,32.86919977389981],[130.7349412178364,32.86803861657272],[130.73809057333787,32.864945399896676],[130.73935484601395,32.86394201088945],[130.74347467143656,32.86131927260173],[130.74523636676196,32.86049358976105],[130.7489379571487,32.85895823054333],[130.7496637974814,32.859931997204974],[130.7506432074891,32.86073067823675],[130.75089452515755,32.86093806195242],[130.7555841291733,32.864171827812875],[130.75625038773856,32.86482171509934],[130.75528492723106,32.86777256695499],[130.75502746602754,32.869449643552215],[130.7563134473008,32.8701041207283],[130.75594448830745,32.87090541292791],[130.75545592118894,32.871687318364664],[130.75429929535116,32.87557185338131],[130.7536876160962,32.87822601364592],[130.7528993442932,32.879462247224104],[130.75088085142178,32.88034269090086]]]},"properties":{"KEY_CODE":"43216011001","PREF":"43","CITY":"216","CITY_NAME":"合志市","S_NAME":"大字須屋","SETAI":"4073"}},{"type":"Feature","geometry":{"type":"Polygon","coordinates":[[[130.73207432109118,32.87173065984243],[130.73138051351026,32.871370140643485],[130.7317963396396,32.871091861246384],[130.73194124467926,32.870570467513794],[130.73254085925402,32.87028220930603],[130.7325741235486,32.869855063483065],[130.73270024960354,32.869301792346945],[130.73228646339484,32.86885439065734],[130.73102046728886,32.86881694636254],[130.73106495075493,32.86724595202402],[130.7314787191296,32.86723832024376],[130.73095005874856,32.864094789648966],[130.7314905336837,32.862828075240245],[130.73112964981541,32.86200165753535],[130.72942684091296,32.859756974464965],[130.72797670091398,32.85721280052529],[130.72773227292643,32.856745564447024],[130.72690045553165,32.85544173622],[130.72682394190468,32.85528180019284],[130.72674722785453,32.85518685704565],[130.7263593838374,32.85454286424332],[130.72614842023538,32.854150792267255],[130.72553216641228,32.85326057616634],[130.72533049892985,32.85176282516164],[130.72633074361065,32.85146464740147],[130.7284021961251,32.85144925912028],[130.73183553127205,32.85142375052651],[130.73253178730351,32.85164822249096],[130.73277229569655,32.8523373297296],[130.73507015891394,32.85193573347114],[130.7354387470188,32.852252496730756],[130.73645617590952,32.85244402060743],[130.737175403326,32.85295512140971],[130.7383306353606,32.85321624429744],[130.74135105317026,32.85362649274918],[130.74219344709732,32.85413564644349],[130.74281456765326,32.854314252194534],[130.74333699191246,32.85503483921863],[130.74548808109412,32.85553775759705],[130.74655165202574,32.85604737528551],[130.74713324920245,32.85637655026847],[130.7481185712885,32.85683004644144],[130.74845409044022,32.85754887858287],[130.74842677797457,32.85769601630044],[130.7489379571487,32.85895823054333],[130.74523636676196,32.86049358976105],[130.74347467143656,32.86131927260173],[130.73935484601395,32.86394201088945],[130.73809057333787,32.864945399896676],[130.7349412178364,32.86803861657272],[130.73391514472422,32.86919977389981],[130.73207432109118,32.87173065984243]]]},"properties":{"KEY_CODE":"43216011002","PREF":"43","CITY":"216","CITY_NAME":"合志市","S_NAME":"大字須屋","SETAI":"5152"}}]}