{"type":"FeatureCollection","features":[{"type":"Feature","geometry":{"type":"Polygon","coordinates":[[[131.05107988312162,32.88614302834404],[131.05232112012274,32.88681098736667],[131.05280913653988,32.88764503406002],[131.0518328319161,32.888885981350654],[131.0511309523678,32.88892653250118],[131.04597723302604,32.89177578293695],[131.0452882230338,32.891911210841634],[131.04490391304608,32.89250596060468],[131.04400318123533,32.89242320428418],[131.04298523033444,32.89295366151262],[131.04151828291623,32.8946403314176],[131.03833917772704,32.89512129799049],[131.0373969193677,32.89552374412655],[131.03725950326296,32.89608565749703],[131.03601644541712,32.89714637729263],[131.0347490705816,32.89726559800555],[131.03417520583315,32.897942059206336],[131.03257734334204,32.897855745538365],[131.03151678262017,32.89817328823324],[131.02987981272022,32.89733562062725],[131.02763055322114,32.896935924621204],[131.02608770158875,32.895747134842345],[131.02429374416383,32.89599583203801],[131.02317380501268,32.89658067537687],[131.02203468634056,32.89638074575436],[131.02081984933338,32.89714979178846],[131.0199276130008,32.89731014124663],[131.01998938434667,32.89989302875929],[131.01970215688613,32.90058714512998],[131.02001928333237,32.901289465882314],[131.01970960870332,32.90245897366034],[131.01700204579782,32.903605193789325],[131.01648896584936,32.90368477553188],[131.0160855182948,32.90054240195591],[131.01675894247967,32.89974948553272],[131.01562457426894,32.90008698306283],[131.0137801810447,32.89928789569231],[131.0110219984176,32.90078251552032],[131.0097576946218,32.90049955748454],[131.00787095549802,32.89866376222273],[131.00549279268492,32.89732097925707],[131.0042083645694,32.89743089174326],[131.0026218403718,32.89813978019129],[131.00031235560073,32.89995434037022],[130.99874343289633,32.90012171644713],[130.99720263091234,32.89939453212159],[130.99570441252462,32.89951567093057],[130.99534532347073,32.898720502030734],[130.99423610238395,32.8975877658169],[130.99284249702202,32.89764983489508],[130.99151071483007,32.89652975296027],[130.99160324094112,32.895798772998525],[130.99099840697437,32.89489091698589],[130.99043380374556,32.89342208215009],[130.99080745278007,32.892651690122406],[130.9905543811399,32.891310443555994],[130.98980745721946,32.889412359001376],[130.98890694915207,32.88781892126311],[130.98845106203132,32.88306793732829],[130.98785957789244,32.881485758237545],[130.98679777451494,32.8803926158831],[130.9864083222015,32.879553313857684],[130.9866613101768,32.87828393319897],[130.98523596718354,32.87657025682596],[130.98424563949416,32.87579029722862],[130.9847564897266,32.87404623523619],[130.98723417346832,32.87494408506275],[130.98936943017046,32.874382641286275],[130.99025438772136,32.873467186369446],[130.99034581350742,32.87186013264078],[130.99168852839819,32.8702328161628],[130.99190214934345,32.86917486468792],[130.99107833269366,32.86860519104815],[130.99101724264423,32.86805608379391],[130.9923293905816,32.866611803007466],[130.9930618562231,32.865472486909454],[130.99443510465764,32.86461814556768],[130.99611332009127,32.86392656914162],[130.99647970414998,32.863112773989506],[130.995564232065,32.86266530948621],[130.9953506470384,32.86197343575068],[130.9956862249683,32.860712160568355],[130.99532015346625,32.860101935479264],[130.99525909355947,32.858820378659495],[130.9962510059363,32.857406359085275],[130.99647990779988,32.85655199607636],[130.99763955886954,32.85580957618138],[131.00090463213908,32.854304184386635],[131.00191152612987,32.853592321791375],[131.004017233918,32.85249354584012],[131.00404174005865,32.851461982046295],[131.0041392225496,32.85090701593021],[131.00487168284113,32.85037789504295],[131.00705742417668,32.849988924814504],[131.00816727629547,32.84999158031208],[131.00862503003134,32.84986938113813],[131.00908277721803,32.84950330562257],[131.0087472639722,32.84897445698449],[131.00737405502122,32.84854698965686],[131.00697745583088,32.847611235257915],[131.00740251584975,32.846438812021724],[131.00786247509652,32.84517007739856],[131.0083508158346,32.8437868512856],[131.0094046611992,32.84238025939208],[131.01090705143324,32.84124800356067],[131.01225828304132,32.84085149658438],[131.01337793879563,32.84100341762212],[131.01530238904368,32.842310007142345],[131.01640649783832,32.84248485173654],[131.0171389452506,32.84154910294452],[131.01704761426325,32.839880906456074],[131.01793254108142,32.83971815467088],[131.0185121897938,32.840104808724526],[131.02003782413087,32.84183412049609],[131.02131934273388,32.8428307177048],[131.0224483948261,32.84301406339615],[131.02394382229735,32.842220539356425],[131.02466072821733,32.840888154675],[131.02546960069438,32.838579208386214],[131.02617149747232,32.83754152567922],[131.02970334689604,32.83827902562834],[131.03138959230168,32.83743922649601],[131.0323460825555,32.83801791345985],[131.0333834861331,32.838062074798],[131.03371833990266,32.83915476684941],[131.035127888597,32.84052165781943],[131.0362559351211,32.84255525017866],[131.03719754198664,32.84297324032402],[131.03769733176313,32.844979441381966],[131.03744302267467,32.84945320947492],[131.0374916675287,32.85068661087626],[131.0384659269355,32.85341871872543],[131.03817011989787,32.85545498424989],[131.03819270174466,32.857220808403135],[131.03874142457994,32.85955114522836],[131.03865926333407,32.860462321947],[131.03755018531047,32.86147078468869],[131.03875688250434,32.86118662045514],[131.04024559589087,32.86244805731923],[131.04139057802067,32.862628356822455],[131.0422791819379,32.86323437132333],[131.04273445519388,32.8643079916511],[131.04138229014976,32.86386941688241],[131.04174893775658,32.86461153004821],[131.042803835986,32.86509203356017],[131.04384660662765,32.86608478056373],[131.04365066792386,32.86711384078853],[131.04255215181936,32.868032727614654],[131.04272678905303,32.8690828863669],[131.04244921535036,32.86972095534131],[131.0429014050092,32.87127875551051],[131.03966908170383,32.87134845713017],[131.03874364634544,32.87114945510417],[131.03757171213556,32.87031091739118],[131.0342382960995,32.86835435278826],[131.02998954313404,32.86574568259958],[131.02668134703563,32.86242022868382],[131.02504814120607,32.86106151466806],[131.02404389942046,32.860730114422665],[131.02284579725756,32.85984831688502],[131.02190717347838,32.860023530273246],[131.0207310056003,32.859491763173466],[131.02059438044122,32.85867653907293],[131.0199722440296,32.85863058359005],[131.01912891078936,32.85772565224176],[131.01994743820254,32.85745376235358],[131.01996363163306,32.856656923991956],[131.01853634983314,32.85547112529059],[131.01801065857188,32.85523820689749],[131.01744741750676,32.85594545473948],[131.01717310124442,32.85673801924352],[131.01634984063517,32.85751846728973],[131.01529230645826,32.85772505057268],[131.01463623500572,32.85835798477852],[131.01426456254146,32.85889858606718],[131.0132804062846,32.85933503907157],[131.01215680903047,32.859924762571865],[131.01199830609667,32.86008934737192],[131.01171336716192,32.86085894779378],[131.0105097015261,32.863743731110546],[131.00811604480688,32.8663608844148],[131.00734613626273,32.869081626647635],[131.00759680034568,32.86976204413247],[131.0074443729942,32.87105854516893],[131.00782046957045,32.87294809361962],[131.00755903900517,32.87385841936282],[131.00786538762551,32.87452863735161],[131.00760305148162,32.87551660195414],[131.0088251681665,32.87690654667334],[131.00849051159233,32.877879755046905],[131.0089993335556,32.87898529704434],[131.00890964529663,32.88047348661262],[131.01066095571937,32.88060114557426],[131.01156347634156,32.88252794087794],[131.01252722213724,32.88331765506739],[131.0140006216602,32.88277212987818],[131.01479345187093,32.88296742433593],[131.01515882850344,32.88380167720079],[131.01699551558252,32.88530646992321],[131.01867753367915,32.88597930289783],[131.0211365455075,32.88762520441029],[131.0237499419293,32.887304407509994],[131.02478364519547,32.88899553426758],[131.0254234988404,32.889384520576606],[131.02692692068968,32.889743528640146],[131.02997216571356,32.890911426867284],[131.03075611883716,32.88960703608282],[131.03268514610065,32.889240806746244],[131.03734478178126,32.88863733087344],[131.0380649329013,32.88798834216111],[131.0407326727663,32.8882005428369],[131.04511232533608,32.887762725339805],[131.05107988312162,32.88614302834404]]]},"properties":{"KEY_CODE":"434330010","PREF":"43","CITY":"433","CITY_NAME":"南阿蘇村","S_NAME":"大字河陽","SETAI":"794"}},{"type":"Feature","geometry":{"type":"Polygon","coordinates":[[[131.05107988312162,32.88614302834404],[131.04511232533608,32.887762725339805],[131.0407326727663,32.8882005428369],[131.0380649329013,32.88798834216111],[131.03734478178126,32.88863733087344],[131.03268514610065,32.889240806746244],[131.03075611883716,32.88960703608282],[131.02997216571356,32.890911426867284],[131.02692692068968,32.889743528640146],[131.0254234988404,32.889384520576606],[131.02478364519547,32.88899553426758],[131.0237499419293,32.887304407509994],[131.0211365455075,32.88762520441029],[131.01867753367915,32.88597930289783],[131.01699551558252,32.88530646992321],[131.01515882850344,32.88380167720079],[131.01479345187093,32.88296742433593],[131.0140006216602,32.88277212987818],[131.01252722213724,32.88331765506739],[131.01156347634156,32.88252794087794],[131.01066095571937,32.88060114557426],[131.00890964529663,32.88047348661262],[131.0089993335556,32.87898529704434],[131.00849051159233,32.877879755046905],[131.0088251681665,32.87690654667334],[131.00760305148162,32.87551660195414],[131.00786538762551,32.87452863735161],[131.00755903900517,32.87385841936282],[131.00782046957045,32.87294809361962],[131.0074443729942,32.87105854516893],[131.00759680034568,32.86976204413247],[131.00734613626273,32.869081626647635],[131.00811604480688,32.8663608844148],[131.0105097015261,32.863743731110546],[131.01171336716192,32.86085894779378],[131.01199830609667,32.86008934737192],[131.01215680903047,32.859924762571865],[131.0132804062846,32.85933503907157],[131.01426456254146,32.85889858606718],[131.01463623500572,32.85835798477852],[131.01529230645826,32.85772505057268],[131.01634984063517,32.85751846728973],[131.01717310124442,32.85673801924352],[131.01744741750676,32.85594545473948],[131.01801065857188,32.85523820689749],[131.01853634983314,32.85547112529059],[131.01996363163306,32.856656923991956],[131.01994743820254,32.85745376235358],[131.01912891078936,32.85772565224176],[131.0199722440296,32.85863058359005],[131.02059438044122,32.85867653907293],[131.0207310056003,32.859491763173466],[131.02190717347838,32.860023530273246],[131.02284579725756,32.85984831688502],[131.02404389942046,32.860730114422665],[131.02504814120607,32.86106151466806],[131.02668134703563,32.86242022868382],[131.02998954313404,32.86574568259958],[131.0342382960995,32.86835435278826],[131.03757171213556,32.87031091739118],[131.03874364634544,32.87114945510417],[131.03966908170383,32.87134845713017],[131.0429014050092,32.87127875551051],[131.0431167399303,32.871843799014194],[131.0445243306162,32.873114165992924],[131.04631740998795,32.87369140807469],[131.04570886573137,32.8741934579906],[131.046086488989,32.87544032433874],[131.04690466872498,32.87640176742862],[131.04866593418035,32.87688342467454],[131.04941308564585,32.877352061720785],[131.05021572025615,32.878855616579905],[131.0506577331347,32.87924018866408],[131.05004076956615,32.88018214471416],[131.04904055708897,32.881583118182675],[131.0491322221029,32.88381057385694],[131.04945248357038,32.884664902952785],[131.05107988312162,32.88614302834404]]]},"properties":{"KEY_CODE":"434330020","PREF":"43","CITY":"433","CITY_NAME":"南阿蘇村","S_NAME":"大字長野","SETAI":"160"}},{"type":"Feature","geometry":{"type":"Polygon","coordinates":[[[130.9995474351854,32.90888784063784],[130.99763836492116,32.90971828505614],[130.99638708282254,32.90912833826176],[130.99486136281374,32.90984019709208],[130.993564864213,32.91002104305633],[130.98992104549612,32.90963571981714],[130.98976060981926,32.90992435805088],[130.98718672879036,32.9099489088093],[130.98799515293925,32.9090952885009],[130.98763837407998,32.90857350856734],[130.9852735060205,32.90794940350902],[130.9844790291156,32.90815267161855],[130.98450029649652,32.907277466676],[130.98559591715008,32.90560859175208],[130.98588573350608,32.904641817695584],[130.9864525310308,32.90397555795932],[130.98806719437266,32.90357688016732],[130.98839438073787,32.90270400456548],[130.9877406023895,32.901065751070114],[130.9880435770345,32.90015737822313],[130.98891852448483,32.899660680809966],[130.9894234111389,32.89841167898235],[130.98997869735769,32.89775881027414],[130.99099840697437,32.89489091698589],[130.99160324094112,32.895798772998525],[130.99151071483007,32.89652975296027],[130.99284249702202,32.89764983489508],[130.99423610238395,32.8975877658169],[130.99534532347073,32.898720502030734],[130.99570441252462,32.89951567093057],[130.99720263091234,32.89939453212159],[130.99874343289633,32.90012171644713],[131.00031235560073,32.89995434037022],[131.0026218403718,32.89813978019129],[131.0042083645694,32.89743089174326],[131.00549279268492,32.89732097925707],[131.00787095549802,32.89866376222273],[131.0097576946218,32.90049955748454],[131.0110219984176,32.90078251552032],[131.0137801810447,32.89928789569231],[131.01562457426894,32.90008698306283],[131.01675894247967,32.89974948553272],[131.0160855182948,32.90054240195591],[131.01648896584936,32.90368477553188],[131.01572285984642,32.90380271797111],[131.00764890591623,32.905775569487766],[131.00636265377102,32.9065256302909],[131.0021909161143,32.90716414882563],[131.0017442885972,32.90735077373788],[131.0005312367979,32.90868550793267],[130.9995474351854,32.90888784063784]]]},"properties":{"KEY_CODE":"434330030","PREF":"43","CITY":"433","CITY_NAME":"南阿蘇村","S_NAME":"大字下野","SETAI":"269"}},{"type":"Feature","geometry":{"type":"Polygon","coordinates":[[[130.99099840697437,32.89489091698589],[130.98997869735769,32.89775881027414],[130.9894234111389,32.89841167898235],[130.98891852448483,32.899660680809966],[130.9880435770345,32.90015737822313],[130.9877406023895,32.901065751070114],[130.98839438073787,32.90270400456548],[130.9857330868722,32.90220665638949],[130.98378777446692,32.90134888316988],[130.98349859411223,32.90124767422845],[130.98159602025495,32.900522924893096],[130.9800213390855,32.90036349651726],[130.97855252097233,32.89996901608505],[130.97616849160792,32.90022612483168],[130.97713121522006,32.89976938502999],[130.97741532632168,32.898294932975496],[130.97676082088856,32.89604032885105],[130.9763008318989,32.895502901319006],[130.97616971855294,32.89415288071098],[130.97569166656064,32.89345484254452],[130.97457215321882,32.89293832249241],[130.97403312604843,32.89155763226282],[130.97416931073175,32.89088457372996],[130.97240162985847,32.89034891809406],[130.97279218654933,32.88977063524671],[130.97242304991286,32.889307867764956],[130.9710725929053,32.88920969255035],[130.9696325512731,32.888795609729286],[130.96707705721582,32.88874565845088],[130.9654597149659,32.888923581367514],[130.96470042175798,32.88802468000289],[130.96371898728677,32.888593868193205],[130.96149272196098,32.88878009043575],[130.96123990487686,32.887869919207446],[130.9605176115032,32.88675509731214],[130.95934107649117,32.886101835544636],[130.95842223129847,32.885146838047795],[130.956072630254,32.884237622626195],[130.95548211217735,32.88367014198622],[130.95439045967342,32.88350486644584],[130.95303834895319,32.88291586236905],[130.9524646667146,32.882354868241656],[130.95192932871942,32.880729648862285],[130.94980812510735,32.879008202043664],[130.94858002146864,32.877323728005315],[130.94870604194912,32.8757488102853],[130.95068899779628,32.87520762532807],[130.95280160497185,32.87426585066454],[130.9568536734224,32.873183348670295],[130.95806207771574,32.873020947677716],[130.9600470941889,32.87388357226831],[130.96209776342238,32.87440613134058],[130.96384412963695,32.874860802682164],[130.96664183280862,32.87442882982718],[130.96901788170203,32.8746350911449],[130.97016549618488,32.87411265878398],[130.97093176398812,32.875291072501916],[130.97157134660168,32.875753936058956],[130.97253609096404,32.875557069032716],[130.97594348624168,32.87369398527016],[130.97811696643717,32.87198056028207],[130.9786551781952,32.87184353801124],[130.98117879215974,32.87246695719797],[130.98156080969974,32.87280315526643],[130.9847564897266,32.87404623523619],[130.98424563949416,32.87579029722862],[130.98523596718354,32.87657025682596],[130.9866613101768,32.87828393319897],[130.9864083222015,32.879553313857684],[130.98679777451494,32.8803926158831],[130.98785957789244,32.881485758237545],[130.98845106203132,32.88306793732829],[130.98890694915207,32.88781892126311],[130.98980745721946,32.889412359001376],[130.9905543811399,32.891310443555994],[130.99080745278007,32.892651690122406],[130.99043380374556,32.89342208215009],[130.99099840697437,32.89489091698589]]]},"properties":{"KEY_CODE":"434330040","PREF":"43","CITY":"433","CITY_NAME":"南阿蘇村","S_NAME":"大字立野","SETAI":"314"}},{"type":"Feature","geometry":{"type":"Polygon","coordinates":[[[131.112090011526,32.814924928774275],[131.11258122946063,32.81852026664654],[131.11276114343454,32.81885787390541],[131.11420867964173,32.8269463615316],[131.11432087660245,32.82723532875152],[131.1142634335934,32.82787268351729],[131.11316366669217,32.82784780550714],[131.11086823656962,32.82657444311089],[131.10883615892857,32.825838933391594],[131.10730858351164,32.825893696400094],[131.1052183049482,32.825293747066624],[131.10476156878863,32.825778844794684],[131.10333015271826,32.82606347114424],[131.10237095522498,32.82519900740638],[131.1004153745279,32.82511674921505],[131.09978479271044,32.82436432685521],[131.09834515974302,32.82395998502576],[131.0980863961907,32.82354768531048],[131.09843052635298,32.82244397373725],[131.0968803776434,32.821736062426375],[131.09617000689698,32.820928236503974],[131.09497912386314,32.82040048705349],[131.09332075189508,32.82034042728017],[131.09233521408666,32.819982095518625],[131.0903197616481,32.81972557740122],[131.08845800606034,32.81927042552511],[131.08740740454422,32.82007236227871],[131.08665615362938,32.818883772560014],[131.08537839518522,32.81902904210494],[131.0846835823846,32.81871375602464],[131.08245830053295,32.81793757085741],[131.08054150865755,32.817976775596506],[131.0780129198055,32.817294559058986],[131.07697816207676,32.81667237135733],[131.07805854062178,32.81683546338535],[131.0795686863135,32.81598179212785],[131.0801866820362,32.81493449455755],[131.08205091945055,32.814893765427804],[131.0835900373859,32.81512166849582],[131.0841627500711,32.81419558260632],[131.08558420453355,32.814079708742014],[131.08626421208834,32.81342157071776],[131.08733876603597,32.81376659602501],[131.08901239213526,32.812925372641025],[131.08991392469395,32.813209716725034],[131.09114160805248,32.81287129451263],[131.09125614919787,32.8119889444386],[131.09203898396203,32.811836369600876],[131.09323498518606,32.8107196392849],[131.09280428646917,32.809704487016994],[131.09276164695177,32.808757415556435],[131.09228260739815,32.807951371094084],[131.0917511731493,32.80608799706665],[131.09191436057122,32.805233084530606],[131.09377056112427,32.803499149287305],[131.09470384878622,32.801747434849304],[131.09485636586464,32.8001986792013],[131.0943791971715,32.798683502960664],[131.09454180841186,32.79831042758969],[131.09361946369796,32.79601061921782],[131.09371546242744,32.795315266953324],[131.09550071075472,32.793974645736206],[131.09568938930116,32.79305176547412],[131.0969986326953,32.79268789912726],[131.09755482847325,32.79225891707194],[131.09898948612891,32.79212083414431],[131.09961203608424,32.79039437533996],[131.10072385702176,32.790996280215026],[131.10236425130108,32.79214384413815],[131.10310828938105,32.79237881265183],[131.1049333626671,32.79238926081632],[131.105399284976,32.79328680949779],[131.1063109177004,32.79337310384942],[131.1077550573502,32.79258148014315],[131.10844946182885,32.79187071665933],[131.1094137494396,32.792055964158195],[131.11094927067566,32.79326496560981],[131.11200005624008,32.79309674414605],[131.11298901483443,32.79359262213944],[131.11332532500091,32.79421371354065],[131.11504901657753,32.795506142043195],[131.11548349002848,32.79611728124721],[131.11570119118014,32.796694360642185],[131.1156759881311,32.79738875725955],[131.1154469900078,32.798161880486035],[131.11508442590812,32.79908665441913],[131.114094768235,32.800754617856235],[131.11347976501432,32.80202543996744],[131.1131760599483,32.80307968573031],[131.11222452336102,32.805266989991196],[131.11249292437594,32.80594459627719],[131.11140199268746,32.80759331485855],[131.11167876471572,32.808429346692776],[131.11112994213303,32.80919448173039],[131.11097698967558,32.81079689810457],[131.1109567206178,32.81155328320283],[131.11156609306724,32.81220714373797],[131.11176478358462,32.81320857942602],[131.112090011526,32.814924928774275]]]},"properties":{"KEY_CODE":"434330050","PREF":"43","CITY":"433","CITY_NAME":"南阿蘇村","S_NAME":"大字両併","SETAI":"233"}},{"type":"Feature","geometry":{"type":"Polygon","coordinates":[[[131.11507465565865,32.82755264776772],[131.11376359392366,32.828752033178304],[131.1158299271848,32.82929666234379],[131.11544366347167,32.83126840252936],[131.1143810114476,32.83220997117654],[131.11333902835167,32.83267212017197],[131.11359784157617,32.833185185302334],[131.11282403822614,32.83365133188455],[131.11039937425363,32.83422283188207],[131.10900618849004,32.833091388187874],[131.10760868116586,32.83278122033965],[131.10716941460186,32.833505146672486],[131.10706625644468,32.83515464471892],[131.1063967536852,32.834865484094735],[131.10473371994217,32.83474704521941],[131.10442989884612,32.83607820183904],[131.10518341240729,32.83971864368529],[131.1061917212862,32.84144927383863],[131.10645606996408,32.84276299369012],[131.10723877921748,32.841582738736676],[131.10789019312676,32.84139097078263],[131.109165963006,32.84160448444486],[131.1090776742676,32.84103280239021],[131.10974617882334,32.840839212385475],[131.11013501895755,32.83995597318203],[131.11056758208304,32.839903293466655],[131.11030824418566,32.83835148522157],[131.11122515618553,32.83693749626027],[131.11174692799617,32.83820680602126],[131.11137543927606,32.83840103202025],[131.11165014235857,32.83941533921247],[131.112267314775,32.84007130113272],[131.1124686755462,32.84135893206623],[131.1120941193518,32.84168392787357],[131.11202274215523,32.84270215617407],[131.1103927054709,32.84454513755111],[131.1089852424178,32.84588108336092],[131.10875428243335,32.84658201020804],[131.10812227913436,32.84687382594045],[131.10752241275688,32.84830145874082],[131.10647570969053,32.84857701724812],[131.1056214274286,32.84952358704533],[131.10624782876323,32.85088500252056],[131.10617028288598,32.85155741719237],[131.10455086513775,32.855500513758756],[131.10468112832942,32.85659294735135],[131.1034920560917,32.857355837333614],[131.10298608587973,32.85879598327624],[131.10151591313857,32.86073154447223],[131.10076064694155,32.86119920966069],[131.1000750814455,32.86266428144477],[131.0987675769048,32.864175296626144],[131.09848627949066,32.86515781987754],[131.0977802587764,32.865914738810446],[131.09794473589434,32.86700025173061],[131.0969934467429,32.87036119980711],[131.09471240920868,32.87309210648313],[131.09465296979081,32.873969719600694],[131.09688109590428,32.87634994860783],[131.0984308248951,32.87662146002039],[131.0989799914882,32.87741469791934],[131.09873614856912,32.87877756619343],[131.09742371827713,32.881645753243966],[131.09742370953992,32.88333441545091],[131.09653870867646,32.88276473659341],[131.09425012906843,32.88176786358786],[131.0920058594176,32.88065375659751],[131.09197236381647,32.87617092986638],[131.09186552808038,32.87575388198663],[131.09152836303164,32.87511333942303],[131.0914538676241,32.87348413128014],[131.09134542790383,32.87274977705526],[131.09076156543705,32.87037491784819],[131.09089709576114,32.86872567038493],[131.09077039456858,32.86760659553567],[131.09092757121914,32.864632348154956],[131.09124969413847,32.86171239431081],[131.09128798682983,32.860647574169235],[131.09083294014005,32.859046281219186],[131.09094247949653,32.85790685943361],[131.09013563240939,32.85554063283645],[131.08981189392918,32.854911172875546],[131.08914788558164,32.85290523913557],[131.0890769744019,32.85202311833196],[131.0895170268639,32.84907313683552],[131.08973612459087,32.84630177185905],[131.08974191018478,32.84575256055928],[131.09027889523938,32.84345248987529],[131.09069766702578,32.84340168058332],[131.0907166123226,32.843307523218265],[131.09095544850695,32.84283903533069],[131.09117445724652,32.841573937763464],[131.09110058596679,32.84113090657092],[131.09104578784252,32.84071771549231],[131.09053935568335,32.84011202858023],[131.09046523598875,32.839411892296695],[131.09055655752144,32.83828693484521],[131.0911075552243,32.83724654814892],[131.0912261177295,32.83617666561401],[131.09089670944135,32.835798115490235],[131.09163437482778,32.83384621028851],[131.09109566836665,32.833548946964406],[131.09080881649578,32.832671197223505],[131.09156680274063,32.8318626400267],[131.09092555142658,32.83082054249201],[131.0902113221202,32.82903233421358],[131.090269079192,32.82831755141153],[131.08914462767652,32.827511351034545],[131.08730600369557,32.82685805240339],[131.08669522880194,32.82617594980685],[131.0862402416221,32.823587747291675],[131.08574166818576,32.823244690405126],[131.08596663837355,32.8219330928831],[131.08592162048402,32.8200550570459],[131.0846835823846,32.81871375602464],[131.08537839518522,32.81902904210494],[131.08665615362938,32.818883772560014],[131.08740740454422,32.82007236227871],[131.08845800606034,32.81927042552511],[131.0903197616481,32.81972557740122],[131.09233521408666,32.819982095518625],[131.09332075189513,32.82034042728013],[131.09497912386314,32.82040048705349],[131.09617000689698,32.820928236503974],[131.0968803776434,32.821736062426375],[131.09843052635298,32.82244397373725],[131.0980863961907,32.82354768531048],[131.09834515974302,32.82395998502576],[131.09978479271044,32.82436432685521],[131.1004153745279,32.82511674921505],[131.10237095522498,32.82519900740638],[131.10333015271826,32.82606347114424],[131.10476156878863,32.825778844794684],[131.1052183049482,32.825293747066624],[131.10730858351164,32.825893696400094],[131.10883615892857,32.825838933391594],[131.11086823656962,32.82657444311089],[131.11316366669217,32.82784780550714],[131.1142634335934,32.82787268351729],[131.11432087660245,32.82723532875152],[131.11507465565865,32.82755264776772]]]},"properties":{"KEY_CODE":"434330060","PREF":"43","CITY":"433","CITY_NAME":"南阿蘇村","S_NAME":"大字白川","SETAI":"249"}},{"type":"Feature","geometry":{"type":"Polygon","coordinates":[[[131.09027889523938,32.84345248987529],[131.08974191018478,32.84575256055928],[131.08973612459087,32.84630177185905],[131.0895170268639,32.84907313683552],[131.0890769744019,32.85202311833196],[131.08914788558164,32.85290523913557],[131.08981189392918,32.854911172875546],[131.09013563240939,32.85554063283645],[131.09094247949653,32.85790685943361],[131.09083294014005,32.859046281219186],[131.09128798682983,32.860647574169235],[131.09124969413847,32.86171239431081],[131.09092757121914,32.864632348154956],[131.09077039456858,32.86760659553567],[131.09089709576114,32.86872567038493],[131.09076156543705,32.87037491784819],[131.09134542790383,32.87274977705526],[131.0914538676241,32.87348413128014],[131.09152836303164,32.87511333942303],[131.09186552808038,32.87575388198663],[131.09197236381644,32.87617092986638],[131.09200585941758,32.88065375659751],[131.08988598175952,32.87961139042534],[131.08774987817517,32.879021428586675],[131.0856854063995,32.878043866319146],[131.08622676537397,32.87615618316149],[131.08609280976341,32.87498633918359],[131.084022386226,32.87296635000203],[131.08326194780628,32.87161847957452],[131.08313272471673,32.87030703831719],[131.0835302104784,32.86661053160994],[131.08493888238084,32.86435466139515],[131.0852978703346,32.862702248067315],[131.08520939582425,32.86050136009053],[131.08535821066684,32.85786688414405],[131.08492205031965,32.854714161901],[131.08452445975436,32.85396119019501],[131.0832186333244,32.85258130363044],[131.08250857007002,32.85154399048587],[131.08143204150383,32.85060808199062],[131.08071202911944,32.84881801289249],[131.0792331778832,32.84577054276881],[131.0787359591844,32.8428000223624],[131.07907952290086,32.842021592268004],[131.07658495544334,32.83991426081474],[131.0759014232995,32.839942304026685],[131.0757323036156,32.839282475512185],[131.07503218483143,32.83874045391231],[131.07516366527733,32.83741152346062],[131.07460927082096,32.83723455216236],[131.074500329681,32.83600084548251],[131.07351406389947,32.83564682208746],[131.0738189889395,32.8339547959528],[131.07362779534913,32.832809573908676],[131.07285968269974,32.83329891447996],[131.0705383446064,32.83397882785003],[131.07047989882398,32.830338137058895],[131.06938484986702,32.82936056183965],[131.0683764049317,32.82798519992699],[131.06596501267336,32.82730618136927],[131.06501486760158,32.825820457719956],[131.06510222455637,32.824279889117484],[131.06393606635208,32.82264704881434],[131.06355793029584,32.82030822694078],[131.06221063772438,32.81964117642407],[131.06241300915306,32.818672200339805],[131.063455543721,32.81851853245333],[131.06487836439481,32.81765265341174],[131.06734384854082,32.81688570362765],[131.0702312459571,32.81660459000547],[131.07166847002745,32.81689081893841],[131.07263773490283,32.81586435471627],[131.07527137013273,32.81574406526531],[131.07565258449407,32.81624911043723],[131.07697816207676,32.81667237135733],[131.0780129198055,32.817294559058986],[131.08054150865755,32.817976775596506],[131.08245830053295,32.81793757085741],[131.0846835823846,32.81871375602464],[131.08592162048402,32.8200550570459],[131.08596663837355,32.8219330928831],[131.08574166818576,32.823244690405126],[131.0862402416221,32.823587747291675],[131.08669522880194,32.82617594980685],[131.08730600369557,32.82685805240339],[131.08914462767652,32.827511351034545],[131.090269079192,32.82831755141153],[131.0902113221202,32.82903233421358],[131.09092555142658,32.83082054249201],[131.09156680274063,32.8318626400267],[131.09080881649578,32.832671197223505],[131.09109566836665,32.833548946964406],[131.09163437482778,32.83384621028851],[131.09089670944135,32.835798115490235],[131.0912261177295,32.83617666561401],[131.0911075552243,32.83724654814892],[131.09055655752144,32.83828693484521],[131.09046523598875,32.839411892296695],[131.09053935568335,32.84011202858023],[131.09104578784252,32.84071771549231],[131.09110058596679,32.84113090657092],[131.09117445724652,32.841573937763464],[131.09095544850695,32.84283903533069],[131.0907166123226,32.843307523218265],[131.09069766702578,32.84340168058332],[131.09027889523938,32.84345248987529]]]},"properties":{"KEY_CODE":"434330070","PREF":"43","CITY":"433","CITY_NAME":"南阿蘇村","S_NAME":"大字吉田","SETAI":"397"}},{"type":"Feature","geometry":{"type":"Polygon","coordinates":[[[131.0856854063995,32.878043866319146],[131.08439296835903,32.8776993071325],[131.08248553632134,32.87806524317362],[131.0804411792608,32.879407676081286],[131.07940770481144,32.87963176100091],[131.07847747744623,32.87792909739933],[131.07699119224228,32.876840402603065],[131.07597249482112,32.87583007040601],[131.07451126885425,32.87563536651734],[131.07065352816997,32.87258145795141],[131.06992854189457,32.87141413838512],[131.0692270444688,32.86903510155539],[131.06920601182185,32.8664371206537],[131.07046219550782,32.86404778014362],[131.0716175388276,32.86248629114084],[131.071970040698,32.861320909502886],[131.07198700387266,32.86011491480031],[131.0715598182035,32.85910192634466],[131.07195420807022,32.85762460066367],[131.07163125281377,32.85504776547924],[131.0713323873562,32.8538008904989],[131.07064720307932,32.852146167536546],[131.07038202099403,32.850961086184626],[131.06960038869175,32.848962398845984],[131.06900976338304,32.84700068138368],[131.06892170195854,32.84579613043665],[131.06949521811825,32.84295766033922],[131.06806664472947,32.84156082044794],[131.06723776006552,32.841391097122575],[131.06664881894307,32.84003947150277],[131.06564598977147,32.83934986125918],[131.063473540482,32.838725353665566],[131.06261874324795,32.83757437787614],[131.06097195258718,32.836325301834286],[131.05913080667494,32.83582923358906],[131.05866987963145,32.83546047753049],[131.0566837732702,32.832928345540914],[131.05648052220678,32.83215555759759],[131.05531629443286,32.830977647530155],[131.05460063400648,32.829430532435964],[131.05505089439941,32.82832170716414],[131.0548161147831,32.82749575236423],[131.05629796523013,32.82703308166989],[131.05443201381487,32.82551961801409],[131.0544337062874,32.825031607536715],[131.05244103421492,32.8240950623888],[131.05129065332036,32.82336270900853],[131.0510914861837,32.8223733747241],[131.0505906857842,32.82203243784099],[131.05118569705616,32.821292009819544],[131.05201665210294,32.82101582887415],[131.0528355527285,32.82134365810299],[131.05304145845872,32.819919081551944],[131.05366988079905,32.81979311282682],[131.0548286884511,32.82153828720987],[131.05643276658265,32.821104611002646],[131.05734580915887,32.819892666868],[131.05830495540775,32.81968970309484],[131.06048012751356,32.82006569405115],[131.06221063772438,32.81964117642407],[131.06355793029584,32.82030822694078],[131.06393606635208,32.82264704881434],[131.06510222455637,32.824279889117484],[131.06501486760158,32.825820457719956],[131.06596501267336,32.82730618136927],[131.0683764049317,32.82798519992699],[131.06938484986702,32.82936056183965],[131.07047989882398,32.830338137058895],[131.0705383446064,32.83397882785003],[131.07285968269974,32.83329891447996],[131.07362779534913,32.832809573908676],[131.0738189889395,32.8339547959528],[131.07351406389947,32.83564682208746],[131.074500329681,32.83600084548251],[131.07460927082096,32.83723455216236],[131.07516366527733,32.83741152346062],[131.07503218483143,32.83874045391231],[131.0757323036156,32.839282475512185],[131.0759014232995,32.839942304026685],[131.07658495544334,32.83991426081474],[131.07907952290086,32.842021592268004],[131.0787359591844,32.8428000223624],[131.0792331778832,32.84577054276881],[131.08071202911944,32.84881801289249],[131.08143204150383,32.85060808199062],[131.08250857007002,32.85154399048587],[131.0832186333244,32.85258130363044],[131.08452445975436,32.85396119019501],[131.08492205031965,32.854714161901],[131.08535821066684,32.85786688414405],[131.08520939582425,32.86050136009053],[131.0852978703346,32.862702248067315],[131.08493888238084,32.86435466139515],[131.0835302104784,32.86661053160994],[131.08313272471673,32.87030703831719],[131.08326194780628,32.87161847957452],[131.084022386226,32.87296635000203],[131.08609280976341,32.87498633918359],[131.08622676537397,32.87615618316149],[131.0856854063995,32.878043866319146]]]},"properties":{"KEY_CODE":"434330080","PREF":"43","CITY":"433","CITY_NAME":"南阿蘇村","S_NAME":"大字一関","SETAI":"190"}},{"type":"Feature","geometry":{"type":"Polygon","coordinates":[[[131.07940770481144,32.87963176100091],[131.07816763353017,32.87940753122762],[131.07714457330817,32.87887232948821],[131.07581682370665,32.87897465980951],[131.07497191164285,32.87869231828775],[131.07405370807635,32.88019498366629],[131.0712145202641,32.880785354748795],[131.06936071928644,32.88136164079774],[131.06795804834724,32.88078254070473],[131.06619941996516,32.881447103533],[131.06519209489934,32.8821112862874],[131.06418620467008,32.88325518595521],[131.06105469991004,32.88544063934103],[131.05976722295796,32.88480353180399],[131.05855396699346,32.88378106314938],[131.0585999897685,32.88161453796174],[131.05603267850887,32.88211726462991],[131.05399443372139,32.88201008469088],[131.05198275101665,32.88079476426009],[131.05004076956615,32.88018214471416],[131.0506577331347,32.87924018866408],[131.05021572025615,32.878855616579905],[131.04941308564585,32.877352061720785],[131.04866593418035,32.87688342467454],[131.04690466872498,32.87640176742862],[131.046086488989,32.87544032433874],[131.04570886573137,32.8741934579906],[131.04631740998795,32.87369140807469],[131.0445243306162,32.873114165992924],[131.0431167399303,32.871843799014194],[131.0429014050092,32.87127875551051],[131.04244921535036,32.86972095534131],[131.04272678905303,32.8690828863669],[131.04255215181936,32.868032727614654],[131.04365066792386,32.86711384078853],[131.04384660662765,32.86608478056373],[131.042803835986,32.86509203356017],[131.04174893775658,32.86461153004821],[131.04138229014976,32.86386941688241],[131.04273445519388,32.8643079916511],[131.0422791819379,32.86323437132333],[131.04139057802067,32.862628356822455],[131.04024559589087,32.86244805731923],[131.03875688250434,32.86118662045514],[131.03755018531047,32.86147078468869],[131.03865926333407,32.860462321947],[131.03874142457994,32.85955114522836],[131.03819270174466,32.857220808403135],[131.03817011989787,32.85545498424989],[131.0384659269355,32.85341871872543],[131.0374916675287,32.85068661087626],[131.03744302267467,32.84945320947492],[131.03769733176313,32.844979441381966],[131.03719754198664,32.84297324032402],[131.0362559351211,32.84255525017866],[131.035127888597,32.84052165781943],[131.03371833990266,32.83915476684941],[131.0333834861331,32.838062074798],[131.0323460825555,32.83801791345985],[131.03138959230168,32.83743922649601],[131.03139760836265,32.836733969443],[131.03047971890658,32.83731378351816],[131.02944555219392,32.83649004564232],[131.02925078641286,32.83526459989476],[131.0298541988951,32.83417513515084],[131.0301846231152,32.832974013339],[131.029857691148,32.83227231817812],[131.02993174994603,32.831148051388176],[131.03141231063992,32.831517783555654],[131.03222275958487,32.831356978250554],[131.03364486525422,32.830211413604765],[131.03270566347746,32.828839522579685],[131.03309422425707,32.82844840276515],[131.03424386562415,32.82862963796171],[131.03495106910262,32.82720078122077],[131.0355866474354,32.82576284113987],[131.03723223252507,32.825364366854494],[131.03930400932268,32.82564654402927],[131.03997384866287,32.82555555719451],[131.04114801902236,32.82514321299225],[131.04242984734745,32.82508692361643],[131.04411210988215,32.82368632098329],[131.04537747707175,32.82383250596217],[131.04714719692,32.82373411237817],[131.0474778038372,32.82339183772324],[131.0477586761646,32.82281216991854],[131.04718755996066,32.821876689443],[131.0476132977846,32.82155882699883],[131.04873004958642,32.82218681329972],[131.0505906857842,32.82203243784099],[131.0510914861837,32.8223733747241],[131.05129065332036,32.82336270900853],[131.05244103421492,32.8240950623888],[131.0544337062874,32.825031607536715],[131.05443201381487,32.82551961801409],[131.05629796523013,32.82703308166989],[131.0548161147831,32.82749575236423],[131.05505089439941,32.82832170716414],[131.05460063400648,32.829430532435964],[131.05531629443286,32.830977647530155],[131.05648052220678,32.83215555759759],[131.0566837732702,32.832928345540914],[131.05866987963145,32.83546047753049],[131.05913080667494,32.83582923358906],[131.06097195258718,32.836325301834286],[131.06261874324795,32.83757437787614],[131.063473540482,32.838725353665566],[131.06564598977147,32.83934986125918],[131.06664881894307,32.84003947150277],[131.06723776006552,32.841391097122575],[131.06806664472947,32.84156082044794],[131.06949521811825,32.84295766033922],[131.06892170195854,32.84579613043665],[131.06900976338304,32.84700068138368],[131.06960038869175,32.848962398845984],[131.07038202099403,32.850961086184626],[131.07064720307932,32.852146167536546],[131.0713323873562,32.8538008904989],[131.07163125281377,32.85504776547924],[131.07195420807022,32.85762460066367],[131.0715598182035,32.85910192634466],[131.07198700387266,32.86011491480031],[131.071970040698,32.861320909502886],[131.0716175388276,32.86248629114084],[131.07046219550782,32.86404778014362],[131.06920601182185,32.8664371206537],[131.0692270444688,32.86903510155539],[131.06992854189457,32.87141413838512],[131.07065352816997,32.87258145795141],[131.07451126885425,32.87563536651734],[131.07597249482112,32.87583007040601],[131.07699119224228,32.876840402603065],[131.07847747744623,32.87792909739933],[131.07940770481144,32.87963176100091]]]},"properties":{"KEY_CODE":"434330090","PREF":"43","CITY":"433","CITY_NAME":"南阿蘇村","S_NAME":"大字中松","SETAI":"391"}},{"type":"Feature","geometry":{"type":"Polygon","coordinates":[[[131.00404174005865,32.851461982046295],[131.004017233918,32.85249354584012],[131.00191152612987,32.853592321791375],[131.00090463213908,32.854304184386635],[130.99763955886954,32.85580957618138],[130.99647990779988,32.85655199607636],[130.9962510059363,32.857406359085275],[130.99525909355947,32.858820378659495],[130.99532015346625,32.860101935479264],[130.9956862249683,32.860712160568355],[130.9953506470384,32.86197343575068],[130.995564232065,32.86266530948621],[130.99647970414998,32.863112773989506],[130.99611332009127,32.86392656914162],[130.99443510465764,32.86461814556768],[130.9930618562231,32.865472486909454],[130.9923293905816,32.866611803007466],[130.99101724264423,32.86805608379391],[130.99107833269366,32.86860519104815],[130.99190214934345,32.86917486468792],[130.99168852839819,32.8702328161628],[130.99034581350742,32.87186013264078],[130.99025438772136,32.873467186369446],[130.98936943017046,32.874382641286275],[130.98723417346832,32.87494408506275],[130.9876338765461,32.87419100246068],[130.98750843601817,32.87291811080559],[130.98693782371524,32.871652237846114],[130.9860412033925,32.870285423473874],[130.98485544767036,32.8676738854352],[130.98377214128146,32.86696274033218],[130.9790751330142,32.86282397756643],[130.9783793907496,32.862076917549665],[130.97778341719751,32.86205446626395],[130.97706868129433,32.86141600104779],[130.97287896813373,32.85688524133724],[130.9725640436457,32.8566623536861],[130.97357134161666,32.855691908362694],[130.97411901330548,32.855164264667266],[130.97536138332623,32.853331870652084],[130.97555888275204,32.85204386847928],[130.97627760097274,32.85093470996147],[130.97749397862046,32.85077346764253],[130.9792011160168,32.84999847797283],[130.97984080381053,32.84941435459956],[130.97967018317863,32.848503470363504],[130.97894133345525,32.847723380694724],[130.97880575529933,32.84662984642857],[130.97956291004775,32.84539518524539],[130.97996948571947,32.84435190406224],[130.9797913684094,32.84361160287043],[130.97996775110832,32.84147272263541],[130.98021181641784,32.840696137726816],[130.98016106387,32.84052478259489],[130.97983940648024,32.84042478758659],[130.97945251361756,32.84053783835601],[130.9781607787523,32.84079867998232],[130.97798373880028,32.84067579195164],[130.97731563767155,32.840031635821326],[130.97662187640358,32.840088835404565],[130.97470080678121,32.839904153046305],[130.97298871175653,32.838570675228084],[130.97231352105382,32.83752306549432],[130.9723728394938,32.837205676256666],[130.97247023316706,32.836684537548535],[130.97245603361281,32.83567293079775],[130.97203308608158,32.834813804166295],[130.97183921433793,32.83433049629563],[130.9739136778307,32.832452378693674],[130.9745726368431,32.83147819683846],[130.9762711254637,32.8304281710806],[130.97600502867573,32.82926208932253],[130.9753129276279,32.828366861030325],[130.97585180672365,32.82721835850355],[130.9756459608756,32.82548195505802],[130.97784331852188,32.82475199924652],[130.97905766866535,32.823296260167396],[130.9789433889735,32.82268313624078],[130.97865665092075,32.82151546184369],[130.9778407116198,32.82081983157169],[130.97751062180404,32.82039834124484],[130.9782255597197,32.82002301126693],[130.97844326933296,32.819756884324484],[130.97776251025124,32.818750735574746],[130.9768903473465,32.81731288224306],[130.9770802740375,32.81642560928938],[130.97648256741226,32.81531257272895],[130.97662113984507,32.814863704736716],[130.98002667478573,32.81457202287767],[130.9811991217707,32.814879658244976],[130.9821308628955,32.81454662272612],[130.9826071446528,32.81424274059614],[130.98419218779728,32.814248796940426],[130.98479151876091,32.81463347717929],[130.98524562871077,32.814390367668686],[130.9866354758783,32.81443964594427],[130.98841032115376,32.81351630024068],[130.98941114514687,32.81367422235165],[130.98966742552548,32.812506365933885],[130.99064627934584,32.81122169790144],[130.99157936293895,32.81028423560231],[130.99244460871142,32.80937830490086],[130.99251676500842,32.80735826124302],[130.99351036227216,32.806837756783125],[130.9945504505585,32.80585728207673],[130.99483858863033,32.80519061735769],[130.9954310634678,32.804849470864475],[130.9960262600441,32.804694762675815],[130.9969721488196,32.80420619670669],[130.99560217439094,32.802353666723874],[130.99595856915522,32.80077725894356],[130.9948778837981,32.79847164255795],[130.99477427192585,32.796892568096844],[130.99535762210004,32.796426664555916],[130.99661067718736,32.79657270581276],[130.9976289987811,32.79571751148301],[130.99839811903624,32.79413118985587],[130.9991760071796,32.79375270011431],[130.99850326558249,32.79202051446195],[131.0019683369795,32.79024936617356],[131.00280214405342,32.788992708236925],[131.00394703465489,32.78848543574044],[131.00479748470835,32.788635420578906],[131.00542838979064,32.78795347421431],[131.0072218114059,32.78710830038671],[131.0087296069286,32.78695132644673],[131.00981252557224,32.78650360567396],[131.0120561890802,32.78624316550673],[131.0127388451132,32.78651807604278],[131.01361865962673,32.78592555790048],[131.01502278251272,32.78601914765582],[131.0166805383309,32.78696669367445],[131.01853817276236,32.78638257559871],[131.02008341073966,32.786376332183025],[131.02422104025865,32.78681488020974],[131.02582853431764,32.78770993945858],[131.02695473413402,32.78762211394285],[131.02812569461597,32.787914489017645],[131.03022345479965,32.78933706872907],[131.03028103469248,32.79083774010034],[131.0300810489382,32.791937835969804],[131.02855455122776,32.7958376724539],[131.0286719022062,32.797304347856404],[131.02835529004156,32.79934934694325],[131.02680684551103,32.80037599568695],[131.02680164293253,32.801408877206036],[131.02579457572756,32.80257533870089],[131.02527545021556,32.80263343492012],[131.02427344421343,32.80167053913163],[131.02244117205194,32.801544015331935],[131.02162696962998,32.80123933537533],[131.02059819628076,32.8015014210424],[131.01991070230127,32.80262750891291],[131.02306622965594,32.803289915919905],[131.0251469567358,32.80414277081752],[131.02719659599404,32.80527721848932],[131.0278513243991,32.80653039159298],[131.02854141585118,32.807083818945735],[131.02837204448602,32.8081184181571],[131.02865890180942,32.80898376853061],[131.0280602937146,32.81015594071578],[131.03048165609238,32.81248184214309],[131.03066356553904,32.813192750496164],[131.0317142509754,32.81471917393121],[131.03117393228544,32.815486377701816],[131.03127867855073,32.81725061595037],[131.03196112344514,32.817388915900736],[131.03190612375937,32.81847967128303],[131.03233396789912,32.81911755973986],[131.03206843203918,32.82005680249145],[131.03254312620408,32.82156464801328],[131.03202944784624,32.82258254015511],[131.03198789451028,32.82412230325044],[131.0323514631743,32.824638581274044],[131.03298512022775,32.82447378975387],[131.0341879742989,32.825169287424856],[131.03495106910262,32.82720078122077],[131.03424386562415,32.82862963796171],[131.03309422425707,32.82844840276515],[131.03270566347746,32.828839522579685],[131.03364486525422,32.830211413604765],[131.03222275958487,32.831356978250554],[131.03141231063992,32.831517783555654],[131.02993174994603,32.831148051388176],[131.029857691148,32.83227231817812],[131.0301846231152,32.832974013339],[131.0298541988951,32.83417513515084],[131.02925078641286,32.83526459989476],[131.02944555219392,32.83649004564232],[131.03047971890658,32.83731378351816],[131.03139760836265,32.836733969443],[131.03138959230168,32.83743922649601],[131.02970334689604,32.83827902562834],[131.02617149747232,32.83754152567922],[131.02546960069438,32.838579208386214],[131.02466072821733,32.840888154675],[131.02394382229735,32.842220539356425],[131.0224483948261,32.84301406339615],[131.02131934273388,32.8428307177048],[131.02003782413087,32.84183412049609],[131.0185121897938,32.840104808724526],[131.01793254108142,32.83971815467088],[131.01704761426325,32.839880906456074],[131.0171389452506,32.84154910294452],[131.01640649783832,32.84248485173654],[131.01530238904368,32.842310007142345],[131.01337793879563,32.84100341762212],[131.01225828304132,32.84085149658438],[131.01090705143324,32.84124800356067],[131.0094046611992,32.84238025939208],[131.0083508158346,32.84378685128562],[131.00786247509652,32.84517007739856],[131.00740251584975,32.846438812021724],[131.00697745583085,32.847611235257915],[131.0073740550212,32.84854698965689],[131.0087472639722,32.84897445698449],[131.00908277721803,32.849503305622584],[131.00862503003134,32.84986938113813],[131.00816727629547,32.84999158031208],[131.00705742417668,32.849988924814504],[131.00487168284113,32.85037789504295],[131.0041392225496,32.85090701593021],[131.00404174005865,32.851461982046295]]]},"properties":{"KEY_CODE":"434330100","PREF":"43","CITY":"433","CITY_NAME":"南阿蘇村","S_NAME":"大字河陰","SETAI":"647"}},{"type":"Feature","geometry":{"type":"Polygon","coordinates":[[[131.03930400932268,32.82564654402927],[131.03723223252507,32.825364366854494],[131.0355866474354,32.82576284113987],[131.03495106910262,32.82720078122077],[131.0341879742989,32.825169287424856],[131.03298512022775,32.82447378975387],[131.0323514631743,32.824638581274044],[131.03198789451028,32.82412230325044],[131.03202944784624,32.82258254015511],[131.03254312620408,32.82156464801328],[131.03206843203918,32.82005680249145],[131.03233396789912,32.81911755973986],[131.03190612375937,32.81847967128303],[131.03196112344514,32.817388915900736],[131.03127867855073,32.81725061595037],[131.03117393228544,32.815486377701816],[131.0317142509754,32.81471917393121],[131.03066356553904,32.813192750496164],[131.03048165609238,32.81248184214309],[131.0280602937146,32.81015594071578],[131.02865890180942,32.80898376853061],[131.02837204448602,32.8081184181571],[131.02854141585118,32.807083818945735],[131.0278513243991,32.80653039159298],[131.02719659599404,32.80527721848932],[131.0251469567358,32.80414277081752],[131.02306622965594,32.803289915919905],[131.01991070230127,32.80262750891291],[131.02059819628076,32.8015014210424],[131.02162696962998,32.80123933537533],[131.02244117205194,32.801544015331935],[131.02427344421343,32.80167053913163],[131.02527545021556,32.80263343492012],[131.02579457572756,32.80257533870089],[131.02680164293253,32.801408877206036],[131.02680684551103,32.80037599568695],[131.02835529004156,32.79934934694325],[131.0286719022062,32.797304347856404],[131.02855455122776,32.7958376724539],[131.0300810489382,32.791937835969804],[131.03028103469248,32.79083774010034],[131.03022345479965,32.78933706872907],[131.03183316138342,32.78735517497358],[131.0328250285308,32.787009397925424],[131.03346586003892,32.785625911937075],[131.03477799774836,32.78473101798427],[131.03633427728525,32.78473103249938],[131.03734146040594,32.7837952835951],[131.0385138438402,32.78363631807436],[131.0408121547502,32.78476748106323],[131.04170677016793,32.78588016156203],[131.04274044454093,32.78514367817195],[131.04528622242904,32.78493981668301],[131.04789871173065,32.78703132736392],[131.04820652148138,32.787960219052465],[131.05064584814096,32.78947088040202],[131.05241572052853,32.789491130514584],[131.05388057817376,32.79018299821932],[131.05464331045854,32.79002022958929],[131.05522328955075,32.78938944332531],[131.05595546666163,32.78924695495221],[131.05616902439579,32.79010158819455],[131.0573133713346,32.79041683033095],[131.05758805176166,32.79100678549235],[131.05897657253993,32.79055931054627],[131.06062151361212,32.79087588337486],[131.06169706406024,32.791846465354446],[131.0631897021875,32.79132516034567],[131.06491687591904,32.791560079299416],[131.06661046172115,32.79278853510672],[131.06732805991177,32.79273015151206],[131.0694305690529,32.792059501102436],[131.07043394283428,32.792358016990505],[131.07333063711098,32.79187529252806],[131.07424371107015,32.792303767625796],[131.07469629253097,32.79261105520296],[131.07447067039647,32.793321432749735],[131.07484478984665,32.794843145051395],[131.07533964721935,32.79521049319263],[131.07634224132633,32.794539173948515],[131.07712576297146,32.79495508295016],[131.07866586319238,32.79526643093645],[131.07938791177705,32.79493786889637],[131.0811307673296,32.79516470552021],[131.08202955846548,32.79362899183935],[131.08350919132653,32.792664767268526],[131.08354148898013,32.7921600582507],[131.08508660896794,32.79119314188415],[131.08689322707082,32.79130521082089],[131.0875239285117,32.791760700474406],[131.08934180768804,32.792182382298535],[131.09116508192835,32.79330373443685],[131.0921449877482,32.79348222256156],[131.09276571148553,32.79481923148724],[131.09371546242744,32.795315266953324],[131.09361946369796,32.79601061921782],[131.09454180841186,32.79831042758969],[131.0943791971715,32.798683502960664],[131.09485636586464,32.8001986792013],[131.09470384878622,32.801747434849304],[131.09377056112427,32.803499149287305],[131.09191436057122,32.805233084530606],[131.0917511731493,32.80608799706665],[131.09228260739815,32.807951371094084],[131.09276164695177,32.808757415556435],[131.09280428646917,32.809704487016994],[131.09323498518606,32.8107196392849],[131.09203898396203,32.811836369600876],[131.09125614919787,32.8119889444386],[131.09114160805248,32.81287129451263],[131.08991392469395,32.813209716725034],[131.08901239213526,32.812925372641025],[131.08733876603597,32.81376659602501],[131.08626421208834,32.81342157071776],[131.08558420453355,32.814079708742014],[131.0841627500711,32.81419558260632],[131.0835900373859,32.81512166849582],[131.08205091945055,32.814893765427804],[131.0801866820362,32.81493449455755],[131.0795686863135,32.81598179212785],[131.07805854062178,32.81683546338535],[131.07697816207676,32.81667237135733],[131.07565258449407,32.81624911043723],[131.07527137013273,32.81574406526531],[131.07263773490283,32.81586435471627],[131.07166847002745,32.81689081893841],[131.0702312459571,32.81660459000547],[131.06734384854082,32.81688570362765],[131.06487836439481,32.81765265341174],[131.063455543721,32.81851853245333],[131.06241300915306,32.818672200339805],[131.06221063772438,32.81964117642407],[131.06048012751356,32.82006569405115],[131.05830495540775,32.81968970309484],[131.05734580915887,32.819892666868],[131.05643276658265,32.821104611002646],[131.0548286884511,32.82153828720987],[131.05366988079905,32.81979311282682],[131.05304145845872,32.819919081551944],[131.0528355527285,32.82134365810299],[131.05201665210294,32.82101582887415],[131.05118569705616,32.821292009819544],[131.0505906857842,32.82203243784099],[131.04873004958642,32.82218681329972],[131.0476132977846,32.82155882699883],[131.04718755996066,32.82187668944299],[131.0477586761646,32.82281216991854],[131.0474778038372,32.82339183772324],[131.04714719692,32.82373411237817],[131.04537747707175,32.82383250596217],[131.04411210988215,32.82368632098329],[131.04242984734745,32.82508692361643],[131.04114801902236,32.82514321299225],[131.03997384866287,32.82555555719451],[131.03930400932268,32.82564654402927]]]},"properties":{"KEY_CODE":"434330110","PREF":"43","CITY":"433","CITY_NAME":"南阿蘇村","S_NAME":"大字久石","SETAI":"407"}}]}