{"type":"FeatureCollection","features":[{"type":"Feature","geometry":{"type":"Polygon","coordinates":[[[130.68162178976266,32.58364361024562],[130.6818454148368,32.58472669998644],[130.67844235112233,32.585169655902824],[130.67886388569175,32.58748457919826],[130.67838522786735,32.58795355806315],[130.67711372379344,32.588125611263976],[130.6734405128162,32.58860225592358],[130.67389445179734,32.591030177278526],[130.6733084797742,32.59080020457333],[130.67308431595822,32.59073191492942],[130.6726558148654,32.590618844100696],[130.67177645696523,32.58600232780972],[130.67147247529516,32.584108368619816],[130.67221932763292,32.58395923385974],[130.67238696868037,32.58395967171915],[130.6719715815811,32.58294447440552],[130.67284480915595,32.58224626836913],[130.67021368781343,32.57844290224124],[130.67216773387176,32.577502003688565],[130.6689091760477,32.57269206608099],[130.6699180700735,32.57162030050285],[130.67094487204585,32.57122444100996],[130.67249257389727,32.56967526058516],[130.67352139752884,32.57049419545366],[130.6741588297235,32.572031366339644],[130.67416872065144,32.5733138467594],[130.67530406864142,32.57347576107715],[130.67576530307014,32.57445045477459],[130.6745271670469,32.575048639373186],[130.67612807758871,32.57745844203067],[130.67512212697505,32.57794348365226],[130.67682164689643,32.58038213068408],[130.6766394759574,32.58045450986412],[130.67791134024384,32.582401325405556],[130.67813133058786,32.582882596455455],[130.6803305887765,32.58185808793748],[130.68123430280625,32.583197286556064],[130.68162178976266,32.58364361024562]]]},"properties":{"KEY_CODE":"434680010","PREF":"43","CITY":"468","CITY_NAME":"氷川町","S_NAME":"島地","SETAI":"140"}},{"type":"Feature","geometry":{"type":"Polygon","coordinates":[[[130.6726558148654,32.590618844100696],[130.67257466656864,32.59059742643501],[130.66734506889978,32.588950383508084],[130.66480599724864,32.58891766500117],[130.6628286741782,32.58799298355494],[130.6623963030133,32.58716846460582],[130.66192697507037,32.58745866852136],[130.6608160255054,32.586734294797765],[130.6596711936922,32.58587581587865],[130.65835686700748,32.58433191374604],[130.65835074173975,32.58278282350801],[130.65749792911578,32.581088898919006],[130.6604706966703,32.57755042179558],[130.6620839799449,32.576577861443795],[130.66347961950817,32.57640829847149],[130.6645158064253,32.57590591823717],[130.66740643700436,32.57549674126984],[130.66781740391448,32.5751423896951],[130.6689091760477,32.57269206608099],[130.67216773387176,32.577502003688565],[130.67021368781343,32.57844290224124],[130.67284480915595,32.58224626836913],[130.6719715815811,32.58294447440552],[130.67238696868037,32.58395967171915],[130.67221932763292,32.58395923385974],[130.6714724752952,32.584108368619816],[130.67177645696523,32.58600232780972],[130.6726558148654,32.590618844100696]]]},"properties":{"KEY_CODE":"434680020","PREF":"43","CITY":"468","CITY_NAME":"氷川町","S_NAME":"鹿島","SETAI":"412"}},{"type":"Feature","geometry":{"type":"Polygon","coordinates":[[[130.6623963030133,32.58716846460582],[130.6628286741782,32.58799298355494],[130.66480599724864,32.58891766500117],[130.66734506889978,32.588950383508084],[130.67257466656864,32.59059742643501],[130.66980902007748,32.59529662077924],[130.66664620689707,32.596558782932156],[130.6602089928727,32.599222448663355],[130.65866733488934,32.59979701929678],[130.65774474373126,32.59922845657562],[130.65920607940225,32.59747094341881],[130.64843918603628,32.59110238844091],[130.64687825375893,32.59023414402495],[130.64812253373634,32.5889834090636],[130.65136422621418,32.58627252939541],[130.6565800554015,32.58207778741856],[130.6573167753401,32.581308890033],[130.65749792911578,32.581088898919006],[130.65835074173975,32.58278282350801],[130.65835686700748,32.58433191374604],[130.6596711936922,32.58587581587865],[130.6608160255054,32.586734294797765],[130.6619269750704,32.58745866852136],[130.6623963030133,32.58716846460582]]]},"properties":{"KEY_CODE":"434680030","PREF":"43","CITY":"468","CITY_NAME":"氷川町","S_NAME":"鹿野","SETAI":"201"}},{"type":"Feature","geometry":{"type":"Polygon","coordinates":[[[130.67894696633147,32.59762997860983],[130.67350597071498,32.6001288111479],[130.66212025465694,32.60518838980951],[130.65865148264396,32.60683002201134],[130.65188783341642,32.60989899756209],[130.650873684255,32.60883611471203],[130.650473417591,32.60913207539642],[130.6497219808024,32.60838582313851],[130.648199301198,32.60681275427463],[130.64463155110016,32.60304684192609],[130.64355615852745,32.60191101060176],[130.64014310261405,32.59873446492357],[130.64072573688085,32.59834169136541],[130.64251506710298,32.59846402169447],[130.64378245740832,32.595638641137825],[130.64254404267743,32.594470311068974],[130.64585729937824,32.59134201532773],[130.64687825375893,32.59023414402495],[130.64843918603628,32.59110238844091],[130.65920607940225,32.59747094341881],[130.65774474373129,32.59922845657561],[130.65866733488934,32.59979701929678],[130.6602089928727,32.599222448663355],[130.66664620689707,32.596558782932156],[130.66980902007748,32.59529662077924],[130.67257466656864,32.59059742643501],[130.6726558148654,32.590618844100696],[130.67308431595822,32.59073191492942],[130.67304525826123,32.590920134337225],[130.67399400834438,32.59160449343319],[130.6780241336443,32.59328104046521],[130.67803631256132,32.59535438023499],[130.67839707222265,32.59682690924622],[130.6786180436556,32.59719630235459],[130.67894696633147,32.59762997860983]]]},"properties":{"KEY_CODE":"434680040","PREF":"43","CITY":"468","CITY_NAME":"氷川町","S_NAME":"網道","SETAI":"335"}},{"type":"Feature","geometry":{"type":"Polygon","coordinates":[[[130.6303549188292,32.62263836791877],[130.62316336828303,32.62189645148284],[130.61807044417256,32.619186401320704],[130.61717864151458,32.61791840726117],[130.617441627563,32.61697950878534],[130.61809753426562,32.61635381735597],[130.62619753375407,32.609905755956454],[130.63100316206513,32.60602136579376],[130.64014310261405,32.59873446492357],[130.64355615852745,32.60191101060176],[130.64463155110016,32.60304684192609],[130.648199301198,32.60681275427463],[130.6497219808024,32.60838582313851],[130.65047341759097,32.60913207539643],[130.6492634175032,32.6100899559346],[130.65076583984523,32.611382578785474],[130.6449293625838,32.61634952068912],[130.64358839975034,32.61620145479756],[130.64114538121942,32.61400401981823],[130.6303549188292,32.62263836791877]]]},"properties":{"KEY_CODE":"434680050","PREF":"43","CITY":"468","CITY_NAME":"氷川町","S_NAME":"若洲","SETAI":"166"}},{"type":"Feature","geometry":{"type":"Polygon","coordinates":[[[130.7068372985111,32.584132278408454],[130.70518396172446,32.584767911415575],[130.70397629389814,32.584342481771486],[130.70294133053036,32.58313900414995],[130.7009819940222,32.582312112458425],[130.70053301898201,32.582541460621165],[130.70044608761086,32.58172271777817],[130.70220196068175,32.58223226856466],[130.70288174511163,32.581798474406376],[130.70304863729802,32.58226562837684],[130.70368381530758,32.58180685552491],[130.70467453486452,32.582285250729655],[130.70604268552813,32.58257736263311],[130.70598362796977,32.58348375720441],[130.7068372985111,32.584132278408454]]]},"properties":{"KEY_CODE":"434680060","PREF":"43","CITY":"468","CITY_NAME":"氷川町","S_NAME":"吉本","SETAI":"60"}},{"type":"Feature","geometry":{"type":"Polygon","coordinates":[[[130.68938446213275,32.586199966217265],[130.68904949642575,32.58570151966336],[130.68686512243076,32.58754816544659],[130.68736762106133,32.58781799046345],[130.68351428352724,32.5897577308802],[130.6828292419993,32.588779580676935],[130.68385936081464,32.58827312078594],[130.68341667240156,32.587620376204335],[130.6853596015947,32.58660961018401],[130.68481978831522,32.58621628473251],[130.6847114599784,32.585393815792095],[130.68642699502715,32.584894132774096],[130.68711031876606,32.58423269446484],[130.68763280470588,32.583894905096784],[130.6873245916596,32.58295762826104],[130.68909272767675,32.58181289228287],[130.6940581089901,32.578921395315945],[130.69635055076463,32.57765249436422],[130.69646773618913,32.5777495116578],[130.69742212545992,32.57739807053073],[130.69810285120337,32.576400568525315],[130.69818028475532,32.57618379174302],[130.70182820635998,32.57590492547395],[130.70250457835382,32.57667807311462],[130.7028397154264,32.57692531633886],[130.7035852787017,32.576571287704645],[130.70435290871504,32.57619867217993],[130.70456175743612,32.575975508237626],[130.70430785508822,32.57530063094714],[130.70413611606529,32.57519856017436],[130.70398403311245,32.57519820123735],[130.7037875490141,32.57531293007394],[130.70352245119747,32.57560373541925],[130.70380421979456,32.57451497109077],[130.70424985579518,32.57408569047957],[130.7045329539229,32.573796651032055],[130.70471073761502,32.57328539759542],[130.704991268117,32.573167448092086],[130.70598531709535,32.57208038846052],[130.70691075405523,32.57217661087848],[130.70800658379815,32.57404982709742],[130.70960650185614,32.57567535843671],[130.7111170551358,32.57595678144714],[130.71271933637806,32.57800072754661],[130.71424355576295,32.577473469358026],[130.71449745630733,32.5779600734371],[130.71387203660808,32.57851721174593],[130.71406675527413,32.57965256534207],[130.71293114480974,32.58043881894757],[130.71165734359477,32.580740019605436],[130.7108094317497,32.58096229294316],[130.70986996953482,32.58168626252579],[130.70974454293966,32.58240157518993],[130.70817746422432,32.582588867844066],[130.70747577244822,32.58309228258776],[130.7068372985111,32.584132278408454],[130.70598362796977,32.58348375720441],[130.70604268552813,32.58257736263311],[130.70467453486452,32.582285250729655],[130.70368381530758,32.58180685552491],[130.70304863729802,32.58226562837684],[130.70288174511163,32.581798474406376],[130.70220196068175,32.58223226856466],[130.70044608761086,32.58172271777817],[130.70053301898201,32.582541460621165],[130.69951313007945,32.58224180957064],[130.69810328568062,32.58039464194933],[130.69607713137228,32.58148639512672],[130.69482802597503,32.58239013537216],[130.69439074439583,32.58231706526922],[130.69270787001835,32.583188407301144],[130.69002096670812,32.584988011702706],[130.69041806873207,32.58562758750535],[130.68938446213275,32.586199966217265]]]},"properties":{"KEY_CODE":"434680070","PREF":"43","CITY":"468","CITY_NAME":"氷川町","S_NAME":"高塚","SETAI":"151"}},{"type":"Feature","geometry":{"type":"Polygon","coordinates":[[[130.69635055076463,32.57765249436422],[130.6940581089901,32.578921395315945],[130.6927368597463,32.57723681341839],[130.69161569127203,32.57549955201135],[130.6925008520415,32.57508034240586],[130.69027783318066,32.571680217896336],[130.68899566322156,32.56967280185058],[130.68829551901632,32.56860121696901],[130.68835790202272,32.5685412048394],[130.68968114663448,32.56794471198132],[130.68996927158864,32.568095844608685],[130.68899193707745,32.5662865213402],[130.68817611851443,32.564011325486454],[130.68794501581192,32.56343355414322],[130.68798565046214,32.563245612600916],[130.687950624412,32.563102644810726],[130.68842973868206,32.56303877250494],[130.68837036555004,32.56301220448583],[130.6882902108053,32.562980512021866],[130.68830965532914,32.5629516389681],[130.68869774153472,32.56291357303104],[130.68875872692496,32.56290114851623],[130.68893873168292,32.56286379646228],[130.68941967737382,32.56284047299678],[130.68966073496034,32.56276554363987],[130.68963306717646,32.56259930784491],[130.69014045577393,32.5626691517918],[130.69055427912448,32.562496470187845],[130.6907840251787,32.562257880468806],[130.69083282029976,32.562329759026],[130.69082016096792,32.56255630829587],[130.6906407470429,32.56285543573648],[130.6905624635005,32.5631346998076],[130.69080591441823,32.56323347774175],[130.6910030999662,32.56294950578359],[130.69207339498175,32.56207854635368],[130.6933945927386,32.56128498542554],[130.69439863047933,32.561084777259296],[130.69483652541894,32.560826537974684],[130.6955651585554,32.560740209629465],[130.69574956522533,32.56071546934018],[130.69599234034126,32.56056627315249],[130.69690949596432,32.5612573641298],[130.6971297535069,32.56195800045505],[130.69807003754397,32.56198559855137],[130.69847910193548,32.56286384100197],[130.7002002669105,32.56338672345686],[130.70136142997035,32.56283854510888],[130.7018487191969,32.561998661498556],[130.7020840414467,32.56044020980159],[130.70299499761165,32.55966286568337],[130.70403687358396,32.55957299968506],[130.70599781740148,32.559913541777],[130.70666819131304,32.55770221365925],[130.70930856116124,32.555886098557785],[130.71030339735614,32.55609402260484],[130.71155051184192,32.55587756836501],[130.71329529004325,32.55588258422177],[130.714295728723,32.555531536525145],[130.71360264328422,32.55685284128742],[130.71401946027376,32.55696884165518],[130.71475102661566,32.55727039217925],[130.71634329900164,32.55692070587159],[130.71676032932896,32.556970927458885],[130.71816786889855,32.556744025769596],[130.71876147681198,32.5561866219883],[130.72038938273963,32.55683938174456],[130.72079728750353,32.5567088211549],[130.72145683707163,32.556767810433506],[130.72234236772474,32.556590220069346],[130.72273346765758,32.55651178607656],[130.7234016492092,32.55692409016342],[130.72531162557055,32.55735549334984],[130.72351509195167,32.55820162423255],[130.722684413544,32.55850178053706],[130.72251286751074,32.55862226486965],[130.72222858879016,32.55880421759092],[130.72186695955043,32.55897937664165],[130.72130374628537,32.55932842459049],[130.72118663007944,32.55958789281609],[130.72047251993467,32.560452852168105],[130.71977457535684,32.560465038982024],[130.71870145290384,32.56107960784904],[130.71813594415883,32.56255509136031],[130.71645104051618,32.5632981198979],[130.71630944858546,32.56415145701086],[130.71545064012102,32.56427781499571],[130.7134866947222,32.56596545218299],[130.7133458765989,32.56657445203126],[130.71235389112542,32.56659966585383],[130.71121023079445,32.56779434103793],[130.7107313641614,32.56863928663911],[130.70995658101373,32.56842064426513],[130.70879023256128,32.56936631985267],[130.70874287602928,32.57005799556042],[130.7079693311366,32.57055712459551],[130.70795405836535,32.571364949464844],[130.70691075405523,32.57217661087848],[130.70598531709535,32.57208038846052],[130.704991268117,32.573167448092086],[130.70471073761502,32.57328539759542],[130.7045329539229,32.573796651032055],[130.70424985579518,32.57408569047957],[130.70380421979456,32.57451497109077],[130.70352245119747,32.57560373541925],[130.7037875490141,32.57531293007394],[130.70398403311245,32.57519820123735],[130.70413611606529,32.57519856017436],[130.70430785508822,32.57530063094714],[130.70456175743612,32.575975508237626],[130.70435290871504,32.57619867217993],[130.7035852787017,32.576571287704645],[130.7028397154264,32.57692531633886],[130.70250457835382,32.57667807311462],[130.70182820635998,32.57590492547395],[130.69818028475532,32.57618379174304],[130.69810285120337,32.576400568525315],[130.69742212545992,32.57739807053073],[130.69646773618913,32.5777495116578],[130.69635055076463,32.57765249436422]]]},"properties":{"KEY_CODE":"434680080","PREF":"43","CITY":"468","CITY_NAME":"氷川町","S_NAME":"大野","SETAI":"216"}},{"type":"Feature","geometry":{"type":"Polygon","coordinates":[[[130.68351428352724,32.5897577308802],[130.6783325748225,32.592411555047114],[130.6780241336443,32.59328104046521],[130.67399400834438,32.59160449343319],[130.67304525826123,32.590920134337225],[130.67308431595822,32.59073191492942],[130.6733084797742,32.59080020457333],[130.6738944517974,32.59103017727854],[130.6734405128162,32.58860225592354],[130.67711372379344,32.588125611263976],[130.67838522786735,32.58795355806309],[130.67886388569175,32.58748457919826],[130.67844235112233,32.585169655902824],[130.6818454148368,32.58472669998644],[130.68162178976266,32.58364361024562],[130.68214853209068,32.583761830062286],[130.6857212562289,32.58210767689851],[130.68563436177106,32.58195394113493],[130.6863175215049,32.581322097823545],[130.68664130517308,32.58116466778459],[130.6868928448556,32.58122951539619],[130.68715495337818,32.58110546751616],[130.687366894911,32.5807757448262],[130.68811706449222,32.5807560200223],[130.68850798647034,32.58057733532229],[130.6885481351714,32.58041172767584],[130.68955399623565,32.580123813445724],[130.68919653109282,32.579539321934796],[130.69116879190025,32.578612446218024],[130.6908439247728,32.57813414406676],[130.6927368597463,32.57723681341839],[130.6940581089901,32.578921395315945],[130.68909272767672,32.58181289228287],[130.6873245916596,32.582957628261056],[130.68763280470588,32.583894905096784],[130.68711031876606,32.58423269446484],[130.68642699502715,32.584894132774096],[130.6847114599784,32.585393815792095],[130.68481978831522,32.58621628473251],[130.6853596015947,32.58660961018401],[130.68341667240156,32.587620376204335],[130.68385936081464,32.58827312078594],[130.6828292419993,32.588779580676935],[130.68351428352724,32.5897577308802]]]},"properties":{"KEY_CODE":"434680090","PREF":"43","CITY":"468","CITY_NAME":"氷川町","S_NAME":"新田","SETAI":"98"}},{"type":"Feature","geometry":{"type":"Polygon","coordinates":[[[130.68372645245347,32.55934819661691],[130.6829614595913,32.55917663898368],[130.68269699935857,32.55933547738594],[130.68206898630376,32.55956106290644],[130.68143668122624,32.55982880163155],[130.68101981202693,32.559188467417925],[130.68288608458914,32.55836336578145],[130.68388566931296,32.55796247404906],[130.68458159849294,32.55755880171103],[130.68515112565893,32.55709802028633],[130.68580847575487,32.55683109871223],[130.68598457712525,32.55669979052901],[130.68606727927747,32.556638104170865],[130.68666614212333,32.556661093686294],[130.68641952882078,32.556888678506],[130.68556394611105,32.55788952351163],[130.68549676534937,32.55809036235722],[130.68530340091715,32.55840945861282],[130.68389081382008,32.55918177572359],[130.68372645245347,32.55934819661691]]]},"properties":{"KEY_CODE":"434680100","PREF":"43","CITY":"468","CITY_NAME":"氷川町","S_NAME":"河原","SETAI":"42"}},{"type":"Feature","geometry":{"type":"Polygon","coordinates":[[[130.68214853209068,32.583761830062286],[130.68162178976266,32.58364361024562],[130.68123430280625,32.583197286556064],[130.68033058877654,32.581858087937455],[130.67813133058783,32.58288259645542],[130.67791134024384,32.582401325405556],[130.6766394759574,32.58045450986412],[130.67682164689643,32.58038213068408],[130.67512212697505,32.57794348365226],[130.67612807758871,32.57745844203067],[130.6745271670469,32.575048639373186],[130.67576530307014,32.57445045477459],[130.67530406864142,32.57347576107715],[130.67416872065144,32.5733138467594],[130.6741588297235,32.572031366339644],[130.67352139752884,32.57049419545366],[130.67249257389727,32.56967526058516],[130.67449789752348,32.56761744136269],[130.67479497322228,32.56714990263084],[130.67531028549686,32.56604246271148],[130.6757733781451,32.56420839484199],[130.67643124074158,32.56298098507055],[130.67847742459347,32.560916129655624],[130.68101981202693,32.55918846741792],[130.68143668122624,32.55982880163155],[130.68206898630376,32.55956106290644],[130.68269699935857,32.55933547738594],[130.6829614595913,32.55917663898368],[130.68372645245347,32.55934819661691],[130.68389081382008,32.55918177572359],[130.68530340091715,32.55840945861282],[130.68549676534937,32.55809036235722],[130.68556394611105,32.55788952351163],[130.68641952882078,32.556888678506],[130.68666614212333,32.556661093686294],[130.68697157758285,32.55692926797946],[130.68754208346903,32.557239884185286],[130.68817816418598,32.55724925584162],[130.68841036894358,32.557281081322344],[130.68865873333002,32.557444096075685],[130.68931950101629,32.557513656810634],[130.68967594283257,32.557609020088535],[130.68979001024775,32.5576842312495],[130.6902309789749,32.55759943993578],[130.69032690345338,32.557587206870345],[130.6910161705387,32.557679479134244],[130.69167833496505,32.55749025151768],[130.69189732297755,32.55747691074357],[130.69227525515046,32.557408302590424],[130.6923741436791,32.55730191288699],[130.69265965916279,32.55704302552546],[130.69291163496047,32.556992669773614],[130.69322340292308,32.55705832299326],[130.69312206181405,32.55787858630936],[130.69299072303878,32.55866397199505],[130.6937937007314,32.559152674213806],[130.69410942163367,32.559663359174756],[130.69472739654864,32.55982712402462],[130.69509047255423,32.56010380239966],[130.69583515934235,32.56045763833362],[130.69574956522533,32.56071546934018],[130.6955651585554,32.560740209629465],[130.69483652541894,32.560826537974684],[130.69439863047933,32.561084777259296],[130.6933945927386,32.56128498542554],[130.69207339498175,32.56207854635368],[130.6910030999662,32.56294950578359],[130.69080591441823,32.56323347774175],[130.6905624635005,32.5631346998076],[130.6906407470429,32.56285543573648],[130.69082016096792,32.56255630829587],[130.69083282029976,32.562329759026],[130.6907840251787,32.562257880468806],[130.69055427912448,32.562496470187845],[130.69014045577393,32.5626691517918],[130.68963306717646,32.56259930784491],[130.68966073496034,32.56276554363987],[130.68941967737382,32.56284047299678],[130.68893873168292,32.56286379646228],[130.68875872692496,32.56290114851623],[130.68869774153472,32.56291357303104],[130.68830965532914,32.5629516389681],[130.6882902108053,32.562980512021866],[130.68837036555004,32.56301220448583],[130.68842973868206,32.56303877250494],[130.687950624412,32.563102644810726],[130.68798565046214,32.563245612600916],[130.68794501581192,32.56343355414322],[130.68817611851443,32.564011325486454],[130.68899193707745,32.5662865213402],[130.68996927158864,32.568095844608685],[130.68968114663454,32.56794471198134],[130.68835790202272,32.5685412048394],[130.68829551901632,32.56860121696901],[130.68899566322156,32.56967280185058],[130.69027783318066,32.571680217896336],[130.6925008520415,32.57508034240586],[130.69161569127206,32.575499552011294],[130.6927368597463,32.57723681341839],[130.6908439247728,32.57813414406674],[130.69116879190028,32.578612446218045],[130.68919653109282,32.57953932193476],[130.68955399623565,32.580123813445724],[130.6885481351714,32.58041172767584],[130.68850798647034,32.58057733532229],[130.68811706449222,32.5807560200223],[130.687366894911,32.5807757448262],[130.68715495337818,32.58110546751616],[130.6868928448556,32.58122951539619],[130.68664130517308,32.58116466778459],[130.6863175215049,32.581322097823545],[130.68563436177106,32.58195394113493],[130.6857212562289,32.58210767689851],[130.68214853209068,32.583761830062286]]]},"properties":{"KEY_CODE":"434680110","PREF":"43","CITY":"468","CITY_NAME":"氷川町","S_NAME":"野津","SETAI":"536"}},{"type":"Feature","geometry":{"type":"Polygon","coordinates":[[[130.6711504912514,32.55132439428857],[130.67162679080127,32.552336934007286],[130.67292507212198,32.55420381709406],[130.6735307376206,32.555352726112915],[130.6733977504756,32.556217531132546],[130.67285080345079,32.55629134687697],[130.67312588316963,32.55780586297157],[130.67185083966066,32.55782429406072],[130.67221951208947,32.559156050466],[130.67230879326831,32.56060244501061],[130.67079275812813,32.56120385130535],[130.67058928183587,32.56092663919344],[130.67052487372692,32.56080609594382],[130.67045573855978,32.560620053793315],[130.67038170283175,32.56040867004091],[130.67022916673568,32.55984437913238],[130.67026718418424,32.5596818688223],[130.6702728248449,32.559506591238375],[130.67015813357528,32.559158874944444],[130.67025964023892,32.55868395767483],[130.67027126496666,32.55857731863891],[130.67033970578564,32.558275492980016],[130.67037601498149,32.55789967566455],[130.67040955513963,32.557597757972566],[130.670407904264,32.557363314006444],[130.67029384075323,32.557189834336],[130.67005581373945,32.556815405573815],[130.6699268855554,32.5566122955562],[130.66947269786604,32.556699797702834],[130.66924554041086,32.55676045810706],[130.66872361465582,32.55695339085525],[130.66859885827222,32.556972047822754],[130.668434273316,32.5569737255223],[130.667344861749,32.55718741004312],[130.66622149380126,32.557787478746214],[130.66564746146568,32.557450752993425],[130.6641946591698,32.555662571919406],[130.66432184756823,32.55548349801073],[130.66488743237306,32.555323039091384],[130.6693854666484,32.55330246078422],[130.6704827446104,32.55270775645134],[130.66999328851227,32.551870223374046],[130.67057616211022,32.551603997330375],[130.6711504912514,32.55132439428857]]]},"properties":{"KEY_CODE":"434680120","PREF":"43","CITY":"468","CITY_NAME":"氷川町","S_NAME":"有佐","SETAI":"63"}},{"type":"Feature","geometry":{"type":"Polygon","coordinates":[[[130.68101981202693,32.55918846741792],[130.67847742459347,32.560916129655624],[130.67643124074158,32.56298098507055],[130.67580036802022,32.56261503084125],[130.6749213831376,32.562236839421416],[130.6735613565949,32.56212662909925],[130.67230879326831,32.56060244501061],[130.67221951208947,32.559156050466],[130.67185083966066,32.55782429406072],[130.67312588316963,32.55780586297157],[130.67285080345079,32.55629134687697],[130.6733977504756,32.556217531132546],[130.6735307376206,32.555352726112915],[130.67292507212198,32.55420381709406],[130.67162679080127,32.552336934007286],[130.6711504912514,32.55132439428857],[130.67116260472764,32.55128247042854],[130.67195690348694,32.550827375685266],[130.67212452065917,32.5507728253806],[130.67271016108728,32.55171705968954],[130.6733745269142,32.55276111859834],[130.67385713287865,32.553459712001775],[130.67414797631866,32.55380337581807],[130.67468218413853,32.55453852210375],[130.67584335765733,32.554069634473244],[130.67633401006808,32.55516006897494],[130.6772979721634,32.55479640912186],[130.67995048913636,32.553446977200785],[130.681696593238,32.552759362307974],[130.68258520662124,32.55308469547352],[130.6829429897362,32.55222052566679],[130.68229248698415,32.551269350147585],[130.6840291440677,32.55082975507308],[130.68528398159899,32.55007885016637],[130.68524067875305,32.549429641611994],[130.68733930265634,32.547715599994355],[130.6880409633124,32.54757711259325],[130.68956215497712,32.54835336194919],[130.69005428435628,32.54779802680729],[130.6912861659876,32.54764480470963],[130.69407384171603,32.546526845541216],[130.69510382405724,32.54765723498189],[130.69551373658197,32.547998600311324],[130.69535950236573,32.54887552682927],[130.69482583711675,32.54892118368174],[130.69464419371394,32.54902145523287],[130.6945237221272,32.549136600437365],[130.69409875914693,32.55014975709969],[130.69296527318537,32.55000811272547],[130.6911452896957,32.55002512002098],[130.6900563118093,32.55070023514553],[130.68825047620854,32.552950120395124],[130.68750082147122,32.55531506770668],[130.68791459746168,32.55554595807852],[130.68722607415293,32.55627383100513],[130.68652742298735,32.55626331174663],[130.68585652388134,32.5565641610145],[130.68598457712525,32.556699790528974],[130.68515112565893,32.55709802028632],[130.68458159849294,32.55755880171103],[130.68388566931296,32.55796247404906],[130.68358270856623,32.55747289317906],[130.68357553940558,32.55732414570138],[130.68352667191817,32.557221862071785],[130.6827294560932,32.5556360530921],[130.6820393405031,32.55487102665357],[130.6813312628986,32.55508580019801],[130.681176823287,32.55510171638691],[130.68106525479763,32.555267352082666],[130.68106139795964,32.555805053268664],[130.68119895463957,32.55673706325901],[130.6815212137947,32.55728704478903],[130.68251446482276,32.55850072436832],[130.68101981202693,32.55918846741792]]]},"properties":{"KEY_CODE":"434680130","PREF":"43","CITY":"468","CITY_NAME":"氷川町","S_NAME":"宮原","SETAI":"929"}},{"type":"Feature","geometry":{"type":"Polygon","coordinates":[[[130.6813312628986,32.55508580019801],[130.6820393405031,32.55487102665357],[130.6827294560932,32.5556360530921],[130.68352667191817,32.557221862071785],[130.68357553940558,32.55732414570138],[130.68358270856623,32.55747289317906],[130.68388566931296,32.55796247404904],[130.68288608458914,32.55836336578145],[130.68251446482276,32.55850072436832],[130.6815212137947,32.55728704478903],[130.68119895463957,32.55673706325901],[130.68106139795964,32.555805053268664],[130.68106525479763,32.555267352082666],[130.681176823287,32.55510171638691],[130.6813312628986,32.55508580019801]]]},"properties":{"KEY_CODE":"434680140","PREF":"43","CITY":"468","CITY_NAME":"氷川町","S_NAME":"宮原栄久","SETAI":"69"}},{"type":"Feature","geometry":{"type":"Polygon","coordinates":[[[130.67995048913636,32.553446977200785],[130.6772979721634,32.55479640912186],[130.67633401006808,32.55516006897494],[130.67584335765733,32.554069634473244],[130.67468218413853,32.55453852210375],[130.67414797631866,32.55380337581807],[130.67385713287865,32.553459712001775],[130.6733745269142,32.55276111859834],[130.67271016108725,32.55171705968954],[130.6733382720529,32.55145569531034],[130.6736677209351,32.55127710653572],[130.67395541233066,32.551195319399994],[130.67514958066695,32.550648706294],[130.67740278807193,32.54947795018554],[130.677713159656,32.54992001378099],[130.67903383006345,32.549206151873705],[130.67881495440233,32.54897350951337],[130.67999856184434,32.54847170648898],[130.6805598628865,32.54877670238763],[130.6804709452902,32.549531259741336],[130.68109365842332,32.550060279388404],[130.6826322719189,32.54918172253511],[130.68341477789872,32.54793556918545],[130.68513459969893,32.54830579848234],[130.68620797081752,32.54788509833079],[130.68598819460692,32.5473647318931],[130.686700861018,32.54698042732363],[130.6880409633124,32.54757711259325],[130.68733930265634,32.547715599994355],[130.68524067875305,32.549429641611994],[130.68528398159899,32.55007885016637],[130.6840291440677,32.55082975507308],[130.68229248698415,32.551269350147585],[130.6829429897362,32.55222052566679],[130.68258520662124,32.55308469547352],[130.681696593238,32.552759362307974],[130.67995048913636,32.553446977200785]]]},"properties":{"KEY_CODE":"434680150","PREF":"43","CITY":"468","CITY_NAME":"氷川町","S_NAME":"今","SETAI":"88"}},{"type":"Feature","geometry":{"type":"Polygon","coordinates":[[[130.6880409633124,32.54757711259325],[130.686700861018,32.54698042732363],[130.68598819460692,32.5473647318931],[130.68620797081752,32.54788509833079],[130.68513459969893,32.54830579848234],[130.68341477789872,32.54793556918545],[130.6826322719189,32.54918172253511],[130.68109365842332,32.550060279388404],[130.6804709452902,32.549531259741336],[130.6805598628865,32.54877670238763],[130.67999856184434,32.54847170648898],[130.67881495440233,32.54897350951337],[130.67903383006345,32.549206151873705],[130.677713159656,32.54992001378099],[130.67740278807193,32.54947795018554],[130.67514958066695,32.550648706294],[130.67395541233066,32.551195319399994],[130.6736677209351,32.55127710653572],[130.6733382720529,32.55145569531034],[130.67271016108725,32.55171705968954],[130.67212452065914,32.5507728253806],[130.67163556678165,32.549995610792074],[130.67149307286465,32.54990882150056],[130.67308722623025,32.54919066697391],[130.67375762953867,32.54887442134376],[130.67380529959638,32.54755252002863],[130.67536108204587,32.546701182668215],[130.67511165975057,32.54557469026087],[130.67576456898817,32.545152073960125],[130.67643394881782,32.54437281475509],[130.67642407402934,32.54403033976812],[130.67622371531664,32.54383884797395],[130.6781252652091,32.54290224744967],[130.6787967146282,32.54294858110728],[130.68021109263256,32.541910715878],[130.68097802859427,32.541481849185004],[130.68117050799313,32.54130307418309],[130.68216673147867,32.54001395811403],[130.68236228083285,32.53963797947659],[130.68248999379907,32.53936923564381],[130.68261209928494,32.53928031504437],[130.68396263616262,32.53858522681497],[130.6843982365054,32.53828795449594],[130.6843164651039,32.53768785338326],[130.68512889361148,32.53681390748559],[130.68729893092245,32.53597940257418],[130.6870014219039,32.53506632511879],[130.6856584439133,32.531395094145424],[130.68402497413354,32.5305822184462],[130.68494000761854,32.530256719237876],[130.68538259374384,32.52873183144694],[130.68650891075185,32.527706401760405],[130.68711479547503,32.527825829583435],[130.68779126188238,32.528278097427574],[130.68840930737417,32.52876515362738],[130.68955544746498,32.52972743578584],[130.69062761933378,32.53032600488932],[130.6915597884618,32.53097988084391],[130.6921742355711,32.53129643632464],[130.6927745686063,32.53140651890586],[130.6933293986906,32.5314958078065],[130.69369951037123,32.53169416559155],[130.69418658976517,32.53208575229624],[130.69474510767964,32.532345616736634],[130.69503779692363,32.53256798429395],[130.69579371617158,32.53303923375837],[130.6960219627546,32.5332156807506],[130.6965491464794,32.53365762460347],[130.69721914492106,32.53416004585967],[130.69801765575414,32.5345739281681],[130.6990006567097,32.53494696202266],[130.700058865977,32.53563965223121],[130.70004619942213,32.536890741087994],[130.7001739049664,32.53767455148247],[130.70005760259224,32.537917486708054],[130.699970303035,32.538037545352964],[130.6997049262203,32.53850452483579],[130.699338853305,32.539296100010624],[130.69893961590148,32.53986864999221],[130.69840714454574,32.54035471284182],[130.69784096616155,32.540470023271546],[130.69737000513774,32.54094005951989],[130.69711534089703,32.54136214509727],[130.69677066833896,32.542080205407835],[130.69666142424944,32.54242637241116],[130.6965529201358,32.54286677575439],[130.69656270676623,32.54310194562745],[130.69643345879712,32.54340409929084],[130.69636662282497,32.54374138477094],[130.69619830567075,32.54432343494309],[130.6961426319169,32.544490244755494],[130.69620424213508,32.544755167404574],[130.6964081502015,32.54524208680019],[130.6967040582398,32.5454725571268],[130.69726605524826,32.5456387835613],[130.69741855475164,32.54558722756398],[130.69781314688865,32.545889762169125],[130.69787438109267,32.545916717175395],[130.69746041510132,32.5463683890607],[130.6955959571729,32.546637862536244],[130.69448210080225,32.5457531947412],[130.69407384171603,32.546526845541216],[130.6912861659876,32.54764480470963],[130.69005428435628,32.54779802680729],[130.68956215497712,32.54835336194919],[130.6880409633124,32.54757711259325]]]},"properties":{"KEY_CODE":"434680160","PREF":"43","CITY":"468","CITY_NAME":"氷川町","S_NAME":"早尾","SETAI":"167"}},{"type":"Feature","geometry":{"type":"Polygon","coordinates":[[[130.67116260472764,32.55128247042854],[130.67057616211022,32.551603997330375],[130.66990410059958,32.55058360672833],[130.66868891296605,32.54979568174243],[130.66839166742304,32.54995073924095],[130.6679767146049,32.548985129555916],[130.66730139091018,32.548194044795814],[130.66654339008687,32.5475090531372],[130.66526149371467,32.545963751093616],[130.66499306730273,32.546133110202405],[130.66416938750316,32.54519248422503],[130.66692106625223,32.544357892297356],[130.66971436194663,32.54763185189414],[130.67024458153668,32.5482201881137],[130.67241357795282,32.54692022800066],[130.6730134167345,32.54739156624008],[130.67324746763683,32.5475700457989],[130.67361333153417,32.547603872644196],[130.67375762953873,32.54887442134379],[130.67308722623025,32.54919066697391],[130.67149307286465,32.54990882150056],[130.67163556678165,32.549995610792074],[130.67195690348694,32.550827375685266],[130.67116260472764,32.55128247042854]]]},"properties":{"KEY_CODE":"434680170","PREF":"43","CITY":"468","CITY_NAME":"氷川町","S_NAME":"中島","SETAI":"52"}},{"type":"Feature","geometry":{"type":"Polygon","coordinates":[[[130.67024458153668,32.5482201881137],[130.66971436194663,32.54763185189414],[130.66692106625226,32.544357892297356],[130.66874529943323,32.54354272507001],[130.67058573338264,32.542501624578925],[130.6716636659869,32.54237409840355],[130.67456960520147,32.54074314538526],[130.67493280579242,32.539946993610656],[130.67570271745802,32.539854205635514],[130.6757725361033,32.53892098970898],[130.67663371105849,32.53874543818378],[130.67721047528647,32.53788765863261],[130.6788485283455,32.536638494554765],[130.68071219957497,32.53587289238833],[130.6820782948677,32.53336956022748],[130.68280874382916,32.53255360988974],[130.68328618099494,32.53107031802666],[130.68402497413354,32.5305822184462],[130.6856584439133,32.531395094145424],[130.6870014219039,32.53506632511879],[130.68729893092245,32.53597940257416],[130.68512889361148,32.53681390748559],[130.6843164651039,32.53768785338326],[130.6843982365054,32.53828795449594],[130.68396263616262,32.53858522681497],[130.68261209928494,32.53928031504437],[130.68248999379907,32.53936923564381],[130.68236228083285,32.53963797947659],[130.68216673147867,32.54001395811403],[130.68117050799313,32.54130307418309],[130.68097802859427,32.541481849185004],[130.68021109263256,32.541910715878],[130.6787967146282,32.54294858110725],[130.6781252652091,32.54290224744964],[130.67622371531664,32.54383884797393],[130.67642407402934,32.54403033976812],[130.67643394881782,32.54437281475509],[130.67576456898817,32.545152073960125],[130.67511165975057,32.54557469026087],[130.67536108204587,32.546701182668215],[130.67380529959638,32.54755252002863],[130.67361333153417,32.547603872644196],[130.67324746763683,32.5475700457989],[130.6730134167345,32.54739156624008],[130.67241357795282,32.54692022800066],[130.67024458153668,32.5482201881137]]]},"properties":{"KEY_CODE":"434680180","PREF":"43","CITY":"468","CITY_NAME":"氷川町","S_NAME":"栫","SETAI":"92"}},{"type":"Feature","geometry":{"type":"Polygon","coordinates":[[[130.714295728723,32.555531536525145],[130.71329529004325,32.55588258422177],[130.71155051184192,32.55587756836501],[130.71030339735614,32.55609402260484],[130.70930856116124,32.555886098557785],[130.70666819131304,32.55770221365925],[130.70599781740148,32.559913541777],[130.70403687358396,32.55957299968506],[130.70299499761165,32.55966286568337],[130.7020840414467,32.56044020980159],[130.7018487191969,32.561998661498556],[130.70136142997035,32.56283854510888],[130.7002002669105,32.56338672345686],[130.69847910193548,32.56286384100197],[130.69807003754397,32.56198559855137],[130.6971297535069,32.56195800045505],[130.69690949596432,32.5612573641298],[130.69599234034126,32.56056627315249],[130.69583515934235,32.56045763833362],[130.69509047255423,32.56010380239966],[130.69472739654864,32.55982712402462],[130.69410942163367,32.559663359174756],[130.6937937007314,32.559152674213806],[130.69299072303878,32.55866397199505],[130.69312206181405,32.55787858630936],[130.69322340292308,32.55705832299326],[130.69291163496047,32.556992669773614],[130.69265965916279,32.55704302552546],[130.6923741436791,32.55730191288699],[130.69227525515046,32.557408302590424],[130.69189732297755,32.55747691074357],[130.69167833496505,32.55749025151768],[130.6910161705387,32.557679479134244],[130.69032690345338,32.557587206870345],[130.6902309789749,32.55759943993578],[130.68979001024775,32.5576842312495],[130.68967594283257,32.557609020088535],[130.68931950101629,32.557513656810634],[130.68865873333002,32.557444096075685],[130.68841036894358,32.557281081322344],[130.68817816418598,32.55724925584162],[130.68754208346903,32.557239884185286],[130.68697157758285,32.55692926797946],[130.68666614212333,32.556661093686294],[130.68606727927747,32.556638104170865],[130.68598457712525,32.556699790528974],[130.68585652388134,32.5565641610145],[130.68652742298735,32.55626331174663],[130.68722607415293,32.55627383100513],[130.68791459746168,32.55554595807852],[130.68750082147122,32.55531506770668],[130.68825047620854,32.552950120395124],[130.6900563118093,32.55070023514553],[130.6911452896957,32.55002512002098],[130.69296527318537,32.55000811272547],[130.69409875914693,32.55014975709968],[130.6945237221272,32.549136600437365],[130.69464419371394,32.54902145523287],[130.69482583711675,32.54892118368174],[130.69535950236573,32.54887552682927],[130.69551373658197,32.547998600311324],[130.69510382405724,32.54765723498189],[130.69407384171603,32.546526845541216],[130.69448210080225,32.5457531947412],[130.6955959571729,32.546637862536244],[130.69746041510132,32.5463683890607],[130.69787438109267,32.545916717175395],[130.69855380191106,32.54593258409471],[130.6986110790067,32.545961221246664],[130.69879380568344,32.54632689747121],[130.69894019618647,32.546323902419275],[130.69957294747442,32.546106763767796],[130.69985280433158,32.5458242764227],[130.69996748390534,32.545547276299864],[130.70013031714055,32.54536001072135],[130.70022943196477,32.54529659046659],[130.70169262429644,32.54488287967603],[130.70273392826678,32.54433833424743],[130.7029520794136,32.54416627071526],[130.7033006623846,32.54403640038485],[130.7035762343649,32.54384939369794],[130.7039011699789,32.5438203236638],[130.70410839366767,32.54376339163957],[130.7047803757116,32.54374746778635],[130.70506168685822,32.54405739523308],[130.70523788547618,32.544277806559194],[130.70538449880047,32.54433236726978],[130.706475002867,32.54469202897865],[130.70649037765853,32.54516555935895],[130.70750853649724,32.54692797014861],[130.70752178746451,32.54706031514418],[130.70822390934802,32.54862432159007],[130.71186590297896,32.54891955932159],[130.7118649726677,32.54898187476035],[130.71191625424183,32.54942198312082],[130.71217413980239,32.55058796734628],[130.71298946494997,32.5516723380664],[130.71385811158072,32.5525750515058],[130.71452526803512,32.554089476065336],[130.71433688671334,32.55531022866391],[130.714295728723,32.555531536525145]]]},"properties":{"KEY_CODE":"434680190","PREF":"43","CITY":"468","CITY_NAME":"氷川町","S_NAME":"立神","SETAI":"115"}}]}