{"type":"FeatureCollection","features":[{"type":"Feature","geometry":{"type":"Polygon","coordinates":[[[130.43469146294913,32.24761560719068],[130.43331165171918,32.24715793846339],[130.43239957279334,32.24735584440318],[130.43203811890555,32.24815629992142],[130.4314031836684,32.248361008890015],[130.431506317623,32.24770516890213],[130.4301257444665,32.248402952700125],[130.42808405192272,32.24821702043303],[130.4268375630963,32.24910328253572],[130.4253956950064,32.24905509245545],[130.42593623059506,32.246720151483316],[130.42698561146926,32.246067483290226],[130.42710925632966,32.24496955494923],[130.42823128556023,32.24423512746218],[130.42944001805157,32.243883448424164],[130.42982318967174,32.242679461246446],[130.4304469170987,32.24237832716825],[130.43073844983567,32.24123613729873],[130.43131886873354,32.24089873097975],[130.4325976620614,32.24138788255526],[130.43309227333236,32.24204936194702],[130.43453440429994,32.241183722781756],[130.43555494570361,32.24105752033798],[130.4359391672383,32.24001042824123],[130.43534553793083,32.23957306476405],[130.43502396880902,32.238557975937105],[130.43571020409857,32.23860430301081],[130.43604916391016,32.238010604418136],[130.4376206879068,32.237664132291165],[130.4383521433044,32.23829507583567],[130.4388474376233,32.23815749209764],[130.43989186298305,32.23689864499044],[130.44178411783864,32.23709422059058],[130.44181444365626,32.23817873622266],[130.44283339913216,32.238481964307034],[130.44273237228757,32.2391075860094],[130.44202991284055,32.23902184195087],[130.4421223553104,32.239541296190474],[130.44074356966738,32.23978454508062],[130.44085581005808,32.240474097644615],[130.43989817510067,32.24141960060919],[130.43907389458454,32.2414387740274],[130.43773471437797,32.2425120680633],[130.43694057854034,32.24272927399078],[130.4367816387314,32.243442353787806],[130.4354295616602,32.2444203853905],[130.43637473450218,32.24513260976669],[130.43478999335125,32.24645632834775],[130.43469146294913,32.24761560719068]]]},"properties":{"KEY_CODE":"43484001001","PREF":"43","CITY":"484","CITY_NAME":"津奈木町","S_NAME":"大字岩城（大泊）","SETAI":"113"}},{"type":"Feature","geometry":{"type":"Polygon","coordinates":[[[130.44955530171097,32.23479143317188],[130.45029389158944,32.23499904480425],[130.45062137505604,32.23590442435565],[130.44901774995776,32.236600451684225],[130.44999681265023,32.23690162001655],[130.45141823550728,32.237751014212456],[130.45083392710401,32.23845838308086],[130.45077573473716,32.239192838222934],[130.45149128064463,32.23974980096416],[130.45013030042077,32.240383400219294],[130.44886958144573,32.239618531492724],[130.4472052993499,32.24040873638143],[130.44635809011035,32.24051923756803],[130.44553068423227,32.23995027875113],[130.44366431227434,32.23935398715064],[130.4421223553104,32.239541296190474],[130.44202991284055,32.23902184195087],[130.44273237228757,32.2391075860094],[130.44283339913216,32.238481964307034],[130.44181444365626,32.23817873622266],[130.44178411783864,32.23709422059058],[130.44327132767197,32.236912667297844],[130.44428501512675,32.236162264156235],[130.4456426148333,32.236467880338715],[130.44724812247347,32.23568277478416],[130.44955530171097,32.23479143317188]]]},"properties":{"KEY_CODE":"43484001002","PREF":"43","CITY":"484","CITY_NAME":"津奈木町","S_NAME":"大字岩城（古川）","SETAI":"85"}},{"type":"Feature","geometry":{"type":"Polygon","coordinates":[[[130.44955530171097,32.23479143317188],[130.44724812247347,32.23568277478416],[130.4456426148333,32.236467880338715],[130.44428501512675,32.236162264156235],[130.44376067005567,32.23491830531611],[130.44416078007512,32.23469862223387],[130.4481612537317,32.23418132681121],[130.44964233037308,32.2341629894626],[130.44955530171097,32.23479143317188]]]},"properties":{"KEY_CODE":"43484001003","PREF":"43","CITY":"484","CITY_NAME":"津奈木町","S_NAME":"大字岩城（新川）","SETAI":"53"}},{"type":"Feature","geometry":{"type":"Polygon","coordinates":[[[130.4356553326801,32.24760878148116],[130.43529218995357,32.24762400066159],[130.43469146294913,32.24761560719068],[130.43478999335125,32.24645632834775],[130.43637473450218,32.24513260976669],[130.4354295616602,32.2444203853905],[130.4367816387314,32.243442353787806],[130.43694057854034,32.24272927399078],[130.43773471437797,32.2425120680633],[130.43907389458454,32.2414387740274],[130.43989817510067,32.24141960060919],[130.44085581005808,32.240474097644615],[130.44074356966738,32.23978454508062],[130.4421223553104,32.239541296190474],[130.44366431227434,32.23935398715064],[130.44553068423227,32.23995027875113],[130.44635809011035,32.24051923756803],[130.4472052993499,32.24040873638143],[130.44886958144573,32.239618531492724],[130.45013030042077,32.240383400219294],[130.45149128064463,32.23974980096416],[130.45077573473716,32.239192838222934],[130.45083392710401,32.23845838308086],[130.45141823550728,32.237751014212456],[130.44999681265023,32.23690162001655],[130.44901774995776,32.236600451684225],[130.45062137505604,32.23590442435565],[130.45029389158944,32.23499904480425],[130.44955530171097,32.23479143317188],[130.44964233037308,32.2341629894626],[130.45060147520823,32.23418971186453],[130.45218145666362,32.23419699837958],[130.4531821839312,32.23389132747351],[130.45360120718556,32.23305175100844],[130.45471016247905,32.23272758386917],[130.45440397090277,32.23208207853548],[130.4548644529939,32.23194237872286],[130.45524476238595,32.23265584085132],[130.4572171252305,32.23198555648242],[130.4573328150931,32.2326220636873],[130.4585445309833,32.23243217096531],[130.45967477470975,32.23272031710975],[130.4612707375323,32.232692330441544],[130.46070294696915,32.23395023137769],[130.46114896231083,32.234412075379105],[130.46104501135272,32.235096680031695],[130.46159302044194,32.23561032094073],[130.4607743527691,32.236368107214766],[130.46106160632158,32.23689663030481],[130.4603048433274,32.23763382136343],[130.4605726253659,32.23811174420894],[130.45988477255509,32.238355610698264],[130.45998777957428,32.23879358497161],[130.46037866915287,32.23964791926669],[130.46074480531237,32.24023279239213],[130.46024209242867,32.24042136786388],[130.45987993077904,32.241384645443226],[130.45949928109906,32.241024040003325],[130.45833810560862,32.24205673525296],[130.4570075976209,32.24160227764384],[130.45665503769808,32.240961301358475],[130.4552678448894,32.24115724299713],[130.4533872578909,32.24218120996679],[130.4534659460829,32.245563918332],[130.45322393366962,32.24574520921953],[130.4523149130465,32.245438368322674],[130.451478249422,32.245176645494794],[130.44951303379804,32.24544574273956],[130.44885324710532,32.24540361273764],[130.44768371432858,32.24507037294534],[130.44719512387536,32.24509628176772],[130.4463947119134,32.24539004048982],[130.4456139309248,32.24570635638568],[130.4451781125578,32.24573812492801],[130.4446207083797,32.24568234465863],[130.44392208743787,32.245516661683666],[130.44375016976022,32.24556635389822],[130.443373613322,32.245620781435875],[130.44315428004907,32.24587226378017],[130.44215429366827,32.2458762447481],[130.44028111885302,32.24672620903174],[130.43969710115672,32.24670403815589],[130.43842790006278,32.247018145159316],[130.43749666588593,32.247103700871456],[130.4368230977315,32.24715685974251],[130.43678528328616,32.24687056554845],[130.43669944362716,32.24687582003114],[130.43569613838494,32.247412670104914],[130.4356553326801,32.24760878148116]]]},"properties":{"KEY_CODE":"43484001004","PREF":"43","CITY":"484","CITY_NAME":"津奈木町","S_NAME":"大字岩城（町中）","SETAI":"63"}},{"type":"Feature","geometry":{"type":"Polygon","coordinates":[[[130.44964233037308,32.2341629894626],[130.4481612537317,32.23418132681121],[130.44416078007512,32.23469862223387],[130.44376067005567,32.23491830531611],[130.4435458694503,32.23470437000098],[130.4427505391534,32.23387018475259],[130.44275802113322,32.233379137413266],[130.44077020127298,32.2328963949324],[130.44040662663258,32.23251918278308],[130.44350450419543,32.2318705062259],[130.4443420379226,32.23113299163315],[130.44532450448705,32.23258370614602],[130.44724470281938,32.23296363795913],[130.44843062769678,32.232744559624074],[130.4492225423578,32.233315189706026],[130.45050983578363,32.233222017625636],[130.45060147520823,32.23418971186453],[130.44964233037308,32.2341629894626]]]},"properties":{"KEY_CODE":"43484001005","PREF":"43","CITY":"484","CITY_NAME":"津奈木町","S_NAME":"大字岩城（桜戸）","SETAI":"67"}},{"type":"Feature","geometry":{"type":"Polygon","coordinates":[[[130.45440397090277,32.23208207853548],[130.45471016247905,32.23272758386917],[130.45360120718556,32.23305175100844],[130.4531821839312,32.23389132747351],[130.45218145666362,32.23419699837958],[130.45060147520823,32.23418971186453],[130.45050983578363,32.233222017625636],[130.4492225423578,32.233315189706026],[130.44843062769678,32.232744559624074],[130.44724470281938,32.23296363795913],[130.44532450448705,32.23258370614602],[130.4443420379226,32.23113299163315],[130.44534925684596,32.23106541005196],[130.4462156379641,32.22904344834102],[130.45017711372668,32.22493577265984],[130.45324286609315,32.22877532771651],[130.4535149014412,32.23128116107771],[130.45558412270896,32.23053889131379],[130.45406890550186,32.23160032920488],[130.45440397090277,32.23208207853548]]]},"properties":{"KEY_CODE":"43484001006","PREF":"43","CITY":"484","CITY_NAME":"津奈木町","S_NAME":"大字岩城（浜崎）","SETAI":"97"}},{"type":"Feature","geometry":{"type":"Polygon","coordinates":[[[130.4572171252305,32.23198555648242],[130.45524476238595,32.23265584085132],[130.4548644529939,32.23194237872286],[130.45440397090277,32.23208207853548],[130.45406890550186,32.23160032920488],[130.45558412270896,32.23053889131379],[130.4535149014412,32.23128116107771],[130.45324286609315,32.22877532771651],[130.45017711372668,32.22493577265984],[130.4462156379641,32.22904344834102],[130.44594926830962,32.22820631357349],[130.4466365494269,32.22611378906819],[130.44749334659522,32.2253930257397],[130.4477824299239,32.22423702926727],[130.44762888718247,32.22326679652901],[130.44844057104035,32.22188895817884],[130.4482169022994,32.22034503732921],[130.44730572117513,32.218923193222665],[130.44783091681973,32.21826348067263],[130.44933062026408,32.2176862251898],[130.45070422633302,32.21563840111324],[130.45211593580868,32.21437786335738],[130.45213740203596,32.212845459048815],[130.45281632418505,32.20999318942718],[130.45338590273323,32.20934596257579],[130.45489774486305,32.20962670926468],[130.45603407196975,32.210466948607184],[130.45800290480022,32.209842551172805],[130.45917241748734,32.210109167980924],[130.4620985117807,32.209560504723555],[130.46503853571056,32.20916795777837],[130.46633648626016,32.20869664206216],[130.46836522419486,32.20969242069202],[130.4695260949761,32.20974794371004],[130.47151453216486,32.20980648664613],[130.47245608960318,32.210053700211084],[130.4743000402039,32.21124182994207],[130.4751674430187,32.21286808113071],[130.47579628877236,32.213330852399295],[130.4742208920555,32.216029257224875],[130.47299830291115,32.21756021316946],[130.47255110946708,32.21868074010186],[130.47165155807437,32.21907894710309],[130.4697708475489,32.22109369988296],[130.46922473684882,32.22248674951101],[130.46830504143597,32.22407754976646],[130.4682801652298,32.224786810815836],[130.46877608672662,32.22490620822515],[130.46886784360433,32.22572735352086],[130.4696940939116,32.225965306335766],[130.46819889719904,32.22748041115349],[130.4663618120798,32.22788892816286],[130.46606089932735,32.22863253059256],[130.46445392743405,32.2282406110968],[130.46264629990964,32.22809956077809],[130.45904184288258,32.22833909180944],[130.45751689089505,32.22644633789543],[130.456485748639,32.22651694227736],[130.45773637982532,32.22822477705796],[130.45742627311444,32.229081325217464],[130.45726276380768,32.230665470296884],[130.45749777995772,32.231850429262835],[130.4572171252305,32.23198555648242]]]},"properties":{"KEY_CODE":"43484001007","PREF":"43","CITY":"484","CITY_NAME":"津奈木町","S_NAME":"大字岩城（染竹）","SETAI":"105"}},{"type":"Feature","geometry":{"type":"Polygon","coordinates":[[[130.4612707375323,32.232692330441544],[130.45967477470975,32.23272031710975],[130.4585445309833,32.23243217096531],[130.4573328150931,32.2326220636873],[130.4572171252305,32.23198555648242],[130.45749777995772,32.231850429262835],[130.45726276380768,32.230665470296884],[130.45742627311444,32.229081325217464],[130.45773637982532,32.22822477705796],[130.456485748639,32.22651694227736],[130.45751689089505,32.22644633789543],[130.45904184288258,32.22833909180944],[130.46264629990964,32.22809956077809],[130.46445392743405,32.2282406110968],[130.46606089932735,32.22863253059256],[130.46570588949015,32.2297651713096],[130.46500621509495,32.2308673216932],[130.46430738227846,32.23123369312598],[130.46392723813193,32.232539472290505],[130.46163788860366,32.23242418946983],[130.4612707375323,32.232692330441544]]]},"properties":{"KEY_CODE":"43484001008","PREF":"43","CITY":"484","CITY_NAME":"津奈木町","S_NAME":"大字岩城（竹中）","SETAI":"87"}},{"type":"Feature","geometry":{"type":"Polygon","coordinates":[[[130.47579628877236,32.213330852399295],[130.47676362898065,32.213024494815954],[130.4767419305167,32.212133955658956],[130.4776026286133,32.21127926966388],[130.47963281087837,32.21163796060786],[130.47963751833208,32.212090813141096],[130.4815668074448,32.21266318426092],[130.48368241739294,32.21170233949962],[130.4848670775008,32.212343553932186],[130.4866070184686,32.212505230917905],[130.48795186563368,32.21223865671869],[130.4885920617726,32.21244614688605],[130.49022607139412,32.213648786110525],[130.49159611824084,32.21416964339783],[130.4923380761705,32.21482950858125],[130.49274647722783,32.215993212602974],[130.49267546538383,32.21701773699356],[130.49328578047468,32.21948501204305],[130.4949873171645,32.22095959828525],[130.49414333203111,32.221427867623845],[130.49318246131403,32.22265695948937],[130.49224713096234,32.223255476946534],[130.4922188241792,32.22630773242842],[130.49285281995475,32.22879292307291],[130.4931878866944,32.229428240971515],[130.49312586896204,32.23098621826308],[130.49406107547335,32.23230976800412],[130.49291492746696,32.233280789824974],[130.49288468328191,32.23415602565503],[130.4939037304863,32.23515158149168],[130.49504339147157,32.2366821657892],[130.49540175054514,32.23797585399654],[130.49490452356224,32.23925928814728],[130.49507932763268,32.24137764905135],[130.4948603529047,32.24174124865703],[130.4931992126092,32.24265285720424],[130.4919459582409,32.24308408829218],[130.49105192640053,32.243705791213344],[130.48979907816258,32.24538204593046],[130.48976416098552,32.24621837556383],[130.49020093279753,32.24749267470856],[130.48959887742544,32.24838906371488],[130.48955915183572,32.25003626739759],[130.48804273042364,32.250476956861306],[130.4864965561356,32.25045086709592],[130.48308418174346,32.2461359370619],[130.48260360781947,32.24476865382225],[130.48289163464733,32.24384142889532],[130.48192475910724,32.24323125410988],[130.48140192833506,32.24251918650617],[130.47969755198216,32.241660208615926],[130.47911415889573,32.240303414235974],[130.47800582064983,32.23972545804192],[130.47804838688756,32.239026563370196],[130.47644268628213,32.23889978304195],[130.47680657308638,32.23820229194244],[130.47471595960258,32.23748361361496],[130.47319109574048,32.237832217638214],[130.4709836677964,32.23732055600264],[130.46930538458244,32.23642885597761],[130.46849538080536,32.23650189350943],[130.4671742458206,32.23607034202053],[130.46555368339455,32.2363037468269],[130.46618152270207,32.23552546326835],[130.467156864917,32.235748069825256],[130.46887487518472,32.235334754499036],[130.47074979343742,32.23556111667265],[130.47203031635777,32.23634192679041],[130.47293775514336,32.237197683094664],[130.47350306080256,32.23722188530894],[130.4724756971436,32.23599714140792],[130.47090299414208,32.23463581503403],[130.47196753933423,32.23426621684756],[130.47204734637793,32.234241186152786],[130.47239971805647,32.23425858306556],[130.4729793599164,32.23439487209742],[130.47337305368097,32.23457625112524],[130.4754400783395,32.23513808785867],[130.47552047692344,32.235046546183845],[130.47605298924276,32.23479708602558],[130.4762598547997,32.23478998365054],[130.47652355427502,32.23469518585531],[130.4766567820866,32.2344121491053],[130.47700116678362,32.23418987586029],[130.4779135436913,32.23367234219204],[130.4780131911526,32.233504995664305],[130.4780970392385,32.23322372626178],[130.4780797102384,32.23297198156056],[130.4787250910204,32.232703036820645],[130.47901828908783,32.232384724670204],[130.47925934334532,32.23214602449979],[130.4800083507325,32.23183755119881],[130.47968393485615,32.23267902234898],[130.4801609885715,32.23308442474164],[130.48057263762718,32.2338311327224],[130.48053223545043,32.23432226413215],[130.4808254076714,32.23483477754194],[130.481191593041,32.23408133536553],[130.481241855356,32.23351034635328],[130.4815524014926,32.23322303015042],[130.48164799295,32.232349120502306],[130.48207360192274,32.23062030007956],[130.4830568375628,32.22923350515686],[130.4837316003203,32.22866549302308],[130.48414862045084,32.228431588646515],[130.48361698117648,32.22820289486489],[130.48334098072533,32.228002441162],[130.48266438886614,32.22702115785907],[130.48226051216594,32.22681108911617],[130.48170785487972,32.226527907604144],[130.48151875647926,32.22604696356707],[130.48123088637232,32.226054799500695],[130.48088152994234,32.22750309609535],[130.48016912141455,32.22812984312696],[130.47962067779403,32.22897025232564],[130.47898776133357,32.22966530810722],[130.47860220708935,32.22998084418397],[130.4779196663899,32.23004143416415],[130.4774159201369,32.23051958508152],[130.47719505020706,32.230930914638876],[130.4769809693956,32.23108404742763],[130.4765429390317,32.23125435769702],[130.4760420556206,32.23123417217631],[130.4762354214655,32.23097224103408],[130.47609770638232,32.23082666904426],[130.47548161956993,32.230452661393855],[130.4748021239149,32.22997869046228],[130.47467773865338,32.22937111557073],[130.4744737852557,32.22961489339759],[130.47437658262268,32.22983191841388],[130.47366130886232,32.23001924258497],[130.47369640339443,32.2294847620413],[130.4736769922385,32.22915853528483],[130.4730777065443,32.229563769916915],[130.47221165884108,32.22909351736435],[130.4718937085841,32.230614339570245],[130.47122352195504,32.23030131458508],[130.4713771257853,32.22962458505794],[130.470431624666,32.2290769792628],[130.4691671484258,32.23021335494028],[130.46923883227706,32.22889075923288],[130.46868651462725,32.22855320366197],[130.46819889719904,32.22748041115349],[130.4696940939116,32.225965306335766],[130.46886784360433,32.22572735352086],[130.46877608672662,32.22490620822515],[130.4682801652298,32.224786810815836],[130.46830504143597,32.22407754976646],[130.46922473684882,32.22248674951101],[130.4697708475489,32.22109369988296],[130.47165155807437,32.21907894710309],[130.47255110946708,32.21868074010186],[130.47299830291115,32.21756021316946],[130.4742208920555,32.216029257224875],[130.47579628877236,32.213330852399295]]]},"properties":{"KEY_CODE":"43484002001","PREF":"43","CITY":"484","CITY_NAME":"津奈木町","S_NAME":"大字津奈木（倉谷）","SETAI":"59"}},{"type":"Feature","geometry":{"type":"Polygon","coordinates":[[[130.47196753933423,32.23426621684756],[130.47090299414208,32.23463581503403],[130.4724756971436,32.23599714140792],[130.47350306080256,32.23722188530894],[130.47293775514336,32.237197683094664],[130.47203031635777,32.23634192679041],[130.47074979343742,32.23556111667265],[130.46887487518472,32.235334754499036],[130.467156864917,32.235748069825256],[130.46618152270207,32.23552546326835],[130.46555368339455,32.2363037468269],[130.46554829065477,32.23674111845632],[130.46467785307084,32.236672750271254],[130.46428418265756,32.23603866200978],[130.46366499250473,32.236373801503106],[130.4633810361564,32.23577610922392],[130.46159302044194,32.23561032094073],[130.46104501135272,32.235096680031695],[130.46114896231083,32.234412075379105],[130.46070294696915,32.23395023137769],[130.4612707375323,32.232692330441544],[130.46163788860366,32.23242418946983],[130.46392723813193,32.232539472290505],[130.46430738227846,32.23123369312598],[130.46500621509495,32.2308673216932],[130.46570588949015,32.2297651713096],[130.46606089932735,32.22863253059256],[130.4663618120798,32.22788892816286],[130.46819889719904,32.22748041115349],[130.46868651462725,32.22855320366197],[130.46923883227706,32.22889075923288],[130.4691671484258,32.23021335494028],[130.470431624666,32.2290769792628],[130.4713771257853,32.22962458505794],[130.47122352195504,32.23030131458508],[130.4718937085841,32.230614339570245],[130.47221165884108,32.22909351736435],[130.4730777065443,32.229563769916915],[130.4736769922385,32.22915853528483],[130.47328993058903,32.23029508267359],[130.4732917870584,32.23067506470557],[130.473271930072,32.23131853550273],[130.47321563102,32.231999478689225],[130.47311762871686,32.232231859310396],[130.47230038835193,32.232865164419884],[130.472259664629,32.23294031318071],[130.47205337942682,32.2337883851197],[130.47199549646197,32.23404150593785],[130.47196753933423,32.23426621684756]]]},"properties":{"KEY_CODE":"43484002002","PREF":"43","CITY":"484","CITY_NAME":"津奈木町","S_NAME":"大字津奈木（中尾）","SETAI":"95"}},{"type":"Feature","geometry":{"type":"Polygon","coordinates":[[[130.4815524014926,32.23322303015042],[130.481241855356,32.23351034635328],[130.481191593041,32.23408133536553],[130.4808254076714,32.23483477754194],[130.48053223545043,32.23432226413215],[130.48057263762718,32.2338311327224],[130.4801609885715,32.23308442474164],[130.47968393485615,32.23267902234898],[130.4800083507325,32.23183755119881],[130.47925934334532,32.23214602449979],[130.47901828908783,32.232384724670204],[130.4787250910204,32.232703036820645],[130.4780797102384,32.23297198156056],[130.4780970392385,32.23322372626178],[130.4780131911526,32.233504995664305],[130.4779135436913,32.23367234219204],[130.47700116678362,32.23418987586029],[130.4766567820866,32.2344121491053],[130.47652355427502,32.23469518585531],[130.4762598547997,32.23478998365054],[130.47605298924276,32.23479708602558],[130.47552047692344,32.235046546183845],[130.4754400783395,32.23513808785867],[130.47337305368097,32.23457625112524],[130.4729793599164,32.23439487209742],[130.47239971805647,32.23425858306556],[130.47204734637793,32.234241186152786],[130.47199549646197,32.23404150593785],[130.47205337942682,32.2337883851197],[130.472259664629,32.23294031318071],[130.47230038835193,32.232865164419884],[130.47311762871686,32.232231859310396],[130.47321563102,32.231999478689225],[130.473271930072,32.23131853550273],[130.4732917870584,32.23067506470557],[130.47328993058903,32.23029508267359],[130.47369640339443,32.2294847620413],[130.47366130886232,32.23001924258497],[130.47437658262268,32.22983191841388],[130.4744737852557,32.22961489339759],[130.47467773865338,32.22937111557073],[130.4748021239149,32.22997869046228],[130.47548161956993,32.230452661393855],[130.47609770638232,32.23082666904426],[130.4762354214655,32.23097224103408],[130.4760420556206,32.23123417217631],[130.4765429390317,32.23125435769702],[130.4769809693956,32.23108404742763],[130.47719505020706,32.230930914638876],[130.4774159201369,32.23051958508152],[130.4779196663899,32.23004143416415],[130.47860220708935,32.22998084418397],[130.47898776133357,32.22966530810722],[130.47962067779403,32.22897025232564],[130.48016912141455,32.22812984312696],[130.48088152994234,32.22750309609536],[130.48123088637232,32.226054799500695],[130.48151875647926,32.22604696356707],[130.48170785487972,32.226527907604144],[130.48226051216594,32.22681108911617],[130.48266438886614,32.22702115785907],[130.48334098072533,32.228002441162],[130.48361698117648,32.22820289486489],[130.48414862045084,32.228431588646515],[130.4837316003203,32.22866549302308],[130.4830568375628,32.22923350515686],[130.48207360192274,32.23062030007956],[130.48164799295,32.232349120502306],[130.4815524014926,32.23322303015042]]]},"properties":{"KEY_CODE":"43484002003","PREF":"43","CITY":"484","CITY_NAME":"津奈木町","S_NAME":"大字津奈木（古中尾）","SETAI":"41"}},{"type":"Feature","geometry":{"type":"Polygon","coordinates":[[[130.46491140657704,32.25476743839832],[130.46376676304257,32.254342224898814],[130.4635539087783,32.25474376708101],[130.462488123292,32.255213183185894],[130.46138350711215,32.256026744203695],[130.46061384752352,32.25625595519955],[130.4601242700261,32.25717500340039],[130.45920631502648,32.25756457519325],[130.45868566092827,32.25709056928915],[130.45805524820497,32.255830431857724],[130.45799320553587,32.25539065900675],[130.45783721399175,32.25507702252885],[130.4571043499397,32.254438923130735],[130.45601260021658,32.25309724899004],[130.4552431185207,32.25154678811355],[130.45463322514374,32.24971976270329],[130.4535036645111,32.24855227554501],[130.4532526447041,32.24830078569657],[130.4526654721678,32.24794053183122],[130.45256733826923,32.24764045408565],[130.45322393366962,32.24574520921953],[130.4534659460829,32.245563918332],[130.4533872578909,32.24218120996679],[130.4552678448894,32.24115724299713],[130.45665503769808,32.240961301358475],[130.4570075976209,32.24160227764384],[130.45833810560862,32.24205673525296],[130.45949928109906,32.241024040003325],[130.45987993077904,32.241384645443226],[130.4605187940095,32.24204304588673],[130.46054499991214,32.242724892845985],[130.45995957834262,32.24318549633403],[130.4596229332804,32.24380146035376],[130.4595113179181,32.24411930317717],[130.45938165961667,32.24428593879257],[130.45985742950162,32.24445524261266],[130.46001543372358,32.24461028958018],[130.45966281267062,32.24536765892553],[130.45917309775496,32.24627239261132],[130.45937568929546,32.24782962770159],[130.4596001626261,32.248267908165104],[130.45977977532573,32.24860313110343],[130.4600838048819,32.24838573899326],[130.46039230239103,32.24740948814316],[130.4605160604873,32.24695987760674],[130.4609533204485,32.247244697572505],[130.4611497898454,32.24729696949965],[130.46182861018085,32.24768575508427],[130.46250830872268,32.24792017158949],[130.46267520511427,32.247856627517876],[130.46334753024271,32.246778982982285],[130.46389249770783,32.24676847905712],[130.46531190967903,32.24476785239471],[130.4654509938663,32.24299984604187],[130.46515169240055,32.242419707403556],[130.46432087955282,32.24214612251014],[130.46414543882707,32.24110346775875],[130.46544521866304,32.24140482863093],[130.4660758245574,32.2422693224231],[130.46657457890367,32.24238719254426],[130.46667455310515,32.24340373815839],[130.46823733475753,32.24532696241224],[130.46859369462874,32.246511841942805],[130.46934264046,32.24671600768047],[130.4698814834523,32.2475912934197],[130.4709852086028,32.24780173240979],[130.47047694461344,32.24670626295274],[130.46967783715624,32.24617547050212],[130.4694617302055,32.24557420637661],[130.4707243554957,32.245806873963296],[130.47182950719127,32.24378814234036],[130.47189881050997,32.24304835650347],[130.46973041729018,32.24267478639044],[130.4695378008119,32.24227624932364],[130.4709893270263,32.24075801706622],[130.47074604856093,32.24004094687424],[130.4694018572041,32.239969564347405],[130.4692038394061,32.23912797331326],[130.46806183573938,32.23850152598494],[130.46775273157036,32.23786068918243],[130.46668201141753,32.23733873603385],[130.46652393597637,32.23689968697819],[130.46554829065477,32.23674111845632],[130.46555368339455,32.2363037468269],[130.4671742458206,32.23607034202053],[130.46849538080536,32.23650189350943],[130.46930538458244,32.23642885597761],[130.4709836677964,32.23732055600264],[130.47319109574048,32.237832217638214],[130.47471595960258,32.23748361361496],[130.47680657308638,32.23820229194244],[130.47644268628213,32.23889978304195],[130.47804838688756,32.239026563370196],[130.47800582064983,32.23972545804192],[130.47911415889573,32.240303414235974],[130.47969755198216,32.241660208615926],[130.48140192833506,32.24251918650617],[130.48192475910724,32.24323125410988],[130.48289163464733,32.24384142889532],[130.48260360781947,32.24476865382225],[130.48308418174346,32.2461359370619],[130.4864965561356,32.25045086709592],[130.4859887576631,32.250365234007326],[130.4848001154609,32.251117512021885],[130.48321917173072,32.25083216602286],[130.48157027253814,32.25258378109704],[130.48101947946742,32.25275892123072],[130.48102705412887,32.25410229325413],[130.47778692271885,32.25361654032044],[130.47294136950953,32.254588243181686],[130.47198906147457,32.25534251688101],[130.4716676583117,32.25614389008174],[130.47044439098363,32.25645841401689],[130.46944682787876,32.25587075612523],[130.46750834340384,32.255688471177834],[130.46685163950772,32.255021563883716],[130.46543299062733,32.25480770101635],[130.46491140657704,32.25476743839832]]]},"properties":{"KEY_CODE":"43484003001","PREF":"43","CITY":"484","CITY_NAME":"津奈木町","S_NAME":"大字千代（内野）","SETAI":"49"}},{"type":"Feature","geometry":{"type":"Polygon","coordinates":[[[130.46554829065477,32.23674111845632],[130.46652393597637,32.23689968697819],[130.46668201141753,32.23733873603385],[130.46775273157036,32.23786068918243],[130.46806183573938,32.23850152598494],[130.4692038394061,32.23912797331326],[130.4694018572041,32.239969564347405],[130.47074604856093,32.24004094687424],[130.4709893270263,32.24075801706622],[130.4695378008119,32.24227624932364],[130.46973041729018,32.24267478639044],[130.47189881050997,32.24304835650347],[130.47182950719127,32.24378814234036],[130.4707243554957,32.245806873963296],[130.4694617302055,32.24557420637661],[130.46967783715624,32.24617547050212],[130.47047694461344,32.24670626295274],[130.4709852086028,32.24780173240979],[130.4698814834523,32.2475912934197],[130.46934264046,32.24671600768047],[130.46859369462874,32.246511841942805],[130.46823733475753,32.24532696241224],[130.46667455310515,32.24340373815839],[130.46657457890367,32.24238719254426],[130.4660758245574,32.2422693224231],[130.46544521866304,32.24140482863093],[130.46414543882707,32.24110346775875],[130.4647872418342,32.23985594315857],[130.46537630236546,32.23934749047867],[130.46515156588842,32.238783872869845],[130.4649149801519,32.23875412359866],[130.46426143526978,32.238460295564416],[130.46397564517918,32.23817880625242],[130.4632672962892,32.23785247038836],[130.4630733717461,32.23776540680111],[130.46207290259647,32.23822820189529],[130.46177670548116,32.2382700576412],[130.4605726253659,32.23811174420894],[130.4603048433274,32.23763382136343],[130.46106160632158,32.23689663030481],[130.4607743527691,32.236368107214766],[130.46159302044194,32.23561032094073],[130.4633810361564,32.23577610922392],[130.46366499250473,32.236373801503106],[130.46428418265756,32.23603866200978],[130.46467785307084,32.236672750271254],[130.46554829065477,32.23674111845632]]]},"properties":{"KEY_CODE":"43484003002","PREF":"43","CITY":"484","CITY_NAME":"津奈木町","S_NAME":"大字千代（上下門）","SETAI":"59"}},{"type":"Feature","geometry":{"type":"Polygon","coordinates":[[[130.46414543882707,32.24110346775875],[130.46432087955282,32.24214612251014],[130.46515169240055,32.242419707403556],[130.4654509938663,32.24299984604187],[130.46531190967903,32.24476785239471],[130.46389249770783,32.24676847905712],[130.46334753024271,32.246778982982285],[130.46267520511427,32.247856627517876],[130.46250830872268,32.24792017158949],[130.46182861018085,32.24768575508427],[130.4611497898454,32.24729696949965],[130.4609533204485,32.247244697572505],[130.4605160604873,32.24695987760674],[130.46039230239103,32.24740948814316],[130.4600838048819,32.24838573899326],[130.45977977532573,32.24860313110343],[130.4596001626261,32.248267908165104],[130.45937568929546,32.24782962770159],[130.45917309775496,32.24627239261132],[130.45966281267062,32.24536765892553],[130.46001543372358,32.24461028958018],[130.45985742950162,32.24445524261266],[130.45938165961667,32.24428593879257],[130.4595113179181,32.24411930317717],[130.4596229332804,32.24380146035376],[130.45995957834262,32.24318549633403],[130.46054499991214,32.242724892845985],[130.4605187940095,32.24204304588673],[130.45987993077904,32.241384645443226],[130.46024209242867,32.24042136786388],[130.46074480531237,32.24023279239213],[130.46037866915287,32.23964791926669],[130.45998777957428,32.23879358497161],[130.45988477255509,32.238355610698264],[130.4605726253659,32.23811174420894],[130.46177670548116,32.2382700576412],[130.46207290259647,32.23822820189529],[130.4630733717461,32.23776540680111],[130.4632672962892,32.23785247038836],[130.46397564517918,32.23817880625242],[130.46426143526978,32.238460295564416],[130.4649149801519,32.23875412359866],[130.46515156588842,32.238783872869845],[130.46537630236546,32.23934749047867],[130.4647872418342,32.23985594315857],[130.46414543882707,32.24110346775875]]]},"properties":{"KEY_CODE":"43484003003","PREF":"43","CITY":"484","CITY_NAME":"津奈木町","S_NAME":"大字千代（川内）","SETAI":"35"}},{"type":"Feature","geometry":{"type":"Polygon","coordinates":[[[130.43742707515844,32.26662482108263],[130.43631628837753,32.26754602957081],[130.43600656381986,32.26778737253637],[130.43556611024928,32.268261765487026],[130.43540549831084,32.267178757457856],[130.43480898220545,32.26683338645399],[130.43464625754007,32.26586500146153],[130.43400452071802,32.26562581386928],[130.4331792786546,32.2665636281636],[130.43342992174095,32.26432732117029],[130.4328498783768,32.26373125898049],[130.43094415288414,32.26364694486487],[130.42918921361147,32.264065571407265],[130.42787746767607,32.26522301924729],[130.42752796257062,32.264938269843825],[130.42821298407003,32.26419192323339],[130.428530434167,32.26265662572218],[130.42981229353458,32.26270124016328],[130.43131356933802,32.26194228225782],[130.43176120765344,32.26096671528294],[130.43253154151716,32.26082947676658],[130.4329440115292,32.26021180821301],[130.43282671270376,32.25876474427776],[130.43214711927223,32.25746571856452],[130.43333167890313,32.25624813029012],[130.434416214959,32.25575070862522],[130.43428635698007,32.25547323394099],[130.4361525673689,32.25436963124261],[130.43574507515376,32.25367790698048],[130.43641278976062,32.253499739932664],[130.43758701530933,32.25361522947995],[130.43873918439823,32.25300004493734],[130.4389178803694,32.253855968337774],[130.43952914539253,32.254004451463864],[130.43951295499977,32.25406863583197],[130.43955886178534,32.25428133518076],[130.43992266422165,32.25470131515966],[130.44023639562417,32.254824170571254],[130.4404117936404,32.25512128471569],[130.44045716197522,32.25554985914209],[130.44065352792597,32.256044202641476],[130.44055632492203,32.25664159435149],[130.44048630903262,32.256916909424056],[130.44014751749293,32.25700481926254],[130.4399508331558,32.25720834286521],[130.4400767531669,32.257509113426735],[130.43982301273152,32.25843413753982],[130.4391447478442,32.25871852332156],[130.43764811089846,32.25763249193608],[130.43715745349292,32.25735884315897],[130.43676723624174,32.25725487429843],[130.43600982934663,32.25696411025312],[130.43545282032727,32.25708936288388],[130.4356386790179,32.25742232261959],[130.43565190346135,32.25770977252172],[130.43583306068538,32.25819285314387],[130.43556219574566,32.25823638488461],[130.4353342142645,32.25863774315084],[130.43509185615127,32.258930462861066],[130.43409960519776,32.25953603155181],[130.4340530691494,32.25976572166237],[130.43409761824782,32.25985532964052],[130.4344783517643,32.26027864476675],[130.43508473788427,32.260683733530094],[130.43520046526967,32.26201601770153],[130.43562075864543,32.26212646692427],[130.43548420868404,32.26232384274239],[130.43520487442228,32.26252065034962],[130.43511311288583,32.26276930569065],[130.4351041199484,32.2636091839631],[130.43598916557258,32.265139728519244],[130.43585170177408,32.265490414770056],[130.43573700981165,32.26640013773864],[130.4365847448192,32.266684972679656],[130.43742707515844,32.26662482108263]]]},"properties":{"KEY_CODE":"43484004001","PREF":"43","CITY":"484","CITY_NAME":"津奈木町","S_NAME":"大字福浜（日当）","SETAI":"90"}},{"type":"Feature","geometry":{"type":"Polygon","coordinates":[[[130.43641278976062,32.253499739932664],[130.43552698031243,32.25274260914679],[130.4332430851198,32.2530948823756],[130.43227741705837,32.25274425069402],[130.4300391515275,32.253090397967654],[130.429159613369,32.254071265353936],[130.42876538296898,32.25397655031455],[130.4304555546634,32.25235184680126],[130.42915214253279,32.25069199259005],[130.42855751873853,32.25091659701694],[130.42726326028418,32.250338978867774],[130.4257640586013,32.25062978089457],[130.42564214646137,32.2509439567125],[130.4239063090304,32.24988631884369],[130.42443135732384,32.24925199684967],[130.4253956950064,32.24905509245545],[130.4268375630963,32.24910328253572],[130.42808405192272,32.24821702043303],[130.4301257444665,32.248402952700125],[130.431506317623,32.24770516890213],[130.4314031836684,32.248361008890015],[130.43203811890555,32.24815629992142],[130.43239957279334,32.24735584440318],[130.43331165171918,32.24715793846339],[130.43469146294913,32.24761560719068],[130.43474723302938,32.247786362268506],[130.43507145486151,32.24793697015014],[130.43511039638764,32.2483143702042],[130.43517666297964,32.248450647644425],[130.43594818967924,32.24887957813588],[130.43607994842998,32.24927049628027],[130.43616631671824,32.24949458161309],[130.43666994932067,32.24984777023542],[130.43726920119238,32.24976264739489],[130.43781877412684,32.24978044982285],[130.4379942169929,32.24978566793961],[130.43875577059373,32.25016183579031],[130.43934498416363,32.25003727264894],[130.4394740415843,32.25002903729638],[130.43999492453034,32.2501015186308],[130.44081198202485,32.25068851485468],[130.4418712023707,32.25084812656519],[130.44228954771654,32.25095861564097],[130.44252732577021,32.25102716057865],[130.4427303842295,32.250998040396574],[130.44273102825522,32.25089313293607],[130.4432253534705,32.250842819176086],[130.44440310867304,32.2511294707255],[130.4434956795732,32.251417526866426],[130.4432663287919,32.25167107866394],[130.44315372132556,32.251781834558344],[130.44252065037387,32.25211414035404],[130.4418974010472,32.252325018053476],[130.4400208013389,32.25337371963286],[130.43976188975816,32.253874856364114],[130.43952914539253,32.254004451463864],[130.4389178803694,32.253855968337774],[130.43873918439823,32.25300004493734],[130.43758701530933,32.25361522947995],[130.43641278976062,32.253499739932664]]]},"properties":{"KEY_CODE":"43484004002","PREF":"43","CITY":"484","CITY_NAME":"津奈木町","S_NAME":"大字福浜（日添）","SETAI":"110"}},{"type":"Feature","geometry":{"type":"Polygon","coordinates":[[[130.46391792723213,32.27586464740869],[130.46337722038075,32.27579153006785],[130.46343178749157,32.27696354958068],[130.46205080420975,32.27773388469275],[130.4608353095968,32.277265910777444],[130.4602369883065,32.27741764751269],[130.45926147718245,32.27698057060897],[130.45870029970442,32.277990993403876],[130.46104590375668,32.27915473083749],[130.46075063480458,32.280567124511805],[130.4582421305116,32.28345271861763],[130.45842657695616,32.28379473729016],[130.4570324454396,32.28463570176537],[130.45693847161903,32.28555131280013],[130.4579842510747,32.28619965864381],[130.4586474481796,32.28565005556161],[130.4597239505351,32.286357421791294],[130.4592448017142,32.286913950632275],[130.4593698013436,32.28800516569159],[130.458672317298,32.28909291731618],[130.45859667000101,32.289746576101216],[130.45684849150658,32.289401908943034],[130.45672503520814,32.2884589400671],[130.4558661961575,32.28893046554566],[130.4542249639622,32.28762582065169],[130.45391754754039,32.287845090000665],[130.4539027331044,32.287853410163216],[130.45388309760096,32.28791870935961],[130.453957976412,32.28827329281183],[130.4538211074401,32.2886270293815],[130.45358336217905,32.28868046076357],[130.453403909168,32.28864698966358],[130.4529840918945,32.288034724464765],[130.45226048759346,32.287260282477106],[130.45195630858677,32.28662667493901],[130.45173942849794,32.28641865735541],[130.45104654088823,32.286404716815255],[130.4508152924187,32.2864473219378],[130.4505666483583,32.286184558937926],[130.45059442827437,32.28583584633165],[130.45089829971513,32.28545564585675],[130.45114817227616,32.28497981006398],[130.45106131524824,32.28448890737655],[130.451293085853,32.28435907838662],[130.45174137614325,32.28450272119104],[130.45198701136343,32.28419856892516],[130.45208995108842,32.28415540436395],[130.45285241710488,32.28433317144038],[130.45367641456562,32.2838788470362],[130.45395014301693,32.28370832980653],[130.4546628762786,32.28361876704093],[130.45494998350406,32.28389253911733],[130.45527756050697,32.28382857217464],[130.4558583720004,32.283269679026304],[130.45597202397624,32.28304393144339],[130.45570416526093,32.282775740518254],[130.45570488419574,32.28265582572149],[130.4558216462174,32.28244375986669],[130.4545521569585,32.28122273730993],[130.45492089888543,32.28071746391805],[130.4554218550216,32.28063782997082],[130.45566271454862,32.28058708500485],[130.45581816015033,32.28034791919037],[130.4556901804565,32.28028740746651],[130.45506116572676,32.280333795749854],[130.45475939091827,32.280370607703716],[130.45433619324817,32.28032516127349],[130.45461075202232,32.27947607127542],[130.454374044687,32.27936055284973],[130.45406509969857,32.27952817041701],[130.45383216457066,32.279854224266856],[130.45353307437338,32.279975592699635],[130.45314827114214,32.27995208079258],[130.45302236908987,32.279553661935566],[130.45283693379088,32.27944928420625],[130.45260392928157,32.27978618472528],[130.45206403412283,32.27994194401618],[130.45166700232153,32.27981487203421],[130.45159088763015,32.27966735528118],[130.45164472368091,32.2792533005222],[130.45141467807449,32.27909968877895],[130.4512231552895,32.278946243919336],[130.45134624303213,32.27874513066047],[130.45145642594417,32.278565732935746],[130.45163265672306,32.27806505524365],[130.45132476499853,32.2780582195071],[130.45089247069615,32.2779282440218],[130.45117176681282,32.27736263237828],[130.4503313364325,32.277353472570596],[130.44981880338148,32.27723138784761],[130.44971179955084,32.277084017805365],[130.44996591641336,32.27571945430467],[130.44961466949465,32.27545081715101],[130.44949451313803,32.27516141781634],[130.4499538045467,32.2745420599254],[130.45012702432723,32.274011356124426],[130.45034449838403,32.274115876494406],[130.4506438489978,32.27447693612637],[130.4507848949917,32.274493896683765],[130.45081316445294,32.274063384535715],[130.45102065881832,32.27369910752901],[130.4512135622411,32.27362906754791],[130.45158529680393,32.27369064333125],[130.45144711554454,32.27319951847975],[130.45149327258386,32.272992573891905],[130.45184333716313,32.27292053871151],[130.45220861727708,32.272992934826725],[130.45223476790952,32.27290589306329],[130.45237650139015,32.27280836122716],[130.45245993581054,32.27277257818974],[130.45267003973848,32.27260002421707],[130.45255073093568,32.27247874179377],[130.4523762263399,32.272282958057104],[130.4523483484937,32.27216143879829],[130.45308775505083,32.27189028476101],[130.4532810379652,32.27174943232815],[130.45356876203266,32.27191421080325],[130.45355436679907,32.27217033274249],[130.45349645332828,32.2722027741891],[130.45386156053323,32.27229700648469],[130.45388801288118,32.27216628179333],[130.45403036629256,32.27196524771191],[130.4542724246916,32.27171828413307],[130.45447761060063,32.271735517635975],[130.4549002127142,32.27187360983955],[130.45515643227034,32.271754022548826],[130.45608847976538,32.27163347470343],[130.45561195005303,32.270862866014944],[130.45651377907126,32.26971392050495],[130.45525881826498,32.26930513771666],[130.45603047129026,32.26900324126734],[130.4560993470534,32.2682132086377],[130.4547333386861,32.26814185985114],[130.45387147266084,32.266919911939745],[130.45278867545102,32.267219109016196],[130.4527582431643,32.267218977097066],[130.45268436910703,32.26723775099099],[130.4525358077908,32.26740331756011],[130.45229450705645,32.26779338396062],[130.4523601275605,32.26754840389407],[130.45239926154514,32.267439504464605],[130.45234530013028,32.26734661792758],[130.4521789627554,32.267269590594324],[130.4520375339546,32.267318086094484],[130.45176323245042,32.26759760031265],[130.45162785057187,32.26770868785915],[130.45121602448097,32.26791136820189],[130.45106502363146,32.26795157681457],[130.45077793862242,32.267951667344285],[130.45050215453546,32.26794771929444],[130.449843885842,32.26805934653897],[130.44925655520728,32.26811674472954],[130.4486235225125,32.268039013907085],[130.44799241594797,32.267910911392455],[130.4479100336791,32.267747017961526],[130.44766480895208,32.267722764682944],[130.44726088058547,32.267682879786946],[130.4471052229688,32.26743961231359],[130.4467067663394,32.267026322457305],[130.4455964910064,32.26684573471874],[130.4453532711265,32.26675194433312],[130.4445448178954,32.266520885773716],[130.44425395575848,32.26635332670968],[130.44389356411338,32.26601650349288],[130.4434809708721,32.26582938319947],[130.4435474489465,32.265968689510714],[130.44368349874463,32.266277258588815],[130.4436482174183,32.26627710328908],[130.44351429026617,32.266142925845344],[130.4433967684397,32.265957104580764],[130.4432095957519,32.26612185581649],[130.44263209851746,32.266483788471966],[130.4422123845148,32.266956256812165],[130.44197132502322,32.26730726961128],[130.4418479181527,32.267559384822604],[130.44199308027865,32.26773405678423],[130.44221578906144,32.267987700613894],[130.44272799466592,32.268463013652884],[130.44257232079713,32.2690612170227],[130.44149209671139,32.26935130873782],[130.44030569599207,32.27085757459777],[130.4393123698361,32.27082251780386],[130.43811711704333,32.26996946602967],[130.43758414866352,32.2684501499089],[130.43610492336904,32.26855360897535],[130.4354257628974,32.269556137564294],[130.43513305198871,32.26917337433138],[130.43556611024928,32.268261765487026],[130.43600656381986,32.26778737253637],[130.43631628837753,32.26754602957081],[130.43742707515844,32.26662482108263],[130.4365847448192,32.266684972679656],[130.43573700981165,32.26640013773864],[130.43585170177408,32.265490414770056],[130.43598916557258,32.265139728519244],[130.4351041199484,32.2636091839631],[130.43511311288583,32.26276930569065],[130.43520487442228,32.26252065034962],[130.43548420868404,32.26232384274239],[130.43562075864543,32.26212646692427],[130.43520046526967,32.26201601770153],[130.43508473788427,32.260683733530094],[130.4344783517643,32.26027864476675],[130.43409761824782,32.25985532964052],[130.4340530691494,32.25976572166237],[130.43409960519776,32.25953603155181],[130.43509185615127,32.258930462861066],[130.4353342142645,32.25863774315084],[130.43556219574566,32.25823638488461],[130.43583306068538,32.25819285314387],[130.43565190346135,32.25770977252172],[130.4356386790179,32.25742232261959],[130.43545282032727,32.25708936288388],[130.43600982934663,32.25696411025312],[130.43676723624174,32.25725487429843],[130.43715745349292,32.25735884315897],[130.43764811089846,32.25763249193608],[130.4391447478442,32.25871852332156],[130.43982301273152,32.25843413753982],[130.4400767531669,32.257509113426735],[130.4399508331558,32.25720834286521],[130.44014751749293,32.25700481926254],[130.44048630903262,32.256916909424056],[130.44055632492203,32.25664159435149],[130.44065352792597,32.256044202641476],[130.44045716197522,32.25554985914209],[130.4404117936404,32.25512128471569],[130.44023639562417,32.254824170571254],[130.43992266422165,32.25470131515966],[130.43955886178534,32.25428133518076],[130.43951295499977,32.25406863583197],[130.43976188975816,32.253874856364114],[130.4400208013389,32.25337371963286],[130.4418974010472,32.252325018053476],[130.44252065037387,32.25211414035404],[130.44315372132556,32.251781834558344],[130.4432663287919,32.25167107866394],[130.4434956795732,32.251417526866426],[130.44440310867304,32.2511294707255],[130.4432253534705,32.250842819176086],[130.44273102825522,32.25089313293607],[130.4427303842295,32.250998040396574],[130.44252732577021,32.25102716057865],[130.44228954771654,32.25095861564097],[130.4418712023707,32.25084812656519],[130.44081198202485,32.25068851485468],[130.43999492453034,32.2501015186308],[130.4394740415843,32.25002903729638],[130.43934498416363,32.25003727264894],[130.43875577059373,32.25016183579031],[130.4379942169929,32.24978566793961],[130.43781877412684,32.24978044982285],[130.43726920119238,32.24976264739489],[130.43666994932067,32.24984777023542],[130.43616631671824,32.24949458161309],[130.43607994842998,32.24927049628027],[130.43594818967924,32.24887957813588],[130.43517666297964,32.248450647644425],[130.43511039638764,32.2483143702042],[130.43507145486151,32.24793697015014],[130.43474723302938,32.247786362268506],[130.43469146294913,32.24761560719068],[130.43529218995357,32.24762400066159],[130.4356553326801,32.24760878148116],[130.43569613838494,32.247412670104914],[130.43669944362716,32.24687582003114],[130.43678528328616,32.24687056554845],[130.4368230977315,32.24715685974251],[130.43749666588593,32.247103700871456],[130.43842790006278,32.247018145159316],[130.43969710115672,32.24670403815589],[130.44028111885302,32.24672620903174],[130.44215429366827,32.2458762447481],[130.44315428004907,32.24587226378017],[130.443373613322,32.245620781435875],[130.44375016976022,32.24556635389822],[130.44392208743787,32.245516661683666],[130.4446207083797,32.24568234465863],[130.4451781125578,32.24573812492801],[130.4456139309248,32.24570635638568],[130.4463947119134,32.24539004048982],[130.44719512387536,32.24509628176772],[130.44768371432858,32.24507037294534],[130.44885324710532,32.24540361273764],[130.44951303379804,32.24544574273956],[130.451478249422,32.245176645494794],[130.4523149130465,32.245438368322674],[130.45322393366962,32.24574520921953],[130.45256733826923,32.24764045408565],[130.4526654721678,32.24794053183122],[130.4532526447041,32.24830078569657],[130.4535036645111,32.24855227554501],[130.45463322514374,32.24971976270328],[130.4552431185207,32.25154678811355],[130.45601260021658,32.25309724899004],[130.4571043499397,32.254438923130735],[130.45783721399175,32.25507702252885],[130.45799320553587,32.25539065900675],[130.45805524820497,32.255830431857724],[130.45868566092827,32.25709056928915],[130.45920631502648,32.25756457519325],[130.46012427002609,32.25717500340039],[130.46061384752352,32.25625595519956],[130.46138350711215,32.256026744203695],[130.462488123292,32.255213183185894],[130.4635539087783,32.25474376708101],[130.46376676304257,32.254342224898814],[130.46491140657704,32.25476743839832],[130.46543299062733,32.25480770101635],[130.46685163950772,32.255021563883716],[130.46750834340384,32.255688471177834],[130.46733047860988,32.255859915119835],[130.466617035159,32.257191349459234],[130.46667270539012,32.25727719064821],[130.4670932684987,32.25800876564521],[130.46673987346492,32.25900254294265],[130.46708349872225,32.259578717744155],[130.46708056171008,32.25969051996076],[130.4669214363349,32.25994482964157],[130.46689776383965,32.26017737756191],[130.46668732705035,32.260337268221015],[130.46674241566797,32.26122702065971],[130.46654305828406,32.2620756795137],[130.4669140185119,32.26311855529557],[130.4669220492704,32.26333961674773],[130.4671800145334,32.26423073877555],[130.46725271293366,32.26434110324775],[130.46737776961515,32.264480858745934],[130.46744863808786,32.265185811333495],[130.46752419737024,32.265303303459845],[130.46753228364278,32.265430443710464],[130.46747700930763,32.26560100009338],[130.46749098706607,32.26571322872591],[130.46768210838948,32.266147779432046],[130.46769547247504,32.26636470569635],[130.4680030823379,32.267192341395244],[130.46816997093882,32.26750341582775],[130.46818531398847,32.267892409650926],[130.46835774491183,32.26825578714329],[130.46850871631244,32.26902674426781],[130.4685158389305,32.26956648351573],[130.46827414914307,32.26974992119417],[130.46812364387318,32.27015188138278],[130.46718904597597,32.271925296373105],[130.4667713781819,32.272100515853914],[130.46637549348142,32.272061423350834],[130.46611716514215,32.27208280260944],[130.46556975422533,32.27211662155777],[130.46499576953406,32.27243074734698],[130.4650020802495,32.2731050577793],[130.4642570522464,32.27355810007272],[130.46420965761797,32.27363519052183],[130.46389352277362,32.27425330957001],[130.46417693341957,32.27470446246401],[130.46421113726154,32.274874059682595],[130.46391792723213,32.27586464740869]]]},"properties":{"KEY_CODE":"43484004003","PREF":"43","CITY":"484","CITY_NAME":"津奈木町","S_NAME":"大字福浜（辻）","SETAI":"8"}},{"type":"Feature","geometry":{"type":"Polygon","coordinates":[[[130.45461773937419,32.28908838387024],[130.45361023902575,32.290057735851974],[130.45231187400796,32.289871724361284],[130.45177858146374,32.289220069181],[130.44853819044835,32.287846866879704],[130.44853962771688,32.28709107787361],[130.44906746260645,32.28740636014121],[130.44993373556647,32.28671029459094],[130.44986282227057,32.28597765231052],[130.4490849668221,32.285047175069266],[130.45007178679026,32.28442378566651],[130.45155475992527,32.283040482879514],[130.4515291785401,32.28217459214703],[130.45246615724366,32.281192055902906],[130.4513729249161,32.280451371163444],[130.45137187102802,32.279925614012114],[130.45014490350493,32.27901122342366],[130.449253485682,32.27879172966438],[130.4484535150567,32.27941776582881],[130.44713605284417,32.282219433396286],[130.4467281793956,32.28190474406084],[130.44728568833287,32.281350716766774],[130.44707048220175,32.280258531941726],[130.44633824062603,32.28004246978508],[130.44756518498434,32.27903150177096],[130.446998695495,32.27844732490863],[130.4461534117773,32.278846703716006],[130.44488063907013,32.27883843278675],[130.44576387137658,32.27813978692078],[130.44661385853806,32.27819311947799],[130.4478266119551,32.27758876895505],[130.44814929574804,32.2761977382145],[130.44891625694896,32.27558149358885],[130.4493891852657,32.274265940159864],[130.4506400040402,32.272273789346464],[130.4502649678287,32.272327182254195],[130.4462635537026,32.27017589315686],[130.44574025654296,32.270875278748406],[130.44534381597444,32.27043522469287],[130.44587885471594,32.269728700661766],[130.44405630702965,32.26887111015533],[130.44283563206213,32.26887474970797],[130.44272799466597,32.26846301365289],[130.44221578906144,32.267987700613894],[130.44199308027865,32.26773405678423],[130.4418479181527,32.267559384822604],[130.44197132502322,32.26730726961128],[130.4422123845148,32.266956256812165],[130.44263209851746,32.266483788471966],[130.4432095957519,32.26612185581649],[130.4433967684397,32.265957104580764],[130.44351429026617,32.266142925845344],[130.4436482174183,32.26627710328908],[130.44368349874463,32.266277258588815],[130.4435474489465,32.265968689510714],[130.4434809708721,32.26582938319947],[130.44389356411338,32.26601650349288],[130.44425395575848,32.26635332670968],[130.4445448178954,32.266520885773716],[130.4453532711265,32.26675194433312],[130.4455964910064,32.26684573471874],[130.4467067663394,32.267026322457305],[130.4471052229688,32.26743961231359],[130.44726088058547,32.267682879786946],[130.44766480895208,32.267722764682944],[130.4479100336791,32.267747017961526],[130.44799241594797,32.267910911392455],[130.4486235225125,32.268039013907085],[130.44925655520728,32.26811674472954],[130.449843885842,32.26805934653897],[130.45050215453546,32.26794771929444],[130.45077793862242,32.267951667344285],[130.45106502363146,32.26795157681457],[130.45121602448097,32.26791136820189],[130.45162785057187,32.26770868785915],[130.45176323245042,32.26759760031265],[130.4520375339546,32.267318086094484],[130.4521789627554,32.267269590594324],[130.45234530013028,32.26734661792758],[130.45239926154514,32.267439504464605],[130.4523601275605,32.26754840389407],[130.45229450705645,32.26779338396062],[130.4525358077908,32.26740331756011],[130.45268436910703,32.26723775099099],[130.4527582431643,32.267218977097066],[130.4528248817941,32.267478763850335],[130.45292681567537,32.26810135102391],[130.4529457802436,32.268710825615],[130.45321578339357,32.269007073582316],[130.45337650362293,32.26927396050501],[130.45307960627835,32.26967682223641],[130.4529886238303,32.26974054486919],[130.45233144896642,32.2699232113586],[130.4522522234141,32.27121428432472],[130.45276242039466,32.27112067571427],[130.45329693155296,32.271154980300786],[130.4537019758069,32.27118512944516],[130.45399762068197,32.2713425431019],[130.45460677256835,32.271465871465686],[130.4550688757731,32.271737579513726],[130.45515643227034,32.271754022548826],[130.4549002127142,32.27187360983955],[130.45447761060063,32.271735517635975],[130.4542724246916,32.27171828413307],[130.45403036629256,32.27196524771191],[130.45388801288118,32.27216628179333],[130.45386156053323,32.27229700648469],[130.45349645332828,32.2722027741891],[130.45355436679907,32.27217033274249],[130.45356876203266,32.27191421080325],[130.4532810379652,32.27174943232815],[130.45308775505083,32.27189028476101],[130.4523483484937,32.27216143879829],[130.4523762263399,32.272282958057104],[130.45255073093568,32.27247874179377],[130.45267003973848,32.27260002421707],[130.45245993581054,32.27277257818974],[130.45237650139015,32.27280836122716],[130.45223476790952,32.27290589306329],[130.45220861727708,32.272992934826725],[130.45184333716313,32.27292053871151],[130.45149327258386,32.272992573891905],[130.45144711554454,32.27319951847975],[130.45158529680393,32.27369064333125],[130.4512135622411,32.27362906754791],[130.45102065881832,32.27369910752901],[130.45081316445294,32.274063384535715],[130.4507848949917,32.274493896683765],[130.4506438489978,32.27447693612637],[130.45034449838403,32.274115876494406],[130.45012702432723,32.274011356124426],[130.4499538045467,32.2745420599254],[130.44949451313803,32.27516141781634],[130.44961466949465,32.27545081715101],[130.44996591641336,32.27571945430467],[130.44971179955084,32.277084017805365],[130.44981880338148,32.27723138784761],[130.4503313364325,32.277353472570596],[130.45117176681282,32.27736263237828],[130.45089247069615,32.2779282440218],[130.45132476499853,32.2780582195071],[130.45163265672306,32.27806505524365],[130.45145642594417,32.278565732935746],[130.45134624303213,32.27874513066047],[130.4512231552895,32.278946243919336],[130.45141467807449,32.27909968877895],[130.45164472368091,32.2792533005222],[130.45159088763015,32.27966735528118],[130.45166700232153,32.27981487203421],[130.45206403412283,32.27994194401618],[130.45260392928157,32.27978618472528],[130.45283693379088,32.27944928420625],[130.45302236908987,32.279553661935566],[130.45314827114214,32.27995208079258],[130.45353307437338,32.279975592699635],[130.45383216457066,32.279854224266856],[130.45406509969857,32.27952817041701],[130.454374044687,32.27936055284973],[130.45461075202232,32.27947607127542],[130.4543361932481,32.280325161273474],[130.45475939091827,32.280370607703716],[130.45506116572676,32.280333795749854],[130.4556901804565,32.28028740746651],[130.45581816015033,32.28034791919037],[130.45566271454862,32.28058708500485],[130.4554218550216,32.28063782997082],[130.45492089888543,32.28071746391805],[130.4545521569585,32.28122273730993],[130.4558216462174,32.28244375986666],[130.45570488419574,32.28265582572149],[130.45570416526093,32.282775740518254],[130.45597202397624,32.28304393144339],[130.4558583720004,32.283269679026304],[130.45527756050697,32.28382857217464],[130.45494998350406,32.28389253911733],[130.4546628762786,32.28361876704093],[130.45395014301693,32.28370832980653],[130.45367641456562,32.2838788470362],[130.45285241710488,32.28433317144038],[130.45208995108842,32.28415540436395],[130.45198701136343,32.28419856892516],[130.45174137614325,32.28450272119104],[130.451293085853,32.28435907838662],[130.45106131524824,32.28448890737655],[130.45114817227616,32.28497981006398],[130.45089829971513,32.28545564585675],[130.45059442827437,32.28583584633165],[130.4505666483583,32.286184558937926],[130.4508152924187,32.2864473219378],[130.45104654088823,32.286404716815255],[130.45173942849794,32.28641865735541],[130.45195630858677,32.28662667493901],[130.45226048759346,32.287260282477106],[130.4529840918945,32.288034724464765],[130.453403909168,32.28864698966358],[130.45358336217905,32.28868046076357],[130.4538211074401,32.2886270293815],[130.453957976412,32.28827329281183],[130.45388309760096,32.28791870935961],[130.4539027331044,32.287853410163216],[130.45402831501326,32.28804524578194],[130.4543363609838,32.28844572170546],[130.45462633131638,32.28905277025825],[130.45461773937419,32.28908838387024]]]},"properties":{"KEY_CODE":"43484004004","PREF":"43","CITY":"484","CITY_NAME":"津奈木町","S_NAME":"大字福浜（平国下）","SETAI":"106"}},{"type":"Feature","geometry":{"type":"Polygon","coordinates":[[[130.45515643227034,32.271754022548826],[130.4550688757731,32.271737579513726],[130.45460677256835,32.271465871465686],[130.45399762068197,32.2713425431019],[130.4537019758069,32.27118512944516],[130.45329693155296,32.271154980300786],[130.45276242039466,32.27112067571427],[130.4522522234141,32.27121428432472],[130.45233144896642,32.2699232113586],[130.4529886238303,32.26974054486919],[130.45307960627835,32.26967682223641],[130.45337650362293,32.26927396050501],[130.45321578339357,32.269007073582316],[130.4529457802436,32.268710825615],[130.45292681567537,32.26810135102391],[130.4528248817941,32.267478763850335],[130.45278867545102,32.267219109016196],[130.45387147266084,32.266919911939745],[130.4547333386861,32.26814185985114],[130.4560993470534,32.2682132086377],[130.45603047129026,32.26900324126734],[130.45525881826498,32.26930513771666],[130.45651377907126,32.26971392050495],[130.45561195005303,32.270862866014944],[130.45608847976538,32.27163347470343],[130.45515643227034,32.271754022548826]]]},"properties":{"KEY_CODE":"43484004005","PREF":"43","CITY":"484","CITY_NAME":"津奈木町","S_NAME":"大字福浜（平国上）","SETAI":"36"}},{"type":"Feature","geometry":{"type":"Polygon","coordinates":[[[130.45391754754039,32.287845090000665],[130.4542249639622,32.28762582065169],[130.4558661961575,32.28893046554566],[130.45672503520814,32.2884589400671],[130.45684849150658,32.289401908943034],[130.45859667000101,32.289746576101216],[130.458672317298,32.28909291731618],[130.4593698013436,32.28800516569159],[130.4592448017142,32.286913950632275],[130.4597239505351,32.286357421791294],[130.4586474481796,32.28565005556161],[130.4579842510747,32.28619965864381],[130.45693847161903,32.28555131280013],[130.4570324454396,32.28463570176537],[130.45842657695616,32.28379473729016],[130.4582421305116,32.28345271861763],[130.46075063480458,32.280567124511805],[130.46104590375668,32.27915473083749],[130.45870029970442,32.277990993403876],[130.45926147718245,32.27698057060897],[130.4602369883065,32.27741764751269],[130.4608353095968,32.277265910777444],[130.46205080420975,32.27773388469275],[130.46343178749157,32.27696354958068],[130.46337722038075,32.27579153006785],[130.46391792723213,32.27586464740869],[130.4637743978501,32.27618292763098],[130.46356190243185,32.27706330956536],[130.4637921621475,32.27870032439635],[130.46255867482074,32.278683292560764],[130.46269905729454,32.27936028572428],[130.46189254130286,32.28038854632499],[130.46198749301493,32.281383743741124],[130.46138757053387,32.28175903751201],[130.46158737232128,32.28297472242953],[130.4596303456376,32.28323145879458],[130.4587186374891,32.28426192797746],[130.45817156982403,32.28449137995539],[130.45802473835488,32.2852600018735],[130.45889997172975,32.28536297028955],[130.45989739338268,32.28598593999731],[130.4600917172305,32.286509849330145],[130.45973951967716,32.28753828307996],[130.46039272959996,32.28820119988595],[130.4593687312045,32.28847010898149],[130.45883093770217,32.289636613093],[130.45888543828096,32.29065051596499],[130.4576684961276,32.289800216134005],[130.45500005720314,32.2895181382191],[130.45407863394306,32.289787238302694],[130.45461773937419,32.28908838387024],[130.45462633131638,32.28905277025825],[130.4543363609838,32.28844572170546],[130.45402831501326,32.28804524578194],[130.45391754754039,32.287845090000665]]]},"properties":{"KEY_CODE":"43484004006","PREF":"43","CITY":"484","CITY_NAME":"津奈木町","S_NAME":"大字福浜（福浦）","SETAI":"63"}},{"type":"Feature","geometry":{"type":"Polygon","coordinates":[[[130.4435458694503,32.23470437000098],[130.44259550033334,32.235688611921084],[130.43609373726161,32.23715772291206],[130.4355683146649,32.23683973373671],[130.43461864990545,32.2330801695844],[130.432552600681,32.23107606362921],[130.43261184599177,32.23059384554442],[130.43478272825527,32.2288657212404],[130.43494621522956,32.22755018721154],[130.43556848822143,32.22662787666482],[130.436588903894,32.225766306142646],[130.43681046657642,32.22496718823491],[130.43740150439484,32.224548840905975],[130.43675932260015,32.22424971226655],[130.43762683871185,32.22339209946025],[130.43825344720784,32.22359512185938],[130.4391575164364,32.220902542430444],[130.4393082336178,32.219785273690356],[130.4384344812562,32.219354995061074],[130.43780693402613,32.217507932972744],[130.43784452382738,32.21690935855305],[130.4388290195171,32.21616794602768],[130.43955436450102,32.215091696355636],[130.44028638973433,32.21519921464899],[130.44176119002475,32.21424118396348],[130.44314755251597,32.214365242095575],[130.443880842985,32.213585416848424],[130.44586554723824,32.21337860615555],[130.44753791510496,32.21358404989671],[130.44835796612213,32.212634427768045],[130.4484602971808,32.211664125118666],[130.4492003209295,32.210473021056714],[130.4508713146367,32.20995100937402],[130.45281632418505,32.20999318942718],[130.45213740203596,32.212845459048815],[130.45211593580868,32.21437786335738],[130.45070422633302,32.21563840111324],[130.44933062026408,32.2176862251898],[130.44783091681973,32.21826348067263],[130.44730572117513,32.218923193222665],[130.4482169022994,32.22034503732921],[130.44844057104035,32.22188895817884],[130.44762888718247,32.22326679652901],[130.4477824299239,32.22423702926727],[130.44749334659522,32.2253930257397],[130.4466365494269,32.22611378906819],[130.44594926830962,32.22820631357349],[130.4462156379641,32.22904344834102],[130.44534925684596,32.23106541005196],[130.4443420379226,32.23113299163315],[130.44350450419543,32.2318705062259],[130.44040662663258,32.23251918278308],[130.44077020127298,32.2328963949324],[130.44275802113322,32.233379137413266],[130.4427505391534,32.23387018475259],[130.4435458694503,32.23470437000098]],[[130.43692460477862,32.22991148712649],[130.43764447444482,32.23151581160233],[130.4385024806343,32.23098690714393],[130.43813121750316,32.23007806203478],[130.43692460477862,32.22991148712649]]]},"properties":{"KEY_CODE":"43484005001","PREF":"43","CITY":"484","CITY_NAME":"津奈木町","S_NAME":"大字小津奈木（小津奈木）","SETAI":"179"}},{"type":"Feature","geometry":{"type":"Polygon","coordinates":[[[130.43692460477862,32.22991148712649],[130.43813121750316,32.23007806203478],[130.4385024806343,32.23098690714393],[130.43764447444482,32.23151581160233],[130.43692460477862,32.22991148712649]]]},"properties":{"KEY_CODE":"43484005002","PREF":"43","CITY":"484","CITY_NAME":"津奈木町","S_NAME":"大字小津奈木（丸岡）","SETAI":"87"}}]}