{"type":"FeatureCollection","features":[{"type":"Feature","geometry":{"type":"Polygon","coordinates":[[[139.92464164246118,36.15423641431808],[139.9247054913833,36.15451587791713],[139.92338483176985,36.15509196229726],[139.92464164246118,36.15423641431808]]]},"properties":{"KEY_CODE":"085210010","PREF":"08","CITY":"521","CITY_NAME":"八千代町","S_NAME":"大字仁江戸","SETAI":"0"}},{"type":"Feature","geometry":{"type":"Polygon","coordinates":[[[139.92329202589713,36.15407024280148],[139.923048513873,36.15418696527802],[139.9228718184584,36.15396662910111],[139.92329202589713,36.15407024280148]]]},"properties":{"KEY_CODE":"085210010","PREF":"08","CITY":"521","CITY_NAME":"八千代町","S_NAME":"大字仁江戸","SETAI":"0"}},{"type":"Feature","geometry":{"type":"Polygon","coordinates":[[[139.9400528153086,36.16826657042631],[139.93681227608127,36.16891340852286],[139.9354911262392,36.168650326088596],[139.9347191933588,36.16861389158031],[139.93357820106723,36.16837611649975],[139.9332006938217,36.16826516674155],[139.93219414901446,36.168085210470764],[139.9319884322306,36.168048714450755],[139.9310155444357,36.16775699103635],[139.9304926580893,36.16773622891605],[139.92921899980624,36.16733663434255],[139.92852862317838,36.16717184574408],[139.92743638766166,36.16760517391943],[139.9272591557897,36.167728313169235],[139.92701092261717,36.16732042386864],[139.9286315136207,36.16614284986338],[139.93119403223085,36.1668887040065],[139.93139288703298,36.166421058138],[139.93256814129518,36.166751109449],[139.93304520952609,36.16575890543401],[139.93183410344358,36.16540741153049],[139.93289046098394,36.16295290483922],[139.93128023142975,36.162351593594316],[139.93047955289515,36.1612315769144],[139.92780445612706,36.160029064586844],[139.92720068681626,36.159289764343654],[139.92771878436085,36.15870943666912],[139.9247715912685,36.15778815645613],[139.92602779453148,36.15690655697754],[139.92624955082155,36.15604596898189],[139.92493852841298,36.15401283041718],[139.92600895491162,36.1521991294439],[139.92633308326018,36.15161241995232],[139.92639206437946,36.15142538655613],[139.92712920008424,36.15168127718672],[139.93043624951832,36.15280817716329],[139.93087917718447,36.15195244281214],[139.9339867967234,36.15301369554906],[139.93451222961417,36.15214353992533],[139.93548480368162,36.152484260351564],[139.93504071941382,36.1533347746192],[139.9362715472126,36.154059489776195],[139.93704520181078,36.15567005712261],[139.93862957464796,36.15429293862357],[139.9405545427089,36.1535993642327],[139.94137880118754,36.15547034006584],[139.94023387305108,36.15635845608558],[139.94127010093752,36.156332030215076],[139.94221106106636,36.15741132916687],[139.94179646712143,36.15847493674362],[139.94238288058355,36.158635654902014],[139.94185321875526,36.15975029731653],[139.94441511894476,36.16041460926368],[139.94418919825205,36.163386053457344],[139.9441270917471,36.16728844162874],[139.9437687848515,36.16826934782264],[139.94257514207158,36.16776269725657],[139.94009871598382,36.16764262512186],[139.9400528153086,36.16826657042631]]]},"properties":{"KEY_CODE":"085210010","PREF":"08","CITY":"521","CITY_NAME":"八千代町","S_NAME":"大字仁江戸","SETAI":"226"}},{"type":"Feature","geometry":{"type":"Polygon","coordinates":[[[139.9237026238824,36.15347628242397],[139.92303248960798,36.153831451523864],[139.9228844232058,36.15364072130136],[139.9237026238824,36.15347628242397]]]},"properties":{"KEY_CODE":"085210010","PREF":"08","CITY":"521","CITY_NAME":"八千代町","S_NAME":"大字仁江戸","SETAI":"0"}},{"type":"Feature","geometry":{"type":"Polygon","coordinates":[[[139.92410122709532,36.15332312608586],[139.9256167731984,36.15203584135105],[139.92536258698723,36.15281041384363],[139.92410122709532,36.15332312608586]]]},"properties":{"KEY_CODE":"085210010","PREF":"08","CITY":"521","CITY_NAME":"八千代町","S_NAME":"大字仁江戸","SETAI":"0"}},{"type":"Feature","geometry":{"type":"Polygon","coordinates":[[[139.93480004126158,36.17279029556023],[139.9334121380709,36.17292765576781],[139.93265956159266,36.17286624277646],[139.9307735708479,36.17246968484596],[139.92983819159585,36.17240842158542],[139.92943010541086,36.172443226134654],[139.92898850628004,36.16889760948185],[139.9260126962553,36.16925724221491],[139.9260460923367,36.16914311086591],[139.9263225189558,36.16894321335438],[139.9265368763623,36.16864436348552],[139.92655394052045,36.16825321420858],[139.92672055524693,36.16816337497852],[139.9271565260686,36.1679027583169],[139.9272591557897,36.167728313169235],[139.92743638766166,36.16760517391943],[139.92852862317838,36.16717184574408],[139.92921899980624,36.16733663434255],[139.9304926580893,36.16773622891605],[139.9310155444357,36.16775699103635],[139.9319884322306,36.168048714450755],[139.93219414901446,36.168085210470764],[139.9332006938217,36.16826516674155],[139.93357820106723,36.16837611649975],[139.9347191933588,36.16861389158031],[139.9354911262392,36.168650326088596],[139.93681227608127,36.16891340852286],[139.9400528153086,36.16826657042631],[139.93998503505986,36.168438989499975],[139.93935563690746,36.169823532605875],[139.93794032370963,36.17166033209603],[139.93723300540756,36.17205910353734],[139.93688437088954,36.17203874648214],[139.93670568381387,36.17194583508141],[139.93627619995172,36.17187037949353],[139.93605944582887,36.17191882250234],[139.9357667410577,36.17240511375793],[139.93480004126158,36.17279029556023]]]},"properties":{"KEY_CODE":"085210020","PREF":"08","CITY":"521","CITY_NAME":"八千代町","S_NAME":"大字粟野","SETAI":"78"}},{"type":"Feature","geometry":{"type":"Polygon","coordinates":[[[139.93200887543298,36.182143546821784],[139.93098932000913,36.18266706750499],[139.93090333483696,36.18186216837757],[139.93009186651176,36.1819218312179],[139.92651214180833,36.18206784121096],[139.92632991095047,36.18126898060237],[139.92631100156774,36.17920019635323],[139.92448497589962,36.17932470238264],[139.92182472473624,36.179527887348996],[139.92067346326084,36.17961054012087],[139.92034388286183,36.17877410855268],[139.9216202200134,36.17835048934581],[139.9217211368284,36.17727201728366],[139.92189742983356,36.177083806216174],[139.92284919461363,36.177765220794484],[139.9235540474697,36.17820830541571],[139.9247584401296,36.178361874939625],[139.92627393583794,36.178256642437454],[139.92697554354075,36.1781943303683],[139.9270889234382,36.1791434382439],[139.9290935447557,36.178992288987246],[139.9290202465016,36.17805614050645],[139.92871610110774,36.17522503166633],[139.92962830190362,36.17433447780141],[139.92949546724407,36.17320570531343],[139.9308723355675,36.17309907090412],[139.9307735708479,36.17246968484596],[139.93265956159266,36.17286624277646],[139.9334121380709,36.17292765576781],[139.93480004126158,36.17279029556023],[139.9357667410577,36.17240511375793],[139.93605944582887,36.17191882250234],[139.93627619995172,36.17187037949353],[139.93670568381387,36.17194583508141],[139.93688437088954,36.17203874648214],[139.93723300540756,36.17205910353734],[139.93794032370963,36.17166033209603],[139.93935563690746,36.169823532605875],[139.93998503505986,36.168438989499975],[139.9400528153086,36.16826657042631],[139.94009871598382,36.16764262512186],[139.94257514207158,36.16776269725657],[139.9437687848515,36.16826934782264],[139.94285777630313,36.16981507203127],[139.94044933984256,36.17126669460686],[139.9387687322519,36.172249850717],[139.93733979800365,36.17310319911969],[139.9359027288188,36.17398066866793],[139.93423163279775,36.17614303045073],[139.933880073674,36.17870610568636],[139.93482867575344,36.18106494345088],[139.934156473133,36.18149168957368],[139.9335926189436,36.18192676767866],[139.93339394670863,36.1819886567083],[139.93294263986212,36.18197936009449],[139.93200887543298,36.182143546821784]]]},"properties":{"KEY_CODE":"085210030","PREF":"08","CITY":"521","CITY_NAME":"八千代町","S_NAME":"大字片角","SETAI":"55"}},{"type":"Feature","geometry":{"type":"Polygon","coordinates":[[[139.92530859328113,36.175587629597445],[139.92605689273688,36.17396000915103],[139.92607990007076,36.17159735983179],[139.92576279420393,36.17106350057073],[139.92587935132863,36.16993651352568],[139.92587524905633,36.16929537502388],[139.9260126962553,36.16925724221491],[139.92898850628004,36.16889760948185],[139.92943010541086,36.172443226134654],[139.92983819159585,36.17240842158542],[139.9307735708479,36.17246968484595],[139.9308723355675,36.17309907090412],[139.92949546724407,36.17320570531343],[139.92962830190362,36.17433447780141],[139.92871610110774,36.17522503166633],[139.9290202465016,36.17805614050645],[139.92909354475566,36.178992288987246],[139.9270889234382,36.1791434382439],[139.92697554354083,36.17819433036828],[139.92690996604122,36.17769618422201],[139.92676062188104,36.17631065464499],[139.92750608808643,36.17625684245222],[139.92738302499131,36.17529517006543],[139.92588510099515,36.175397107903066],[139.92603158988123,36.17637397439078],[139.9256283835612,36.17639708938231],[139.92530859328113,36.175587629597445]]]},"properties":{"KEY_CODE":"085210040","PREF":"08","CITY":"521","CITY_NAME":"八千代町","S_NAME":"大字中野","SETAI":"29"}},{"type":"Feature","geometry":{"type":"Polygon","coordinates":[[[139.92530859328113,36.175587629597445],[139.9252288729685,36.17557630327772],[139.92423674500193,36.175172194701155],[139.92357985384825,36.17476215214389],[139.9236787930152,36.173125538912494],[139.92377617921713,36.172155944930864],[139.9241575826853,36.17172341081322],[139.9250019263171,36.170840567365374],[139.92510101959175,36.17052760169775],[139.9252850681617,36.1697323553414],[139.92576462624137,36.16933350471136],[139.92587524905633,36.16929537502388],[139.92587935132863,36.16993651352568],[139.92576279420393,36.17106350057073],[139.92607990007076,36.17159735983179],[139.92605689273688,36.17396000915103],[139.92530859328113,36.175587629597445]]]},"properties":{"KEY_CODE":"085210050","PREF":"08","CITY":"521","CITY_NAME":"八千代町","S_NAME":"大字苅橋","SETAI":"27"}},{"type":"Feature","geometry":{"type":"Polygon","coordinates":[[[139.92690996604122,36.17769618422201],[139.92627393583794,36.178256642437454],[139.9247584401296,36.178361874939625],[139.9235540474697,36.17820830541571],[139.92413464869992,36.17669906920508],[139.92212289254738,36.175764225797785],[139.91942150183863,36.177548049867376],[139.9190197779516,36.17682318184699],[139.9168847513496,36.17758531252357],[139.91634911732248,36.176606314970854],[139.91427397961343,36.175617971787936],[139.9131495736206,36.17355089307468],[139.9138579256542,36.1732699976066],[139.9164674506041,36.173195221934414],[139.91858615336045,36.17182663545665],[139.9200136352689,36.17138373544571],[139.92105435848976,36.171270440842136],[139.92137434366728,36.171277505520486],[139.92199125898674,36.171383313694086],[139.92315507408975,36.17216489133869],[139.9236787930152,36.173125538912494],[139.92357985384825,36.17476215214389],[139.92423674500193,36.175172194701155],[139.9252288729685,36.17557630327772],[139.9256283835612,36.17639708938231],[139.92603158988123,36.17637397439078],[139.92588510099515,36.175397107903045],[139.92738302499131,36.17529517006543],[139.92750608808643,36.17625684245218],[139.92676062188104,36.17631065464498],[139.92690996604122,36.17769618422201]]]},"properties":{"KEY_CODE":"085210060","PREF":"08","CITY":"521","CITY_NAME":"八千代町","S_NAME":"大字東大山","SETAI":"47"}},{"type":"Feature","geometry":{"type":"Polygon","coordinates":[[[139.92079934539845,36.18057842807938],[139.91980379403296,36.18072309679197],[139.91980582704383,36.181378245167984],[139.91844008914444,36.18095528654245],[139.91815336518965,36.182264933793306],[139.91502112993902,36.18201572254546],[139.9141205653787,36.18242985645939],[139.91445288854376,36.18103991497076],[139.91338263352625,36.17988806404689],[139.91072878720578,36.179266445631654],[139.90980650644443,36.179696881233085],[139.90988642519756,36.17803883741713],[139.9085296379462,36.178412195657835],[139.90433263629805,36.17778405294621],[139.90320256648428,36.17776697310453],[139.90252379536545,36.178400635427245],[139.90154336955416,36.17817132899746],[139.89733818337763,36.17920076946871],[139.8950910848557,36.17768732177082],[139.895428937904,36.176657053510176],[139.89615048866452,36.17623577281437],[139.89579523119303,36.17544037930077],[139.8974808243217,36.17521490295457],[139.8984164749791,36.17376799277551],[139.89955416651097,36.17359280928248],[139.90170036141043,36.17272488308866],[139.90192975534396,36.17275574908362],[139.9023227628654,36.172774862319116],[139.9025064175995,36.17276234198577],[139.9027753850146,36.17261431104475],[139.90300225748652,36.17244871807015],[139.90346406718325,36.172591135985726],[139.90384033216566,36.17262298236121],[139.90400635695445,36.17287519603549],[139.90421563015713,36.17299500217038],[139.9049197490693,36.17312073674986],[139.90501307263503,36.17335748382134],[139.90508710841192,36.173433945004156],[139.90657542034825,36.17335547254233],[139.90762617715282,36.17317693895198],[139.90833518833927,36.17306894399573],[139.9089507097788,36.173011950694054],[139.90945048579533,36.17277145691816],[139.91041559529924,36.17438860588542],[139.91211547467856,36.174272166393436],[139.9131495736206,36.17355089307468],[139.91427397961343,36.175617971787936],[139.91634911732248,36.176606314970854],[139.9168847513496,36.17758531252357],[139.9190197779516,36.17682318184699],[139.91942150183863,36.177548049867376],[139.92212289254738,36.175764225797785],[139.92413464869992,36.17669906920508],[139.9235540474697,36.17820830541571],[139.92284919461363,36.177765220794484],[139.92189742983356,36.177083806216174],[139.9217211368284,36.17727201728366],[139.9216202200134,36.17835048934581],[139.92034388286183,36.17877410855268],[139.92067346326084,36.17961054012087],[139.92079934539845,36.18057842807938]]]},"properties":{"KEY_CODE":"085210070","PREF":"08","CITY":"521","CITY_NAME":"八千代町","S_NAME":"大字太田","SETAI":"122"}},{"type":"Feature","geometry":{"type":"Polygon","coordinates":[[[139.90715639183315,36.186707603471234],[139.90363070052325,36.187551175570164],[139.90173422212084,36.18823496150754],[139.89998686759225,36.189305985584745],[139.89644255797526,36.18995671871191],[139.89456755098672,36.189868777238225],[139.89455083691135,36.189182617337984],[139.89363860973947,36.18798651891791],[139.8941821269743,36.186086916589794],[139.89408767815692,36.18533154198297],[139.89462259566764,36.184213903211464],[139.8951393912796,36.18427673343558],[139.8954402334662,36.18160382570713],[139.8954764573783,36.181053641244],[139.89112327840346,36.179587792006195],[139.8892737548827,36.178346563619904],[139.88695300634313,36.177391001041464],[139.88384156959566,36.17811424533822],[139.88089117042583,36.17913529816234],[139.87878591785068,36.18107290903831],[139.87820451825067,36.18130326528438],[139.87879430799174,36.1804677566711],[139.8783320183542,36.179473725335086],[139.8779100664169,36.17698243032039],[139.87886531483633,36.17611661552921],[139.87901378760154,36.17481671444758],[139.88024952952296,36.174784139627285],[139.88320201472325,36.17422431290253],[139.8858416743629,36.17212223330353],[139.88726339953192,36.170679618672565],[139.88847375498437,36.17061065092243],[139.8900898231501,36.1673403840135],[139.89100133205378,36.167297038478374],[139.89102577840706,36.166540035895515],[139.89268675264273,36.16801622124132],[139.8929034926269,36.16883270928273],[139.8949625113646,36.169687572741836],[139.89665786564677,36.16985477029606],[139.8964074025152,36.16920640186466],[139.90037653664345,36.16870125387502],[139.90051521858115,36.16867286670445],[139.8992506751779,36.17007354697685],[139.89893427458918,36.17040425288352],[139.89924022987313,36.17057575169548],[139.89956522645736,36.17064828574554],[139.89988574258385,36.1706528739734],[139.9007150023543,36.170683376707984],[139.9016374229312,36.17133253790656],[139.90172305519647,36.171754502128515],[139.90171776677664,36.172443548696336],[139.90170036141043,36.17272488308866],[139.89955416651097,36.17359280928248],[139.8984164749791,36.17376799277551],[139.8974808243217,36.17521490295457],[139.89579523119303,36.17544037930077],[139.89615048866452,36.17623577281437],[139.895428937904,36.176657053510176],[139.8950910848557,36.17768732177082],[139.89733818337763,36.17920076946871],[139.90154336955416,36.17817132899746],[139.90252379536545,36.178400635427245],[139.90320256648428,36.17776697310453],[139.90433263629805,36.17778405294621],[139.9085296379462,36.178412195657835],[139.90988642519756,36.17803883741713],[139.90980650644443,36.179696881233085],[139.90956458900865,36.18251211117282],[139.90891413554755,36.182688341719484],[139.90922511691696,36.18353655956106],[139.90840304295764,36.18356980123923],[139.90863403535153,36.18517446064827],[139.90917847537102,36.18487563837744],[139.9104530169579,36.18594808715015],[139.90715639183315,36.186707603471234]]]},"properties":{"KEY_CODE":"085210080","PREF":"08","CITY":"521","CITY_NAME":"八千代町","S_NAME":"大字若","SETAI":"413"}},{"type":"Feature","geometry":{"type":"Polygon","coordinates":[[[139.9243343399898,36.1858609312391],[139.92427960337645,36.187307167646985],[139.92360317506598,36.188667417816326],[139.92554288788227,36.189457613016906],[139.9242665753174,36.19035262242459],[139.92060545200573,36.190655521722505],[139.9190902182723,36.18932584541559],[139.91640754533822,36.19035974854546],[139.91603921937406,36.1888551506601],[139.91490726480043,36.18825445756602],[139.91306476606707,36.18806591781308],[139.91091555061362,36.188707744470555],[139.9096326589852,36.18956620883407],[139.9086326843543,36.19053370294292],[139.9074063307134,36.18875431945032],[139.90715639183315,36.186707603471234],[139.9104530169579,36.18594808715015],[139.90917847537102,36.18487563837744],[139.90863403535153,36.18517446064827],[139.90840304295764,36.18356980123923],[139.90922511691696,36.18353655956106],[139.90891413554755,36.182688341719484],[139.90956458900865,36.18251211117282],[139.90980650644443,36.179696881233085],[139.91072878720578,36.179266445631654],[139.91338263352625,36.17988806404689],[139.91445288854376,36.18103991497076],[139.9141205653787,36.18242985645939],[139.91502112993902,36.18201572254546],[139.91815336518965,36.182264933793306],[139.91844008914444,36.18095528654245],[139.91980582704383,36.181378245167984],[139.91980379403296,36.18072309679197],[139.92079934539845,36.18057842807938],[139.92129268949552,36.18148080187725],[139.92020752298686,36.18188809750619],[139.91910291219398,36.18347946283262],[139.91718205788425,36.18320675655869],[139.9163083003339,36.18347215484157],[139.91621969398236,36.184529468541854],[139.9154516841784,36.18475003999047],[139.91570341450807,36.18574372080767],[139.91653686379246,36.18650388319999],[139.918457849444,36.18682880936219],[139.92072088052657,36.18605883154623],[139.92139402549762,36.184466388183516],[139.92271158429338,36.18426655320921],[139.9239813050364,36.18488431880471],[139.9243343399898,36.1858609312391]]]},"properties":{"KEY_CODE":"085210090","PREF":"08","CITY":"521","CITY_NAME":"八千代町","S_NAME":"大字沼森","SETAI":"134"}},{"type":"Feature","geometry":{"type":"Polygon","coordinates":[[[139.9243343399898,36.1858609312391],[139.9239813050364,36.18488431880471],[139.92271158429338,36.18426655320921],[139.92139402549762,36.184466388183516],[139.92072088052657,36.18605883154623],[139.918457849444,36.18682880936219],[139.91653686379246,36.18650388319999],[139.91570341450807,36.18574372080767],[139.9154516841784,36.18475003999047],[139.91621969398236,36.184529468541854],[139.9163083003339,36.18347215484157],[139.91718205788425,36.18320675655869],[139.91910291219398,36.18347946283262],[139.92020752298686,36.18188809750619],[139.92129268949552,36.18148080187725],[139.92079934539845,36.18057842807938],[139.92067346326084,36.17961054012087],[139.92182472473624,36.179527887348996],[139.92448497589962,36.17932470238264],[139.92631100156774,36.17920019635323],[139.92632991095047,36.18126898060237],[139.92651214180833,36.18206784121096],[139.92673155983928,36.182185802414445],[139.9268145858702,36.18303161978476],[139.92653787509593,36.18440605850995],[139.92561334424647,36.184507484994256],[139.9243343399898,36.1858609312391]]]},"properties":{"KEY_CODE":"085210100","PREF":"08","CITY":"521","CITY_NAME":"八千代町","S_NAME":"大字貝谷","SETAI":"67"}},{"type":"Feature","geometry":{"type":"Polygon","coordinates":[[[139.92005703072186,36.20011030852331],[139.9185330322625,36.200152843824405],[139.91706984276925,36.19899544299117],[139.9167682078856,36.198630355731616],[139.91662248076025,36.19772943615863],[139.91623901366103,36.19727542211108],[139.91600732887937,36.19680047266293],[139.91603935763962,36.19614928914836],[139.91573534307,36.19572551185348],[139.91569545450798,36.19553435169816],[139.91551692434456,36.194512324829475],[139.91531575649958,36.19418689256704],[139.91540647141403,36.19382527415608],[139.91556030735924,36.19354502621725],[139.91558930595824,36.19220294271863],[139.91640754533822,36.19035974854546],[139.9190902182723,36.18932584541559],[139.92060545200573,36.190655521722505],[139.9242665753174,36.19035262242459],[139.92554288788227,36.189457613016906],[139.92360317506598,36.188667417816326],[139.92427960337645,36.187307167646985],[139.9243343399898,36.1858609312391],[139.92561334424647,36.184507484994256],[139.92653787509593,36.18440605850995],[139.9268145858702,36.18303161978476],[139.92927010521242,36.18286031709297],[139.92985522964688,36.1856459027754],[139.92938119939382,36.185700090584064],[139.92950084468663,36.18658842117813],[139.92864397981708,36.18672095686813],[139.92699514157815,36.18988539811978],[139.92824972881465,36.19031645946169],[139.92753607146463,36.191672976393214],[139.9270133970891,36.19224531382158],[139.92696709105869,36.1924370344968],[139.9266184763276,36.19268870801155],[139.92534618224187,36.19302832061088],[139.92549041324267,36.19502367464203],[139.92318163026525,36.1952833651445],[139.92208675361528,36.1965557970785],[139.92005703072186,36.20011030852331]]]},"properties":{"KEY_CODE":"085210110","PREF":"08","CITY":"521","CITY_NAME":"八千代町","S_NAME":"大字川尻","SETAI":"134"}},{"type":"Feature","geometry":{"type":"Polygon","coordinates":[[[139.93699041255698,36.18799446637946],[139.9371440295276,36.19066711318893],[139.9366068526506,36.19233324349677],[139.93480712980272,36.19540808265597],[139.93214513368508,36.19632556231824],[139.9293320680185,36.196386631581674],[139.92689844084086,36.19553167788224],[139.92549041324267,36.19502367464203],[139.92534618224187,36.19302832061088],[139.9266184763276,36.19268870801155],[139.92696709105869,36.1924370344968],[139.9270133970891,36.19224531382158],[139.92753607146463,36.191672976393214],[139.92824972881465,36.19031645946169],[139.92699514157815,36.18988539811978],[139.92864397981708,36.18672095686813],[139.92950084468663,36.18658842117813],[139.92993304967624,36.18655637804452],[139.93305725664294,36.18632444923245],[139.93305790873464,36.18685056220796],[139.93316182733088,36.187545456852995],[139.9322671387808,36.18747867322829],[139.93187356642298,36.18838905142669],[139.93268043024008,36.18835282600515],[139.93430338189827,36.188646485895084],[139.93430728307902,36.18826610709106],[139.93699041255698,36.18799446637946]]]},"properties":{"KEY_CODE":"085210120","PREF":"08","CITY":"521","CITY_NAME":"八千代町","S_NAME":"大字今里","SETAI":"99"}},{"type":"Feature","geometry":{"type":"Polygon","coordinates":[[[139.93699041255698,36.18799446637946],[139.93430728307902,36.18826610709106],[139.93430338189827,36.18864648589507],[139.93268043024008,36.18835282600515],[139.93187356642298,36.18838905142669],[139.93226713878082,36.187478673228306],[139.93316182733088,36.187545456852995],[139.93305790873464,36.18685056220796],[139.93305725664294,36.18632444923244],[139.92993304967624,36.18655637804452],[139.92950084468663,36.18658842117813],[139.92938119939382,36.185700090584064],[139.92985522964688,36.18564590277541],[139.9292701052124,36.18286031709297],[139.9268145858702,36.18303161978478],[139.92673155983928,36.182185802414445],[139.93009186651176,36.1819218312179],[139.93090333483696,36.18186216837757],[139.93098932000913,36.18266706750499],[139.93200887543298,36.182143546821784],[139.93294263986212,36.18197936009449],[139.93339394670863,36.1819886567083],[139.9335926189436,36.18192676767866],[139.934156473133,36.18149168957368],[139.93482867575344,36.18106494345088],[139.9356049866968,36.1825103003621],[139.93647284732785,36.183650961115056],[139.93694181504537,36.184715781753994],[139.93700865953255,36.186256850612324],[139.93693402115667,36.186600027181235],[139.9369075938465,36.187286214518004],[139.93699041255698,36.18799446637946]]]},"properties":{"KEY_CODE":"085210130","PREF":"08","CITY":"521","CITY_NAME":"八千代町","S_NAME":"大字本郷","SETAI":"29"}},{"type":"Feature","geometry":{"type":"Polygon","coordinates":[[[139.90037653664345,36.16870125387502],[139.8964074025152,36.16920640186466],[139.89665786564677,36.16985477029606],[139.8949625113646,36.169687572741836],[139.8929034926269,36.16883270928273],[139.89268675264273,36.16801622124132],[139.89102577840706,36.166540035895515],[139.89036622438584,36.165738250060826],[139.8900472532976,36.161473681965965],[139.88942968183935,36.15708776581892],[139.89107708440275,36.15677859317721],[139.89387550663682,36.1538974640969],[139.89488081863237,36.15372988003214],[139.89482963299204,36.152124478490755],[139.89523246254046,36.15199598714807],[139.89577430452744,36.14944024869913],[139.89744770511822,36.14879773442747],[139.89809863763668,36.14861479343239],[139.8986947796877,36.14878314486188],[139.89924937172464,36.14907073860099],[139.89939501867912,36.14921010455372],[139.89964005804174,36.14961544844514],[139.90017262993996,36.14983159643043],[139.90033107298356,36.14947090023328],[139.90229608617005,36.150422362844566],[139.9010338273889,36.15229105247189],[139.90039182923076,36.1544011103493],[139.89937429445487,36.155891780019644],[139.89963245154473,36.1584485516164],[139.90046302449608,36.16037319092622],[139.8998358699097,36.16118894041353],[139.89741128093175,36.16247776780291],[139.89883597729207,36.162553222197566],[139.89969034911294,36.163170765562434],[139.90195947553946,36.16349105603627],[139.9029042488057,36.16407776948907],[139.90264916761475,36.164783006185644],[139.90162780971667,36.16485387232414],[139.90185649082392,36.166047905967375],[139.90138828035006,36.167451430570694],[139.90037653664345,36.16870125387502]]]},"properties":{"KEY_CODE":"085210140","PREF":"08","CITY":"521","CITY_NAME":"八千代町","S_NAME":"大字蕗田","SETAI":"200"}},{"type":"Feature","geometry":{"type":"Polygon","coordinates":[[[139.90051521858115,36.16867286670445],[139.90037653664345,36.16870125387502],[139.90138828035006,36.167451430570694],[139.90185649082392,36.166047905967375],[139.90162780971667,36.16485387232414],[139.90264916761475,36.164783006185644],[139.9029042488057,36.16407776948907],[139.90195947553946,36.16349105603627],[139.89969034911294,36.163170765562434],[139.89883597729207,36.162553222197566],[139.89741128093175,36.16247776780291],[139.8998358699097,36.16118894041353],[139.90046302449608,36.16037319092622],[139.89963245154473,36.1584485516164],[139.89937429445487,36.155891780019644],[139.90039182923076,36.1544011103493],[139.9010338273889,36.15229105247189],[139.90156798566449,36.15235717594122],[139.90226726273417,36.152713237172684],[139.9026566706382,36.15304610274187],[139.903184524603,36.15307939129397],[139.90335389284465,36.153114355599264],[139.9037755729172,36.15326311509429],[139.9041177638647,36.153163567554664],[139.90431955476404,36.153201416291175],[139.90493925878098,36.15320103461801],[139.90505819977002,36.153253559648235],[139.9050871811328,36.15341716830694],[139.90541920056955,36.154064654124156],[139.90557118395148,36.15418560157721],[139.90679947246832,36.15509861699807],[139.90801203205476,36.1577525210341],[139.9088649124116,36.158396225593506],[139.90977706546985,36.15831344176466],[139.91144274452859,36.1587982301573],[139.9119990430318,36.15744407020406],[139.91193940013002,36.156159114786796],[139.91246442323222,36.15598452351173],[139.913186053683,36.154389426469876],[139.9154548479148,36.15271558633879],[139.9158073919926,36.15177730344485],[139.9170402510843,36.15110571152723],[139.91846893926692,36.14967142776137],[139.9189285822317,36.15139754652329],[139.91872378496254,36.153272607838495],[139.92004083506677,36.155755935046585],[139.92178092343866,36.15718153257099],[139.92295262234083,36.15705042083797],[139.92310915257332,36.15769720162939],[139.91867672035798,36.157646156731445],[139.91693827249884,36.1578596467213],[139.9150265453243,36.15775358259694],[139.9138318570276,36.1578889301557],[139.91345390873892,36.1616119363349],[139.91177443334718,36.162359974358615],[139.9115945164752,36.162744086445336],[139.910737018682,36.16247900802405],[139.9104082925163,36.16339435875731],[139.90885909818988,36.16405028189964],[139.90800861571498,36.16435386561888],[139.90507732553198,36.16522846713126],[139.90365402864091,36.16431410247779],[139.90183285671006,36.16700903327407],[139.9010849053798,36.16863255626528],[139.90051521858115,36.16867286670445]]]},"properties":{"KEY_CODE":"085210150","PREF":"08","CITY":"521","CITY_NAME":"八千代町","S_NAME":"大字東蕗田","SETAI":"169"}},{"type":"Feature","geometry":{"type":"Polygon","coordinates":[[[139.91858615336045,36.17182663545665],[139.9164674506041,36.173195221934414],[139.9138579256542,36.1732699976066],[139.9131495736206,36.17355089307468],[139.91211547467856,36.174272166393436],[139.91041559529924,36.17438860588542],[139.90945048579533,36.17277145691816],[139.91029698594545,36.172065187458934],[139.90953464920707,36.171104083963066],[139.9087465211012,36.17124283717799],[139.90885972477815,36.170695992546136],[139.90919269871893,36.17044705241278],[139.9093141599513,36.170258280166856],[139.90911520435384,36.16959585632214],[139.90978675118686,36.16945390150495],[139.9114578810655,36.169315577302996],[139.91128323596922,36.16919132318969],[139.91008481938445,36.1686710758881],[139.90949272520905,36.16893305454971],[139.90882612754268,36.16871907366292],[139.90869910036372,36.16861622587583],[139.90888922335247,36.16832019998727],[139.90892700150118,36.16801509967916],[139.90848815188812,36.16810616854219],[139.90812904278903,36.168076155849405],[139.90597205968558,36.1678827927173],[139.90557570222236,36.16791328301567],[139.90460626786714,36.168522675370255],[139.90352135854286,36.16927221810911],[139.9031337390983,36.16900709315422],[139.9012008051961,36.169812468293266],[139.89945776591696,36.17011132925853],[139.8992506751779,36.17007354697685],[139.90051521858115,36.16867286670445],[139.9010849053798,36.16863255626528],[139.90183285671006,36.16700903327407],[139.90365402864091,36.16431410247779],[139.90507732553198,36.16522846713126],[139.90800861571498,36.16435386561888],[139.90885909818988,36.16405028189964],[139.9104082925163,36.16339435875731],[139.910737018682,36.16247900802405],[139.9115945164752,36.162744086445336],[139.91177443334718,36.162359974358615],[139.91345390873892,36.1616119363349],[139.9138318570276,36.1578889301557],[139.9150265453243,36.15775358259694],[139.91447630662066,36.1604868243517],[139.9144994339178,36.16175784710751],[139.91508817351038,36.16155781494576],[139.91473873122786,36.16265095078371],[139.9174296959651,36.162844911457334],[139.91634204495114,36.164211484404504],[139.91706147723295,36.16530133458366],[139.91837446980446,36.16483923059425],[139.91915944717906,36.16598209252826],[139.9199383881726,36.165870337413445],[139.91980270833855,36.1671793786349],[139.91888573023215,36.167893913759215],[139.9199119544628,36.16875231028556],[139.9215703164118,36.16775420121398],[139.92167578434223,36.16871056336417],[139.9229593448919,36.169736780237855],[139.92499983307098,36.16907314737284],[139.92655394052045,36.16825321420858],[139.9265368763623,36.16864436348552],[139.9263225189558,36.16894321335438],[139.9260460923367,36.16914311086591],[139.9260126962553,36.16925724221491],[139.92587524905633,36.16929537502391],[139.92576462624137,36.16933350471136],[139.9252850681617,36.1697323553414],[139.92510101959175,36.17052760169775],[139.9250019263171,36.170840567365374],[139.9241575826853,36.17172341081322],[139.92377617921713,36.172155944930864],[139.92315507408975,36.17216489133869],[139.92199125898674,36.171383313694086],[139.92137434366728,36.171277505520486],[139.92105435848976,36.171270440842136],[139.9200136352689,36.17138373544571],[139.91858615336045,36.17182663545665]]]},"properties":{"KEY_CODE":"085210160","PREF":"08","CITY":"521","CITY_NAME":"八千代町","S_NAME":"大字新地","SETAI":"158"}},{"type":"Feature","geometry":{"type":"Polygon","coordinates":[[[139.90300225748652,36.17244871807015],[139.9027753850146,36.17261431104475],[139.9025064175995,36.17276234198577],[139.9023227628654,36.172774862319116],[139.90192975534396,36.17275574908362],[139.90170036141043,36.17272488308866],[139.90171776677664,36.172443548696336],[139.90172305519647,36.171754502128515],[139.9016374229312,36.17133253790656],[139.9007150023543,36.170683376707984],[139.89988574258385,36.1706528739734],[139.89956522645736,36.17064828574554],[139.89924022987313,36.17057575169548],[139.89893427458918,36.17040425288352],[139.89945776591696,36.17011132925853],[139.9012008051961,36.169812468293266],[139.9031337390983,36.16900709315422],[139.90352135854286,36.16927221810911],[139.90297190557956,36.17107867565892],[139.90300225748652,36.17244871807015]]]},"properties":{"KEY_CODE":"085210170","PREF":"08","CITY":"521","CITY_NAME":"八千代町","S_NAME":"大字新地新田","SETAI":"7"}},{"type":"Feature","geometry":{"type":"Polygon","coordinates":[[[139.90945048579533,36.17277145691816],[139.9089507097788,36.173011950694054],[139.90833518833927,36.17306894399573],[139.90762617715282,36.17317693895198],[139.90657542034825,36.17335547254233],[139.90508710841192,36.173433945004156],[139.90501307263503,36.17335748382134],[139.9049197490693,36.17312073674986],[139.90421563015713,36.17299500217038],[139.90400635695445,36.17287519603549],[139.90384033216566,36.17262298236121],[139.90346406718325,36.172591135985726],[139.90300225748652,36.17244871807015],[139.90297190557956,36.17107867565892],[139.90352135854286,36.16927221810911],[139.90460626786714,36.168522675370255],[139.90557570222236,36.16791328301567],[139.90597205968558,36.1678827927173],[139.90812904278903,36.168076155849405],[139.90848815188812,36.16810616854219],[139.90892700150118,36.16801509967916],[139.90888922335247,36.16832019998727],[139.90869910036372,36.16861622587583],[139.90882612754268,36.16871907366292],[139.90949272520905,36.16893305454971],[139.91008481938445,36.1686710758881],[139.91128323596922,36.16919132318969],[139.9114578810655,36.169315577302996],[139.90978675118686,36.16945390150495],[139.90911520435384,36.16959585632214],[139.9093141599513,36.170258280166856],[139.90919269871893,36.17044705241278],[139.90885972477815,36.170695992546136],[139.9087465211012,36.17124283717799],[139.90953464920707,36.171104083963066],[139.91029698594548,36.172065187458934],[139.90945048579533,36.17277145691816]]]},"properties":{"KEY_CODE":"085210180","PREF":"08","CITY":"521","CITY_NAME":"八千代町","S_NAME":"大字福岡","SETAI":"20"}},{"type":"Feature","geometry":{"type":"Polygon","coordinates":[[[139.91846893926692,36.14967142776137],[139.9170402510843,36.15110571152723],[139.9158073919926,36.15177730344485],[139.9154548479148,36.15271558633879],[139.913186053683,36.154389426469876],[139.91246442323222,36.15598452351173],[139.91193940013002,36.156159114786796],[139.9119990430318,36.15744407020406],[139.91144274452859,36.1587982301573],[139.90977706546985,36.15831344176466],[139.9088649124116,36.158396225593506],[139.90801203205476,36.1577525210341],[139.90679947246832,36.15509861699807],[139.90557118395148,36.15418560157721],[139.90541920056955,36.154064654124156],[139.9050871811328,36.15341716830694],[139.90505819977002,36.153253559648235],[139.90493925878098,36.15320103461801],[139.90431955476404,36.153201416291175],[139.9041177638647,36.153163567554664],[139.9037755729172,36.15326311509429],[139.90335389284465,36.153114355599264],[139.903184524603,36.15307939129397],[139.9026566706382,36.15304610274187],[139.90226726273417,36.152713237172684],[139.90156798566449,36.15235717594122],[139.9010338273889,36.15229105247189],[139.90229608617005,36.150422362844566],[139.903377720387,36.149645358997326],[139.90606781847657,36.147752013799625],[139.90648912107534,36.147474294785745],[139.90993175252285,36.14503908833618],[139.91131717592663,36.14359226376537],[139.91343130512269,36.13996139503536],[139.91381716507684,36.14010490414537],[139.9142413811171,36.140265989627046],[139.91445002939776,36.1395056787518],[139.9149838565332,36.139335438439225],[139.91538140970604,36.1390209131975],[139.9158682135051,36.138944127912254],[139.91582653975973,36.13915224426166],[139.9160047053126,36.13930924384474],[139.9168380922173,36.140751216970465],[139.91768222171507,36.14141019235124],[139.91790968792918,36.14138863142593],[139.91862525191948,36.14201679778989],[139.91823743645875,36.144104347586975],[139.9186374669622,36.14607027448564],[139.91859133418632,36.14941033659075],[139.91846893926692,36.14967142776137]]]},"properties":{"KEY_CODE":"085210190","PREF":"08","CITY":"521","CITY_NAME":"八千代町","S_NAME":"大字栗山","SETAI":"136"}},{"type":"Feature","geometry":{"type":"Polygon","coordinates":[[[139.91343130512269,36.13996139503536],[139.91131717592663,36.14359226376537],[139.90993175252285,36.14503908833618],[139.90648912107534,36.147474294785745],[139.90676294445203,36.146533875796],[139.90558179424673,36.14528611550101],[139.90470850614705,36.144368833098234],[139.90405170771604,36.14404133306504],[139.90329736915493,36.14476625475928],[139.90252996238686,36.14438837846103],[139.90091909527575,36.143540144662964],[139.9016872503195,36.14279001149907],[139.90206347394897,36.14233297883532],[139.90099524895214,36.141652580898224],[139.90061838819207,36.14141103416116],[139.9040828983213,36.13871514773552],[139.9045785725509,36.138151391671684],[139.90419160046832,36.13737214238077],[139.90526037762123,36.13661020974316],[139.90817280478126,36.13524960262144],[139.90857450624821,36.1344847479299],[139.90960446522217,36.13461575368959],[139.90973811314652,36.1345957473974],[139.90991856520188,36.1350227483644],[139.90995769179304,36.13457015843855],[139.9118426243586,36.134493674988],[139.91327417821788,36.13386864783282],[139.91373363870792,36.13366583541429],[139.91376127438687,36.13266664529154],[139.9138645862795,36.132321349505276],[139.91663175825437,36.13286212443785],[139.91620980530345,36.13434108288686],[139.91598856170503,36.135273065767564],[139.91586350024872,36.13579519355239],[139.91483790383927,36.137526445784474],[139.91451959899493,36.13806436240929],[139.91343130512269,36.13996139503536]]]},"properties":{"KEY_CODE":"085210200","PREF":"08","CITY":"521","CITY_NAME":"八千代町","S_NAME":"大字尾崎","SETAI":"67"}},{"type":"Feature","geometry":{"type":"Polygon","coordinates":[[[139.90229608617005,36.150422362844566],[139.90033107298356,36.14947090023328],[139.90017262993996,36.14983159643043],[139.89964005804174,36.14961544844514],[139.89939501867912,36.14921010455372],[139.89924937172464,36.14907073860099],[139.8986947796877,36.14878314486188],[139.89809863763668,36.14861479343239],[139.89762261126512,36.14835428680888],[139.89720539456718,36.148049550925116],[139.89678742991532,36.14796629736767],[139.89655531598385,36.14767230811292],[139.89785072110442,36.14551867799333],[139.89951987007277,36.145597994396574],[139.8996182750213,36.14493978438021],[139.899182775014,36.144827678154954],[139.8988188050615,36.142893115120934],[139.89940013654217,36.142393416160985],[139.9006183881921,36.14141103416116],[139.90099524895214,36.141652580898224],[139.90206347394897,36.142332978835334],[139.9016872503195,36.14279001149907],[139.90091909527575,36.143540144662964],[139.90252996238686,36.14438837846103],[139.90329736915493,36.14476625475928],[139.90405170771595,36.14404133306504],[139.90470850614705,36.144368833098234],[139.90558179424673,36.14528611550101],[139.90676294445203,36.146533875796],[139.90648912107534,36.147474294785745],[139.90606781847657,36.147752013799625],[139.903377720387,36.149645358997326],[139.90229608617005,36.150422362844566]]]},"properties":{"KEY_CODE":"085210210","PREF":"08","CITY":"521","CITY_NAME":"八千代町","S_NAME":"大字大間木","SETAI":"52"}},{"type":"Feature","geometry":{"type":"Polygon","coordinates":[[[139.89422376257787,36.13161060743738],[139.89254957663397,36.131069375437406],[139.89036289672853,36.13354130189865],[139.88888247353353,36.137160912975915],[139.88727982469106,36.13919488894998],[139.88699726315298,36.13995705863819],[139.88554118887993,36.14046353438932],[139.8847110851822,36.141467204207174],[139.8844701135516,36.143144469362454],[139.88336924413002,36.14426438620206],[139.8829199227283,36.142052562336374],[139.87997424917037,36.13910383148514],[139.88090959869587,36.1383576751349],[139.88258436388813,36.1347175702794],[139.8838794340383,36.13218654115269],[139.8870450268239,36.12913170377336],[139.89300101746778,36.1232815650677],[139.8938853661888,36.12254099226344],[139.89571170426123,36.12105877644504],[139.8984478941619,36.123201005556595],[139.89867962471524,36.12620006234143],[139.89789422422675,36.126498734814085],[139.89721730388942,36.126007809503136],[139.89626860378394,36.12672977466685],[139.8968416467745,36.12695961353305],[139.89523038177538,36.128100203960116],[139.89511620053895,36.1285959855272],[139.89646628979844,36.128424108625225],[139.8964905045815,36.12918215446066],[139.89559060404616,36.129167703842924],[139.89422376257787,36.13161060743738]]]},"properties":{"KEY_CODE":"085210220","PREF":"08","CITY":"521","CITY_NAME":"八千代町","S_NAME":"大字芦ケ谷新田","SETAI":"70"}},{"type":"Feature","geometry":{"type":"Polygon","coordinates":[[[139.89744770511822,36.14879773442747],[139.89577430452744,36.14944024869913],[139.89523246254046,36.15199598714807],[139.89482963299204,36.152124478490755],[139.89488081863237,36.15372988003214],[139.89387550663682,36.1538974640969],[139.89107708440275,36.15677859317721],[139.88942968183935,36.15708776581892],[139.88482815496243,36.156295969428825],[139.88325491089014,36.15633423567782],[139.88215070740068,36.15586422010327],[139.88228188247206,36.15581540317122],[139.88424227539667,36.14908268790722],[139.88336924413002,36.14426438620206],[139.8844701135516,36.143144469362454],[139.8847110851822,36.141467204207174],[139.88554118887993,36.14046353438932],[139.88699726315298,36.13995705863819],[139.88727982469106,36.13919488894998],[139.88888247353353,36.137160912975915],[139.89036289672853,36.13354130189865],[139.89254957663397,36.131069375437406],[139.89422376257787,36.13161060743738],[139.89610371821163,36.13203229478168],[139.89747252544453,36.13010072430382],[139.898314455108,36.130458334166086],[139.89689809248512,36.13268029202649],[139.89368187658167,36.136979454036755],[139.89522065717992,36.136580556866626],[139.8954194568856,36.13611792607595],[139.89744515713247,36.13446369495051],[139.90083367616768,36.136442457881536],[139.9010462272863,36.13765948847981],[139.90065385799093,36.13824837122894],[139.90396754650078,36.136982787455544],[139.90419160046832,36.13737214238077],[139.9045785725509,36.138151391671684],[139.9040828983213,36.13871514773552],[139.90061838819207,36.14141103416116],[139.89940013654217,36.142393416160985],[139.8988188050615,36.142893115120934],[139.899182775014,36.14482767815494],[139.8996182750213,36.14493978438021],[139.89951987007277,36.145597994396574],[139.89785072110442,36.14551867799333],[139.89655531598385,36.14767230811292],[139.89678742991532,36.14796629736767],[139.89720539456718,36.148049550925116],[139.89762261126512,36.14835428680888],[139.89744770511822,36.14879773442747]]]},"properties":{"KEY_CODE":"085210230","PREF":"08","CITY":"521","CITY_NAME":"八千代町","S_NAME":"大字芦ケ谷","SETAI":"389"}},{"type":"Feature","geometry":{"type":"Polygon","coordinates":[[[139.88726339953192,36.170679618672565],[139.88770891903246,36.169707840953265],[139.8855421183706,36.16901174237394],[139.8839770865217,36.16808771397013],[139.88434708648077,36.16695119415142],[139.8830893103391,36.166398201319105],[139.88115054334406,36.16665325873122],[139.880226927142,36.16465984355277],[139.88114273617867,36.1624072213163],[139.88096401975946,36.160720727754814],[139.882249526424,36.16063121112723],[139.88127160396158,36.15950439121705],[139.88105778924486,36.160229122170044],[139.87957915445074,36.157449618494255],[139.87810599912854,36.157521871300645],[139.87815489386733,36.15725110653766],[139.88215070740068,36.15586422010327],[139.88325491089014,36.15633423567782],[139.88482815496243,36.156295969428825],[139.88942968183935,36.15708776581892],[139.8900472532976,36.161473681965965],[139.89036622438584,36.165738250060826],[139.89102577840706,36.166540035895515],[139.89100133205378,36.167297038478374],[139.8900898231501,36.1673403840135],[139.88847375498437,36.17061065092243],[139.88726339953192,36.170679618672565]]]},"properties":{"KEY_CODE":"085210240","PREF":"08","CITY":"521","CITY_NAME":"八千代町","S_NAME":"大字磯","SETAI":"124"}},{"type":"Feature","geometry":{"type":"Polygon","coordinates":[[[139.87901378760154,36.17481671444758],[139.87890039396564,36.17416004597278],[139.87701836754837,36.17403067841751],[139.87503660790733,36.173252915431675],[139.8749322548347,36.17243601929812],[139.8740242857023,36.172875930869594],[139.87273100475412,36.172405080976304],[139.87118434100893,36.17261123201835],[139.87084515552576,36.17195927256196],[139.87000931572098,36.17206208156462],[139.86770698951722,36.171551662059244],[139.86734543563304,36.171335606259824],[139.86931280960124,36.170600593656445],[139.8701278731085,36.16956181468904],[139.87155500274577,36.1682975718404],[139.87376288895632,36.16793463275888],[139.87656322157514,36.164060490470966],[139.87603041345892,36.162312782167795],[139.87476389628839,36.159764825608],[139.8751343202422,36.15931056755018],[139.87810599912854,36.157521871300645],[139.87957915445074,36.157449618494255],[139.88105778924486,36.160229122170044],[139.88127160396158,36.15950439121705],[139.882249526424,36.16063121112723],[139.88096401975946,36.160720727754814],[139.88114273617867,36.1624072213163],[139.880226927142,36.16465984355277],[139.88115054334406,36.16665325873122],[139.8830893103391,36.166398201319105],[139.88434708648077,36.16695119415142],[139.8839770865217,36.16808771397013],[139.8855421183706,36.16901174237394],[139.88770891903246,36.169707840953265],[139.88726339953192,36.170679618672565],[139.8858416743629,36.17212223330353],[139.88320201472325,36.17422431290253],[139.88024952952296,36.174784139627285],[139.87901378760154,36.17481671444758]]]},"properties":{"KEY_CODE":"085210250","PREF":"08","CITY":"521","CITY_NAME":"八千代町","S_NAME":"大字村貫","SETAI":"201"}},{"type":"Feature","geometry":{"type":"Polygon","coordinates":[[[139.88940278542123,36.201954909405806],[139.88968566871972,36.20241786193184],[139.8918819466703,36.20336845314454],[139.89029317799876,36.209006044395466],[139.89196626631684,36.20987885608732],[139.89015727208357,36.21213750964837],[139.88893125679724,36.214193392827916],[139.8863483657501,36.21285759020203],[139.88498995918906,36.212444514120044],[139.88543399017246,36.21077581103894],[139.88390646163438,36.208335475896824],[139.8855715553814,36.206501507198965],[139.88473717181103,36.205980059676065],[139.8856887129376,36.204978975849876],[139.88622854603568,36.20379863651087],[139.88363322658608,36.20237081538955],[139.88151334921983,36.204150149173685],[139.87821148692404,36.20330049995804],[139.8747151262758,36.20377344611379],[139.87500317866537,36.20214333758809],[139.8713758640344,36.20178176973004],[139.87034513480597,36.20232476384907],[139.86741317695865,36.20186760550177],[139.86532156314132,36.2030009167394],[139.86322413215166,36.20300431210553],[139.8656482195091,36.20106935427492],[139.86729346878204,36.201335843408444],[139.86682968244287,36.20020163299212],[139.86705890524337,36.19936580742171],[139.86767388781132,36.19995746308578],[139.86925066646862,36.20035160410152],[139.87015284750458,36.200304273533874],[139.87018947328247,36.20012786193392],[139.8705714195262,36.20005251491968],[139.87061726964157,36.199983760477934],[139.87045404049914,36.199712349128],[139.86976775274255,36.19858001128663],[139.87177541188592,36.19700765030335],[139.87244723621515,36.19677516907879],[139.87339074443446,36.19645051378785],[139.8745591471628,36.19634402299661],[139.87488041523514,36.19656816432105],[139.87681488402833,36.19693391432997],[139.87888273447086,36.19723151292806],[139.88091649555784,36.198321967114396],[139.88364632972014,36.19842300353935],[139.88450348381338,36.1983125261511],[139.88644994885178,36.19803137830437],[139.88754417917917,36.19783266557388],[139.88846627712513,36.19764530490156],[139.8884221913097,36.198387787499534],[139.88906908464006,36.19883510142921],[139.8885059864378,36.19904360264722],[139.8879321175707,36.19925488906617],[139.88688447686388,36.20018446283381],[139.88691424478958,36.200236624563196],[139.8866547304524,36.20069419073376],[139.8873195176448,36.200882071586314],[139.8877381923318,36.20099046079696],[139.88829085868988,36.201166628751906],[139.88869086683573,36.20152436788406],[139.88921015740723,36.20183964589627],[139.88940278542123,36.201954909405806]]]},"properties":{"KEY_CODE":"085210260","PREF":"08","CITY":"521","CITY_NAME":"八千代町","S_NAME":"大字佐野","SETAI":"204"}},{"type":"Feature","geometry":{"type":"Polygon","coordinates":[[[139.90075467811914,36.20358056926981],[139.897700637133,36.20612755620027],[139.89373574868475,36.20914589400419],[139.8915421160578,36.212507561872236],[139.89090806328323,36.21468041190562],[139.88893125679724,36.214193392827916],[139.89015727208357,36.21213750964837],[139.89196626631684,36.20987885608732],[139.89029317799876,36.209006044395466],[139.8918819466703,36.20336845314454],[139.88968566871972,36.20241786193184],[139.88940278542123,36.201954909405806],[139.88963287178834,36.20173766907041],[139.89180155957496,36.202348116327485],[139.89205952526743,36.201750121717055],[139.89245475260205,36.20079737738257],[139.89275260947664,36.200093550649164],[139.8929599250579,36.19957618331635],[139.89332808386683,36.198691467127084],[139.89378420740496,36.19761490346215],[139.8940116299973,36.19707303912132],[139.89425161590663,36.19649649010265],[139.89609352425185,36.196992413907246],[139.89615565722156,36.19666762371194],[139.89637283696354,36.196511864504096],[139.89667712258344,36.196027305006034],[139.8989495190196,36.196508667147825],[139.90081720523273,36.197034664498965],[139.90152773604893,36.19727980157015],[139.90246406637485,36.19765092923357],[139.90372498863326,36.19835590872182],[139.90414880889313,36.199219282038115],[139.90379746049402,36.20061016916576],[139.90279820850887,36.201785518215935],[139.90075467811914,36.20358056926981]]]},"properties":{"KEY_CODE":"085210270","PREF":"08","CITY":"521","CITY_NAME":"八千代町","S_NAME":"大字瀬戸井","SETAI":"101"}},{"type":"Feature","geometry":{"type":"Polygon","coordinates":[[[139.88940278542123,36.201954909405806],[139.88921015740723,36.20183964589627],[139.88869086683573,36.20152436788406],[139.88829085868988,36.201166628751906],[139.8877381923318,36.20099046079696],[139.8873195176448,36.200882071586314],[139.8866547304524,36.20069419073376],[139.88691424478958,36.200236624563196],[139.88688447686388,36.20018446283381],[139.8879321175707,36.19925488906617],[139.8885059864378,36.19904360264722],[139.88906908464006,36.19883510142921],[139.8884221913097,36.198387787499534],[139.88846627712513,36.19764530490156],[139.88754417917917,36.197832665573856],[139.8875489660971,36.19760841865405],[139.88468188185436,36.197593240480614],[139.8849951446964,36.19743767354984],[139.88542074220967,36.197392005891224],[139.88725640289044,36.197214927071556],[139.8879159109393,36.19725253099796],[139.8881029815294,36.197225918331725],[139.88872605693885,36.19703314603913],[139.8891144470233,36.196299115027976],[139.8890799988835,36.195997291316196],[139.88901337163247,36.19577703783477],[139.88927499233208,36.195453865779214],[139.8894202797436,36.1948673706258],[139.88938712756507,36.19427600888468],[139.8891924972425,36.19351222753846],[139.889257730591,36.19316342722181],[139.8894258563385,36.192814579540766],[139.8896523351541,36.192315971375116],[139.8906852168897,36.19132226865003],[139.89112948888098,36.1912879435961],[139.89142425329524,36.191454610714636],[139.89209091418786,36.191751871849405],[139.89226401062194,36.19182001901364],[139.89270373609264,36.19195249718477],[139.8933865770654,36.19197112155039],[139.8942822802221,36.192093879445984],[139.8950075558202,36.19255599914176],[139.89568148424996,36.19315083385619],[139.89653760031405,36.19344606954457],[139.89698078813078,36.19363314748382],[139.89628151154935,36.1943997599068],[139.89667712258344,36.196027305006034],[139.89637283696354,36.196511864504096],[139.89615565722156,36.19666762371194],[139.89609352425185,36.196992413907246],[139.89425161590663,36.19649649010265],[139.8940116299973,36.19707303912132],[139.89378420740496,36.19761490346215],[139.89332808386683,36.198691467127084],[139.8929599250579,36.19957618331635],[139.89275260947664,36.200093550649164],[139.89245475260205,36.20079737738257],[139.89205952526743,36.201750121717055],[139.89180155957496,36.202348116327485],[139.88963287178834,36.20173766907041],[139.88940278542123,36.201954909405806]]]},"properties":{"KEY_CODE":"085210280","PREF":"08","CITY":"521","CITY_NAME":"八千代町","S_NAME":"大字兵庫","SETAI":"38"}},{"type":"Feature","geometry":{"type":"Polygon","coordinates":[[[139.86554370139376,36.17552024449177],[139.86580249194165,36.17615382520007],[139.8673069704182,36.17736489957157],[139.86611443414077,36.1778972024059],[139.8660611656022,36.18044373962368],[139.86636518023582,36.18282345144644],[139.86571017037323,36.183808074868615],[139.8636381465564,36.18297349954589],[139.8612617035011,36.1826311898462],[139.8611304239505,36.18207465287875],[139.86228378602908,36.1796148436543],[139.86308704018424,36.17879424895867],[139.86251159698065,36.17791223997277],[139.8621266546967,36.17732462353996],[139.86352133640608,36.176535290748184],[139.86417606484736,36.17503385574425],[139.86554370139376,36.17552024449177]]]},"properties":{"KEY_CODE":"085210290","PREF":"08","CITY":"521","CITY_NAME":"八千代町","S_NAME":"大字菅谷","SETAI":"0"}},{"type":"Feature","geometry":{"type":"Polygon","coordinates":[[[139.88312227358844,36.19797864906647],[139.88209102145282,36.198106049462474],[139.88152503860812,36.19804182584181],[139.88026878391636,36.19733909859382],[139.88021703749325,36.196842515208026],[139.8803666085814,36.196671850486084],[139.88066344370915,36.1963969175818],[139.88013415324008,36.1951043986806],[139.87937399058737,36.19486017392946],[139.8793130832018,36.19468581911035],[139.87906041081823,36.194484988975255],[139.87774406490726,36.194904350503975],[139.87727175454523,36.19504099465254],[139.87727186427938,36.19523813159822],[139.87636454768145,36.195295305516204],[139.87585947777558,36.195412996389116],[139.87534034630417,36.19545487423124],[139.87458494700346,36.19535466481557],[139.87435547745497,36.19478610506493],[139.8746078355338,36.19440313501649],[139.8746401504663,36.19359944795885],[139.8738967216743,36.194020479226786],[139.8732935360843,36.19430119778385],[139.8726739292857,36.194492846148755],[139.8721501711832,36.19463327103629],[139.87173408181664,36.19498217072847],[139.871617241359,36.19514899699995],[139.87155194914882,36.19554705915176],[139.87095819014473,36.19602868239891],[139.8706261260113,36.19605910996575],[139.8702892984734,36.195888632176995],[139.86955240316283,36.19535242012649],[139.8693863713199,36.19492497348661],[139.8694010287893,36.19478435422119],[139.86886914365974,36.19445415882415],[139.86781700420946,36.194879035902254],[139.8671695231402,36.19586064027865],[139.8653771342349,36.196392294243644],[139.86522038306356,36.19653956494822],[139.86448808390622,36.196497197387664],[139.86406719956437,36.19368121220835],[139.86598657086145,36.19165735157429],[139.86736613787943,36.190576419948144],[139.86904896388899,36.192296407966474],[139.8694437891216,36.191658426315506],[139.86861033709556,36.19094759036798],[139.8707418536202,36.18861556305864],[139.86981093574755,36.1880471875574],[139.86833455193928,36.186032703402994],[139.86581642109593,36.18515832511751],[139.86624241078272,36.18412119494232],[139.8674570720224,36.18448647003112],[139.86936580951644,36.184274210413],[139.8722350507968,36.18453109440127],[139.8748994669706,36.18323099948911],[139.87652663850795,36.18192935490036],[139.87820451825067,36.18130326528438],[139.87878591785068,36.18107290903831],[139.88089117042583,36.17913529816234],[139.88384156959566,36.17811424533822],[139.88695300634313,36.177391001041464],[139.8892737548827,36.178346563619904],[139.89112327840346,36.179587792006195],[139.8954764573783,36.181053641244],[139.8954402334662,36.18160382570713],[139.89303015509978,36.18137645618781],[139.89174657169502,36.18177187777265],[139.89152615172932,36.18386931809303],[139.89276481145293,36.183912923648315],[139.89225417296032,36.18514462609525],[139.89408767815692,36.18533154198297],[139.8941821269743,36.186086916589794],[139.89363860973947,36.18798651891791],[139.89455083691135,36.189182617337984],[139.89456755098672,36.189868777238225],[139.89644255797526,36.18995671871191],[139.89998686759225,36.189305985584745],[139.90173422212084,36.18823496150754],[139.90363070052325,36.187551175570164],[139.90715639183315,36.186707603471234],[139.9074063307134,36.18875431945032],[139.9086326843543,36.19053370294292],[139.90847903765786,36.19099736735556],[139.905172657328,36.19344427126105],[139.90261953511356,36.193489461838354],[139.90177514451702,36.19337643406667],[139.90073308259144,36.1932564027068],[139.89902528557744,36.19333355966589],[139.8978371793055,36.19345487177389],[139.89729927771054,36.193510210889386],[139.89653760031405,36.19344606954457],[139.89568148424996,36.19315083385619],[139.8950075558202,36.19255599914176],[139.8942822802221,36.192093879445984],[139.8933865770654,36.19197112155039],[139.89270373609264,36.19195249718477],[139.89226401062194,36.19182001901364],[139.89209091418786,36.191751871849405],[139.89142425329524,36.191454610714636],[139.89112948888098,36.1912879435961],[139.8906852168897,36.19132226865003],[139.8896523351541,36.192315971375116],[139.8894258563385,36.192814579540766],[139.889257730591,36.19316342722181],[139.8891924972425,36.19351222753846],[139.88938712756507,36.19427600888468],[139.8894202797436,36.1948673706258],[139.88927499233208,36.195453865779214],[139.88901337163247,36.19577703783477],[139.8890799988835,36.195997291316196],[139.8891144470233,36.196299115027976],[139.88872605693885,36.19703314603913],[139.8881029815294,36.197225918331725],[139.8879159109393,36.19725253099796],[139.88725640289044,36.197214927071556],[139.88542074220967,36.197392005891224],[139.8849951446964,36.19743767354984],[139.88401081163866,36.19776221088883],[139.88347296834436,36.1978192882949],[139.88324851108425,36.19790656810394],[139.88312227358844,36.19797864906647]]]},"properties":{"KEY_CODE":"085210290","PREF":"08","CITY":"521","CITY_NAME":"八千代町","S_NAME":"大字菅谷","SETAI":"1072"}},{"type":"Feature","geometry":{"type":"Polygon","coordinates":[[[139.89408767815692,36.18533154198297],[139.89225417296032,36.18514462609525],[139.89276481145293,36.183912923648315],[139.89152615172932,36.18386931809303],[139.89174657169502,36.18177187777265],[139.89303015509978,36.18137645618781],[139.8954402334662,36.18160382570713],[139.8951393912796,36.18427673343558],[139.89462259566764,36.184213903211464],[139.89408767815692,36.18533154198297]]]},"properties":{"KEY_CODE":"085210300","PREF":"08","CITY":"521","CITY_NAME":"八千代町","S_NAME":"大字東原","SETAI":"152"}},{"type":"Feature","geometry":{"type":"Polygon","coordinates":[[[139.86581642109593,36.18515832511751],[139.86833455193928,36.186032703402994],[139.86981093574755,36.1880471875574],[139.8707418536202,36.18861556305864],[139.86861033709556,36.19094759036798],[139.8694437891216,36.191658426315506],[139.86904896388899,36.192296407966474],[139.86736613787943,36.190576419948144],[139.86598657086145,36.19165735157429],[139.86341916590533,36.18733826738244],[139.86040372353216,36.18735093336872],[139.86018691692448,36.1860751396839],[139.86368461085345,36.185938848782044],[139.8656125585699,36.185132446479756],[139.86581642109593,36.18515832511751]]]},"properties":{"KEY_CODE":"085210310","PREF":"08","CITY":"521","CITY_NAME":"八千代町","S_NAME":"大字大戸新田","SETAI":"106"}},{"type":"Feature","geometry":{"type":"Polygon","coordinates":[[[139.88468188185436,36.197593240480614],[139.8875489660971,36.19760841865405],[139.88754417917917,36.197832665573856],[139.88450348381338,36.1983125261511],[139.88364632972014,36.19842300353935],[139.88091649555784,36.198321967114396],[139.87888273447086,36.19723151292806],[139.87681488402833,36.19693391432997],[139.87488041523514,36.19656816432105],[139.8745591471628,36.19634402299661],[139.87339074443446,36.19645051378785],[139.87244723621515,36.19677516907879],[139.87177541188592,36.197007650303355],[139.86976775274255,36.19858001128663],[139.87045404049914,36.199712349128],[139.87061726964157,36.199983760477934],[139.8705714195262,36.20005251491968],[139.87018947328247,36.20012786193392],[139.87015284750458,36.200304273533874],[139.86925066646862,36.20035160410152],[139.86767388781132,36.19995746308578],[139.86705890524337,36.19936580742171],[139.86685945650652,36.197805878972666],[139.86635149339997,36.19665924717989],[139.8657141574235,36.19656752094325],[139.86522038306356,36.19653956494822],[139.8653771342349,36.196392294243644],[139.8671695231402,36.19586064027865],[139.86781700420946,36.194879035902254],[139.86886914365974,36.19445415882415],[139.8694010287893,36.19478435422119],[139.8693863713199,36.19492497348661],[139.86955240316283,36.19535242012649],[139.8702892984734,36.195888632176995],[139.8706261260113,36.19605910996575],[139.87095819014473,36.19602868239891],[139.87155194914882,36.19554705915176],[139.871617241359,36.19514899699995],[139.87173408181664,36.19498217072847],[139.8721501711832,36.19463327103629],[139.8726739292857,36.194492846148755],[139.8732935360843,36.19430119778385],[139.8738967216743,36.194020479226786],[139.8746401504663,36.19359944795885],[139.8746078355338,36.19440313501649],[139.87435547745497,36.19478610506493],[139.87458494700346,36.19535466481557],[139.87534034630417,36.19545487423124],[139.87585947777558,36.195412996389116],[139.87636454768145,36.195295305516204],[139.87727186427938,36.19523813159822],[139.87727175454523,36.19504099465254],[139.87774406490726,36.194904350503975],[139.87906041081823,36.194484988975255],[139.8793130832018,36.19468581911035],[139.87937399058737,36.19486017392946],[139.88013415324014,36.195104398680584],[139.88066344370915,36.1963969175818],[139.8803666085814,36.196671850486084],[139.88021703749325,36.196842515208026],[139.88026878391636,36.19733909859382],[139.88152503860812,36.19804182584181],[139.88209102145282,36.198106049462474],[139.88312227358844,36.19797864906647],[139.88324851108425,36.19790656810394],[139.88347296834436,36.1978192882949],[139.88401081163866,36.19776221088883],[139.88468188185436,36.197593240480614]]]},"properties":{"KEY_CODE":"085210320","PREF":"08","CITY":"521","CITY_NAME":"八千代町","S_NAME":"大字成田","SETAI":"42"}},{"type":"Feature","geometry":{"type":"Polygon","coordinates":[[[139.8656482195091,36.20106935427492],[139.86322413215166,36.20300431210553],[139.86532156314132,36.2030009167394],[139.86741317695865,36.20186760550177],[139.87034513480597,36.20232476384907],[139.8713758640344,36.20178176973004],[139.87500317866537,36.20214333758809],[139.8747151262758,36.20377344611379],[139.87821148692404,36.20330049995804],[139.88151334921983,36.204150149173685],[139.88363322658608,36.20237081538955],[139.88622854603568,36.20379863651087],[139.8856887129376,36.204978975849876],[139.88473717181103,36.205980059676065],[139.8855715553814,36.206501507198965],[139.88390646163438,36.208335475896824],[139.88310480320592,36.20745560239662],[139.8807037011403,36.20737529829246],[139.87909024156755,36.20660470481463],[139.8787544145718,36.20685144653646],[139.87777419357772,36.20736452920122],[139.87637292341833,36.20730487875673],[139.87511083683694,36.20676032284356],[139.87465222777982,36.20717606847297],[139.87311378762368,36.20716926888498],[139.87363524001427,36.206476454297174],[139.87024331217128,36.20605827391795],[139.8670068355232,36.20623598981505],[139.86564585430506,36.205629371909865],[139.86401525403423,36.20571180903313],[139.8635651292574,36.204960931440596],[139.85977965444306,36.20434020395645],[139.85645210412537,36.20469375126678],[139.85648382055265,36.204532869875216],[139.85713248623796,36.20232458229517],[139.8580142084979,36.20132358223199],[139.86076548070898,36.19956148347558],[139.86327218065924,36.20082762283273],[139.8656482195091,36.20106935427492]]]},"properties":{"KEY_CODE":"085210330","PREF":"08","CITY":"521","CITY_NAME":"八千代町","S_NAME":"大字西大山","SETAI":"143"}},{"type":"Feature","geometry":{"type":"Polygon","coordinates":[[[139.85823286339976,36.21980737342316],[139.85795299902568,36.22005564644858],[139.85724321720537,36.220728652570685],[139.8560485040086,36.22023885230167],[139.85575729947556,36.2180909494289],[139.85659790510903,36.21636575996835],[139.85503603071606,36.21711700824802],[139.85503751386378,36.216081176669164],[139.85333171357527,36.2152545269398],[139.85387453106748,36.21313410598676],[139.8541693204311,36.21105563084644],[139.8536932028635,36.2093526669693],[139.85409948618326,36.20875175453442],[139.85382006671864,36.20768219238304],[139.85287509472914,36.20629782703395],[139.85645210412537,36.20469375126678],[139.85977965444306,36.20434020395645],[139.86012612402095,36.20466459436736],[139.86254406138642,36.2050413698861],[139.8621240010167,36.20649057739517],[139.86315438685793,36.207208494890196],[139.86414542951076,36.20711577081659],[139.86438723180845,36.207940946803895],[139.8630579322568,36.20789935399614],[139.86219833684555,36.2068022418586],[139.86172157157304,36.206970039184306],[139.8623679999896,36.2094689090967],[139.8655598575563,36.20984545180688],[139.86618044488486,36.20932397347208],[139.86820726250969,36.20985748380087],[139.86901516107324,36.210741301002365],[139.86794028925064,36.211426964889014],[139.8660845558849,36.21133084321203],[139.86541921121182,36.212391864366104],[139.86691354094305,36.214108501099645],[139.86502026741343,36.21522284653743],[139.86257245801386,36.216601600893334],[139.86215506759862,36.216371170167015],[139.86113866177254,36.21720991914121],[139.85978239341225,36.218191016854966],[139.8592837552939,36.21866497693297],[139.85903446978887,36.21898557774961],[139.85844657476895,36.219872040133644],[139.85823286339976,36.21980737342316]]]},"properties":{"KEY_CODE":"085210340","PREF":"08","CITY":"521","CITY_NAME":"八千代町","S_NAME":"大字塩本","SETAI":"197"}},{"type":"Feature","geometry":{"type":"Polygon","coordinates":[[[139.87427149411957,36.218632000013855],[139.87308752555435,36.21856624151717],[139.87171023877679,36.21968866431998],[139.87170787607744,36.22176443439142],[139.87070819004904,36.22163583519996],[139.870993197364,36.21970724400955],[139.8688925777807,36.21961205386945],[139.86502026741343,36.21522284653743],[139.86691354094305,36.214108501099645],[139.86541921121182,36.212391864366104],[139.8660845558849,36.21133084321203],[139.86794028925064,36.211426964889014],[139.86901516107324,36.210741301002365],[139.86820726250969,36.20985748380087],[139.86618044488486,36.20932397347208],[139.8655598575563,36.20984545180688],[139.8623679999896,36.2094689090967],[139.86172157157304,36.206970039184306],[139.86219833684555,36.2068022418586],[139.8630579322568,36.20789935399614],[139.86438723180845,36.207940946803895],[139.86414542951076,36.20711577081659],[139.86315438685793,36.207208494890196],[139.8621240010167,36.20649057739517],[139.86254406138642,36.2050413698861],[139.86012612402095,36.20466459436736],[139.85977965444306,36.20434020395645],[139.8635651292574,36.204960931440596],[139.86401525403423,36.20571180903313],[139.86564585430506,36.205629371909865],[139.8670068355232,36.20623598981505],[139.87024331217128,36.20605827391795],[139.87363524001427,36.206476454297174],[139.87311378762368,36.20716926888498],[139.87465222777982,36.20717606847297],[139.87511083683694,36.20676032284356],[139.87637292341833,36.20730487875673],[139.87777419357772,36.20736452920122],[139.8787544145718,36.20685144653646],[139.87786904776164,36.20888455088602],[139.88044042372502,36.21412944912975],[139.87937852197504,36.21429729511042],[139.87837092802155,36.21536481431243],[139.8768866359514,36.215578245862474],[139.87567186258943,36.21623332757193],[139.87600035488938,36.21668173620917],[139.87427149411957,36.218632000013855]]]},"properties":{"KEY_CODE":"085210350","PREF":"08","CITY":"521","CITY_NAME":"八千代町","S_NAME":"大字下山川","SETAI":"40"}},{"type":"Feature","geometry":{"type":"Polygon","coordinates":[[[139.86685945650652,36.197805878972666],[139.86705890524337,36.19936580742171],[139.86682968244287,36.20020163299212],[139.86729346878204,36.201335843408444],[139.8656482195091,36.20106935427492],[139.86327218065924,36.20082762283273],[139.86076548070898,36.19956148347558],[139.86293684260812,36.19815716259642],[139.863112957279,36.197387947243584],[139.86448808390622,36.196497197387664],[139.86522038306356,36.19653956494822],[139.8657141574235,36.19656752094325],[139.86635149339997,36.19665924717989],[139.86685945650652,36.197805878972666]]]},"properties":{"KEY_CODE":"085210360","PREF":"08","CITY":"521","CITY_NAME":"八千代町","S_NAME":"大字粕礼","SETAI":"0"}},{"type":"Feature","geometry":{"type":"Polygon","coordinates":[[[139.88498995918906,36.212444514120044],[139.88244763404873,36.21466485858059],[139.8800558618154,36.214326732079584],[139.87902597089192,36.215812970265034],[139.87876123906773,36.21688267747252],[139.8770426467313,36.21589365136604],[139.87600035488938,36.21668173620917],[139.87567186258943,36.21623332757193],[139.8768866359514,36.215578245862474],[139.87837092802155,36.21536481431243],[139.87937852197504,36.21429729511042],[139.88044042372502,36.21412944912975],[139.87786904776164,36.20888455088602],[139.8787544145718,36.20685144653646],[139.87909024156755,36.20660470481463],[139.8807037011403,36.20737529829246],[139.88310480320592,36.20745560239662],[139.88390646163438,36.208335475896824],[139.88543399017246,36.21077581103894],[139.88498995918906,36.212444514120044]]]},"properties":{"KEY_CODE":"085210360","PREF":"08","CITY":"521","CITY_NAME":"八千代町","S_NAME":"大字粕礼","SETAI":"88"}},{"type":"Feature","geometry":{"type":"Polygon","coordinates":[[[139.8566390643553,36.168771680398876],[139.8584362365558,36.16886667045952],[139.8585120599194,36.16964666995045],[139.85674562038744,36.16991144843164],[139.85524859232302,36.1691800495784],[139.8566390643553,36.168771680398876]]]},"properties":{"KEY_CODE":"085210370","PREF":"08","CITY":"521","CITY_NAME":"八千代町","S_NAME":"大字平塚","SETAI":"0"}},{"type":"Feature","geometry":{"type":"Polygon","coordinates":[[[139.8701278731085,36.16956181468904],[139.86924765762384,36.16920369342945],[139.86935425077115,36.16855845445805],[139.8677485841944,36.168133608106224],[139.86736680719324,36.168611261909376],[139.86750578065198,36.170131929697256],[139.86625120018107,36.17031366550742],[139.8641430702925,36.16892686137327],[139.86327042631214,36.1689510686586],[139.862431890537,36.16774935896998],[139.86272578465903,36.165873306703595],[139.86045436673334,36.16441605841449],[139.8594070998383,36.164906826753565],[139.85887500958262,36.16636542275786],[139.8548131820338,36.16617003518314],[139.8534417435151,36.16632364836142],[139.85156218904547,36.16269218975177],[139.8509070079049,36.161922243930476],[139.85077955446803,36.16064544835561],[139.85116459817172,36.15969637243874],[139.8525164334896,36.157859534840725],[139.85423956921056,36.1568165802733],[139.85336965745583,36.15640726088913],[139.8538835953514,36.15595606365916],[139.8529689073047,36.15481777985599],[139.8543104097345,36.15262769472821],[139.85436860578707,36.1516795974476],[139.85592014367256,36.15123213263818],[139.8564857421864,36.15177305572027],[139.85610279522672,36.14732599163326],[139.8616618094712,36.14700408745969],[139.86488563506364,36.14628717334033],[139.86706860899574,36.1460764824363],[139.87044876651885,36.145710605759575],[139.87294133178318,36.14455834557856],[139.8798144774964,36.139233179361554],[139.87997424917037,36.13910383148514],[139.8829199227283,36.142052562336374],[139.88336924413002,36.14426438620206],[139.88424227539667,36.14908268790722],[139.88228188247206,36.15581540317122],[139.88215070740068,36.15586422010327],[139.87815489386733,36.15725110653766],[139.87810599912854,36.157521871300645],[139.8751343202422,36.15931056755018],[139.87476389628839,36.159764825608],[139.87603041345892,36.162312782167795],[139.87656322157514,36.164060490470966],[139.87376288895632,36.16793463275888],[139.87155500274577,36.1682975718404],[139.8701278731085,36.16956181468904]]]},"properties":{"KEY_CODE":"085210370","PREF":"08","CITY":"521","CITY_NAME":"八千代町","S_NAME":"大字平塚","SETAI":"718"}},{"type":"Feature","geometry":{"type":"Polygon","coordinates":[[[139.8540500742703,36.169160848335636],[139.8581653101094,36.17115178507938],[139.86059762931544,36.17216912531861],[139.86123216881055,36.1733693584332],[139.85761890141993,36.17599593246454],[139.85720770031855,36.17627108362989],[139.85698929012636,36.17656913975029],[139.85662950216184,36.17686095138639],[139.85532900589374,36.177628079860966],[139.85505913211256,36.177759418904614],[139.85396426334685,36.1785348345939],[139.8532781554585,36.17949151672038],[139.85236426196485,36.18296216644056],[139.8508335261364,36.18243931747713],[139.85113669281165,36.18148430359981],[139.8511855563695,36.18056909043328],[139.85141106416887,36.17943099397159],[139.85214808192737,36.17857651960224],[139.8521309211585,36.17558315480027],[139.85220178751948,36.17456243495733],[139.8528386250622,36.17361656058166],[139.85284834433924,36.173405006604334],[139.85293258841585,36.173202947432486],[139.8530589552449,36.17293700225934],[139.85303690452162,36.172687411653705],[139.85309175766199,36.17224467024532],[139.8529450875276,36.171938643789574],[139.85293479033803,36.171537822792814],[139.8532317022619,36.17080208162511],[139.8540500742703,36.169160848335636]]]},"properties":{"KEY_CODE":"085210370","PREF":"08","CITY":"521","CITY_NAME":"八千代町","S_NAME":"大字平塚","SETAI":"0"}},{"type":"Feature","geometry":{"type":"Polygon","coordinates":[[[139.8612617035011,36.1826311898462],[139.8636381465564,36.18297349954589],[139.86571017037323,36.183808074868615],[139.8656125585699,36.185132446479756],[139.86368461085345,36.185938848782044],[139.86018691692448,36.1860751396839],[139.86018481539097,36.18578906899238],[139.86065771007796,36.1837238266725],[139.8612617035011,36.1826311898462]]]},"properties":{"KEY_CODE":"085210370","PREF":"08","CITY":"521","CITY_NAME":"八千代町","S_NAME":"大字平塚","SETAI":"0"}},{"type":"Feature","geometry":{"type":"Polygon","coordinates":[[[139.86251159698065,36.17791223997277],[139.86199648346835,36.17759232441217],[139.86092270899033,36.17839833302106],[139.85816729642573,36.17931409807933],[139.8563579045417,36.1796671119476],[139.85558077295596,36.180696309603775],[139.8558187581314,36.182966885819475],[139.85484823500744,36.184864348751425],[139.853935835677,36.18648977706388],[139.8527887665948,36.185935923251705],[139.85109837516404,36.1854476097843],[139.85236426196485,36.18296216644056],[139.8532781554585,36.17949151672038],[139.85396426334685,36.1785348345939],[139.85505913211256,36.177759418904614],[139.85532900589374,36.177628079860966],[139.85662950216184,36.17686095138639],[139.85698929012636,36.17656913975029],[139.85720770031855,36.17627108362989],[139.85761890141993,36.17599593246454],[139.86123216881055,36.1733693584332],[139.86059762931544,36.17216912531861],[139.8581653101094,36.17115178507938],[139.8540500742703,36.169160848335636],[139.85442475108508,36.16858971356106],[139.85350637933877,36.16726017863332],[139.8534417435151,36.16632364836142],[139.8548131820338,36.16617003518314],[139.85887500958262,36.16636542275786],[139.8594070998383,36.164906826753565],[139.86045436673334,36.16441605841449],[139.86272578465903,36.165873306703595],[139.862431890537,36.16774935896998],[139.86327042631214,36.1689510686586],[139.8641430702925,36.16892686137327],[139.86625120018107,36.17031366550742],[139.86750578065198,36.170131929697256],[139.86736680719324,36.168611261909376],[139.8677485841944,36.168133608106224],[139.86935425077115,36.16855845445805],[139.86924765762384,36.16920369342945],[139.8701278731085,36.16956181468904],[139.86931280960124,36.170600593656445],[139.86734543563304,36.171335606259824],[139.86770698951722,36.171551662059244],[139.86766831199822,36.17247589341485],[139.86536275235187,36.17285784087565],[139.86554370139376,36.17552024449177],[139.86417606484736,36.17503385574425],[139.86352133640608,36.176535290748184],[139.8621266546967,36.17732462353996],[139.86251159698065,36.17791223997277]],[[139.8566390643553,36.168771680398876],[139.85524859232302,36.1691800495784],[139.85674562038744,36.16991144843164],[139.8585120599194,36.16964666995045],[139.8584362365558,36.16886667045952],[139.8566390643553,36.168771680398876]]]},"properties":{"KEY_CODE":"085210380","PREF":"08","CITY":"521","CITY_NAME":"八千代町","S_NAME":"大字水口","SETAI":"192"}},{"type":"Feature","geometry":{"type":"Polygon","coordinates":[[[139.87820451825067,36.18130326528438],[139.87652663850795,36.18192935490036],[139.8748994669706,36.18323099948911],[139.8722350507968,36.18453109440127],[139.86936580951644,36.184274210413],[139.8674570720224,36.18448647003112],[139.86624241078272,36.18412119494232],[139.86581642109593,36.18515832511751],[139.8656125585699,36.185132446479756],[139.86571017037323,36.183808074868615],[139.86636518023582,36.18282345144644],[139.8660611656022,36.18044373962368],[139.86611443414077,36.1778972024059],[139.8673069704182,36.17736489957157],[139.86580249194165,36.17615382520007],[139.86554370139376,36.17552024449177],[139.86536275235187,36.17285784087565],[139.86766831199822,36.17247589341485],[139.86770698951722,36.171551662059244],[139.87000931572098,36.17206208156462],[139.87084515552576,36.17195927256196],[139.87118434100893,36.17261123201835],[139.87273100475412,36.172405080976304],[139.8740242857023,36.172875930869594],[139.8749322548347,36.17243601929812],[139.87503660790733,36.173252915431675],[139.87701836754837,36.17403067841751],[139.87890039396564,36.17416004597278],[139.87901378760154,36.17481671444758],[139.87886531483633,36.17611661552921],[139.8779100664169,36.17698243032039],[139.8783320183542,36.179473725335086],[139.87879430799174,36.1804677566711],[139.87820451825067,36.18130326528438]]]},"properties":{"KEY_CODE":"085210390","PREF":"08","CITY":"521","CITY_NAME":"八千代町","S_NAME":"大字松本","SETAI":"189"}},{"type":"Feature","geometry":{"type":"Polygon","coordinates":[[[139.89703782692413,36.218247116114796],[139.8906250823915,36.218187068532465],[139.89014843945097,36.21773467354822],[139.89090806328323,36.21468041190562],[139.8915421160578,36.212507561872236],[139.89373574868475,36.20914589400419],[139.897700637133,36.20612755620027],[139.90075467811914,36.20358056926981],[139.90165250962633,36.204042010256195],[139.9022692435881,36.206236178916306],[139.90317927515446,36.206762187540626],[139.9031979173084,36.208840134286035],[139.90322460020013,36.21126921961128],[139.90161327092432,36.210628243696846],[139.90127733382585,36.21257784463017],[139.90016059284983,36.21283353907326],[139.9002752001533,36.21331883697338],[139.89894783506045,36.213392942174806],[139.90007252519237,36.21415874338409],[139.89935855051826,36.21487363783794],[139.90038571721325,36.2155898134222],[139.90037799481695,36.2163528463209],[139.8970121757701,36.216353370616524],[139.89702348666452,36.21730146736986],[139.89859811730685,36.21729448927335],[139.8987785346438,36.218240047141855],[139.89703782692413,36.218247116114796]]]},"properties":{"KEY_CODE":"085210400","PREF":"08","CITY":"521","CITY_NAME":"八千代町","S_NAME":"大字久下田","SETAI":"123"}},{"type":"Feature","geometry":{"type":"Polygon","coordinates":[[[139.9122850174077,36.19784670015487],[139.91096259511227,36.19789646780366],[139.90916416077457,36.20001884372704],[139.90825289897035,36.19953521211184],[139.9060821050051,36.20412778512559],[139.90548234126732,36.204949540908956],[139.90755733807893,36.20392648082546],[139.9067092621288,36.2049886433541],[139.90806425303433,36.20491634922433],[139.90812007614613,36.20879919887604],[139.9031979173084,36.208840134286035],[139.90317927515446,36.206762187540626],[139.9022692435881,36.206236178916306],[139.90165250962633,36.204042010256195],[139.90075467811914,36.20358056926981],[139.90279820850887,36.201785518215935],[139.90379746049402,36.20061016916576],[139.90414880889313,36.199219282038115],[139.90372498863326,36.19835590872182],[139.90246406637485,36.19765092923357],[139.90204845222254,36.19700334303222],[139.90239027283496,36.19533025287504],[139.90253492891773,36.19410101076586],[139.90261953511356,36.193489461838354],[139.905172657328,36.19344427126105],[139.90847903765786,36.19099736735556],[139.9086326843543,36.19053370294292],[139.9096326589852,36.18956620883407],[139.91118602820313,36.191387882473634],[139.91088285379539,36.19215720989536],[139.91135057896895,36.193621828569526],[139.912566217501,36.19358339216926],[139.91263679016032,36.19456874331889],[139.91138855708428,36.194513167000835],[139.9122366618953,36.19583459946899],[139.9122850174077,36.19784670015487]]]},"properties":{"KEY_CODE":"085210410","PREF":"08","CITY":"521","CITY_NAME":"八千代町","S_NAME":"大字新井","SETAI":"84"}},{"type":"Feature","geometry":{"type":"Polygon","coordinates":[[[139.90204845222254,36.19700334303222],[139.90152773604893,36.19727980157015],[139.90081720523273,36.197034664498965],[139.8989495190196,36.196508667147825],[139.89667712258344,36.196027305006034],[139.89628151154935,36.1943997599068],[139.89698078813078,36.19363314748382],[139.89729927771054,36.193510210889386],[139.8978371793055,36.19345487177389],[139.89902528557744,36.19333355966589],[139.90073308259144,36.1932564027068],[139.90177514451702,36.19337643406667],[139.90261953511356,36.193489461838354],[139.90253492891773,36.19410101076586],[139.90239027283496,36.19533025287504],[139.90204845222254,36.19700334303222]]]},"properties":{"KEY_CODE":"085210420","PREF":"08","CITY":"521","CITY_NAME":"八千代町","S_NAME":"大字八町","SETAI":"13"}},{"type":"Feature","geometry":{"type":"Polygon","coordinates":[[[139.91603935763962,36.19614928914836],[139.9135908063325,36.1974114178251],[139.9122850174077,36.19784670015487],[139.9122366618953,36.19583459946899],[139.91138855708428,36.194513167000835],[139.91263679016032,36.19456874331889],[139.912566217501,36.19358339216926],[139.91135057896895,36.193621828569526],[139.91088285379539,36.19215720989536],[139.91118602820313,36.191387882473634],[139.9096326589852,36.18956620883407],[139.91091555061362,36.188707744470555],[139.91306476606707,36.18806591781308],[139.91490726480043,36.18825445756602],[139.91603921937406,36.1888551506601],[139.91640754533822,36.19035974854546],[139.91558930595824,36.19220294271863],[139.91556030735924,36.19354502621725],[139.91540647141403,36.19382527415608],[139.91531575649958,36.19418689256704],[139.91551692434456,36.194512324829475],[139.91569545450798,36.19553435169816],[139.91573534307,36.19572551185348],[139.91603935763962,36.19614928914836]]]},"properties":{"KEY_CODE":"085210430","PREF":"08","CITY":"521","CITY_NAME":"八千代町","S_NAME":"大字袋","SETAI":"60"}},{"type":"Feature","geometry":{"type":"Polygon","coordinates":[[[139.9120428891596,36.20779906560476],[139.91059360035052,36.20771707492168],[139.9086960163798,36.20880605364576],[139.90812007614613,36.20879919887604],[139.90806425303433,36.20491634922433],[139.9067092621288,36.2049886433541],[139.90755733807893,36.20392648082546],[139.90548234126732,36.204949540908956],[139.9060821050051,36.20412778512559],[139.90825289897035,36.19953521211184],[139.90916416077457,36.20001884372704],[139.91096259511227,36.19789646780366],[139.9122850174077,36.19784670015487],[139.9135908063325,36.1974114178251],[139.91603935763962,36.19614928914836],[139.91600732887937,36.19680047266293],[139.91623901366103,36.19727542211108],[139.91662248076025,36.19772943615863],[139.9167682078856,36.198630355731616],[139.91706984276925,36.19899544299117],[139.9185330322625,36.200152843824405],[139.92005703072186,36.20011030852331],[139.91905632631546,36.202202241538664],[139.9180450421767,36.20359295650349],[139.91663597139313,36.20642783275855],[139.91618830268186,36.20783567205905],[139.9154078066636,36.20759440231192],[139.91417554608734,36.20756539320022],[139.91317881268412,36.20768054151989],[139.912658985706,36.20777045593908],[139.91246248576564,36.20777058727637],[139.9120428891596,36.20779906560476]]]},"properties":{"KEY_CODE":"085210440","PREF":"08","CITY":"521","CITY_NAME":"八千代町","S_NAME":"大字野爪","SETAI":"105"}},{"type":"Feature","geometry":{"type":"Polygon","coordinates":[[[139.91538715538937,36.21270186970839],[139.91421779320342,36.213409846017825],[139.91368567654024,36.21290616280648],[139.91161991887805,36.212509041172],[139.9080715485388,36.21274178682765],[139.90831664871595,36.21336198979925],[139.90630978727594,36.21336539917003],[139.906268600282,36.212565906034094],[139.90221102700173,36.212816021658206],[139.90127733382585,36.21257784463017],[139.90161327092432,36.210628243696846],[139.90322460020013,36.21126921961128],[139.9031979173084,36.208840134286035],[139.90812007614613,36.20879919887604],[139.9086960163798,36.20880605364576],[139.91059360035052,36.20771707492168],[139.9120428891596,36.20779906560476],[139.91246248576564,36.20777058727637],[139.912658985706,36.20777045593908],[139.91317881268412,36.20768054151989],[139.91417554608734,36.20756539320022],[139.9154078066636,36.20759440231192],[139.91610169451238,36.20810275444481],[139.9152015205585,36.209846841344145],[139.9150655694514,36.21066473732841],[139.91502186641986,36.211323808660744],[139.91538715538937,36.21270186970839]]]},"properties":{"KEY_CODE":"085210450","PREF":"08","CITY":"521","CITY_NAME":"八千代町","S_NAME":"大字坪井","SETAI":"47"}},{"type":"Feature","geometry":{"type":"Polygon","coordinates":[[[139.91426848346657,36.2216869268316],[139.91021280590385,36.22583327258722],[139.90890802774445,36.22665712792534],[139.90799656388623,36.22579890115444],[139.90447594258146,36.22428065311521],[139.90332404531648,36.22507378908613],[139.90157858262873,36.22514553569219],[139.90212607943627,36.222952978504715],[139.90453765621,36.22293444637604],[139.90440143129953,36.21724957838857],[139.9004248512306,36.21725677457207],[139.90037799481695,36.2163528463209],[139.90038571721325,36.2155898134222],[139.89935855051826,36.21487363783794],[139.90007252519237,36.21415874338409],[139.89894783506045,36.213392942174806],[139.9002752001533,36.21331883697338],[139.90016059284983,36.21283353907326],[139.90127733382585,36.21257784463017],[139.90221102700173,36.212816021658206],[139.906268600282,36.212565906034094],[139.90630978727594,36.21336539917003],[139.90831664871595,36.21336198979925],[139.9080715485388,36.21274178682765],[139.91161991887805,36.212509041172],[139.91368567654024,36.21290616280648],[139.91421779320342,36.213409846017825],[139.91538715538937,36.21270186970839],[139.91569289279255,36.213279474934694],[139.91587086756962,36.213812564308],[139.91619338191956,36.214708032310845],[139.9163860533261,36.21513927838838],[139.9166234008237,36.215888012971995],[139.9166908767482,36.21682259616505],[139.91673975544344,36.21763437580015],[139.916710427439,36.21787404383093],[139.9154434999407,36.220420040904],[139.91426848346657,36.2216869268316]]]},"properties":{"KEY_CODE":"085210460","PREF":"08","CITY":"521","CITY_NAME":"八千代町","S_NAME":"大字高崎","SETAI":"100"}},{"type":"Feature","geometry":{"type":"Polygon","coordinates":[[[139.90890802774445,36.22665712792534],[139.90689644868087,36.22803288851049],[139.90571329456998,36.22949444991334],[139.90548112206068,36.232756294996534],[139.90557192358114,36.23481070999322],[139.90528459902094,36.234638875251335],[139.90091195250204,36.23408188248698],[139.89817899815122,36.23312138265856],[139.89807881208642,36.23124967101901],[139.89922188011582,36.23110569711946],[139.9004371922025,36.22844767838785],[139.90195350333337,36.22840038538946],[139.90225291899978,36.227299928005415],[139.90147971667062,36.226661844339034],[139.90157858262873,36.22514553569219],[139.90332404531648,36.22507378908613],[139.90447594258146,36.22428065311521],[139.90799656388623,36.22579890115444],[139.90890802774445,36.22665712792534]]]},"properties":{"KEY_CODE":"085210470","PREF":"08","CITY":"521","CITY_NAME":"八千代町","S_NAME":"大字大渡戸","SETAI":"45"}},{"type":"Feature","geometry":{"type":"Polygon","coordinates":[[[139.90157858262873,36.22514553569219],[139.90147971667062,36.226661844339034],[139.90225291899978,36.227299928005415],[139.90195350333337,36.22840038538946],[139.9004371922025,36.22844767838785],[139.900672195131,36.2281249594718],[139.89791208294244,36.2269990594532],[139.89888446364492,36.226204607800376],[139.89946529827373,36.22504372734731],[139.8990017733788,36.22400749139956],[139.89784787758086,36.22328865208083],[139.89697623520414,36.22335032777885],[139.89592740128515,36.221138513510326],[139.89593570048055,36.22017205184083],[139.89703933288683,36.22015312404441],[139.89703782692413,36.218247116114796],[139.8987785346438,36.218240047141855],[139.89859811730685,36.21729448927335],[139.89702348666452,36.21730146736986],[139.8970121757701,36.216353370616524],[139.90037799481695,36.2163528463209],[139.9004248512306,36.21725677457207],[139.90440143129953,36.21724957838857],[139.90453765621,36.22293444637604],[139.90212607943627,36.222952978504715],[139.90157858262873,36.22514553569219]]]},"properties":{"KEY_CODE":"085210480","PREF":"08","CITY":"521","CITY_NAME":"八千代町","S_NAME":"大字大里","SETAI":"47"}},{"type":"Feature","geometry":{"type":"Polygon","coordinates":[[[139.89697623520414,36.22335032777885],[139.89514074112003,36.22450853478833],[139.8922506433613,36.226842125040875],[139.88953597419268,36.22728452459757],[139.88798751163657,36.22665949461643],[139.88700996671523,36.2250858851807],[139.8876852650529,36.22261285893129],[139.8890379125424,36.22067705151268],[139.89014843945097,36.21773467354822],[139.8906250823915,36.218187068532465],[139.89703782692413,36.218247116114796],[139.89703933288683,36.22015312404441],[139.89593570048055,36.22017205184083],[139.89592740128515,36.221138513510326],[139.89697623520414,36.22335032777885]]]},"properties":{"KEY_CODE":"085210490","PREF":"08","CITY":"521","CITY_NAME":"八千代町","S_NAME":"大字小屋","SETAI":"58"}}]}