{"type":"FeatureCollection","features":[{"type":"Feature","geometry":{"type":"Polygon","coordinates":[[[138.9214671515368,36.24438712099564],[138.92046101305047,36.2448834199351],[138.91945818251185,36.24383910026798],[138.9184297239973,36.245199034478524],[138.91787433652078,36.24502385555092],[138.91680801612742,36.24482744569828],[138.91678905521542,36.244664584288444],[138.91709828119733,36.244079185842395],[138.91699176570006,36.243262744948055],[138.91676243669556,36.240941305774676],[138.9165455215203,36.240454612343584],[138.91587644866362,36.23973178767127],[138.9150513150615,36.23899192075066],[138.91442391272142,36.237955802317394],[138.9149361962601,36.23631110078528],[138.91632774118085,36.23460532950608],[138.9159920818752,36.23300548429979],[138.91409399543275,36.230940663893385],[138.912881248755,36.22909042049365],[138.91424419740608,36.22810616953175],[138.91341931156643,36.22650200518677],[138.9120819987562,36.225974518429865],[138.91161483522913,36.22652948372142],[138.91020989922046,36.22552281332371],[138.90933524292342,36.22411015266948],[138.90902262990764,36.222339288047536],[138.91106426790753,36.22066336029662],[138.91138679604484,36.21975382919787],[138.91264004166771,36.215833187748494],[138.91359732997236,36.21418571920166],[138.91487630283413,36.212895438836654],[138.91520126797906,36.21160247278283],[138.9180200881732,36.20797502624493],[138.91852764944815,36.20524055171074],[138.91942835440364,36.20320832396115],[138.92082224820143,36.19727434752388],[138.92204534112253,36.19468875080366],[138.92314509253598,36.19522490318262],[138.92306218921595,36.20868119616915],[138.92349206519785,36.21132676890644],[138.92342906258247,36.21424374684899],[138.9240199331502,36.21656663899645],[138.92748229076562,36.22406268472414],[138.92571735464972,36.22441706176204],[138.92542154365825,36.22518455433266],[138.92275869922074,36.22503768597086],[138.9209605163852,36.22548335879179],[138.9211227878362,36.226708588714665],[138.9219156256443,36.22743218166106],[138.92228317544024,36.22978311373199],[138.92150469564947,36.23359493740204],[138.9219748044703,36.234882609541316],[138.920708455581,36.23572642103926],[138.9215623886405,36.23848030813718],[138.92145395587065,36.23973534758295],[138.9215784838691,36.240576177636065],[138.92171054124995,36.2408881118091],[138.92220314544116,36.24166369149813],[138.92357875552347,36.24359645863439],[138.92357601896592,36.2441779356132],[138.9214671515368,36.24438712099564]]]},"properties":{"KEY_CODE":"103840010","PREF":"10","CITY":"384","CITY_NAME":"甘楽町","S_NAME":"大字小幡","SETAI":"588"}},{"type":"Feature","geometry":{"type":"Polygon","coordinates":[[[138.93084073180592,36.249289738029894],[138.92920297434347,36.24835075577074],[138.92795371399654,36.247691593281],[138.92614954099264,36.24605485110774],[138.92357601896592,36.2441779356132],[138.92357875552347,36.24359645863439],[138.92220314544116,36.24166369149813],[138.92171054124995,36.2408881118091],[138.9215784838691,36.240576177636065],[138.92145395587065,36.23973534758295],[138.9215623886405,36.23848030813718],[138.920708455581,36.23572642103926],[138.9219748044703,36.234882609541316],[138.92150469564947,36.23359493740204],[138.92228317544024,36.22978311373199],[138.9219156256443,36.22743218166106],[138.9211227878362,36.226708588714665],[138.9209605163852,36.22548335879179],[138.92275869922074,36.22503768597086],[138.92542154365825,36.22518455433266],[138.92571735464972,36.22441706176204],[138.92748229076562,36.22406268472414],[138.92835814372634,36.22594166377243],[138.92970220821658,36.232413331479194],[138.9305639319614,36.23440006732962],[138.93094968710716,36.236847474113176],[138.93177024640164,36.23773235050448],[138.93300291614335,36.23912281768742],[138.9331900713184,36.23947699726005],[138.93343891671194,36.240113718137884],[138.9335204925764,36.24037511227997],[138.93361683560445,36.24080411918428],[138.93362118190234,36.24097859185288],[138.93344436192749,36.24168673416957],[138.93337622628562,36.24202728672194],[138.93340322583956,36.242470102716865],[138.9334252229574,36.24279570417819],[138.9333133660196,36.243583753694544],[138.93343528074737,36.244443844110684],[138.9332516686593,36.244901978032594],[138.93319860174785,36.24535354187013],[138.93320882301452,36.245485635163675],[138.93309607670494,36.24575938714252],[138.93296373143434,36.24626428944801],[138.93293794055302,36.24646687620717],[138.93264326553967,36.24742435733121],[138.93169781683554,36.24785931927546],[138.93104612268607,36.2483906356199],[138.93072162753322,36.24882951978375],[138.93084073180592,36.249289738029894]]]},"properties":{"KEY_CODE":"103840020","PREF":"10","CITY":"384","CITY_NAME":"甘楽町","S_NAME":"大字上野","SETAI":"237"}},{"type":"Feature","geometry":{"type":"Polygon","coordinates":[[[138.91285470248204,36.19327641876527],[138.91809747941187,36.19306015095189],[138.92140964977898,36.19415739134706],[138.92204534112253,36.19468875080366],[138.92082224820143,36.19727434752388],[138.91942835440364,36.20320832396115],[138.91852764944815,36.20524055171074],[138.9180200881732,36.20797502624493],[138.91520126797906,36.21160247278283],[138.91487630283413,36.212895438836654],[138.91359732997236,36.21418571920166],[138.91264004166771,36.215833187748494],[138.91138679604484,36.21975382919787],[138.9105514194602,36.21809019347902],[138.9091947511408,36.216979012188794],[138.9082602914925,36.21502606188986],[138.90685936063372,36.214010880633985],[138.90534815322042,36.213551374442076],[138.90249527466054,36.21074490549874],[138.90337530513952,36.21011283313385],[138.9048585144812,36.207873736413404],[138.90631985880904,36.20643429490838],[138.907790499911,36.20347349598926],[138.91020530479716,36.197960942754115],[138.91285470248204,36.19327641876527]]]},"properties":{"KEY_CODE":"103840030","PREF":"10","CITY":"384","CITY_NAME":"甘楽町","S_NAME":"大字轟","SETAI":"49"}},{"type":"Feature","geometry":{"type":"Polygon","coordinates":[[[138.91020989922046,36.22552281332371],[138.9091627515988,36.22775731906774],[138.9073906377845,36.23036549253995],[138.90497143933212,36.23048929390783],[138.90504087176754,36.23130610637511],[138.90314682347292,36.23089965111039],[138.90169400948696,36.22910801381637],[138.90041504189426,36.226235293477515],[138.89871249854275,36.22634787635255],[138.89784073316454,36.22559668633367],[138.8961326058493,36.225384485870975],[138.89527080276534,36.225948217945536],[138.89358869040908,36.22563883017141],[138.8925732853057,36.226190671568],[138.89185993064626,36.22531482876489],[138.88992966645506,36.22541779459074],[138.888967465145,36.226225850355554],[138.88722564221325,36.2262507283935],[138.88611505135466,36.22520964404248],[138.8846621298243,36.22485802455207],[138.88128144436533,36.22505983358513],[138.8810584892565,36.224535091680714],[138.88137844793553,36.223524911527576],[138.88055772614385,36.222514577767214],[138.87889291144398,36.221570564196774],[138.87768693124156,36.219292144847174],[138.877042153802,36.21702000901321],[138.8777194355805,36.21579428652817],[138.8797052540688,36.214759122807386],[138.8805029588552,36.21403728971427],[138.88348854020037,36.213508703864356],[138.88969552191068,36.21407834369442],[138.892554837674,36.2135016778212],[138.89760645716382,36.214626612875804],[138.8999055017381,36.212231418511124],[138.90249527466054,36.21074490549874],[138.90534815322042,36.213551374442076],[138.90685936063372,36.214010880633985],[138.9082602914925,36.21502606188986],[138.9091947511408,36.216979012188794],[138.9105514194602,36.21809019347902],[138.91138679604484,36.21975382919787],[138.91106426790753,36.22066336029662],[138.90902262990764,36.222339288047536],[138.90933524292342,36.22411015266948],[138.91020989922046,36.22552281332371]]]},"properties":{"KEY_CODE":"103840040","PREF":"10","CITY":"384","CITY_NAME":"甘楽町","S_NAME":"大字国峰","SETAI":"102"}},{"type":"Feature","geometry":{"type":"Polygon","coordinates":[[[138.91678905521542,36.244664584288444],[138.91568216407276,36.24329871864738],[138.9135542612101,36.24324155123224],[138.91202734399573,36.24194481085939],[138.91136664616866,36.24228836387209],[138.90948748166508,36.24146703220054],[138.90814976002585,36.24584173617671],[138.90816262838155,36.246940589006655],[138.90658268874245,36.24639047181725],[138.90793751517106,36.245692678051036],[138.90559171962008,36.24533575164898],[138.90559706288974,36.24504540344816],[138.90614333216413,36.24473130411706],[138.90631150380608,36.24445307766485],[138.90640681694543,36.243845104241394],[138.9066217199876,36.243665073123736],[138.90660706898453,36.243286067079985],[138.90601315330818,36.24325663795653],[138.90559458917133,36.243312402415846],[138.9049866849674,36.24316483597589],[138.90506731725327,36.24283625855023],[138.90611101968406,36.24259431038737],[138.90625152588933,36.24238422094014],[138.90638740064833,36.24224239196156],[138.90629581452586,36.24204138537112],[138.9060767273863,36.2417663769621],[138.9059848733169,36.24175014159683],[138.9057114312927,36.241536831595404],[138.90379897668743,36.24067261020691],[138.90474892024784,36.24041908553797],[138.9054321988906,36.24018058203052],[138.90487680004253,36.239166921428485],[138.90525248543207,36.23786853335431],[138.9036981506144,36.23778002230381],[138.90316962240811,36.236328311597674],[138.90297829715206,36.231921323227894],[138.90314682347292,36.23089965111039],[138.90504087176754,36.23130610637511],[138.90497143933212,36.23048929390783],[138.9073906377845,36.23036549253995],[138.9091627515988,36.22775731906774],[138.91020989922046,36.22552281332371],[138.91161483522913,36.22652948372142],[138.9120819987562,36.225974518429865],[138.91341931156643,36.22650200518677],[138.91424419740608,36.22810616953175],[138.912881248755,36.22909042049365],[138.91409399543275,36.230940663893385],[138.9159920818752,36.23300548429979],[138.91632774118085,36.23460532950608],[138.9149361962601,36.23631110078528],[138.91442391272142,36.237955802317394],[138.9150513150615,36.23899192075066],[138.91587644866362,36.23973178767127],[138.9165455215203,36.240454612343584],[138.91676243669556,36.240941305774676],[138.91699176570006,36.243262744948055],[138.91709828119733,36.244079185842395],[138.91678905521542,36.244664584288444]]]},"properties":{"KEY_CODE":"103840050","PREF":"10","CITY":"384","CITY_NAME":"甘楽町","S_NAME":"大字善慶寺","SETAI":"434"}},{"type":"Feature","geometry":{"type":"Polygon","coordinates":[[[138.90249527466054,36.21074490549874],[138.8999055017381,36.212231418511124],[138.89760645716382,36.214626612875804],[138.892554837674,36.2135016778212],[138.88969552191068,36.21407834369442],[138.88348854020037,36.213508703864356],[138.8805029588552,36.21403728971427],[138.88016694357668,36.2125799448076],[138.878975675934,36.211513554921474],[138.8780693752041,36.2092235527679],[138.87764981583382,36.206791230095334],[138.87874318518183,36.2054860530486],[138.87807469610837,36.20441175519392],[138.87566801422705,36.202535244376286],[138.87347804502545,36.203240530348026],[138.86928811632646,36.20358698390123],[138.86849673257154,36.204422934491134],[138.8669457213219,36.20466680446778],[138.86235436358913,36.20310725300399],[138.86071050554168,36.202927548425606],[138.85980938821692,36.203442356472856],[138.85809525029973,36.2028832788071],[138.85731726949484,36.2009673667401],[138.8581375680792,36.19894413287273],[138.85733403957192,36.19794355736066],[138.8517129669462,36.196182684294115],[138.85043920257212,36.19542095448027],[138.84952718726495,36.19299011478529],[138.85008798014192,36.19171606186459],[138.84917752806825,36.18999256906632],[138.84909904330203,36.18832717958637],[138.84838791535273,36.187489486747886],[138.8452896863005,36.18567267739738],[138.84522697636191,36.184498171152036],[138.84415021111192,36.18401113021492],[138.84295878943647,36.18422209617059],[138.84048710149452,36.18268239977187],[138.83978454652257,36.18108198029539],[138.83866127124344,36.17988402994003],[138.83137580788065,36.178443416427235],[138.83021794773563,36.17760642437118],[138.8301345289978,36.17493399235921],[138.830635256582,36.17285039179097],[138.82731858188146,36.17122787237073],[138.82648165430209,36.16984704377575],[138.8272467725212,36.1675462521501],[138.82798316965048,36.16671086663491],[138.82628562060427,36.16273993760003],[138.8259513707869,36.16002494511299],[138.82671258483091,36.157921785505884],[138.83105622840253,36.15857211723311],[138.83413163911592,36.158692844101154],[138.83528784611914,36.15925106928787],[138.83745753184527,36.15900176554581],[138.8386371793009,36.159768096547246],[138.84114052587606,36.159747258872116],[138.843193257393,36.160350760681375],[138.8449708347513,36.1602942816607],[138.84581376890992,36.161639700685576],[138.84737652509628,36.16277355319622],[138.8484219422927,36.16272724813371],[138.84989904478886,36.164138690749496],[138.8516491306559,36.16470989964785],[138.85373736627767,36.16472519389174],[138.85774040199686,36.16567420779251],[138.85883384357183,36.16623229729723],[138.86083262642566,36.16824459572669],[138.8624357147987,36.16890001650658],[138.8641539114128,36.16848411963579],[138.86573074741298,36.16870049858081],[138.8702573739697,36.170274130045584],[138.87333866046063,36.1693558810041],[138.87570941753003,36.16970255616287],[138.87708754648247,36.168360882639874],[138.87864462265858,36.168162305272205],[138.88018095407617,36.16847867945529],[138.88126402116833,36.16925303882803],[138.88468921640103,36.16847480792498],[138.88572701841912,36.16949080501355],[138.8880592370893,36.170464083560205],[138.89087529516712,36.17456098368103],[138.8952371963362,36.17606107832777],[138.89719456415128,36.17757547860674],[138.89832153604812,36.17787689383024],[138.89901185447422,36.17895180925938],[138.902370289715,36.180923779901406],[138.9027847930246,36.183248878073066],[138.90413630269714,36.186638006922166],[138.90486062591734,36.18742841046289],[138.90936817410548,36.19013890888485],[138.91158715011304,36.192783257841974],[138.91285470248204,36.19327641876527],[138.91020530479716,36.197960942754115],[138.907790499911,36.20347349598926],[138.90631985880904,36.20643429490838],[138.9048585144812,36.207873736413404],[138.90337530513952,36.21011283313385],[138.90249527466054,36.21074490549874]]]},"properties":{"KEY_CODE":"103840060","PREF":"10","CITY":"384","CITY_NAME":"甘楽町","S_NAME":"大字秋畑","SETAI":"264"}},{"type":"Feature","geometry":{"type":"Polygon","coordinates":[[[138.93895018720846,36.25943969147203],[138.93713797924417,36.25946731736372],[138.93716635167087,36.262000207180364],[138.93532253746082,36.26116069120929],[138.93404281062274,36.26219638545135],[138.9319596710468,36.26242599461581],[138.93127920467367,36.26108561904176],[138.928195457948,36.2601950829632],[138.92217408993693,36.259751781376735],[138.92182443777776,36.258440394180454],[138.92071443569716,36.25716131884015],[138.92055990207362,36.25501973179361],[138.92165855376481,36.25483301940926],[138.92114871933575,36.25453907091666],[138.9206605223238,36.254059242774765],[138.92064657833595,36.25398740810398],[138.92057671675536,36.25354359252932],[138.92058368797635,36.2530485572903],[138.92021140640583,36.25270106641796],[138.9202306805824,36.2519929417387],[138.9209847759845,36.249876830505485],[138.92166160401865,36.24934388888224],[138.9214671515368,36.24438712099564],[138.92357601896592,36.2441779356132],[138.92614954099264,36.24605485110774],[138.92795371399654,36.247691593281],[138.92920297434347,36.24835075577074],[138.93095653095628,36.25291330242388],[138.9346411438385,36.25272680620135],[138.9369796433312,36.25183100656532],[138.9370446799838,36.25462543727692],[138.93826601822764,36.25460154925636],[138.93830114442213,36.25621786803661],[138.9395577007936,36.25653902863235],[138.93962711015834,36.259430539454705],[138.93895018720846,36.25943969147203]]]},"properties":{"KEY_CODE":"103840070","PREF":"10","CITY":"384","CITY_NAME":"甘楽町","S_NAME":"大字福島","SETAI":"1024"}},{"type":"Feature","geometry":{"type":"Polygon","coordinates":[[[138.9369796433312,36.25183100656532],[138.9346411438385,36.25272680620135],[138.93095653095628,36.25291330242388],[138.92920297434347,36.24835075577074],[138.93084073180592,36.249289738029894],[138.93072162753322,36.24882951978375],[138.93104612268607,36.2483906356199],[138.93169781683554,36.24785931927546],[138.93264326553967,36.24742435733121],[138.93293794055302,36.24646687620717],[138.93296373143434,36.24626428944801],[138.93309607670494,36.24575938714252],[138.93320882301452,36.245485635163675],[138.9338235560596,36.24611422890083],[138.93603739847032,36.24706726722976],[138.93768185152928,36.24834774726443],[138.93844289870745,36.250751087599916],[138.93817355054222,36.251815099120385],[138.9369796433312,36.25183100656532]]]},"properties":{"KEY_CODE":"103840080","PREF":"10","CITY":"384","CITY_NAME":"甘楽町","S_NAME":"大字小川","SETAI":"336"}},{"type":"Feature","geometry":{"type":"Polygon","coordinates":[[[138.9214671515368,36.24438712099564],[138.92166160401865,36.24934388888224],[138.9209847759845,36.249876830505485],[138.9202306805824,36.2519929417387],[138.91997612089946,36.25177882422997],[138.91879248569458,36.25108545199461],[138.91871890074265,36.25085776584382],[138.91876092106898,36.25063097922546],[138.91868107007727,36.250195042515],[138.91860213211157,36.249053852616726],[138.91840782778905,36.2479964481801],[138.9193285067093,36.24793176012313],[138.9184297239973,36.245199034478524],[138.91945818251185,36.24383910026798],[138.92046101305047,36.2448834199351],[138.9214671515368,36.24438712099564]]]},"properties":{"KEY_CODE":"103840080","PREF":"10","CITY":"384","CITY_NAME":"甘楽町","S_NAME":"大字小川","SETAI":"0"}},{"type":"Feature","geometry":{"type":"Polygon","coordinates":[[[138.94072029185602,36.2565159082654],[138.9395577007936,36.25653902863235],[138.93830114442213,36.25621786803661],[138.93826601822764,36.25460154925636],[138.9370446799838,36.25462543727692],[138.9369796433312,36.25183100656532],[138.93817355054222,36.251815099120385],[138.93844289870745,36.250751087599916],[138.93768185152928,36.24834774726443],[138.93603739847032,36.24706726722976],[138.9338235560596,36.24611422890083],[138.93320882301452,36.245485635163675],[138.93319860174785,36.24535354187013],[138.9332516686593,36.244901978032594],[138.93343528074737,36.244443844110684],[138.9333133660196,36.243583753694544],[138.9334252229574,36.24279570417819],[138.93340322583956,36.242470102716865],[138.93337622628562,36.24202728672194],[138.93344436192749,36.24168673416957],[138.93362118190234,36.24097859185288],[138.93361683560445,36.24080411918428],[138.9335204925764,36.24037511227997],[138.93343891671194,36.240113718137884],[138.9331900713184,36.23947699726005],[138.93300291614335,36.23912281768742],[138.93177024640164,36.23773235050448],[138.93094968710716,36.236847474113176],[138.9305639319614,36.23440006732962],[138.92970220821658,36.232413331479194],[138.92835814372634,36.22594166377243],[138.92748229076562,36.22406268472414],[138.9240199331502,36.21656663899645],[138.92342906258247,36.21424374684899],[138.92349206519785,36.21132676890644],[138.92306218921595,36.20868119616915],[138.92314509253598,36.19522490318262],[138.9249073392725,36.194338528526806],[138.92718301683894,36.194738961208614],[138.92721811173377,36.195453833376135],[138.929837903315,36.19760604175575],[138.92954606607915,36.19896063775438],[138.92975219939976,36.20194293999582],[138.930465517454,36.20649779754795],[138.93063117318573,36.21044257891529],[138.93044616451775,36.21237141541967],[138.9316157151493,36.21712515619576],[138.93228738762454,36.218253361668246],[138.93488739276106,36.22055511575608],[138.93856753839054,36.22327383142289],[138.94006835822853,36.22623833157072],[138.94134599034453,36.23014881803187],[138.9426675189771,36.23236129845114],[138.94338520233163,36.236582170353316],[138.94418972443407,36.23861283653781],[138.94544504715233,36.239366467371546],[138.94616762143784,36.242003604017],[138.94493146175094,36.24241033592904],[138.9446861473706,36.24530224013038],[138.9456901499155,36.2457140491489],[138.9458329524625,36.24777745378863],[138.94526678301764,36.24861761639704],[138.94671776852843,36.24901776822255],[138.94407443478607,36.24875349824867],[138.94416161638807,36.25335422625304],[138.9428930436655,36.25338271908632],[138.94076821210191,36.25408982232757],[138.94072029185602,36.2565159082654]]]},"properties":{"KEY_CODE":"103840090","PREF":"10","CITY":"384","CITY_NAME":"甘楽町","S_NAME":"大字白倉","SETAI":"528"}},{"type":"Feature","geometry":{"type":"Polygon","coordinates":[[[138.93898827227162,36.26123254932435],[138.93841533618885,36.26222285446999],[138.93731816085392,36.262250490515015],[138.93644401879493,36.26476173197349],[138.93667439398044,36.26510639257173],[138.93647315737087,36.26660040940173],[138.93418617071077,36.26585970368879],[138.9321543242991,36.26321371923452],[138.9319596710468,36.26242599461581],[138.93404281062274,36.26219638545135],[138.93532253746082,36.26116069120929],[138.93716635167087,36.262000207180364],[138.93713797924417,36.25946731736372],[138.93895018720846,36.25943969147203],[138.93898827227162,36.26123254932435]]]},"properties":{"KEY_CODE":"103840090","PREF":"10","CITY":"384","CITY_NAME":"甘楽町","S_NAME":"大字白倉","SETAI":"0"}},{"type":"Feature","geometry":{"type":"Polygon","coordinates":[[[138.95590981465963,36.24379592355015],[138.95471757188608,36.24613898043447],[138.95363838107917,36.24672452738485],[138.95305514016368,36.24871678749949],[138.953579449839,36.251172508626084],[138.9531295544963,36.25099743827991],[138.95282539021977,36.25083456273939],[138.95212973617095,36.250598748243476],[138.9520145212851,36.25052441136242],[138.95180078023785,36.2503912418908],[138.95125351035156,36.25017957489724],[138.95101879410976,36.25004114479791],[138.95082468284852,36.249948411313696],[138.94999560290012,36.24982145772996],[138.94686267735676,36.24968784105509],[138.94671776852843,36.24901776822255],[138.94526678301764,36.24861761639704],[138.9458329524625,36.24777745378863],[138.9456901499155,36.2457140491489],[138.9446861473706,36.24530224013038],[138.94493146175094,36.24241033592904],[138.94616762143784,36.242003604017],[138.94544504715233,36.239366467371546],[138.94418972443407,36.23861283653781],[138.94338520233163,36.236582170353316],[138.9426675189771,36.23236129845114],[138.94134599034453,36.23014881803187],[138.94006835822853,36.22623833157072],[138.93856753839054,36.22327383142289],[138.93488739276106,36.22055511575608],[138.93228738762454,36.218253361668246],[138.9316157151493,36.21712515619576],[138.93044616451775,36.21237141541967],[138.93063117318573,36.21044257891529],[138.930465517454,36.20649779754795],[138.92975219939976,36.20194293999582],[138.92954606607915,36.19896063775438],[138.929837903315,36.19760604175575],[138.93557884575893,36.19872818651127],[138.93655213196112,36.19907921087201],[138.9381519479595,36.198499320762224],[138.938677664769,36.19831792808885],[138.93978414990642,36.198308243984734],[138.94045251877677,36.19823251556641],[138.94101589036873,36.19798562867953],[138.94259711380704,36.19806015928221],[138.9428463971516,36.198193534822295],[138.9428564338831,36.19926371449396],[138.9429941982879,36.19953343810546],[138.9429282017048,36.200298635546496],[138.94295398101312,36.200315849655716],[138.94357658970853,36.2007541601254],[138.94400814645758,36.201309938059275],[138.9444512292638,36.20215329909302],[138.9445903808126,36.20238592525818],[138.94493982913093,36.20285200527624],[138.9453687719953,36.20506134362104],[138.94507723658435,36.205680900873126],[138.9451095836061,36.20579353231322],[138.94516688137873,36.20586644231668],[138.94553549808174,36.20622078115565],[138.94573115228354,36.206635479750624],[138.94578488732103,36.207123429320795],[138.9459455299752,36.20736929136704],[138.94620513248756,36.207661209816216],[138.94638580760997,36.20891013309647],[138.94650208665144,36.20940722196778],[138.9467606351912,36.21016237295095],[138.94786613954574,36.21060778150997],[138.94840586314882,36.21210999815338],[138.94983992388433,36.2141381510585],[138.9511641878369,36.21533537809385],[138.9515038195106,36.215398566823204],[138.951643881497,36.215445204856216],[138.9524951590476,36.21581438644101],[138.95281270715557,36.21621247299212],[138.9529765889754,36.217397881667054],[138.9531778447809,36.217962547908115],[138.95417386462444,36.21870957517229],[138.95543063289355,36.21927353371437],[138.95570591009462,36.21938242913127],[138.9578994498112,36.2199282507567],[138.95890196436827,36.22017659342372],[138.96125061231263,36.22070391338015],[138.96137277745697,36.220892766531456],[138.96150933279043,36.220967217205896],[138.96227664274946,36.22124752787779],[138.96356966710277,36.22285589229392],[138.96361522884925,36.22406259469747],[138.96271679461384,36.225041677623295],[138.96014137938332,36.22582798476698],[138.96040276573876,36.227018165722306],[138.95975582114067,36.227499070789264],[138.96074884081779,36.22858836847824],[138.95933084867255,36.22848534660127],[138.95860100905333,36.22940873396844],[138.95922488296944,36.23137954918112],[138.95887336322116,36.23272914378989],[138.9606574917292,36.233230987424825],[138.96004645014554,36.235755950318115],[138.95701970078687,36.23699933845891],[138.95624851287087,36.23873679538881],[138.95667407161835,36.24203079835328],[138.95618815703403,36.24201071361898],[138.95590981465963,36.24379592355015]]]},"properties":{"KEY_CODE":"103840100","PREF":"10","CITY":"384","CITY_NAME":"甘楽町","S_NAME":"大字天引","SETAI":"329"}},{"type":"Feature","geometry":{"type":"Polygon","coordinates":[[[138.95642608698648,36.258676972687795],[138.95490603017913,36.25968323137189],[138.954325146387,36.25905776112818],[138.95265030254328,36.25870695270967],[138.95155184447202,36.25659255556653],[138.95126840923973,36.2579264839848],[138.95009614904998,36.25741645939463],[138.94756995342794,36.25740112245607],[138.94643421948066,36.25643867877285],[138.94072029185602,36.2565159082654],[138.94076821210191,36.25408982232757],[138.9428930436655,36.25338271908632],[138.94416161638807,36.25335422625304],[138.94407443478607,36.24875349824867],[138.94671776852843,36.24901776822255],[138.94686267735676,36.24968784105509],[138.94999560290012,36.24982145772996],[138.95082468284852,36.249948411313696],[138.95101879410976,36.25004114479791],[138.95125351035156,36.25017957489724],[138.95180078023785,36.2503912418908],[138.9520145212851,36.25052441136242],[138.95212973617095,36.250598748243476],[138.95282539021977,36.25083456273939],[138.9531295544963,36.25099743827991],[138.953579449839,36.251172508626084],[138.95450342997242,36.251816552467176],[138.95619491682996,36.251629301077124],[138.95624554843212,36.25224862632413],[138.9586667008552,36.254664929858315],[138.95756311747428,36.25544998444031],[138.9580172769975,36.25588567306311],[138.95819262895267,36.25676734303263],[138.95700284510755,36.256797091847424],[138.95642608698648,36.258676972687795]]]},"properties":{"KEY_CODE":"103840110","PREF":"10","CITY":"384","CITY_NAME":"甘楽町","S_NAME":"大字金井","SETAI":"374"}},{"type":"Feature","geometry":{"type":"Polygon","coordinates":[[[138.94546993818892,36.26433077511075],[138.94531095941542,36.264411484683485],[138.94510422261882,36.26443301113289],[138.94506870986524,36.26442120093779],[138.94492258516993,36.26431115535238],[138.9448377096111,36.26426669723005],[138.94466601460337,36.26421124008906],[138.9445826223385,36.26415873020973],[138.94437251507756,36.26410180820979],[138.94422450610497,36.26421949354832],[138.94418591018228,36.26423418580077],[138.94408107674502,36.2642015823511],[138.9440423314008,36.264168115795634],[138.94399555746338,36.264091336505636],[138.9439999239487,36.26399758070884],[138.94400395721686,36.263894933628634],[138.94366347461593,36.26318315837941],[138.94353681987684,36.263097055639285],[138.9431329678156,36.26215516210925],[138.9408409734765,36.26219610689246],[138.9407893122278,36.259414843343905],[138.93962711015834,36.259430539454705],[138.9395577007936,36.25653902863235],[138.94072029185602,36.2565159082654],[138.94643421948066,36.25643867877285],[138.94756995342794,36.25740112245607],[138.95009614904998,36.25741645939463],[138.95126840923973,36.2579264839848],[138.95108147432018,36.261047516684904],[138.95283247369548,36.26277501056442],[138.95218970773007,36.2636035263617],[138.94975648972857,36.26351170161504],[138.94718664784008,36.264085240525226],[138.9468814521184,36.26434864225973],[138.94577711345556,36.264238510091964],[138.9457215607603,36.264238098388944],[138.9456581222854,36.26430450136854],[138.94556749808055,36.26439147342101],[138.94552776377358,36.26437617864269],[138.94546993818892,36.26433077511075]]]},"properties":{"KEY_CODE":"103840120","PREF":"10","CITY":"384","CITY_NAME":"甘楽町","S_NAME":"大字造石","SETAI":"248"}},{"type":"Feature","geometry":{"type":"Polygon","coordinates":[[[138.94779751004853,36.268451941400144],[138.9454092748319,36.26868970199932],[138.94223470306935,36.267432791379775],[138.93961533846368,36.26685102757253],[138.93647315737087,36.26660040940173],[138.93667439398044,36.26510639257173],[138.93644401879493,36.26476173197349],[138.93731816085392,36.262250490515015],[138.93841533618885,36.26222285446999],[138.93898827227162,36.26123254932435],[138.93895018720843,36.259439691472046],[138.93962711015834,36.259430539454705],[138.9407893122278,36.259414843343905],[138.9408409734765,36.26219610689246],[138.9431329678156,36.26215516210925],[138.94353681987684,36.263097055639285],[138.94366347461593,36.26318315837941],[138.94400395721686,36.263894933628634],[138.9439999239487,36.26399758070884],[138.94399555746338,36.264091336505636],[138.9440423314008,36.264168115795634],[138.94408107674502,36.2642015823511],[138.94418591018228,36.26423418580077],[138.94422450610497,36.26421949354832],[138.94437251507756,36.26410180820979],[138.9445826223385,36.26415873020973],[138.94466601460337,36.26421124008906],[138.9448377096111,36.26426669723005],[138.94492258516993,36.26431115535238],[138.94506870986524,36.26442120093779],[138.94510422261882,36.26443301113289],[138.94531095941542,36.264411484683485],[138.94546993818892,36.26433077511075],[138.94552776377358,36.26437617864269],[138.94556749808055,36.26439147342101],[138.9456581222854,36.26430450136854],[138.9457215607603,36.264238098388944],[138.94577711345556,36.264238510091964],[138.9468814521184,36.26434864225973],[138.9465229511306,36.26568120341517],[138.94794259875775,36.26742272874768],[138.94779751004853,36.268451941400144]]]},"properties":{"KEY_CODE":"103840130","PREF":"10","CITY":"384","CITY_NAME":"甘楽町","S_NAME":"大字庭谷","SETAI":"147"}}]}