{"type":"FeatureCollection","features":[{"type":"Feature","geometry":{"type":"Polygon","coordinates":[[[134.37654130119932,34.08602791552334],[134.37146006493688,34.08624419473861],[134.35722563277218,34.085804304737614],[134.34640718306682,34.085762654301874],[134.3427790829571,34.085553127866376],[134.33694429397306,34.085066751289794],[134.33555246457084,34.08504887722876],[134.33441630363208,34.085008604466736],[134.33433757843014,34.07995331821437],[134.33225065403818,34.07872373513629],[134.33322196981865,34.077260280434785],[134.33385011874958,34.07605575154136],[134.33396282730763,34.07562153763632],[134.3341452552475,34.074160638226424],[134.33413412669063,34.074113453379226],[134.33356708843056,34.07314512440423],[134.33410047626415,34.07313571803238],[134.3343051239914,34.07174897470108],[134.3345880729447,34.07163759417978],[134.33677167879594,34.0726226444962],[134.3415843675633,34.07413435256447],[134.34153750902206,34.07479554246607],[134.34316911708464,34.075182621553544],[134.3453721406565,34.07548220223237],[134.3470522856138,34.07553046499622],[134.347172054591,34.07598075540969],[134.3511172656477,34.07595349679475],[134.35050944423543,34.07774210363825],[134.3525155446566,34.07783561702573],[134.35264411492935,34.07721816095633],[134.35667676847683,34.07800833818719],[134.35811656331998,34.07838511291936],[134.3613616396579,34.07961500691495],[134.36302204212208,34.08049539663422],[134.3643961354622,34.08074809912325],[134.36755415363257,34.080360073463005],[134.36948490435245,34.0807014072154],[134.3700383123983,34.08014437347432],[134.3712161681349,34.079907819188506],[134.37262343871674,34.08035648826324],[134.372039027622,34.081444475976795],[134.37554520802527,34.08127649808185],[134.37916723085888,34.081400375834804],[134.37784477282682,34.08308806669446],[134.37602822246228,34.08307120774381],[134.37657668099806,34.08349706739886],[134.37654130119932,34.08602791552334]]]},"properties":{"KEY_CODE":"362050010","PREF":"36","CITY":"205","CITY_NAME":"吉野川市","S_NAME":"鴨島町","SETAI":"947"}},{"type":"Feature","geometry":{"type":"Polygon","coordinates":[[[134.37262343871674,34.08035648826324],[134.3712161681349,34.079907819188506],[134.3700383123983,34.08014437347432],[134.36948490435245,34.0807014072154],[134.36755415363257,34.080360073463005],[134.3643961354622,34.08074809912325],[134.36302204212208,34.08049539663422],[134.3613616396579,34.07961500691495],[134.35811656331998,34.07838511291936],[134.35667676847683,34.07800833818719],[134.35706221046107,34.076534104275545],[134.35962495591068,34.077550723479575],[134.35974314568827,34.076071444814424],[134.35877783790812,34.072285255697196],[134.36029434916622,34.071369936063086],[134.36004704947385,34.07096231366135],[134.36223538360824,34.07035561432192],[134.363913212112,34.070364106973905],[134.36529435736088,34.07078648795416],[134.36693993756276,34.07180587866367],[134.37176434194166,34.074260829496055],[134.37114231518134,34.0746594560478],[134.37272576923542,34.074824857038315],[134.37451299242056,34.07699110496789],[134.37262343871674,34.08035648826324]]]},"properties":{"KEY_CODE":"362050020","PREF":"36","CITY":"205","CITY_NAME":"吉野川市","S_NAME":"鴨島町","SETAI":"1043"}},{"type":"Feature","geometry":{"type":"Polygon","coordinates":[[[134.36004704947385,34.07096231366135],[134.36029434916622,34.071369936063086],[134.35877783790812,34.072285255697196],[134.35974314568827,34.076071444814424],[134.35962495591068,34.077550723479575],[134.35706221046107,34.076534104275545],[134.35667676847683,34.07800833818719],[134.35264411492935,34.07721816095633],[134.3525155446566,34.07783561702573],[134.35050944423543,34.07774210363825],[134.3511172656477,34.07595349679475],[134.3509725822967,34.07421735699078],[134.34801249283043,34.07400074485386],[134.34801532087215,34.073376131653404],[134.34898060924374,34.07313049045844],[134.35050789229604,34.07215352826787],[134.35032437921595,34.07095921088039],[134.3549896850711,34.07088478292269],[134.3542182471209,34.0682456239006],[134.35525947434553,34.0682197839414],[134.35505061558624,34.067279698566075],[134.35548069663153,34.0673166386347],[134.355952445614,34.0639739414245],[134.356734824073,34.06389115156098],[134.35861442466498,34.0643300619392],[134.359867450403,34.06486630303372],[134.36190816752745,34.066121182956024],[134.3613027655092,34.067157479607495],[134.36065174198396,34.06739193692674],[134.36051514942454,34.06876576273872],[134.36013542524466,34.06866995998219],[134.35944495550788,34.070028997941215],[134.36004704947385,34.07096231366135]]]},"properties":{"KEY_CODE":"362050030","PREF":"36","CITY":"205","CITY_NAME":"吉野川市","S_NAME":"鴨島町","SETAI":"1211"}},{"type":"Feature","geometry":{"type":"Polygon","coordinates":[[[134.355952445614,34.0639739414245],[134.35548069663153,34.0673166386347],[134.35505061558624,34.067279698566075],[134.35525947434553,34.0682197839414],[134.3542182471209,34.0682456239006],[134.3549896850711,34.07088478292269],[134.35032437921595,34.07095921088039],[134.35050789229604,34.07215352826787],[134.34898060924374,34.07313049045844],[134.34801532087215,34.073376131653404],[134.34726447361396,34.07158628097422],[134.34657960994485,34.071497265728574],[134.34583555494265,34.0685548797452],[134.34759553234835,34.06848828761164],[134.34748247374415,34.06794652851329],[134.34868512522883,34.06785483321856],[134.34845459109894,34.06627028977353],[134.34865823624622,34.06436227862537],[134.3491447710573,34.06406190164866],[134.35087300007933,34.06385660621569],[134.3523852557678,34.0640761534515],[134.35268708586017,34.0644076968216],[134.355952445614,34.0639739414245]]]},"properties":{"KEY_CODE":"362050040","PREF":"36","CITY":"205","CITY_NAME":"吉野川市","S_NAME":"鴨島町","SETAI":"576"}},{"type":"Feature","geometry":{"type":"Polygon","coordinates":[[[134.39726415412625,34.087202589209234],[134.39677914642152,34.087544640435915],[134.39636714901374,34.08909124763894],[134.39676738663178,34.08933771228225],[134.39578885049204,34.09276682474528],[134.3834130866337,34.08846652042346],[134.38276367837278,34.088376824002296],[134.37509921289026,34.08874184078357],[134.37682991901983,34.086006269294586],[134.37654130119932,34.08602791552334],[134.37657668099806,34.08349706739886],[134.37602822246228,34.08307120774381],[134.37784477282682,34.08308806669446],[134.37916723085888,34.081400375834804],[134.37554520802527,34.08127649808185],[134.372039027622,34.081444475976795],[134.37262343871674,34.08035648826324],[134.37451299242056,34.07699110496789],[134.37272576923542,34.074824857038315],[134.37114231518134,34.0746594560478],[134.37176434194166,34.074260829496055],[134.37381791515665,34.07429735469822],[134.37369244211027,34.07329091670663],[134.37317292211097,34.07242815181249],[134.37275898208998,34.070637380443245],[134.37426761558038,34.07061445416256],[134.37392302666032,34.0696669792244],[134.37372502181242,34.06732789566123],[134.374019088686,34.067126404189814],[134.37461178081466,34.06807014112104],[134.37867509507,34.06961395195784],[134.38017348555994,34.07041734877699],[134.3811890328674,34.070674602412346],[134.38326781368195,34.070279531724225],[134.3861045934978,34.071217141732426],[134.3876620870952,34.07207414284682],[134.3890626199524,34.072560451980074],[134.39129386290656,34.07297829612104],[134.39260608421856,34.07361882206663],[134.39666939455117,34.0745699628824],[134.39860353305426,34.0744742931475],[134.40038925026627,34.074900753982966],[134.40013479725354,34.07556828641709],[134.39909632069129,34.08041992233597],[134.39853219491258,34.08232488725698],[134.39726415412625,34.087202589209234]]]},"properties":{"KEY_CODE":"362050050","PREF":"36","CITY":"205","CITY_NAME":"吉野川市","S_NAME":"鴨島町","SETAI":"977"}},{"type":"Feature","geometry":{"type":"Polygon","coordinates":[[[134.40294175624163,34.06088343636792],[134.40333734993638,34.061523228249236],[134.40247324316317,34.06569104280485],[134.40195597334034,34.06739329546415],[134.40209586344835,34.06869634148957],[134.40168989786568,34.071077798884595],[134.40172839600166,34.07631188910729],[134.40068724770376,34.074890462399146],[134.40038925026627,34.074900753982966],[134.39860353305426,34.0744742931475],[134.39666939455117,34.0745699628824],[134.39260608421856,34.07361882206663],[134.39129386290656,34.07297829612104],[134.3890626199524,34.072560451980074],[134.3876620870952,34.07207414284682],[134.3861045934978,34.071217141732426],[134.38326781368195,34.070279531724225],[134.383694298615,34.06776944444204],[134.38353255659257,34.06716811958022],[134.38438573817461,34.06695454290597],[134.38628556782191,34.06743743165193],[134.38794782796626,34.067111386543935],[134.38891596404062,34.066184843781045],[134.38971205611853,34.06589028010664],[134.38742813123082,34.0648191532616],[134.3865386880243,34.0635920922069],[134.38561364013805,34.06315864733098],[134.38563091301754,34.06222780755797],[134.38745971892328,34.062032349877974],[134.38743461172822,34.06125029065417],[134.38650632016115,34.06081976075977],[134.38684981301896,34.06013877761724],[134.38767653551645,34.060519750691384],[134.38847001521478,34.05953530688943],[134.38788475000527,34.05953596094654],[134.38767664563454,34.05822457211906],[134.38804599107738,34.05877043620911],[134.38926380331725,34.05878392160609],[134.39002577057224,34.059873639513675],[134.39180611640415,34.05892939283456],[134.39232316959001,34.05838912420982],[134.39348207579923,34.05861944221607],[134.39364277808917,34.058281803674355],[134.3930330112241,34.0571673295673],[134.39153676199527,34.055739330955866],[134.39221014759238,34.05559066460085],[134.39173159898857,34.054792045187206],[134.39248450973216,34.05428815836668],[134.39203204141242,34.05369220167717],[134.39200698916972,34.05282160053709],[134.39134337490353,34.052891377857186],[134.39247898040625,34.05170015117404],[134.39304895921225,34.05177171014124],[134.39463675035736,34.05317908336983],[134.39642575159672,34.052711056677914],[134.3971745535014,34.051886421786385],[134.399306535819,34.051251598174304],[134.39972787938373,34.05067953692329],[134.4026921151929,34.050245613393116],[134.40336200234458,34.050746320039224],[134.40343592318993,34.051396377106805],[134.40423361841033,34.05253631353827],[134.40418359111612,34.05356086982149],[134.40372246118875,34.05452541765355],[134.40346564215372,34.056964057427905],[134.40317560766186,34.05818456943501],[134.40337372108428,34.059241807735],[134.40258506292304,34.060113123691984],[134.40294175624163,34.06088343636792]]]},"properties":{"KEY_CODE":"362050060","PREF":"36","CITY":"205","CITY_NAME":"吉野川市","S_NAME":"鴨島町","SETAI":"580"}},{"type":"Feature","geometry":{"type":"Polygon","coordinates":[[[134.363913212112,34.070364106973905],[134.36223538360824,34.07035561432192],[134.36004704947385,34.07096231366135],[134.35944495550788,34.070028997941215],[134.36013542524466,34.06866995998219],[134.36051514942454,34.06876576273872],[134.36065174198396,34.06739193692674],[134.3613027655092,34.067157479607495],[134.36190816752745,34.066121182956024],[134.36392514996655,34.06586619569848],[134.36403636022823,34.06407508480475],[134.36334933420244,34.06376910021519],[134.36444138730542,34.0635979382545],[134.3645084244876,34.06256619099907],[134.36533315580823,34.06253276677852],[134.36630564565013,34.061435605074955],[134.36786897320613,34.06108302558379],[134.36890415973744,34.061620568747195],[134.36967470168406,34.062478689896274],[134.3693086560985,34.0637927437659],[134.37210396139608,34.065066979035336],[134.37313615622045,34.06532270196556],[134.37363956835677,34.0658994857623],[134.37237396643366,34.06706296531342],[134.37054162032462,34.06738827233102],[134.3699672025211,34.067703727680616],[134.36966185904504,34.06573855826041],[134.3674911060398,34.06588478274572],[134.36680924553906,34.06634572306744],[134.36506614504705,34.066301321688606],[134.36490087083158,34.06847491215581],[134.36386675478838,34.068440918313236],[134.363913212112,34.070364106973905]]]},"properties":{"KEY_CODE":"362050070","PREF":"36","CITY":"205","CITY_NAME":"吉野川市","S_NAME":"鴨島町","SETAI":"170"}},{"type":"Feature","geometry":{"type":"Polygon","coordinates":[[[134.374019088686,34.067126404189814],[134.37372502181242,34.06732789566123],[134.37392302666032,34.0696669792244],[134.37426761558038,34.07061445416256],[134.37275898208998,34.070637380443245],[134.37317292211097,34.07242815181249],[134.37369244211027,34.07329091670663],[134.37381791515665,34.07429735469822],[134.37176434194166,34.074260829496055],[134.36693993756276,34.07180587866367],[134.36529435736088,34.07078648795416],[134.363913212112,34.070364106973905],[134.36386675478838,34.068440918313236],[134.36490087083158,34.06847491215581],[134.36506614504705,34.066301321688606],[134.36680924553906,34.06634572306744],[134.3674911060398,34.06588478274572],[134.36966185904504,34.06573855826041],[134.3699672025211,34.067703727680616],[134.37054162032462,34.06738827233102],[134.37237396643366,34.06706296531342],[134.37363956835677,34.0658994857623],[134.374019088686,34.067126404189814]]]},"properties":{"KEY_CODE":"362050080","PREF":"36","CITY":"205","CITY_NAME":"吉野川市","S_NAME":"鴨島町","SETAI":"159"}},{"type":"Feature","geometry":{"type":"Polygon","coordinates":[[[134.39304895921225,34.05177171014124],[134.39247898040625,34.05170015117404],[134.39134337490353,34.052891377857186],[134.39200698916972,34.05282160053709],[134.39203204141242,34.05369220167717],[134.39248450973216,34.05428815836668],[134.39173159898857,34.054792045187206],[134.39221014759238,34.05559066460085],[134.39153676199527,34.055739330955866],[134.3930330112241,34.0571673295673],[134.39364277808917,34.058281803674355],[134.39348207579923,34.05861944221607],[134.39232316959001,34.05838912420982],[134.39180611640415,34.05892939283456],[134.39002577057224,34.059873639513675],[134.38926380331725,34.05878392160609],[134.38804599107738,34.05877043620911],[134.38767664563454,34.05822457211906],[134.38788475000527,34.05953596094654],[134.38847001521478,34.05953530688943],[134.38767653551645,34.060519750691384],[134.38684981301896,34.06013877761724],[134.38650632016115,34.06081976075977],[134.38743461172822,34.06125029065417],[134.38745971892328,34.062032349877974],[134.38563091301754,34.06222780755797],[134.38561364013805,34.06315864733098],[134.3865386880243,34.0635920922069],[134.38742813123082,34.0648191532616],[134.38971205611853,34.06589028010664],[134.38891596404062,34.066184843781045],[134.38794782796626,34.067111386543935],[134.38628556782191,34.06743743165193],[134.38438573817461,34.06695454290597],[134.38353255659257,34.06716811958022],[134.383694298615,34.06776944444204],[134.38326781368195,34.070279531724225],[134.3811890328674,34.070674602412346],[134.38017348555994,34.07041734877699],[134.37867509507,34.06961395195784],[134.37461178081466,34.06807014112104],[134.374019088686,34.067126404189814],[134.37363956835677,34.0658994857623],[134.37313615622045,34.06532270196556],[134.37210396139608,34.065066979035336],[134.3693086560985,34.0637927437659],[134.36967470168406,34.062478689896274],[134.36890415973744,34.061620568747195],[134.36930664498465,34.06142043447997],[134.37104391614423,34.06160053666319],[134.37148219840185,34.06075785715791],[134.37199450445192,34.057410033041236],[134.37176553300145,34.05669535151384],[134.37182222837342,34.05522845162531],[134.37041521792696,34.053305121786494],[134.36991576606323,34.05298100488512],[134.3691621739859,34.05124315648215],[134.36960142088077,34.048470883274334],[134.3701569898504,34.04756184805335],[134.3695563086826,34.04781820007976],[134.36867225205683,34.047315576343024],[134.3685370195906,34.04681855809529],[134.36913296488487,34.04621612859022],[134.3699772565279,34.04443544903464],[134.37076279836805,34.044310972524215],[134.37167165600744,34.04268286874154],[134.37028460294766,34.043020607776405],[134.37138671850832,34.04157440672019],[134.37200611544367,34.03947897382971],[134.37227813558295,34.03917437320138],[134.3743754941582,34.03992125142238],[134.37627464625217,34.041512759887055],[134.37808610685113,34.041859423846276],[134.37947256504984,34.042531636743554],[134.3797838648876,34.04359486938123],[134.3838215156331,34.04447593547215],[134.38556623152496,34.0449642610557],[134.38577221863147,34.04573185790313],[134.3872944630627,34.04624143483745],[134.3876770491513,34.047413170702804],[134.38878757261355,34.04842959738698],[134.39126091951005,34.04953984855597],[134.39272810765195,34.05080740737272],[134.39304895921225,34.05177171014124]]]},"properties":{"KEY_CODE":"362050090","PREF":"36","CITY":"205","CITY_NAME":"吉野川市","S_NAME":"鴨島町","SETAI":"413"}},{"type":"Feature","geometry":{"type":"Polygon","coordinates":[[[134.36890415973744,34.061620568747195],[134.36786897320613,34.06108302558379],[134.36630564565013,34.061435605074955],[134.36533315580823,34.06253276677852],[134.3645084244876,34.06256619099907],[134.36444138730542,34.0635979382545],[134.36334933420244,34.06376910021519],[134.36196439737805,34.06317572230677],[134.36129951731718,34.06137682498289],[134.36158827360944,34.059846265394874],[134.3614410665861,34.05908127250633],[134.36195921731976,34.05664699819408],[134.3620607103733,34.054802705652456],[134.36151559502423,34.053107973818456],[134.36112439602007,34.0511142417621],[134.36127662241796,34.050632310813135],[134.36060703275476,34.04999154834751],[134.361588585444,34.04887783275759],[134.36181950339503,34.04697643178497],[134.36096787194043,34.04600654141115],[134.3594803927276,34.04666885493794],[134.36098387698405,34.04542618408592],[134.36134602819243,34.04459581255851],[134.36065499941265,34.04306813778885],[134.35818097065908,34.0424116745454],[134.3578827897705,34.04205185953475],[134.35752654073858,34.04298240383012],[134.35715695579503,34.04186350963904],[134.3576059200528,34.04156553430459],[134.35749715342703,34.04082693265553],[134.35603687696374,34.03891823591831],[134.35641367356558,34.03745999239138],[134.3597347023798,34.034807410461525],[134.36033535353238,34.033100010092944],[134.36115532862158,34.03235869208875],[134.3621329507158,34.0319191998799],[134.36266575659872,34.030895475159156],[134.36393375204452,34.03111276758847],[134.36525762810737,34.02973584717942],[134.36512470839997,34.02913090311401],[134.36588821606884,34.02944922193516],[134.36690552925862,34.0293860937333],[134.36760763579252,34.030160976149695],[134.36867810773762,34.030760955737556],[134.36890315791246,34.03132277000147],[134.3705333495029,34.03213323563433],[134.370825072085,34.03371771816139],[134.37237412522109,34.03516780292733],[134.37193081700002,34.037453705248225],[134.37239408653906,34.038165401128474],[134.37227813558295,34.03917437320138],[134.37200611544367,34.03947897382971],[134.37138671850832,34.04157440672019],[134.37028460294766,34.043020607776405],[134.37167165600744,34.04268286874154],[134.37076279836805,34.044310972524215],[134.3699772565279,34.04443544903464],[134.36913296488487,34.04621612859022],[134.3685370195906,34.04681855809529],[134.36867225205683,34.047315576343024],[134.3695563086826,34.04781820007976],[134.3701569898504,34.04756184805335],[134.36960142088077,34.048470883274334],[134.3691621739859,34.05124315648215],[134.36991576606323,34.05298100488512],[134.37041521792696,34.053305121786494],[134.37182222837342,34.05522845162531],[134.37176553300145,34.05669535151384],[134.37199450445192,34.057410033041236],[134.37148219840185,34.06075785715791],[134.37104391614423,34.06160053666319],[134.36930664498465,34.06142043447997],[134.36890415973744,34.061620568747195]]]},"properties":{"KEY_CODE":"362050100","PREF":"36","CITY":"205","CITY_NAME":"吉野川市","S_NAME":"鴨島町","SETAI":"274"}},{"type":"Feature","geometry":{"type":"Polygon","coordinates":[[[134.3511172656477,34.07595349679475],[134.347172054591,34.07598075540969],[134.3470522856138,34.07553046499622],[134.3453721406565,34.07548220223237],[134.34316911708464,34.075182621553544],[134.34153750902206,34.07479554246607],[134.3415843675633,34.07413435256447],[134.33677167879594,34.0726226444962],[134.3345880729447,34.07163759417978],[134.3343051239914,34.07174897470108],[134.33410047626415,34.07313571803238],[134.33356708843056,34.07314512440423],[134.33413412669063,34.074113453379226],[134.33204334184478,34.07337080190505],[134.32930583115626,34.07224257076211],[134.3269108629599,34.071308048148204],[134.3255340331203,34.07087761606261],[134.3252735352912,34.070556855296836],[134.32570779182805,34.070016027117795],[134.32760376750832,34.07024658369854],[134.3278380878802,34.065502791485116],[134.32924812847713,34.06491472214531],[134.3302648185322,34.06511674501045],[134.33169995682792,34.06413884229484],[134.3326187677926,34.063232681591714],[134.33260617920152,34.06244138041046],[134.33352514719616,34.062045359909426],[134.33339366111323,34.061443697741446],[134.3345166425748,34.06066467704211],[134.33478211181526,34.060154344247074],[134.33900946817474,34.06053861126891],[134.3394434612926,34.06344515780718],[134.34126900178427,34.06296547629403],[134.34382610157965,34.061685206529454],[134.34463322418526,34.06260373034303],[134.3465832090894,34.06254824620033],[134.34792232501025,34.063130285937575],[134.3489456276969,34.06323950092572],[134.34865823624622,34.06436227862537],[134.34845459109894,34.06627028977353],[134.34868512522883,34.06785483321856],[134.34748247374415,34.06794652851329],[134.34759553234835,34.06848828761164],[134.34583555494265,34.0685548797452],[134.34657960994485,34.071497265728574],[134.34726447361396,34.07158628097422],[134.34801532087215,34.073376131653404],[134.34801249283043,34.07400074485386],[134.3509725822967,34.07421735699078],[134.3511172656477,34.07595349679475]]]},"properties":{"KEY_CODE":"362050110","PREF":"36","CITY":"205","CITY_NAME":"吉野川市","S_NAME":"鴨島町","SETAI":"1138"}},{"type":"Feature","geometry":{"type":"Polygon","coordinates":[[[134.3489456276969,34.06323950092572],[134.34792232501025,34.063130285937575],[134.3465832090894,34.06254824620033],[134.34463322418526,34.06260373034303],[134.34382610157965,34.061685206529454],[134.34126900178427,34.06296547629403],[134.3394434612926,34.06344515780718],[134.33900946817474,34.06053861126891],[134.33478211181526,34.060154344247074],[134.33499911650813,34.05928266831865],[134.33613594029552,34.05737436407051],[134.33687816490504,34.056904586984174],[134.3369804668469,34.054316670322976],[134.33649672853863,34.053037094080075],[134.33603039741683,34.05255652719164],[134.33634391411863,34.05177186131602],[134.3355813320593,34.050738708892595],[134.33504958125576,34.04891673268012],[134.33517565694444,34.04825167647256],[134.33355259672186,34.046912135657934],[134.33383754459265,34.046130979821136],[134.33324018286322,34.04392526193905],[134.33351068586293,34.04288912598692],[134.33275307847677,34.04137382114181],[134.33265315418927,34.04031850753229],[134.3320516418236,34.03860075491114],[134.33127321600404,34.037650904660396],[134.33129790192092,34.0364020242052],[134.33058457813937,34.03564443457195],[134.33036026736312,34.034791471162265],[134.3297851984399,34.03430286172993],[134.33070895723222,34.03381650321889],[134.33222954434888,34.03254859095824],[134.33288994986222,34.031053211026205],[134.3349261513487,34.02979992590896],[134.33561079040382,34.031156150547034],[134.33701927950148,34.03140241487961],[134.33817928861322,34.03186927352298],[134.33976594408227,34.03162503002103],[134.34251900158546,34.03147499659033],[134.34419704850214,34.03285441128306],[134.3453584201144,34.033153187114266],[134.34676451519195,34.034373822845204],[134.34664201367428,34.03535830504441],[134.34826974379354,34.035655032027265],[134.34900685419873,34.03643882588827],[134.34910094602984,34.03758149144358],[134.34902807698018,34.039608297369426],[134.34780779474153,34.040769264946285],[134.34757034712632,34.041307908199755],[134.34620572753815,34.04225313343784],[134.34512543718142,34.042610361068455],[134.34442239520558,34.043416835362635],[134.3431260221476,34.043871890997465],[134.34449308435126,34.04503785853226],[134.34422627021766,34.04661123572669],[134.34559223094035,34.04719277827709],[134.34452874749837,34.04861126247845],[134.3453944030559,34.048239322923216],[134.34615880764122,34.04848395783475],[134.3466159585709,34.048039038271874],[134.34791219502972,34.0498261090687],[134.34809834630812,34.05129071301665],[134.34860328565296,34.05263640447578],[134.35030476892916,34.05378835725911],[134.3507072475825,34.05475332261472],[134.3500920804267,34.058351635504664],[134.3489456276969,34.06323950092572]]]},"properties":{"KEY_CODE":"362050120","PREF":"36","CITY":"205","CITY_NAME":"吉野川市","S_NAME":"鴨島町","SETAI":"290"}},{"type":"Feature","geometry":{"type":"Polygon","coordinates":[[[134.36334933420244,34.06376910021519],[134.36403636022823,34.06407508480475],[134.36392514996655,34.06586619569848],[134.36190816752745,34.066121182956024],[134.359867450403,34.06486630303372],[134.35861442466498,34.0643300619392],[134.356734824073,34.06389115156098],[134.355952445614,34.0639739414245],[134.35268708586017,34.0644076968216],[134.3523852557678,34.0640761534515],[134.35087300007933,34.06385660621569],[134.3491447710573,34.06406190164866],[134.34865823624622,34.06436227862537],[134.3489456276969,34.06323950092572],[134.3500920804267,34.058351635504664],[134.3507072475825,34.05475332261472],[134.35030476892916,34.05378835725911],[134.34860328565296,34.05263640447578],[134.34809834630812,34.05129071301665],[134.34791219502972,34.0498261090687],[134.3466159585709,34.048039038271874],[134.34615880764122,34.04848395783475],[134.3453944030559,34.048239322923216],[134.34452874749837,34.04861126247845],[134.34559223094035,34.04719277827709],[134.34422627021766,34.04661123572669],[134.34449308435126,34.04503785853226],[134.3431260221476,34.043871890997465],[134.34442239520558,34.043416835362635],[134.34512543718142,34.042610361068455],[134.34620572753815,34.04225313343784],[134.34757034712632,34.041307908199755],[134.34780779474153,34.040769264946285],[134.34902807698018,34.039608297369426],[134.34910094602984,34.03758149144358],[134.34969057257814,34.03906143428206],[134.3512132011394,34.039041534025685],[134.35292532983823,34.03967549309129],[134.35451169960317,34.03978323021283],[134.3554588148624,34.037650897235245],[134.35641367356558,34.03745999239138],[134.35603687696374,34.03891823591831],[134.35749715342703,34.04082693265553],[134.3576059200528,34.04156553430459],[134.35715695579503,34.04186350963904],[134.35752654073858,34.04298240383012],[134.3578827897705,34.04205185953475],[134.35818097065908,34.0424116745454],[134.36065499941265,34.04306813778885],[134.36134602819243,34.04459581255851],[134.36098387698405,34.04542618408592],[134.3594803927276,34.04666885493794],[134.36096787194043,34.04600654141115],[134.36181950339503,34.04697643178497],[134.361588585444,34.04887783275759],[134.36060703275476,34.04999154834751],[134.36127662241796,34.050632310813135],[134.36112439602007,34.0511142417621],[134.36151559502423,34.053107973818456],[134.3620607103733,34.054802705652456],[134.36195921731976,34.05664699819408],[134.3614410665861,34.05908127250633],[134.36158827360944,34.059846265394874],[134.36129951731718,34.06137682498289],[134.36196439737805,34.06317572230677],[134.36334933420244,34.06376910021519]]]},"properties":{"KEY_CODE":"362050130","PREF":"36","CITY":"205","CITY_NAME":"吉野川市","S_NAME":"鴨島町","SETAI":"1010"}},{"type":"Feature","geometry":{"type":"Polygon","coordinates":[[[134.31058105155154,34.07097792765808],[134.30910188799223,34.07003843382513],[134.3085957830044,34.070976441893],[134.30567400645796,34.07052950541317],[134.30363621446753,34.07020871234536],[134.3019697839062,34.06994652574281],[134.296358978871,34.06904489855473],[134.29621801469816,34.06850556729787],[134.29665971894102,34.06511417374461],[134.29671493977145,34.059589514892835],[134.29658531015636,34.05888176555391],[134.29750464205233,34.05844340378763],[134.29821202576215,34.05480157043955],[134.29774091358107,34.05402707511224],[134.2970931335055,34.05374881665408],[134.29693842600355,34.051633531903356],[134.2969514158613,34.04818384021416],[134.29706996124386,34.04540388880313],[134.29779128892514,34.045474665616624],[134.2990373655752,34.045075326702325],[134.30522665004202,34.044428461558155],[134.3073192606389,34.04437007061938],[134.30809896839773,34.045897732413266],[134.31071950973973,34.045093217814085],[134.31219037763216,34.04426579611828],[134.31392097860828,34.04382636365187],[134.31536615635733,34.044054484417124],[134.31586387001562,34.04375761858462],[134.31747206073356,34.043981749557815],[134.31817169319618,34.043268098246116],[134.31939131188315,34.04268319926007],[134.31985762805624,34.04147710449146],[134.32029385042037,34.04116759090269],[134.32192736469588,34.04124053890639],[134.32378654797125,34.0396542182862],[134.3235989312214,34.037800429651796],[134.3243133242514,34.03765137533679],[134.32446199286656,34.03692986800725],[134.32542693236024,34.03688104867249],[134.3277954752484,34.03566145573845],[134.32870709361484,34.03558563770067],[134.3297851984399,34.03430286172993],[134.33036026736312,34.034791471162265],[134.33058457813937,34.03564443457195],[134.33129790192092,34.0364020242052],[134.33127321600404,34.037650904660396],[134.3320516418236,34.03860075491114],[134.33265315418927,34.04031850753229],[134.33275307847677,34.04137382114181],[134.33351068586293,34.04288912598692],[134.33324018286322,34.04392526193905],[134.33383754459265,34.046130979821136],[134.33355259672186,34.046912135657934],[134.33517565694444,34.04825167647256],[134.33504958125576,34.04891673268012],[134.3355813320593,34.050738708892595],[134.33634391411863,34.05177186131602],[134.33603039741683,34.05255652719164],[134.33649672853863,34.053037094080075],[134.3369804668469,34.054316670322976],[134.33687816490504,34.056904586984174],[134.33613594029552,34.05737436407051],[134.33499911650813,34.05928266831865],[134.33478211181526,34.060154344247074],[134.3345166425748,34.06066467704211],[134.33339366111323,34.061443697741446],[134.33352514719616,34.062045359909426],[134.33260617920152,34.06244138041046],[134.3326187677926,34.063232681591714],[134.33169995682792,34.06413884229484],[134.3302648185322,34.06511674501045],[134.32924812847713,34.06491472214531],[134.3278380878802,34.065502791485116],[134.32760376750832,34.07024658369854],[134.32570779182805,34.070016027117795],[134.3252735352912,34.070556855296836],[134.32261117179672,34.06943380231825],[134.3142696545493,34.06840215302326],[134.31350881994544,34.06849312814492],[134.31281933585282,34.068434306411675],[134.31058105155154,34.07097792765808]]]},"properties":{"KEY_CODE":"362050140","PREF":"36","CITY":"205","CITY_NAME":"吉野川市","S_NAME":"川島町","SETAI":"1807"}},{"type":"Feature","geometry":{"type":"Polygon","coordinates":[[[134.2860426816576,34.06987416416194],[134.2848801287773,34.07010030416035],[134.28201427794784,34.070002363537675],[134.27942689392344,34.069978168016],[134.27942542974625,34.069393548566445],[134.27547720297392,34.0693645838582],[134.27394849209776,34.0693211863691],[134.27173483585068,34.069336802590456],[134.27037814103255,34.06931375862483],[134.2704008111935,34.065038901390956],[134.27009671272063,34.06333466642399],[134.27045452352422,34.063174504099834],[134.27055737067388,34.05994514788393],[134.2705274444025,34.05725160244588],[134.27085370798432,34.05652806881602],[134.27077447384718,34.05550828135313],[134.2700137080233,34.05417114318585],[134.2707952561532,34.05445940920861],[134.27073704581463,34.052595792657534],[134.27109261700227,34.05149777400096],[134.2697622057131,34.04980371206624],[134.26925945347105,34.04873410321858],[134.26835679818785,34.048118774842976],[134.26853978832776,34.046330994185865],[134.2693279798765,34.046549066793816],[134.26871655793826,34.045221068220755],[134.2693652271251,34.04424014728758],[134.2701015881012,34.04373960513991],[134.27094459307273,34.04307730758919],[134.27202539927774,34.04271856147189],[134.27419226061033,34.04275478093835],[134.27494719614972,34.04204010196766],[134.2761116908731,34.041709795786716],[134.27853644997288,34.0418677020843],[134.2796382456061,34.04133694029432],[134.2827040362754,34.04139855430057],[134.28395605016487,34.04074725285522],[134.286400412372,34.04062777306581],[134.28869663380118,34.04185006315369],[134.28911107636765,34.04253135381275],[134.29090182009298,34.04340942607742],[134.2920877506079,34.04440158252307],[134.2943591300651,34.04422165144271],[134.29523565316646,34.045031644322115],[134.29706996124386,34.04540388880313],[134.2969514158613,34.04818384021416],[134.29693842600355,34.051633531903356],[134.2970931335055,34.05374881665408],[134.29774091358107,34.05402707511224],[134.29821202576215,34.05480157043955],[134.29750464205233,34.05844340378763],[134.29658531015636,34.05888176555391],[134.29671493977145,34.059589514892835],[134.29665971894102,34.06511417374461],[134.29621801469816,34.06850556729787],[134.296358978871,34.06904489855473],[134.2935133305439,34.06876128000691],[134.28870811070502,34.06854597270052],[134.28851799075693,34.06854346032984],[134.28775293814763,34.06853343556073],[134.28767196802679,34.06991796361177],[134.28690132057403,34.069908111485645],[134.2860426816576,34.06987416416194]]]},"properties":{"KEY_CODE":"362050150","PREF":"36","CITY":"205","CITY_NAME":"吉野川市","S_NAME":"川島町","SETAI":"992"}},{"type":"Feature","geometry":{"type":"Polygon","coordinates":[[[134.24810605455772,34.04627803756525],[134.24711244918885,34.050056736193916],[134.24354457934948,34.05061653141253],[134.24267160778905,34.04948666604593],[134.24200247905463,34.050964056736355],[134.24097778716947,34.0507791662148],[134.24034993651566,34.051331241913246],[134.2390026693638,34.05158668204427],[134.23974911655537,34.0531954526588],[134.23976087657954,34.05397645591192],[134.23844572421248,34.05417245085541],[134.23846891263534,34.05473989123055],[134.23613042954042,34.05478642272666],[134.2357448933953,34.05546570041339],[134.2317904334424,34.05457785611244],[134.22964354113918,34.05450859769729],[134.22629444396335,34.055352798857406],[134.22728110602412,34.058188819890695],[134.22816241847335,34.05937501147096],[134.23078850764142,34.06106183443066],[134.23196252169723,34.06204686301902],[134.23213912788842,34.06274440121848],[134.23197794015735,34.06796781992394],[134.2319493637845,34.06796165028068],[134.23076870356593,34.06768185959126],[134.2261873068781,34.06656196565397],[134.22383912701056,34.066504118519426],[134.2188746198516,34.066300357943916],[134.21300649828942,34.06606763716438],[134.2058801952926,34.06577107407486],[134.19984301750858,34.06542801783129],[134.1981982367328,34.06531587718942],[134.19741991577519,34.065251695163354],[134.19712566849051,34.06523920809564],[134.19620202822315,34.06521880594413],[134.19402132877164,34.065037585291805],[134.18853431238358,34.064172950295855],[134.18629883061303,34.06374496220264],[134.18772547332188,34.06262454354318],[134.1886910196312,34.0614571041199],[134.18941375976954,34.05993778573627],[134.19059901953602,34.059593177829534],[134.19123388717776,34.058412287502044],[134.19216852455023,34.057490102442834],[134.192299247091,34.056703736172466],[134.1919830900393,34.05515348635955],[134.19113852768302,34.053772300823105],[134.19039769345255,34.05326934026676],[134.18959937387385,34.05214026567025],[134.18925700879583,34.05109363994853],[134.18943877561574,34.04935100151196],[134.1912849645106,34.04870959643559],[134.1922625151508,34.04779316288655],[134.19365021850825,34.047103804713835],[134.19597771581397,34.04481919295873],[134.1980193445481,34.042615052114016],[134.19789359743945,34.0417729533396],[134.19824811388304,34.04004973916207],[134.19780414976248,34.038671262502056],[134.19789671148862,34.0380521836443],[134.19724832067516,34.03663908839268],[134.1983787718912,34.03568588380664],[134.1986539501737,34.033778651514766],[134.19782878541042,34.033426600942214],[134.1980667097281,34.03157184505221],[134.19792121696952,34.029903667304175],[134.1970373472212,34.02901587517027],[134.19263637326827,34.02502065629578],[134.18603879944044,34.019152621100304],[134.18437948160408,34.01780082874933],[134.18267108190105,34.01608380298725],[134.1848353842656,34.01544008950524],[134.18596836997347,34.01456185120663],[134.18699607900137,34.01412624542544],[134.18917376872062,34.01284706624578],[134.18923071240178,34.01135526207923],[134.1882038170959,34.009561490677015],[134.18760645663647,34.00807178453225],[134.19149402567479,34.0079359474784],[134.19488312198246,34.009257476390694],[134.19598479906622,34.01034239574613],[134.19667736864446,34.01030367992689],[134.19867683849876,34.01141833667286],[134.20127878060185,34.01215807687173],[134.20376035819007,34.012258468542456],[134.2039228014185,34.012733608328645],[134.2026987167476,34.01341567800713],[134.20344809923893,34.01369242182981],[134.2038937127385,34.01456312392747],[134.20299362703545,34.0157124375961],[134.20365061105116,34.016872120435565],[134.20297934883925,34.01774965194848],[134.20307370470468,34.0184498007282],[134.20389743748885,34.01880218085742],[134.2053160206495,34.023200977865834],[134.20537615154592,34.02635714418373],[134.20552097361036,34.02709558821197],[134.20612457954678,34.027548524213486],[134.207355539439,34.02778737795191],[134.2076171002505,34.0283746266236],[134.20899120157074,34.029028346484345],[134.20970344391858,34.02970744373833],[134.20952739637755,34.030480500769855],[134.21059697561088,34.03087120731438],[134.21135385051866,34.03221142027638],[134.21192137678975,34.03170627814441],[134.21192214704632,34.032790195904646],[134.21399741941556,34.03535462479863],[134.21516847087975,34.035516627153804],[134.21609411879345,34.0359645363124],[134.21570450637003,34.036598751983064],[134.21643064316882,34.03714488175063],[134.2180211761536,34.037171842658715],[134.21930064399368,34.03861493605163],[134.21950402842492,34.03979345082722],[134.22041940017442,34.03929897447206],[134.2214953229739,34.039869081620616],[134.22438903444547,34.03803020427629],[134.22661876551032,34.037368430452325],[134.22710800240785,34.036847267970124],[134.2289949368841,34.0365909354159],[134.2303294098824,34.03570981184289],[134.23168114413386,34.03666809759922],[134.23282338635198,34.033850174547446],[134.2341208853221,34.034133435029],[134.2349400590198,34.03359970301503],[134.23792740232864,34.034534008406666],[134.24123798593962,34.03616940663623],[134.24258003014634,34.03728968487102],[134.24420477231087,34.039001977193145],[134.24441766104752,34.04005915058173],[134.24391107001472,34.04172889416435],[134.2434758294536,34.0419131897511],[134.24353910718264,34.04286386460951],[134.24630505782,34.04679658504037],[134.24746117269652,34.04687088207944],[134.24810605455772,34.04627803756525]]]},"properties":{"KEY_CODE":"362050160","PREF":"36","CITY":"205","CITY_NAME":"吉野川市","S_NAME":"山川町","SETAI":"1687"}},{"type":"Feature","geometry":{"type":"Polygon","coordinates":[[[134.26965156358128,34.06933648342889],[134.26477024731741,34.069626872347804],[134.2585606048799,34.07003479937995],[134.25803879757686,34.07005287828101],[134.25610725825229,34.07014837723561],[134.25365220555804,34.070289599096256],[134.2515863996891,34.07043121247288],[134.24641674191844,34.07068612026689],[134.24570548215382,34.07079961306217],[134.243476599964,34.07092193080732],[134.24104948385448,34.07024635774939],[134.2371946596765,34.069134637966],[134.23197794015735,34.06796781992394],[134.23213912788842,34.06274440121848],[134.23196252169723,34.06204686301902],[134.23078850764142,34.06106183443066],[134.22816241847335,34.05937501147096],[134.22728110602412,34.058188819890695],[134.22629444396335,34.055352798857406],[134.22964354113918,34.05450859769729],[134.2317904334424,34.05457785611244],[134.2357448933953,34.05546570041339],[134.23613042954042,34.05478642272666],[134.23846891263534,34.05473989123055],[134.23844572421248,34.05417245085541],[134.23976087657954,34.05397645591192],[134.23974911655537,34.0531954526588],[134.2390026693638,34.05158668204427],[134.24034993651566,34.051331241913246],[134.24097778716947,34.0507791662148],[134.24200247905463,34.050964056736355],[134.24267160778905,34.04948666604593],[134.24354457934948,34.05061653141253],[134.24711244918885,34.050056736193916],[134.24810605455772,34.04627803756525],[134.24823227233276,34.04597586612923],[134.24966087820943,34.04661908801246],[134.25013424948372,34.047300579674136],[134.25198800156156,34.04770373359021],[134.25561055983553,34.04806382832091],[134.2566877184453,34.04842996594745],[134.25767862758886,34.047794171176825],[134.25872747815814,34.047594930450614],[134.26184486530232,34.04743443783766],[134.26306559618897,34.04684294600578],[134.26374406615375,34.04590741812018],[134.26515291822082,34.04566163518449],[134.2661100249132,34.045116265847525],[134.26744095897072,34.04502364712585],[134.2693652271251,34.04424014728758],[134.26871655793826,34.045221068220755],[134.2693279798765,34.046549066793816],[134.26853978832776,34.046330994185865],[134.26835679818785,34.048118774842976],[134.26925945347105,34.04873410321858],[134.2697622057131,34.04980371206624],[134.27109261700227,34.05149777400096],[134.27073704581463,34.052595792657534],[134.2707952561532,34.05445940920861],[134.2700137080233,34.05417114318585],[134.27077447384718,34.05550828135313],[134.27085370798432,34.05652806881602],[134.2705274444025,34.05725160244588],[134.27055737067388,34.05994514788393],[134.27045452352422,34.063174504099834],[134.27009671272063,34.06333466642399],[134.2704008111935,34.065038901390956],[134.27037814103255,34.06931375862483],[134.26965156358128,34.06933648342889]]]},"properties":{"KEY_CODE":"362050170","PREF":"36","CITY":"205","CITY_NAME":"吉野川市","S_NAME":"山川町","SETAI":"1797"}},{"type":"Feature","geometry":{"type":"Polygon","coordinates":[[[134.2330408193929,34.00790503481138],[134.2316300684841,34.00866829412275],[134.23006740777882,34.00921712793574],[134.23005098168574,34.008290444203396],[134.22933311079194,34.00802649354773],[134.22924856731615,34.00628724959246],[134.22852506010784,34.00571876186997],[134.2254005400484,34.00478557885318],[134.2272244221087,34.00312436737174],[134.227451727174,34.00263836262381],[134.22889956747005,34.00140620523362],[134.22959948347162,33.999765510016395],[134.23115411993055,33.998648562808135],[134.23199541007045,33.99709132624694],[134.23285971287544,33.995930567103265],[134.2337203095869,33.995909032095575],[134.23698312132416,33.99694077990504],[134.23861802391022,33.9982943168402],[134.23759875655048,34.000945248683124],[134.238317105913,34.00126959282946],[134.2409215521948,34.000861142497754],[134.2413855768943,34.00150156326381],[134.240360791323,34.0049104737267],[134.24047067953614,34.00623283681023],[134.23885162916423,34.00724468794077],[134.2378329141143,34.007523938260604],[134.23684677037247,34.00895485795195],[134.23594568062228,34.009020610470834],[134.23591197687915,34.00835225202934],[134.23356361843238,34.00859392884066],[134.2330408193929,34.00790503481138]]]},"properties":{"KEY_CODE":"362050180","PREF":"36","CITY":"205","CITY_NAME":"吉野川市","S_NAME":"山川町","SETAI":"0"}},{"type":"Feature","geometry":{"type":"Polygon","coordinates":[[[134.24810605455772,34.04627803756525],[134.24746117269652,34.04687088207944],[134.24630505782,34.04679658504037],[134.24353910718264,34.04286386460951],[134.2434758294536,34.0419131897511],[134.24391107001472,34.04172889416435],[134.24441766104752,34.04005915058173],[134.24420477231087,34.039001977193145],[134.24258003014634,34.03728968487102],[134.24123798593962,34.03616940663623],[134.23792740232864,34.034534008406666],[134.2349400590198,34.03359970301503],[134.2341208853221,34.034133435029],[134.23282338635198,34.033850174547446],[134.23168114413386,34.03666809759922],[134.2303294098824,34.03570981184289],[134.2289949368841,34.0365909354159],[134.22710800240785,34.036847267970124],[134.22661876551032,34.037368430452325],[134.22438903444547,34.03803020427629],[134.2214953229739,34.039869081620616],[134.22041940017442,34.03929897447206],[134.21950402842492,34.03979345082722],[134.21930064399368,34.03861493605163],[134.2180211761536,34.037171842658715],[134.21643064316882,34.03714488175063],[134.21570450637003,34.036598751983064],[134.21609411879345,34.0359645363124],[134.21516847087975,34.035516627153804],[134.21399741941556,34.03535462479863],[134.21192214704632,34.032790195904646],[134.21192137678975,34.03170627814441],[134.21135385051866,34.03221142027638],[134.21059697561088,34.03087120731438],[134.20952739637755,34.030480500769855],[134.20970344391858,34.02970744373833],[134.20899120157074,34.029028346484345],[134.2076171002505,34.0283746266236],[134.207355539439,34.02778737795191],[134.20612457954678,34.027548524213486],[134.20552097361036,34.02709558821197],[134.20537615154592,34.02635714418373],[134.2053160206495,34.023200977865834],[134.20389743748885,34.01880218085742],[134.20307370470468,34.0184498007282],[134.20297934883925,34.01774965194848],[134.20365061105116,34.016872120435565],[134.20299362703545,34.0157124375961],[134.2038937127385,34.01456312392747],[134.20344809923893,34.01369242182981],[134.2026987167476,34.01341567800713],[134.2039228014185,34.012733608328645],[134.20376035819007,34.012258468542456],[134.20127878060185,34.01215807687173],[134.19867683849876,34.01141833667286],[134.19667736864446,34.01030367992689],[134.19598479906622,34.01034239574613],[134.19488312198246,34.009257476390694],[134.19149402567479,34.0079359474784],[134.18760645663647,34.00807178453225],[134.1868720721929,34.007029410479525],[134.18690223960098,34.00634403416776],[134.188430934405,34.005712116805654],[134.1892680596266,34.00432538303887],[134.19063631919192,34.00323106849826],[134.19202928760706,34.00288774073267],[134.19372560161065,34.001714139783125],[134.19599437944876,34.000948964670535],[134.19752423356556,33.99972073650291],[134.19880837842686,34.000259749616596],[134.19951909254456,33.99998459629804],[134.20347723302908,33.999614187190666],[134.2047491744763,33.99980863196053],[134.20544684487095,33.99818289039168],[134.2061350898709,33.99825719480124],[134.20760139827672,33.997887420071216],[134.20880881975128,33.997293159969914],[134.2100609141179,33.997716581733975],[134.21230590890443,33.9974173837839],[134.21356628218268,33.99624462010857],[134.2149779428689,33.99627253946891],[134.21507823369228,33.99743746153355],[134.21638756075143,33.999056189372695],[134.21822437312707,34.00056924938212],[134.21833655535178,34.00194335401739],[134.21884144961248,34.003440247763926],[134.2204119171573,34.003548575067086],[134.22225388912383,34.00405641840298],[134.22326395956,34.00486366766427],[134.22476547444546,34.005458816276544],[134.22561061141778,34.00707153041212],[134.22683274352949,34.008298758457244],[134.22850137067462,34.00933560720415],[134.22990723087764,34.01072369657324],[134.23173495378308,34.011553654016424],[134.23396785912362,34.01206244195999],[134.23586111043673,34.01189932902093],[134.23806104794437,34.01225642766009],[134.23912928726307,34.0114117047629],[134.2407939732037,34.01132767056247],[134.24217959372305,34.01189680750369],[134.24275245992672,34.0128665440079],[134.24584569239676,34.01476455130768],[134.24690585575448,34.015729050539385],[134.24876830457123,34.01690885539216],[134.24973941183725,34.01774710304317],[134.25056791669928,34.01942599076354],[134.25084500065762,34.020858686942596],[134.2505313830322,34.02191196410345],[134.24967542292592,34.022596300350145],[134.2490585599341,34.023863003439494],[134.24815083295522,34.024446010998304],[134.2474322496358,34.02572185141787],[134.24661232240936,34.026465199423846],[134.2456740424611,34.02822048839897],[134.245841387502,34.02902761683038],[134.24522692329208,34.030577770138706],[134.24439330719542,34.03152184296918],[134.24535418312857,34.033198923712725],[134.2459158551864,34.03339968933216],[134.24685177728747,34.03444807927426],[134.24770576934412,34.03400169210641],[134.2480199196271,34.03139864478047],[134.24899216361908,34.03100598390968],[134.2492904188945,34.03141274742635],[134.24882748331788,34.03200107102149],[134.25076374821543,34.03176599884427],[134.25310549744955,34.03184698344642],[134.25436290482943,34.03149345637112],[134.2553840118401,34.03165834291346],[134.2545487476469,34.032949564708765],[134.25349138159118,34.03353915588405],[134.2515131788809,34.03498758129832],[134.2513434695217,34.03574766820156],[134.25033002492458,34.036383235266655],[134.2501870038321,34.03759646977897],[134.2481450727706,34.038476631829255],[134.24750039408775,34.0391059914451],[134.24712714748955,34.04107841133839],[134.2461476086735,34.04225836964283],[134.24630966244655,34.04364737415979],[134.24611653745032,34.044266109454796],[134.24823227233276,34.04597586612923],[134.24810605455772,34.04627803756525]]]},"properties":{"KEY_CODE":"362050180","PREF":"36","CITY":"205","CITY_NAME":"吉野川市","S_NAME":"山川町","SETAI":"61"}},{"type":"Feature","geometry":{"type":"Polygon","coordinates":[[[134.2693652271251,34.04424014728758],[134.26744095897072,34.04502364712585],[134.2661100249132,34.045116265847525],[134.26515291822082,34.04566163518449],[134.26374406615375,34.04590741812018],[134.26306559618897,34.04684294600578],[134.26184486530232,34.04743443783766],[134.25872747815814,34.047594930450614],[134.25767862758886,34.047794171176825],[134.2566877184453,34.04842996594745],[134.25561055983553,34.04806382832091],[134.25198800156156,34.04770373359021],[134.25013424948372,34.047300579674136],[134.24966087820943,34.04661908801246],[134.24823227233276,34.04597586612923],[134.24611653745032,34.044266109454796],[134.24630966244655,34.04364737415979],[134.2461476086735,34.04225836964283],[134.24712714748955,34.04107841133839],[134.24750039408775,34.0391059914451],[134.2481450727706,34.038476631829255],[134.2501870038321,34.03759646977897],[134.25033002492458,34.036383235266655],[134.2513434695217,34.03574766820156],[134.2515131788809,34.03498758129832],[134.25349138159118,34.03353915588405],[134.2545487476469,34.032949564708765],[134.2553840118401,34.03165834291346],[134.25436290482943,34.03149345637112],[134.25310549744955,34.03184698344642],[134.25076374821543,34.03176599884427],[134.24882748331788,34.03200107102149],[134.2492904188945,34.03141274742635],[134.24899216361908,34.03100598390968],[134.2480199196271,34.03139864478047],[134.24770576934412,34.03400169210641],[134.24685177728747,34.03444807927426],[134.2459158551864,34.03339968933216],[134.24535418312857,34.033198923712725],[134.24439330719542,34.03152184296918],[134.24522692329208,34.030577770138706],[134.245841387502,34.02902761683038],[134.2456740424611,34.02822048839897],[134.24661232240936,34.026465199423846],[134.2474322496358,34.02572185141787],[134.24815083295522,34.024446010998304],[134.2490585599341,34.023863003439494],[134.24967542292592,34.022596300350145],[134.2505313830322,34.02191196410345],[134.25084500065762,34.020858686942596],[134.25056791669928,34.01942599076354],[134.24973941183725,34.01774710304317],[134.24876830457123,34.01690885539216],[134.24690585575448,34.015729050539385],[134.2473728265107,34.01509392815374],[134.2487285962458,34.014668524563945],[134.25073372227004,34.014767408900724],[134.25151996938098,34.01457695812372],[134.25332481966404,34.01355050554312],[134.25413227519172,34.01342639736326],[134.26058985691463,34.021187487977485],[134.26116768157323,34.02208488837656],[134.26101737251253,34.02311012557192],[134.25956275291222,34.02514751984724],[134.25958810235247,34.02649298506453],[134.26009934400244,34.02736671490773],[134.25955828976848,34.028393097249996],[134.25866247094598,34.02890320438447],[134.26019544139268,34.02992472992522],[134.26219408847115,34.030396145820625],[134.26491467894996,34.02815046700224],[134.26651521548897,34.028091329874755],[134.26907701354156,34.029939315153314],[134.27090547808643,34.029546955222],[134.2722317275215,34.02901982004063],[134.27436667978353,34.02921017284435],[134.27239456360087,34.03170529877333],[134.2717206429169,34.033799971206804],[134.2713105757418,34.036219930239376],[134.27047190094973,34.038071055534516],[134.27004913055976,34.040788949344766],[134.26996172283114,34.043052269404406],[134.2701015881012,34.04373960513991],[134.2693652271251,34.04424014728758]]]},"properties":{"KEY_CODE":"362050190","PREF":"36","CITY":"205","CITY_NAME":"吉野川市","S_NAME":"美郷","SETAI":"117"}},{"type":"Feature","geometry":{"type":"Polygon","coordinates":[[[134.3297851984399,34.03430286172993],[134.32870709361484,34.03558563770067],[134.3277954752484,34.03566145573845],[134.32542693236024,34.03688104867249],[134.32446199286656,34.03692986800725],[134.3243133242514,34.03765137533679],[134.3235989312214,34.037800429651796],[134.32378654797125,34.0396542182862],[134.32192736469588,34.04124053890639],[134.32029385042037,34.04116759090269],[134.31985762805624,34.04147710449146],[134.31939131188315,34.04268319926007],[134.31817169319618,34.043268098246116],[134.31747206073356,34.043981749557815],[134.31586387001562,34.04375761858462],[134.31536615635733,34.044054484417124],[134.31392097860828,34.04382636365187],[134.31219037763216,34.04426579611828],[134.31071950973973,34.045093217814085],[134.30809896839773,34.045897732413266],[134.3073192606389,34.04437007061938],[134.30522665004202,34.044428461558155],[134.2990373655752,34.045075326702325],[134.29779128892514,34.045474665616624],[134.29706996124386,34.04540388880313],[134.29523565316646,34.045031644322115],[134.2943591300651,34.04422165144271],[134.2920877506079,34.04440158252307],[134.29090182009298,34.04340942607742],[134.28911107636765,34.04253135381275],[134.28869663380118,34.04185006315369],[134.286400412372,34.04062777306581],[134.28395605016487,34.04074725285522],[134.2827040362754,34.04139855430057],[134.2796382456061,34.04133694029432],[134.27853644997288,34.0418677020843],[134.2761116908731,34.041709795786716],[134.27494719614972,34.04204010196766],[134.27419226061033,34.04275478093835],[134.27202539927774,34.04271856147189],[134.27094459307273,34.04307730758919],[134.2701015881012,34.04373960513991],[134.26996172283114,34.043052269404406],[134.27004913055976,34.040788949344766],[134.27047190094973,34.038071055534516],[134.2713105757418,34.036219930239376],[134.2717206429169,34.033799971206804],[134.27239456360087,34.03170529877333],[134.27436667978353,34.02921017284435],[134.27603534732995,34.029805329904825],[134.2796031086578,34.02923844481878],[134.28314135105717,34.02903275129332],[134.2863600717779,34.028370690616455],[134.28677302271296,34.02532772423818],[134.28858053567103,34.02352578829333],[134.28926834837696,34.02168262274124],[134.28946784620007,34.01889995393184],[134.28820082736664,34.01788559583664],[134.28738837273448,34.016747862008906],[134.28553402890205,34.0146047233802],[134.28423054561105,34.01213348458318],[134.2842230580676,34.01013333523936],[134.2845346266519,34.00893585521771],[134.28706178541688,34.006979712901874],[134.29120321909804,34.00244504705719],[134.29267653223548,34.00223278222578],[134.2939887567891,34.002574377770195],[134.29576355687536,34.00239103463964],[134.29657581469328,34.00302434888425],[134.2971507774038,34.0043657867095],[134.29777582537088,34.00488240931514],[134.29892595436556,34.00648227182796],[134.30130111958002,34.005565694917344],[134.3017636375797,34.005115771266176],[134.30610154532505,34.00514096887507],[134.30865182113357,34.00539947167516],[134.30927679657944,34.00571606601184],[134.31007670160653,34.00681606943505],[134.31123907671568,34.00764923958403],[134.31251406154465,34.00759924048284],[134.31497644203722,34.00650769605906],[134.31747635952885,34.00629093809959],[134.31873879142373,34.00581608169229],[134.3195762357774,34.00499947899948],[134.3206886840771,34.00496618163677],[134.3251134206708,34.002924687768534],[134.32432589634323,34.004774499471644],[134.32365090920842,34.00545775979509],[134.32411333369885,34.00583276204453],[134.3235508747616,34.007057629639505],[134.32336328543772,34.00852411731794],[134.32440061060717,34.009374087237994],[134.32481303618172,34.01016563173995],[134.32676287641868,34.01058231515675],[134.32805015274033,34.01229045453822],[134.33024992123813,34.01352364151118],[134.3297749643874,34.014606847502606],[134.3308997428017,34.01692326114785],[134.33059972566255,34.01793978180611],[134.33256207813523,34.01942301787872],[134.3339493908021,34.02018126455374],[134.3343743528767,34.022639325713854],[134.33508672649538,34.02425577275253],[134.33521169043684,34.02667213883139],[134.33488668491512,34.02718880172825],[134.33457423387495,34.028996996409845],[134.3349261513487,34.02979992590896],[134.33288994986222,34.031053211026205],[134.33222954434888,34.03254859095824],[134.33070895723222,34.03381650321889],[134.3297851984399,34.03430286172993]]]},"properties":{"KEY_CODE":"362050200","PREF":"36","CITY":"205","CITY_NAME":"吉野川市","S_NAME":"美郷","SETAI":"88"}},{"type":"Feature","geometry":{"type":"Polygon","coordinates":[[[134.27436667978353,34.02921017284435],[134.2722317275215,34.02901982004063],[134.27090547808643,34.029546955222],[134.26907701354156,34.029939315153314],[134.26651521548897,34.028091329874755],[134.26491467894996,34.02815046700224],[134.26219408847115,34.030396145820625],[134.26019544139268,34.02992472992522],[134.25866247094598,34.02890320438447],[134.25955828976848,34.028393097249996],[134.26009934400244,34.02736671490773],[134.25958810235247,34.02649298506453],[134.25956275291222,34.02514751984724],[134.26101737251253,34.02311012557192],[134.26116768157323,34.02208488837656],[134.26058985691463,34.021187487977485],[134.25413227519172,34.01342639736326],[134.25332481966404,34.01355050554312],[134.25151996938098,34.01457695812372],[134.25073372227004,34.014767408900724],[134.2487285962458,34.014668524563945],[134.2473728265107,34.01509392815374],[134.24690585575448,34.015729050539385],[134.24584569239676,34.01476455130768],[134.24275245992672,34.0128665440079],[134.24217959372305,34.01189680750369],[134.2407939732037,34.01132767056247],[134.23912928726307,34.0114117047629],[134.23806104794437,34.01225642766009],[134.23954655755884,34.009835079561604],[134.24148473509777,34.00762068503739],[134.24334844606804,34.006378698407126],[134.2455042657764,34.004631957984685],[134.24889694270655,34.003425071098654],[134.2498486536775,34.00293996545742],[134.25025543454157,34.001315291764996],[134.24918188567545,33.998875821316965],[134.24853417879956,33.99706372602776],[134.246721304988,33.993642199273744],[134.2467453364573,33.992312933290464],[134.24758771354604,33.989352200478145],[134.2482702662466,33.98856128411454],[134.25014047521225,33.98701643316972],[134.25172045965226,33.98620451747525],[134.2540235724294,33.984718990928435],[134.25521970222013,33.9853016953073],[134.2562571314354,33.98622670600716],[134.2597818508007,33.98625167455489],[134.2617192382626,33.98655177837894],[134.26228162177804,33.987518356553316],[134.26426904965973,33.98791001509108],[134.26648133863742,33.98816007447563],[134.2674187118965,33.988835000376895],[134.26910613938045,33.988885133064635],[134.27043093970673,33.99016833776392],[134.27303041671092,33.992018005498394],[134.27410527825324,33.99233455713433],[134.27471763276708,33.99285955874624],[134.27574250786486,33.992609566803246],[134.27757973948636,33.992567811635475],[134.27879217823192,33.99198457201572],[134.27989195191688,33.99211785803726],[134.2812668401142,33.991892840336504],[134.28250092295232,33.99125758115867],[134.28304158538086,33.99150951119],[134.2851035609679,33.99343414284534],[134.28652842047003,33.9939257866158],[134.28805278130542,33.9973336687309],[134.28814019985515,33.99828347222985],[134.2886150219972,33.99905004312109],[134.28877730654486,34.00049148340856],[134.28936460066515,34.00144136577508],[134.29120321909804,34.00244504705719],[134.28706178541688,34.006979712901874],[134.2845346266519,34.00893585521771],[134.2842230580676,34.01013333523936],[134.28423054561105,34.01213348458318],[134.28553402890205,34.0146047233802],[134.28738837273448,34.016747862008906],[134.28820082736664,34.01788559583664],[134.28946784620007,34.01889995393184],[134.28926834837696,34.02168262274124],[134.28858053567103,34.02352578829333],[134.28677302271296,34.02532772423818],[134.2863600717779,34.028370690616455],[134.28314135105717,34.02903275129332],[134.2796031086578,34.02923844481878],[134.27603534732995,34.029805329904825],[134.27436667978353,34.02921017284435]]]},"properties":{"KEY_CODE":"362050210","PREF":"36","CITY":"205","CITY_NAME":"吉野川市","S_NAME":"美郷","SETAI":"147"}},{"type":"Feature","geometry":{"type":"Polygon","coordinates":[[[134.23806104794437,34.01225642766009],[134.23586111043673,34.01189932902093],[134.23396785912362,34.01206244195999],[134.23173495378308,34.011553654016424],[134.22990723087764,34.01072369657324],[134.22850137067462,34.00933560720415],[134.22683274352949,34.008298758457244],[134.22561061141778,34.00707153041212],[134.22476547444546,34.005458816276544],[134.22326395956,34.00486366766427],[134.22225388912383,34.00405641840298],[134.2204119171573,34.003548575067086],[134.21884144961248,34.003440247763926],[134.21833655535178,34.00194335401739],[134.21822437312707,34.00056924938212],[134.21638756075143,33.999056189372695],[134.21507823369228,33.99743746153355],[134.2149779428689,33.99627253946891],[134.21356628218268,33.99624462010857],[134.21230590890443,33.9974173837839],[134.2100609141179,33.997716581733975],[134.20880881975128,33.997293159969914],[134.20760139827672,33.997887420071216],[134.2061350898709,33.99825719480124],[134.20544684487095,33.99818289039168],[134.2047491744763,33.99980863196053],[134.20347723302908,33.999614187190666],[134.19951909254456,33.99998459629804],[134.19880837842686,34.000259749616596],[134.19752423356556,33.99972073650291],[134.19782484816128,33.99901564560313],[134.19796236504402,33.99638256837325],[134.1981998388167,33.99511610064106],[134.1991107136766,33.99365966262595],[134.19861227476414,33.99207480832253],[134.19734987662522,33.990674959546745],[134.19634994397106,33.99006671908849],[134.19578748806475,33.989075143071965],[134.19756233872604,33.98914184887421],[134.19937466339442,33.988333639153446],[134.20038708042551,33.98747537896833],[134.20058708299075,33.986842144480256],[134.20233694437127,33.98558400966149],[134.20293571094794,33.984245740837274],[134.20379001631628,33.98301320286306],[134.20451177285256,33.98254276704623],[134.20747411339931,33.98202609856794],[134.20868650724864,33.981484479713664],[134.20976143398718,33.981484457174126],[134.21129883093045,33.98079288158681],[134.2132237078007,33.98085947208813],[134.21699842068824,33.98034286078415],[134.21903579095078,33.979351352530955],[134.22183556264278,33.979426409257094],[134.22503528641116,33.97888482579914],[134.22699757681104,33.97929322292016],[134.22895555968282,33.98024405406999],[134.23054714366552,33.98038487536592],[134.23243447339286,33.980159896360334],[134.23342191741284,33.98027665592185],[134.23453430188923,33.97980176582126],[134.2363590872868,33.97998515805449],[134.23745901142146,33.97973516226886],[134.23867139291644,33.979876886755505],[134.2407960986665,33.98068523226459],[134.24264589814976,33.97983542997254],[134.24445822448456,33.97981049717035],[134.24577059575105,33.9802855559868],[134.24818288246524,33.980652201612614],[134.2514325818403,33.98054388766644],[134.25296995714768,33.981718721506255],[134.25374490164987,33.98306860720316],[134.2540235724294,33.984718990928435],[134.25172045965226,33.98620451747525],[134.25014047521225,33.98701643316972],[134.2482702662466,33.98856128411454],[134.24758771354604,33.989352200478145],[134.2467453364573,33.992312933290464],[134.246721304988,33.993642199273744],[134.24853417879956,33.99706372602776],[134.24918188567545,33.998875821316965],[134.25025543454157,34.001315291764996],[134.2498486536775,34.00293996545742],[134.24889694270655,34.003425071098654],[134.2455042657764,34.004631957984685],[134.24334844606804,34.006378698407126],[134.24148473509777,34.00762068503739],[134.23954655755884,34.009835079561604],[134.23806104794437,34.01225642766009]],[[134.2330408193929,34.00790503481138],[134.23356361843238,34.00859392884066],[134.23591197687915,34.00835225202934],[134.23594568062228,34.009020610470834],[134.23684677037247,34.00895485795195],[134.2378329141143,34.007523938260604],[134.23885162916423,34.00724468794077],[134.24047067953614,34.00623283681023],[134.240360791323,34.0049104737267],[134.2413855768943,34.00150156326381],[134.2409215521948,34.000861142497754],[134.238317105913,34.00126959282946],[134.23759875655048,34.000945248683124],[134.23861802391022,33.9982943168402],[134.23698312132416,33.99694077990504],[134.2337203095869,33.995909032095575],[134.23285971287544,33.995930567103265],[134.23199541007045,33.99709132624694],[134.23115411993055,33.998648562808135],[134.22959948347162,33.999765510016395],[134.22889956747005,34.00140620523362],[134.227451727174,34.00263836262381],[134.2272244221087,34.00312436737174],[134.2254005400484,34.00478557885318],[134.22852506010784,34.00571876186997],[134.22924856731615,34.00628724959246],[134.22933311079194,34.00802649354773],[134.23005098168574,34.008290444203396],[134.23006740777882,34.00921712793574],[134.2316300684841,34.00866829412275],[134.2330408193929,34.00790503481138]]]},"properties":{"KEY_CODE":"362050220","PREF":"36","CITY":"205","CITY_NAME":"吉野川市","S_NAME":"美郷","SETAI":"4"}}]}