{"type":"FeatureCollection","features":[{"type":"Feature","geometry":{"type":"Polygon","coordinates":[[[140.9596508795449,38.300299976355944],[140.95704145367844,38.300636343382116],[140.95674820539926,38.29955448434731],[140.95702496946367,38.29818625897416],[140.95635469969574,38.29739324222364],[140.9563153484968,38.29665095981307],[140.95565586040001,38.2956443671207],[140.95697456013536,38.29473035062812],[140.95938290257754,38.29485369963936],[140.96056693036965,38.29358897714606],[140.96061573877643,38.2925288706356],[140.96016501053245,38.29196538958844],[140.95875205647675,38.2909006157675],[140.9586691621738,38.29017161418554],[140.96053268769487,38.28994442189878],[140.961629622359,38.28885941749027],[140.96214044414495,38.287333551305686],[140.96258607169398,38.28663862095219],[140.96400470995223,38.285807635712764],[140.96622404177677,38.285344457863474],[140.96783219898396,38.28410567199642],[140.96792539665128,38.28450157697101],[140.96721681852353,38.285276075125076],[140.9656995454521,38.285956853568],[140.96618628372408,38.28601558817532],[140.96582313097386,38.286592047707],[140.96779733258438,38.28660986248074],[140.96882200274882,38.286278457679025],[140.96983864951926,38.28637388869828],[140.9708275677064,38.28618821152599],[140.97128833661466,38.286236958626525],[140.97121915028373,38.28836543789433],[140.97681423975777,38.28848753619199],[140.97675561305854,38.29055306903663],[140.9767445739471,38.29081239126428],[140.97671902334804,38.29201802554956],[140.9737300215468,38.29194781115924],[140.9736280108305,38.29469602119712],[140.9710009798148,38.29463924822531],[140.9708832550662,38.297784754792865],[140.96250059491751,38.29761738349842],[140.9625647219844,38.29956398650415],[140.96242904816938,38.30023479662289],[140.9596508795449,38.300299976355944]]]},"properties":{"KEY_CODE":"042090010","PREF":"04","CITY":"209","CITY_NAME":"多賀城市","S_NAME":"新田","SETAI":"1886"}},{"type":"Feature","geometry":{"type":"Polygon","coordinates":[[[140.98391291875808,38.292192030916524],[140.98292424065485,38.2921677942843],[140.98227813506827,38.29282388656216],[140.9805060092603,38.29278542717701],[140.97935132422813,38.29276122539977],[140.97816268765436,38.29273480102656],[140.9767394531408,38.29270554970186],[140.97671902334804,38.29201802554956],[140.9767445739471,38.29081239126428],[140.97675561305854,38.29055306903665],[140.97873655982409,38.2905993588484],[140.9817241773564,38.29066891169107],[140.98396490977376,38.29072649820919],[140.98468273645335,38.29079611367971],[140.9844751700785,38.29142620454738],[140.98417426406496,38.2919178919922],[140.984099870086,38.292045247164694],[140.983964315109,38.29210862729048],[140.98391291875808,38.292192030916524]]]},"properties":{"KEY_CODE":"04209002000","PREF":"04","CITY":"209","CITY_NAME":"多賀城市","S_NAME":"高橋字大日北","SETAI":"3"}},{"type":"Feature","geometry":{"type":"Polygon","coordinates":[[[140.97681423975777,38.28848753619199],[140.97121915028373,38.28836543789433],[140.97128833661466,38.286236958626525],[140.9728524336023,38.286171521146066],[140.97456205167404,38.28664590696881],[140.97706766134934,38.286256921037406],[140.97762924192702,38.28554743437942],[140.97825045199994,38.28557652945872],[140.97817671919418,38.28742852924394],[140.9779269833083,38.28786002650647],[140.97681423975777,38.28848753619199]]]},"properties":{"KEY_CODE":"04209002001","PREF":"04","CITY":"209","CITY_NAME":"多賀城市","S_NAME":"高橋一丁目","SETAI":"526"}},{"type":"Feature","geometry":{"type":"Polygon","coordinates":[[[140.97825045199994,38.28557652945872],[140.97762924192702,38.28554743437942],[140.97706766134934,38.286256921037406],[140.97456205167404,38.28664590696881],[140.9728524336023,38.286171521146066],[140.97128833661466,38.286236958626525],[140.9708275677064,38.28618821152599],[140.97099575361958,38.28553411095726],[140.97163957597488,38.28517355123069],[140.9723473635764,38.28553762653819],[140.973496680532,38.28424663224024],[140.97594387907785,38.284314134755746],[140.97581151993333,38.28366685936049],[140.9774060139662,38.28369212382317],[140.977441102802,38.283688139882635],[140.9782779614375,38.28509306853335],[140.97825045199994,38.28557652945872]]]},"properties":{"KEY_CODE":"04209002002","PREF":"04","CITY":"209","CITY_NAME":"多賀城市","S_NAME":"高橋二丁目","SETAI":"397"}},{"type":"Feature","geometry":{"type":"Polygon","coordinates":[[[140.977441102802,38.283688139882635],[140.98015098611424,38.283773679687215],[140.98001023889202,38.287869840849964],[140.97998772787102,38.28856927602223],[140.97681423975777,38.28848753619199],[140.9779269833083,38.28786002650647],[140.97817671919418,38.28742852924394],[140.97825045199994,38.28557652945872],[140.9782779614375,38.28509306853335],[140.977441102802,38.283688139882635]]]},"properties":{"KEY_CODE":"04209002003","PREF":"04","CITY":"209","CITY_NAME":"多賀城市","S_NAME":"高橋三丁目","SETAI":"420"}},{"type":"Feature","geometry":{"type":"Polygon","coordinates":[[[140.98584417356145,38.287996962940284],[140.98536753487423,38.29015457382725],[140.98520998110416,38.290862307870526],[140.98468273645335,38.29079611367971],[140.98396490977376,38.29072649820919],[140.9817241773564,38.29066891169107],[140.97873655982409,38.2905993588484],[140.97675561305854,38.29055306903663],[140.97681423975777,38.28848753619199],[140.97998772787102,38.28856927602223],[140.98001023889202,38.287869840849964],[140.98584417356145,38.287996962940284]]]},"properties":{"KEY_CODE":"04209002004","PREF":"04","CITY":"209","CITY_NAME":"多賀城市","S_NAME":"高橋四丁目","SETAI":"385"}},{"type":"Feature","geometry":{"type":"Polygon","coordinates":[[[140.98721126813464,38.284030449155246],[140.98637931081092,38.2855360026437],[140.98584417356145,38.287996962940284],[140.98001023889202,38.287869840849964],[140.98015098611424,38.283773679687215],[140.98303846986414,38.283839649125746],[140.98518096287432,38.283924369463165],[140.98721126813464,38.284030449155246]]]},"properties":{"KEY_CODE":"04209002005","PREF":"04","CITY":"209","CITY_NAME":"多賀城市","S_NAME":"高橋五丁目","SETAI":"292"}},{"type":"Feature","geometry":{"type":"Polygon","coordinates":[[[140.98322854920877,38.29423722598404],[140.98305838285864,38.298045543758214],[140.98335090864674,38.29931679411223],[140.98291372880038,38.30107492073613],[140.9811106104495,38.300294332507434],[140.97972391071056,38.300138243311594],[140.97637062209174,38.30040769655395],[140.97336243792864,38.30053488768642],[140.96934685009026,38.30054417947038],[140.9681754539175,38.30069810528436],[140.96778917490371,38.300991073597956],[140.96475341468212,38.30099598948257],[140.96242904816938,38.30023479662289],[140.9625647219844,38.29956398650415],[140.96250059491751,38.29761738349842],[140.9708832550662,38.297784754792865],[140.9710009798148,38.29463924822531],[140.9736280108305,38.29469602119712],[140.9737300215468,38.29194781115924],[140.97671902334804,38.29201802554956],[140.9767394531408,38.29270554970186],[140.97816268765436,38.29273480102656],[140.97935132422813,38.29276122539977],[140.9805060092603,38.29278542717701],[140.98227813506827,38.29282388656216],[140.98225586740048,38.293533846785785],[140.98323802542512,38.2935572717931],[140.98322854920877,38.29423722598404]]]},"properties":{"KEY_CODE":"042090040","PREF":"04","CITY":"209","CITY_NAME":"多賀城市","S_NAME":"山王","SETAI":"1244"}},{"type":"Feature","geometry":{"type":"Polygon","coordinates":[[[140.9754004651407,38.309600399239535],[140.97418936065876,38.309866790612055],[140.97359329966056,38.30976346615518],[140.9734304614674,38.30975394645302],[140.9730741890077,38.309771261655534],[140.97283608402242,38.30975352383186],[140.97145991418432,38.30962675316821],[140.96942940709434,38.30946706724418],[140.9685953488049,38.30939172080653],[140.96772309555874,38.30944113950957],[140.96711506207504,38.30947814703879],[140.9655733322481,38.30953787608704],[140.96548162639965,38.30953389629935],[140.96289722514788,38.30956321329449],[140.962338010865,38.308790211471965],[140.9620195706319,38.30835755939474],[140.9620039903235,38.308342232006005],[140.9617908319245,38.30813706678628],[140.95997635602455,38.30578308485107],[140.96130820324402,38.3049966838748],[140.96168159552153,38.304780188578285],[140.96235102060496,38.304370789156074],[140.96097438175843,38.30292070112978],[140.96046471536576,38.302947146290066],[140.96042762406321,38.30239322537336],[140.96054031418072,38.30157293540552],[140.96018469063083,38.301552194924426],[140.9596508795449,38.300299976355944],[140.96242904816938,38.30023479662289],[140.96475341468212,38.30099598948257],[140.96778917490371,38.300991073597956],[140.9681754539175,38.30069810528436],[140.96934685009026,38.30054417947038],[140.97336243792864,38.30053488768642],[140.97637062209174,38.30040769655395],[140.97972391071056,38.300138243311594],[140.9811106104495,38.300294332507434],[140.98291372880038,38.30107492073613],[140.98280983016815,38.30261625520604],[140.98207465162872,38.30307061842611],[140.97994781319267,38.30297951550249],[140.97867810958243,38.30489929178805],[140.97808014884464,38.30468154117537],[140.97683842413667,38.305446902923336],[140.97493809491453,38.30694085460069],[140.9761963580595,38.308262210427735],[140.9758121029699,38.30953810290718],[140.9754004651407,38.309600399239535]]]},"properties":{"KEY_CODE":"042090050","PREF":"04","CITY":"209","CITY_NAME":"多賀城市","S_NAME":"南宮","SETAI":"352"}},{"type":"Feature","geometry":{"type":"Polygon","coordinates":[[[140.99665663786962,38.309652900226794],[140.9957461178318,38.30986941931965],[140.99600325579144,38.31027068905112],[140.99606659808546,38.31120055247951],[140.99579117635398,38.312213830334564],[140.99365184583547,38.31403156379404],[140.9919782297573,38.31352874791208],[140.99159400548783,38.31342171731949],[140.98953304066626,38.31283580995104],[140.9874226270602,38.3123602275415],[140.98584421946543,38.31201290090004],[140.9857796494862,38.311866154532254],[140.98570545084476,38.31175996511846],[140.98374498776988,38.31078144483593],[140.9834083973931,38.310632229306655],[140.98246274180258,38.31006835656257],[140.98237963104273,38.309964428023484],[140.98138575177393,38.30946099951285],[140.981303171019,38.3084762382483],[140.98053995472392,38.308492958791206],[140.98014067388738,38.30849838233647],[140.9796925266107,38.30865379156586],[140.9791457008612,38.30858422144856],[140.9767623783342,38.30862106578868],[140.97624654633202,38.30950097613389],[140.9758121029699,38.30953810290718],[140.9761963580595,38.308262210427735],[140.97493809491453,38.30694085460069],[140.97683842413667,38.305446902923336],[140.97808014884464,38.30468154117537],[140.97867810958243,38.30489929178805],[140.97994781319267,38.30297951550249],[140.98207465162872,38.30307061842611],[140.98280983016815,38.30261625520604],[140.98291372880038,38.30107492073613],[140.98335090864674,38.29931679411223],[140.98305838285864,38.298045543758214],[140.98322854920877,38.29423722598404],[140.98572920785745,38.29428217844927],[140.98880725097052,38.2943503795628],[140.9873567167165,38.296096895394655],[140.98867359539554,38.296233686751044],[140.98710416969817,38.29813028641937],[140.98583910307488,38.29967721576003],[140.98573060377117,38.300104888674596],[140.98897020127072,38.300387668178836],[140.98885575012937,38.301687161233794],[140.99048007331388,38.30184068546605],[140.99054809951446,38.302053303020024],[140.99274162684736,38.30312105200874],[140.99218682933355,38.30403050717324],[140.99235680116396,38.30483832098571],[140.9929335007904,38.3057235672943],[140.99222153902335,38.30781489902844],[140.9926061799696,38.30823641454559],[140.99349844217954,38.30841073618358],[140.99557348930253,38.309208163608076],[140.99665663786962,38.309652900226794]],[[140.98783921110567,38.30191853301031],[140.9879437474377,38.30245474320473],[140.98876435359045,38.302240383047625],[140.98783921110567,38.30191853301031]]]},"properties":{"KEY_CODE":"042090060","PREF":"04","CITY":"209","CITY_NAME":"多賀城市","S_NAME":"市川","SETAI":"84"}},{"type":"Feature","geometry":{"type":"Polygon","coordinates":[[[140.99699617123565,38.30925641877109],[140.9966249426234,38.309383644545754],[140.99665663786962,38.309652900226794],[140.99557348930253,38.309208163608076],[140.99349844217954,38.30841073618358],[140.9926061799696,38.30823641454559],[140.99222153902335,38.30781489902844],[140.9929335007904,38.3057235672943],[140.99235680116396,38.30483832098571],[140.99218682933355,38.30403050717324],[140.99274162684736,38.30312105200874],[140.99054809951446,38.302053303020024],[140.99048007331388,38.30184068546605],[140.98885575012937,38.301687161233794],[140.98897020127072,38.300387668178836],[140.98897120282763,38.3003172800135],[140.9933972728001,38.30073296808211],[140.9937783780744,38.30078604350789],[140.99408048963716,38.303220996735995],[140.99363118990956,38.30376908560735],[140.99503972572293,38.304718635649735],[140.99710758851276,38.30618565113762],[140.99811345561116,38.30655506913863],[140.99969404517716,38.30667667947063],[141.0007684534827,38.306403575150924],[141.00099041941334,38.30802494733972],[141.00052674709391,38.308924452733784],[140.99986686472644,38.308875437821875],[140.99959753134542,38.30941076421782],[140.99861792194955,38.30935615354394],[140.99740976288342,38.309569893333084],[140.99699617123565,38.30925641877109]]]},"properties":{"KEY_CODE":"04209007000","PREF":"04","CITY":"209","CITY_NAME":"多賀城市","S_NAME":"浮島字沢前","SETAI":"411"}},{"type":"Feature","geometry":{"type":"Polygon","coordinates":[[[140.98783921110567,38.30191853301031],[140.98876435359045,38.302240383047625],[140.9879437474377,38.30245474320473],[140.98783921110567,38.30191853301031]]]},"properties":{"KEY_CODE":"04209007000","PREF":"04","CITY":"209","CITY_NAME":"多賀城市","S_NAME":"浮島字沢前","SETAI":"0"}},{"type":"Feature","geometry":{"type":"Polygon","coordinates":[[[140.99796005798706,38.30196270883823],[140.99503972572293,38.304718635649735],[140.99363118990956,38.30376908560735],[140.99408048963716,38.303220996735995],[140.9937783780744,38.30078604350789],[140.99796005798706,38.30196270883823]]]},"properties":{"KEY_CODE":"04209007001","PREF":"04","CITY":"209","CITY_NAME":"多賀城市","S_NAME":"浮島一丁目","SETAI":"251"}},{"type":"Feature","geometry":{"type":"Polygon","coordinates":[[[141.0007684534827,38.306403575150924],[140.99969404517716,38.30667667947063],[140.99811345561116,38.30655506913863],[140.99710758851276,38.30618565113762],[140.99503972572293,38.304718635649735],[140.99796005798706,38.30196270883823],[141.00097703241235,38.30284708603064],[141.00291445568755,38.30340567025873],[141.00210181371895,38.3040770688946],[141.0018061345154,38.3036452106905],[141.0011733690421,38.303661450070486],[141.00073224215814,38.30440508358594],[141.00053782046209,38.30539217849761],[141.0007684534827,38.306403575150924]]]},"properties":{"KEY_CODE":"04209007002","PREF":"04","CITY":"209","CITY_NAME":"多賀城市","S_NAME":"浮島二丁目","SETAI":"544"}},{"type":"Feature","geometry":{"type":"Polygon","coordinates":[[[140.99044812158292,38.2923168506785],[140.9910165188961,38.291574081051984],[140.9916760174039,38.292634908885184],[140.9904743374908,38.294070443417546],[140.98978333969623,38.294905425836866],[140.98920254605798,38.295591763231556],[140.98867359539554,38.296233686751044],[140.98735671671653,38.296096895394655],[140.98880725097052,38.29435037956281],[140.98572920785745,38.29428217844927],[140.98322854920877,38.29423722598404],[140.98323802542512,38.2935572717931],[140.98225586740048,38.293533846785785],[140.98227813506827,38.29282388656216],[140.98292424065485,38.2921677942843],[140.98391291875808,38.292192030916524],[140.98569651038173,38.2922362053829],[140.9870805150108,38.29226651242499],[140.9883328106142,38.292287402929844],[140.98901190352646,38.29230298211695],[140.99017936445213,38.292324527401504],[140.99044812158292,38.2923168506785]]]},"properties":{"KEY_CODE":"04209009000","PREF":"04","CITY":"209","CITY_NAME":"多賀城市","S_NAME":"高崎字花の木","SETAI":"1"}},{"type":"Feature","geometry":{"type":"Polygon","coordinates":[[[141.00202583976588,38.2993675323214],[141.00221022819795,38.30000467734954],[141.00157156977556,38.3027495166846],[141.00097703241235,38.30284708603064],[140.99796005798706,38.30196270883823],[140.9937783780744,38.30078604350789],[140.9933972728001,38.30073296808211],[140.99342711323948,38.29977084930697],[140.9930870189701,38.29825679426128],[140.9963304321485,38.298375457236716],[140.99728177355817,38.29854262872344],[140.99734850890042,38.29786133985171],[140.9979850653079,38.297648861520166],[140.99836896497405,38.29815875719321],[140.99951888234526,38.298925314245146],[140.99971246283397,38.29934256591208],[140.99921713314566,38.29962017057183],[141.0003923051025,38.299766441425135],[141.00202583976588,38.2993675323214]]]},"properties":{"KEY_CODE":"04209009001","PREF":"04","CITY":"209","CITY_NAME":"多賀城市","S_NAME":"高崎一丁目","SETAI":"231"}},{"type":"Feature","geometry":{"type":"Polygon","coordinates":[[[140.99721729043324,38.29329741946437],[140.99718472788535,38.29479386644185],[140.99660558327346,38.29650139872003],[140.9979850653079,38.297648861520166],[140.99734850890042,38.29786133985171],[140.99728177355817,38.29854262872344],[140.9963304321485,38.298375457236716],[140.9930870189701,38.29825679426128],[140.9924014466728,38.29543235523004],[140.9924515938434,38.294287100275646],[140.996973389973,38.29332127046012],[140.99721729043324,38.29329741946437]]]},"properties":{"KEY_CODE":"04209009002","PREF":"04","CITY":"209","CITY_NAME":"多賀城市","S_NAME":"高崎二丁目","SETAI":"483"}},{"type":"Feature","geometry":{"type":"Polygon","coordinates":[[[141.00207722929687,38.299342119027],[141.00202583976588,38.2993675323214],[141.0003923051025,38.299766441425135],[140.99921713314566,38.29962017057183],[140.99971246283397,38.29934256591208],[140.99951888234526,38.298925314245146],[140.99836896497405,38.29815875719321],[140.9979850653079,38.297648861520166],[140.99660558327346,38.29650139872003],[140.99718472788535,38.29479386644185],[140.99721729043324,38.29329741946437],[141.00037463653044,38.29299084879951],[141.00040310676857,38.29349223610215],[141.00106691062157,38.29442502282212],[141.00138335367836,38.295376746572984],[141.0013874280949,38.29716101896419],[141.00207722929687,38.299342119027]]]},"properties":{"KEY_CODE":"04209009003","PREF":"04","CITY":"209","CITY_NAME":"多賀城市","S_NAME":"高崎三丁目","SETAI":"1210"}},{"type":"Feature","geometry":{"type":"Polygon","coordinates":[[[140.99387489248863,38.290508819387234],[140.9926958959896,38.29349619260837],[140.9916760174039,38.292634908885205],[140.9910165188961,38.291574081052],[140.99044812158292,38.2923168506785],[140.99017936445213,38.292324527401504],[140.98901190352646,38.29230298211695],[140.9883328106142,38.292287402929844],[140.9870805150108,38.29226651242499],[140.98569651038173,38.2922362053829],[140.98391291875808,38.292192030916524],[140.983964315109,38.29210862729048],[140.984099870086,38.292045247164694],[140.98417426406496,38.2919178919922],[140.9844751700785,38.29142620454738],[140.98468273645335,38.29079611367971],[140.98520998110416,38.290862307870526],[140.98536753487423,38.29015457382725],[140.9925330309039,38.290289051169154],[140.9928684750903,38.29014867341718],[140.99387489248863,38.290508819387234]]]},"properties":{"KEY_CODE":"04209011000","PREF":"04","CITY":"209","CITY_NAME":"多賀城市","S_NAME":"東田中字小原","SETAI":"30"}},{"type":"Feature","geometry":{"type":"Polygon","coordinates":[[[140.996973389973,38.29332127046012],[140.9924515938434,38.294287100275646],[140.9926958959896,38.29349619260837],[140.99387489248863,38.290508819387234],[140.99632778511545,38.29015171480394],[140.9971515552317,38.29236743492093],[140.996973389973,38.29332127046012]]]},"properties":{"KEY_CODE":"04209011001","PREF":"04","CITY":"209","CITY_NAME":"多賀城市","S_NAME":"東田中一丁目","SETAI":"423"}},{"type":"Feature","geometry":{"type":"Polygon","coordinates":[[[140.9986516428587,38.28912503915573],[140.99998723309488,38.28876233942357],[141.00083466635314,38.28908292951493],[141.00172214426638,38.29006860166204],[141.00443417471456,38.29063928551923],[141.00402301290052,38.29231803019098],[141.00282535101167,38.292630459043295],[141.00037463653044,38.29299084879951],[140.99721729043324,38.29329741946437],[140.996973389973,38.29332127046012],[140.9971515552317,38.29236743492093],[140.99632778511545,38.29015171480394],[140.9986516428587,38.28912503915573]]]},"properties":{"KEY_CODE":"04209011002","PREF":"04","CITY":"209","CITY_NAME":"多賀城市","S_NAME":"東田中二丁目","SETAI":"1371"}},{"type":"Feature","geometry":{"type":"Polygon","coordinates":[[[141.00402301290052,38.29231803019098],[141.0038225347106,38.29341352853846],[141.0049914066558,38.297457301446684],[141.0046955490885,38.29780839661822],[141.00498127096924,38.29879604743236],[141.00207722929687,38.299342119027],[141.0013874280949,38.29716101896419],[141.00138335367836,38.295376746572984],[141.00106691062157,38.29442502282212],[141.00040310676857,38.29349223610215],[141.00037463653044,38.29299084879951],[141.00282535101167,38.292630459043295],[141.00402301290052,38.29231803019098]]]},"properties":{"KEY_CODE":"04209013001","PREF":"04","CITY":"209","CITY_NAME":"多賀城市","S_NAME":"中央一丁目","SETAI":"238"}},{"type":"Feature","geometry":{"type":"Polygon","coordinates":[[[141.00799348720918,38.29774972788381],[141.0060632371745,38.29776499149969],[141.00568635274777,38.29851191631181],[141.00498127096924,38.29879604743236],[141.0046955490885,38.29780839661822],[141.0049914066558,38.297457301446684],[141.0038225347106,38.29341352853846],[141.00402301290052,38.29231803019098],[141.00443417471456,38.29063928551923],[141.00703535169157,38.291441080900576],[141.00748789203215,38.291719135304184],[141.00680095087515,38.292326119158645],[141.00693208314175,38.293548874753476],[141.00680754195417,38.29570215827007],[141.00806814262984,38.296838971905096],[141.00799348720918,38.29774972788381]]]},"properties":{"KEY_CODE":"04209013002","PREF":"04","CITY":"209","CITY_NAME":"多賀城市","S_NAME":"中央二丁目","SETAI":"583"}},{"type":"Feature","geometry":{"type":"Polygon","coordinates":[[[141.01152804433838,38.29406946261748],[141.01031580506108,38.29425964103197],[141.0096074901537,38.29397620133686],[141.00908007687727,38.294569075737066],[141.0089512329636,38.29547414265526],[141.00939270299548,38.29793584097083],[141.00931346496807,38.29792962415907],[141.0080795939804,38.297761564353145],[141.00799348720918,38.29774972788381],[141.00806814262984,38.296838971905096],[141.00680754195417,38.29570215827007],[141.00693208314175,38.293548874753476],[141.00680095087515,38.292326119158645],[141.00748789203215,38.291719135304184],[141.00874831600808,38.29233101465208],[141.01069130266293,38.29268383432436],[141.01152804433838,38.29406946261748]]]},"properties":{"KEY_CODE":"04209013003","PREF":"04","CITY":"209","CITY_NAME":"多賀城市","S_NAME":"中央三丁目","SETAI":"445"}},{"type":"Feature","geometry":{"type":"Polygon","coordinates":[[[141.0080795939804,38.297761564353145],[141.00804386644222,38.299415672041505],[141.0065272561369,38.30317679379387],[141.00502026978737,38.30286201569726],[141.00157156977556,38.3027495166846],[141.00221022819795,38.30000467734954],[141.00202583976588,38.2993675323214],[141.00207722929687,38.299342119027],[141.00498127096924,38.29879604743236],[141.00568635274777,38.29851191631181],[141.0060632371745,38.29776499149969],[141.00799348720918,38.29774972788381],[141.0080795939804,38.297761564353145]]]},"properties":{"KEY_CODE":"04209014001","PREF":"04","CITY":"209","CITY_NAME":"多賀城市","S_NAME":"留ケ谷一丁目","SETAI":"819"}},{"type":"Feature","geometry":{"type":"Polygon","coordinates":[[[141.0084596644731,38.305210684980096],[141.0081902622968,38.305818370748185],[141.0058809697858,38.30543641314535],[141.00520356502759,38.30501989687721],[141.00430466769555,38.30542622601376],[141.0027444513707,38.304352043507286],[141.00210181371895,38.3040770688946],[141.00291445568755,38.30340567025873],[141.00097703241235,38.30284708603064],[141.00157156977556,38.3027495166846],[141.00502026978737,38.30286201569726],[141.0065272561369,38.30317679379387],[141.008275266105,38.30420742035868],[141.0089093735998,38.30475194142526],[141.00875879952892,38.30489012320233],[141.0084596644731,38.305210684980096]]]},"properties":{"KEY_CODE":"04209014002","PREF":"04","CITY":"209","CITY_NAME":"多賀城市","S_NAME":"留ケ谷二丁目","SETAI":"232"}},{"type":"Feature","geometry":{"type":"Polygon","coordinates":[[[141.0080795939804,38.297761564353145],[141.00931346496807,38.29792962415907],[141.00984310799984,38.2986799869518],[141.00863700279837,38.30209321841003],[141.00795402194856,38.30341171326892],[141.008275266105,38.30420742035868],[141.0065272561369,38.30317679379387],[141.00804386644222,38.299415672041505],[141.0080795939804,38.297761564353145]]]},"properties":{"KEY_CODE":"04209014003","PREF":"04","CITY":"209","CITY_NAME":"多賀城市","S_NAME":"留ケ谷三丁目","SETAI":"349"}},{"type":"Feature","geometry":{"type":"Polygon","coordinates":[[[141.01350676655724,38.29731180314241],[141.0123593859913,38.297866635129715],[141.01229750275857,38.29813348981849],[141.01023770514877,38.297852933824295],[141.00939270299548,38.29793584097083],[141.0089512329636,38.29547414265526],[141.00908007687727,38.294569075737066],[141.0096074901537,38.29397620133686],[141.01031580506108,38.29425964103197],[141.01152804433838,38.29406946261748],[141.01350676655724,38.29731180314241]]]},"properties":{"KEY_CODE":"04209015001","PREF":"04","CITY":"209","CITY_NAME":"多賀城市","S_NAME":"伝上山一丁目","SETAI":"235"}},{"type":"Feature","geometry":{"type":"Polygon","coordinates":[[[141.01229750275857,38.29813348981849],[141.01184124759993,38.30086696418328],[141.0119342896462,38.301139497326815],[141.01105011196267,38.30276320742281],[141.01021243935892,38.302639170767215],[141.00863700279837,38.30209321841003],[141.00984310799984,38.2986799869518],[141.00931346496807,38.29792962415907],[141.00939270299548,38.29793584097083],[141.01023770514877,38.297852933824295],[141.01229750275857,38.29813348981849]]]},"properties":{"KEY_CODE":"04209015002","PREF":"04","CITY":"209","CITY_NAME":"多賀城市","S_NAME":"伝上山二丁目","SETAI":"393"}},{"type":"Feature","geometry":{"type":"Polygon","coordinates":[[[141.01540917890387,38.30263512159805],[141.0142219114932,38.30271309258811],[141.01320505227835,38.30355827538948],[141.01214288108278,38.30289614517785],[141.01105011196267,38.30276320742281],[141.0119342896462,38.301139497326815],[141.01184124759993,38.30086696418328],[141.01229750275857,38.29813348981849],[141.0123593859913,38.297866635129715],[141.01350676655724,38.29731180314241],[141.01491596446718,38.2996382896365],[141.01441966690678,38.299639049182765],[141.0152181280992,38.300881120150954],[141.01540917890387,38.30263512159805]]]},"properties":{"KEY_CODE":"04209015003","PREF":"04","CITY":"209","CITY_NAME":"多賀城市","S_NAME":"伝上山三丁目","SETAI":"617"}},{"type":"Feature","geometry":{"type":"Polygon","coordinates":[[[141.0089093735998,38.30475194142526],[141.008275266105,38.30420742035868],[141.00795402194856,38.30341171326892],[141.00863700279837,38.30209321841003],[141.01021243935892,38.302639170767215],[141.01105011196267,38.30276320742281],[141.01214288108278,38.30289614517785],[141.01320505227835,38.30355827538948],[141.01244355766428,38.304480906305926],[141.01053222308374,38.30353582094426],[141.00947182882103,38.30459752689295],[141.0089093735998,38.30475194142526]]]},"properties":{"KEY_CODE":"04209015004","PREF":"04","CITY":"209","CITY_NAME":"多賀城市","S_NAME":"伝上山四丁目","SETAI":"238"}},{"type":"Feature","geometry":{"type":"Polygon","coordinates":[[[141.01069130266293,38.29268383432436],[141.01564640612705,38.29324527923248],[141.01620743200502,38.29386803377877],[141.015939890348,38.29573283492703],[141.015425888066,38.295773467095195],[141.014937273944,38.29660829102421],[141.0162918697035,38.29916669974739],[141.01491596446718,38.2996382896365],[141.01350676655724,38.29731180314241],[141.01152804433838,38.29406946261748],[141.01069130266293,38.29268383432436]]]},"properties":{"KEY_CODE":"04209016001","PREF":"04","CITY":"209","CITY_NAME":"多賀城市","S_NAME":"鶴ケ谷一丁目","SETAI":"66"}},{"type":"Feature","geometry":{"type":"Polygon","coordinates":[[[141.01851990683022,38.29913085831947],[141.01665304497695,38.29903494188192],[141.0162918697035,38.29916669974739],[141.014937273944,38.29660829102421],[141.015425888066,38.295773467095195],[141.015939890348,38.29573283492703],[141.01620743200502,38.29386803377877],[141.01880747880483,38.295528468407205],[141.01888519348725,38.29565658985241],[141.01861472544726,38.29701842304627],[141.01851990683022,38.29913085831947]]]},"properties":{"KEY_CODE":"04209016002","PREF":"04","CITY":"209","CITY_NAME":"多賀城市","S_NAME":"鶴ケ谷二丁目","SETAI":"316"}},{"type":"Feature","geometry":{"type":"Polygon","coordinates":[[[141.0246421994566,38.29202349962803],[141.0247180792461,38.29345208834031],[141.0217696653951,38.29352691330212],[141.0199287637791,38.293739028278594],[141.0199818720354,38.295469745163636],[141.01880747880483,38.295528468407205],[141.01620743200502,38.29386803377877],[141.01564640612705,38.29324527923248],[141.02004528364608,38.293482073791814],[141.02143999144312,38.29313538437005],[141.0246421994566,38.29202349962803]]]},"properties":{"KEY_CODE":"04209016003","PREF":"04","CITY":"209","CITY_NAME":"多賀城市","S_NAME":"鶴ケ谷三丁目","SETAI":"437"}},{"type":"Feature","geometry":{"type":"Polygon","coordinates":[[[141.01888519348725,38.29565658985241],[141.0215096064695,38.29562751880562],[141.02172840933267,38.29580454537775],[141.02191731009674,38.30062543348644],[141.02137561736293,38.301160804085924],[141.02033431925508,38.302747688941835],[141.01920460601048,38.30229378266068],[141.0187643132055,38.300841702541625],[141.01801675833582,38.299726547416064],[141.01851990683022,38.29913085831947],[141.01861472544726,38.29701842304627],[141.01888519348725,38.29565658985241]]]},"properties":{"KEY_CODE":"04209017001","PREF":"04","CITY":"209","CITY_NAME":"多賀城市","S_NAME":"丸山一丁目","SETAI":"462"}},{"type":"Feature","geometry":{"type":"Polygon","coordinates":[[[141.0313418983031,38.29633131321774],[141.02986504781035,38.29631757652136],[141.0298010080242,38.29755537053014],[141.0291866223515,38.297981663363366],[141.02793780528498,38.29800891054602],[141.0275202758647,38.29878061180183],[141.02810746429452,38.299089636415836],[141.0276897676319,38.29932541178775],[141.02835392687322,38.29994542116429],[141.02844748219388,38.3005158245585],[141.0277356570299,38.30150719065748],[141.02860674788388,38.3026737707481],[141.0278798128148,38.30301605184393],[141.02754991764468,38.30317467881241],[141.02634978190463,38.30143046623544],[141.02486026324556,38.30128899615198],[141.02485906935803,38.30175594257033],[141.0233257141764,38.3015981927455],[141.02289909406812,38.30131155332705],[141.02284191264735,38.300594828332585],[141.02191731009674,38.30062543348644],[141.02172840933267,38.29580454537775],[141.0215096064695,38.29562751880562],[141.01888519348725,38.29565658985241],[141.01880747880483,38.295528468407205],[141.0199818720354,38.295469745163636],[141.0199287637791,38.293739028278594],[141.0217696653951,38.29352691330212],[141.0247180792461,38.29345208834031],[141.0246421994566,38.29202349962803],[141.02496516749358,38.291905572708046],[141.026367560764,38.29132725051253],[141.02742437242662,38.290839150018805],[141.02965134157665,38.291864679074436],[141.03174610952004,38.29243160716402],[141.03151524439818,38.29562053425119],[141.0313418983031,38.29633131321774]]]},"properties":{"KEY_CODE":"04209017002","PREF":"04","CITY":"209","CITY_NAME":"多賀城市","S_NAME":"丸山二丁目","SETAI":"9"}},{"type":"Feature","geometry":{"type":"Polygon","coordinates":[[[141.01469491958346,38.306465753513606],[141.01376655937747,38.306819365699305],[141.01384277911646,38.306243358093106],[141.01337928206877,38.30620984899369],[141.01361843568904,38.30558939428562],[141.01249174567016,38.30515723503691],[141.01244355766428,38.304480906305926],[141.01320505227835,38.30355827538948],[141.0142219114932,38.30271309258811],[141.01540917890387,38.30263512159805],[141.01501962208695,38.30605505332614],[141.01495715173604,38.306042619991835],[141.0145568768898,38.30599057933601],[141.01469491958346,38.306465753513606]]]},"properties":{"KEY_CODE":"04209018001","PREF":"04","CITY":"209","CITY_NAME":"多賀城市","S_NAME":"下馬一丁目","SETAI":"169"}},{"type":"Feature","geometry":{"type":"Polygon","coordinates":[[[141.0175664858951,38.30687044911663],[141.01652879898933,38.306839945943885],[141.01584773400126,38.30649722191884],[141.01589322615573,38.30612467106733],[141.01501962208695,38.30605505332614],[141.01540917890387,38.30263512159805],[141.01692339298282,38.30263631024966],[141.01664165912777,38.30363326966746],[141.01648750646706,38.30444730953974],[141.01712931180637,38.306019027644005],[141.0175664858951,38.30687044911663]]]},"properties":{"KEY_CODE":"04209018002","PREF":"04","CITY":"209","CITY_NAME":"多賀城市","S_NAME":"下馬二丁目","SETAI":"179"}},{"type":"Feature","geometry":{"type":"Polygon","coordinates":[[[141.0196565875225,38.30682033553259],[141.01923465279006,38.30685519916103],[141.01919213801307,38.30685822198892],[141.01876652487636,38.30688745919214],[141.0183484875933,38.30688402437291],[141.01756648589503,38.30687044911663],[141.01712931180637,38.306019027644005],[141.01648750646706,38.30444730953974],[141.01664165912777,38.30363326966746],[141.0180050985017,38.30390791967028],[141.01868801942766,38.30432354550722],[141.02221314743275,38.303723240911765],[141.02218685885953,38.30484412612618],[141.02304879881268,38.305807628692286],[141.02195040036517,38.30649338428696],[141.0214394101322,38.30661637960381],[141.02118426423462,38.30668350747724],[141.0196565875225,38.30682033553259]]]},"properties":{"KEY_CODE":"04209018003","PREF":"04","CITY":"209","CITY_NAME":"多賀城市","S_NAME":"下馬三丁目","SETAI":"504"}},{"type":"Feature","geometry":{"type":"Polygon","coordinates":[[[141.01801675833582,38.299726547416064],[141.0187643132055,38.300841702541625],[141.01920460601048,38.30229378266068],[141.02033431925508,38.302747688941835],[141.0213086938201,38.30302783771211],[141.02221314743275,38.303723240911765],[141.01868801942766,38.30432354550722],[141.0180050985017,38.30390791967028],[141.01664165912777,38.30363326966746],[141.01692339298282,38.30263631024966],[141.01758326938418,38.300152493923115],[141.01801675833582,38.299726547416064]]]},"properties":{"KEY_CODE":"04209018004","PREF":"04","CITY":"209","CITY_NAME":"多賀城市","S_NAME":"下馬四丁目","SETAI":"288"}},{"type":"Feature","geometry":{"type":"Polygon","coordinates":[[[141.01801675833582,38.299726547416064],[141.01758326938418,38.300152493923115],[141.01692339298282,38.30263631024966],[141.01540917890387,38.30263512159805],[141.0152181280992,38.300881120150954],[141.01441966690678,38.299639049182765],[141.01491596446718,38.2996382896365],[141.0162918697035,38.29916669974739],[141.01665304497695,38.29903494188192],[141.01851990683022,38.29913085831947],[141.01801675833582,38.299726547416064]]]},"properties":{"KEY_CODE":"04209018005","PREF":"04","CITY":"209","CITY_NAME":"多賀城市","S_NAME":"下馬五丁目","SETAI":"157"}},{"type":"Feature","geometry":{"type":"Polygon","coordinates":[[[141.02806024819355,38.31059381286951],[141.02828627673938,38.3111924431847],[141.0276187584399,38.31119774775173],[141.02742669940488,38.310393108256946],[141.02680584334206,38.31053544785422],[141.0258604841641,38.3094524400956],[141.0251777812709,38.309512658417745],[141.02501913657298,38.308999366308214],[141.02435367908154,38.308654686244594],[141.02406603973319,38.30865331430818],[141.02407016303528,38.308573911070944],[141.0239203832681,38.30854909181662],[141.02372140333895,38.30804768842165],[141.0226256671979,38.307328799079],[141.02215550654924,38.30773468767288],[141.02118426423462,38.30668350747724],[141.0214394101322,38.30661637960381],[141.02195040036517,38.30649338428696],[141.02304879881268,38.305807628692286],[141.02496410077154,38.304987101715014],[141.0272006685303,38.304924514866855],[141.0283956301524,38.30420799836057],[141.0287501544162,38.30471237913813],[141.02943579740742,38.30582661858724],[141.02760835491193,38.3056910761295],[141.02704187540985,38.306319427413676],[141.02710598642895,38.30687876267425],[141.02839028153437,38.30650827076204],[141.02863552659662,38.30732577331031],[141.02846643474476,38.308238833681465],[141.02722511060523,38.30891121736873],[141.02781534182276,38.30995635909417],[141.02806024819355,38.31059381286951]]]},"properties":{"KEY_CODE":"04209019001","PREF":"04","CITY":"209","CITY_NAME":"多賀城市","S_NAME":"笠神一丁目","SETAI":"504"}},{"type":"Feature","geometry":{"type":"Polygon","coordinates":[[[141.0283956301524,38.30420799836057],[141.0272006685303,38.304924514866855],[141.02496410077154,38.304987101715014],[141.02304879881268,38.305807628692286],[141.02218685885953,38.30484412612618],[141.02221314743275,38.303723240911765],[141.0213086938201,38.30302783771211],[141.02033431925508,38.302747688941835],[141.02137561736293,38.301160804085924],[141.02191731009674,38.30062543348644],[141.02284191264735,38.300594828332585],[141.02289909406812,38.30131155332705],[141.0233257141764,38.3015981927455],[141.02485906935803,38.30175594257033],[141.02486026324556,38.30128899615198],[141.02634978190463,38.30143046623544],[141.02754991764468,38.30317467881241],[141.0278798128148,38.30301605184393],[141.02840739803563,38.304157158821695],[141.0283956301524,38.30420799836057]]]},"properties":{"KEY_CODE":"04209019002","PREF":"04","CITY":"209","CITY_NAME":"多賀城市","S_NAME":"笠神二丁目","SETAI":"274"}},{"type":"Feature","geometry":{"type":"Polygon","coordinates":[[[141.03143302457087,38.296506284981916],[141.03051916350574,38.29690126987098],[141.03024687671842,38.297432019116414],[141.03076364559817,38.29875908755624],[141.03069609749394,38.299616375297234],[141.029994089359,38.30148532977336],[141.02840739803563,38.304157158821695],[141.0278798128148,38.30301605184393],[141.02860674788388,38.3026737707481],[141.0277356570299,38.30150719065748],[141.02844748219388,38.3005158245585],[141.02835392687322,38.29994542116429],[141.0276897676319,38.29932541178775],[141.02810746429452,38.299089636415836],[141.0275202758647,38.29878061180183],[141.02793780528498,38.29800891054602],[141.0291866223515,38.297981663363366],[141.0298010080242,38.29755537053014],[141.02986504781035,38.29631757652136],[141.0313418983031,38.29633131321774],[141.03143302457087,38.296506284981916]]]},"properties":{"KEY_CODE":"04209019003","PREF":"04","CITY":"209","CITY_NAME":"多賀城市","S_NAME":"笠神三丁目","SETAI":"397"}},{"type":"Feature","geometry":{"type":"Polygon","coordinates":[[[141.03454075129818,38.30241544253974],[141.03465285612214,38.30379978025115],[141.033646577452,38.30362734084073],[141.03315409357285,38.30272072707486],[141.0318090484447,38.302938918217855],[141.03061268361512,38.303904367001145],[141.02966518474722,38.30364634751543],[141.0287501544162,38.30471237913813],[141.0283956301524,38.30420799836057],[141.02840739803563,38.304157158821695],[141.029994089359,38.30148532977336],[141.03108048356242,38.30090762548149],[141.0317632969181,38.3010015139565],[141.0328150031456,38.30167209956978],[141.03454075129818,38.30241544253974]]]},"properties":{"KEY_CODE":"04209019004","PREF":"04","CITY":"209","CITY_NAME":"多賀城市","S_NAME":"笠神四丁目","SETAI":"139"}},{"type":"Feature","geometry":{"type":"Polygon","coordinates":[[[141.03558191744563,38.30245435125914],[141.03454075129818,38.30241544253974],[141.0328150031456,38.30167209956978],[141.0317632969181,38.3010015139565],[141.03108048356242,38.30090762548149],[141.029994089359,38.30148532977336],[141.03069609749394,38.299616375297234],[141.03076364559817,38.29875908755624],[141.03024687671842,38.297432019116414],[141.03051916350574,38.29690126987098],[141.03143302457087,38.296506284981916],[141.03227289622134,38.296151114440725],[141.03313270931625,38.29618655414157],[141.0336022799572,38.29729549315773],[141.03459436663934,38.2986306136211],[141.03599429345002,38.2993357594156],[141.036185172929,38.29960515725885],[141.03638067402005,38.3005128204699],[141.03631460391514,38.30201331487735],[141.03615682448577,38.30250221511934],[141.03558191744563,38.30245435125914]]]},"properties":{"KEY_CODE":"04209019005","PREF":"04","CITY":"209","CITY_NAME":"多賀城市","S_NAME":"笠神五丁目","SETAI":"460"}},{"type":"Feature","geometry":{"type":"Polygon","coordinates":[[[141.03614561410387,38.28809757893745],[141.03695865925525,38.29165862767987],[141.03683174428147,38.29210693287837],[141.03629179043133,38.29328980569316],[141.03324422931692,38.292599707956526],[141.03223814299886,38.29252270798923],[141.03174610952004,38.29243160716402],[141.02965134157665,38.291864679074436],[141.02742437242662,38.290839150018805],[141.026367560764,38.29132725051253],[141.02496516749358,38.291905572708046],[141.024776542768,38.29137558350131],[141.0251371522659,38.291223950186335],[141.0265298564372,38.290575394692404],[141.02688879245312,38.290400812116246],[141.0277699645358,38.2899041262562],[141.0283861696901,38.28949740121691],[141.02915558736245,38.28888840870863],[141.02970435363764,38.28827456823927],[141.03036172097345,38.28745853253592],[141.0321114918427,38.28520391147956],[141.0324141707704,38.28423219560287],[141.0322673465256,38.283496611508674],[141.03149079955568,38.282284577585216],[141.03204846817022,38.28207107041674],[141.03154565395243,38.28105692729448],[141.03232869346635,38.28075406990713],[141.03333967483877,38.2810455948181],[141.03381234725038,38.281437837002954],[141.03419077328985,38.282017609447436],[141.03413338884667,38.28293330858982],[141.03442397270624,38.28314608810862],[141.03460190972135,38.2832220848973],[141.0345714929816,38.28338050934236],[141.03501976196435,38.28403026549701],[141.03486150335527,38.284137102590805],[141.03461902661383,38.284494099700396],[141.03515199541482,38.28501884396531],[141.0351682479043,38.28531740019472],[141.03559344058664,38.286012946783806],[141.03582326144496,38.28660971977711],[141.03588217075668,38.28704278292379],[141.03614561410387,38.28809757893745]]]},"properties":{"KEY_CODE":"04209020001","PREF":"04","CITY":"209","CITY_NAME":"多賀城市","S_NAME":"大代一丁目","SETAI":"419"}},{"type":"Feature","geometry":{"type":"Polygon","coordinates":[[[141.03313270931625,38.29618655414157],[141.03227289622134,38.296151114440725],[141.03143302457087,38.296506284981916],[141.0313418983031,38.29633131321774],[141.03151524439818,38.29562053425119],[141.03174610952004,38.29243160716402],[141.03223814299886,38.29252270798923],[141.03256437317341,38.29276189884147],[141.03313270931625,38.29618655414157]]]},"properties":{"KEY_CODE":"04209020002","PREF":"04","CITY":"209","CITY_NAME":"多賀城市","S_NAME":"大代二丁目","SETAI":"104"}},{"type":"Feature","geometry":{"type":"Polygon","coordinates":[[[141.03223814299886,38.29252270798923],[141.03324422931692,38.292599707956526],[141.03629179043133,38.29328980569316],[141.03559565469985,38.29492553357713],[141.03498334715334,38.296305754086156],[141.03482034962968,38.297817534097206],[141.0353243724979,38.29848071947713],[141.03556036839169,38.29868865457743],[141.03609992320136,38.29916115747773],[141.03599429345002,38.2993357594156],[141.03459436663934,38.2986306136211],[141.0336022799572,38.29729549315773],[141.03313270931625,38.29618655414157],[141.03256437317341,38.29276189884147],[141.03223814299886,38.29252270798923]]]},"properties":{"KEY_CODE":"04209020003","PREF":"04","CITY":"209","CITY_NAME":"多賀城市","S_NAME":"大代三丁目","SETAI":"238"}},{"type":"Feature","geometry":{"type":"Polygon","coordinates":[[[141.0385228440635,38.2962806611957],[141.03760173599943,38.29685239510165],[141.03662798171928,38.297957468437374],[141.03609992320136,38.29916115747773],[141.03556036839169,38.29868865457743],[141.0353243724979,38.29848071947713],[141.03482034962968,38.297817534097206],[141.03498334715334,38.296305754086156],[141.03559565469985,38.29492553357713],[141.03728064644162,38.29558766205369],[141.0385228440635,38.2962806611957]]]},"properties":{"KEY_CODE":"04209020004","PREF":"04","CITY":"209","CITY_NAME":"多賀城市","S_NAME":"大代四丁目","SETAI":"255"}},{"type":"Feature","geometry":{"type":"Polygon","coordinates":[[[141.03873093382268,38.29636335731606],[141.0385228440635,38.2962806611957],[141.03728064644162,38.29558766205369],[141.03559565469985,38.29492553357713],[141.03629179043133,38.29328980569316],[141.03683174428147,38.29210693287837],[141.0400027824458,38.2911282535176],[141.04094100557367,38.29069710499508],[141.0414473503691,38.2907953198694],[141.04292884640935,38.289981413692715],[141.0431438090413,38.289878970691],[141.0433329712703,38.2897888194841],[141.04332050468395,38.289504616631575],[141.04353972677643,38.289261530336866],[141.04370457118227,38.2894970352607],[141.04390088257873,38.28994618058704],[141.0435769366332,38.29027926846565],[141.04310949749376,38.291114755010966],[141.04268277115096,38.29312268306192],[141.04252073694866,38.293205708285086],[141.04247986863925,38.293226648512885],[141.04191671865965,38.293515197850304],[141.04177866204873,38.29358593303802],[141.041561951606,38.29395438974491],[141.0412305993697,38.294496956862076],[141.0405761063875,38.29518410235881],[141.03873093382268,38.29636335731606]]]},"properties":{"KEY_CODE":"04209020005","PREF":"04","CITY":"209","CITY_NAME":"多賀城市","S_NAME":"大代五丁目","SETAI":"651"}},{"type":"Feature","geometry":{"type":"Polygon","coordinates":[[[141.04292884640935,38.289981413692715],[141.0414473503691,38.2907953198694],[141.04094100557367,38.29069710499508],[141.0400027824458,38.2911282535176],[141.03683174428147,38.29210693287837],[141.03695865925525,38.29165862767987],[141.03614561410387,38.28809757893745],[141.0358821707566,38.28704278292379],[141.03632871428496,38.28697824516291],[141.03702606741385,38.28683289084436],[141.03720728274254,38.286806957624776],[141.0371394705033,38.28687605383877],[141.03802939201393,38.28672641925617],[141.03832694513585,38.28660356959826],[141.03871043871146,38.28655560276517],[141.0392378491871,38.28642967595796],[141.0394092780655,38.2863782755267],[141.03977838984125,38.28637763066945],[141.0399208790059,38.28640300303213],[141.04076012909414,38.286646480141634],[141.041421109542,38.286818892174914],[141.041630353388,38.28700096776322],[141.04227486372145,38.287055857464836],[141.04237483357585,38.28691279427188],[141.04264620484145,38.28671593155444],[141.04292879399645,38.28703949468449],[141.04379084609377,38.28677386682741],[141.04431576183842,38.28666059123222],[141.043868846996,38.28687311506828],[141.04394208407794,38.28697715811751],[141.04410872093771,38.28696714779273],[141.04447461970253,38.28700478484429],[141.0447546289006,38.28698767169915],[141.04488776324567,38.28709723792417],[141.04423500769758,38.28811269138308],[141.04354598012856,38.28888832478722],[141.043134690577,38.288845837578506],[141.04272454760937,38.28864877690828],[141.04257839540665,38.288467857790366],[141.04227738201078,38.28849640552368],[141.04213497526231,38.288509467364996],[141.0423213579779,38.28804711373659],[141.04177309310987,38.28763223305245],[141.04067267966454,38.28833720092593],[141.04136337261613,38.28875451063325],[141.0415116795677,38.289089716319936],[141.04108439698103,38.28913903599105],[141.0401776345764,38.28904109935519],[141.04067896876396,38.289431856515016],[141.04098294218758,38.289319125430154],[141.0415969061302,38.290035011379835],[141.0420727539438,38.289985744951416],[141.04193395239938,38.29013647866158],[141.04203000102223,38.29030101640847],[141.04252136643657,38.29000057802423],[141.04292884640935,38.289981413692715]]]},"properties":{"KEY_CODE":"04209020006","PREF":"04","CITY":"209","CITY_NAME":"多賀城市","S_NAME":"大代六丁目","SETAI":"43"}},{"type":"Feature","geometry":{"type":"Polygon","coordinates":[[[141.01054318069058,38.28769817902244],[141.01511103780084,38.29038785632299],[141.0140660564075,38.29152733029655],[141.0097155941162,38.289028595278516],[141.01054318069058,38.28769817902244]]]},"properties":{"KEY_CODE":"04209021001","PREF":"04","CITY":"209","CITY_NAME":"多賀城市","S_NAME":"桜木一丁目","SETAI":"363"}},{"type":"Feature","geometry":{"type":"Polygon","coordinates":[[[141.02143999144312,38.29313538437005],[141.02004528364608,38.293482073791814],[141.01564640612705,38.29324527923248],[141.0150981400559,38.292420071469294],[141.0140660564075,38.29152733029655],[141.01511103780084,38.29038785632299],[141.01617856857737,38.28923031818878],[141.0169697699234,38.28961564989477],[141.02012894208113,38.2895422646394],[141.02107170241564,38.292573019670165],[141.02143999144312,38.29313538437005]]]},"properties":{"KEY_CODE":"04209021002","PREF":"04","CITY":"209","CITY_NAME":"多賀城市","S_NAME":"桜木二丁目","SETAI":"660"}},{"type":"Feature","geometry":{"type":"Polygon","coordinates":[[[141.02012894208113,38.2895422646394],[141.0169697699234,38.28961564989477],[141.01617856857737,38.28923031818878],[141.01511103780084,38.29038785632299],[141.01054318069058,38.28769817902244],[141.0115698314059,38.28640250698152],[141.01287116414153,38.28647316690069],[141.0171997179222,38.2868268601343],[141.01917222255514,38.287057725308976],[141.02011470214234,38.287326095106316],[141.01993642584316,38.28886333945711],[141.02012894208113,38.2895422646394]]]},"properties":{"KEY_CODE":"04209021003","PREF":"04","CITY":"209","CITY_NAME":"多賀城市","S_NAME":"桜木三丁目","SETAI":"411"}},{"type":"Feature","geometry":{"type":"Polygon","coordinates":[[[141.02011470214234,38.287326095106316],[141.02089563203677,38.28767115506808],[141.02387863617474,38.289458991934424],[141.024776542768,38.29137558350131],[141.02496516749358,38.291905572708046],[141.0246421994566,38.29202349962803],[141.02143999144312,38.29313538437005],[141.02107170241564,38.292573019670165],[141.02012894208113,38.2895422646394],[141.01993642584316,38.28886333945711],[141.02011470214234,38.287326095106316]]]},"properties":{"KEY_CODE":"04209022001","PREF":"04","CITY":"209","CITY_NAME":"多賀城市","S_NAME":"栄一丁目","SETAI":"331"}},{"type":"Feature","geometry":{"type":"Polygon","coordinates":[[[141.01764718206556,38.28341069400863],[141.0209706784463,38.28368684839455],[141.02318475929894,38.283879828087144],[141.02459974495068,38.284009733305304],[141.0242902759891,38.28631668454615],[141.02387863617474,38.289458991934424],[141.02089563203677,38.28767115506808],[141.02011470214234,38.287326095106316],[141.01917222255514,38.287057725308976],[141.0171997179222,38.2868268601343],[141.01764718206556,38.28341069400863]]]},"properties":{"KEY_CODE":"04209022002","PREF":"04","CITY":"209","CITY_NAME":"多賀城市","S_NAME":"栄二丁目","SETAI":"14"}},{"type":"Feature","geometry":{"type":"Polygon","coordinates":[[[141.01849759545235,38.27962604226187],[141.01891429041723,38.27983767393401],[141.02468049538865,38.282764169142354],[141.02459974495073,38.284009733305304],[141.02318475929894,38.283879828087144],[141.0209706784463,38.28368684839455],[141.01764718206556,38.28341069400863],[141.01823070693345,38.27949061441538],[141.01849759545235,38.27962604226187]]]},"properties":{"KEY_CODE":"04209022003","PREF":"04","CITY":"209","CITY_NAME":"多賀城市","S_NAME":"栄三丁目","SETAI":"0"}},{"type":"Feature","geometry":{"type":"Polygon","coordinates":[[[141.03149079955568,38.282284577585216],[141.0322673465256,38.283496611508674],[141.0324141707704,38.28423219560287],[141.0321114918427,38.28520391147956],[141.03036172097345,38.28745853253592],[141.02970435363764,38.28827456823927],[141.02915558736245,38.28888840870863],[141.0283861696901,38.28949740121691],[141.0277699645358,38.2899041262562],[141.02688879245312,38.290400812116246],[141.0265298564372,38.290575394692404],[141.0251371522659,38.291223950186335],[141.024776542768,38.29137558350131],[141.02387863617474,38.289458991934424],[141.0242902759891,38.28631668454615],[141.02459974495073,38.284009733305304],[141.02468049538865,38.282764169142354],[141.02595661639117,38.283349687702405],[141.02571441761998,38.2829180449479],[141.02722802929992,38.28237034861556],[141.02759540570298,38.28297341511855],[141.02854966492765,38.282607909794976],[141.02870315567813,38.283034626591096],[141.02962521261924,38.28289344868865],[141.03002243089563,38.28265093634712],[141.03012025991532,38.28280942667172],[141.03149079955568,38.282284577585216]]]},"properties":{"KEY_CODE":"04209022004","PREF":"04","CITY":"209","CITY_NAME":"多賀城市","S_NAME":"栄四丁目","SETAI":"0"}},{"type":"Feature","geometry":{"type":"Polygon","coordinates":[[[141.03002243089563,38.28265093634712],[141.02962521261924,38.28289344868865],[141.02870315567813,38.283034626591096],[141.02854966492765,38.282607909794976],[141.02850113512304,38.28249748231745],[141.02978973450794,38.28227418832261],[141.03002243089563,38.28265093634712]]]},"properties":{"KEY_CODE":"04209022004","PREF":"04","CITY":"209","CITY_NAME":"多賀城市","S_NAME":"栄四丁目","SETAI":"0"}},{"type":"Feature","geometry":{"type":"Polygon","coordinates":[[[141.01287116414153,38.28647316690069],[141.0115698314059,38.28640250698152],[141.0095400276712,38.28609543920168],[141.0067822537871,38.284933107229946],[141.0067915647659,38.28484015539451],[141.00685542311857,38.28426896209722],[141.0069704071642,38.2830722025171],[141.00702809990565,38.28310773293174],[141.00918341275758,38.282648965525574],[141.01324011242178,38.28303052618688],[141.01336678937483,38.28304187594074],[141.01287116414153,38.28647316690069]]]},"properties":{"KEY_CODE":"04209023001","PREF":"04","CITY":"209","CITY_NAME":"多賀城市","S_NAME":"明月一丁目","SETAI":"427"}},{"type":"Feature","geometry":{"type":"Polygon","coordinates":[[[141.01336678937483,38.28304187594074],[141.01764718206556,38.28341069400863],[141.0171997179222,38.2868268601343],[141.01287116414153,38.28647316690069],[141.01336678937483,38.28304187594074]]]},"properties":{"KEY_CODE":"04209023002","PREF":"04","CITY":"209","CITY_NAME":"多賀城市","S_NAME":"明月二丁目","SETAI":"40"}},{"type":"Feature","geometry":{"type":"Polygon","coordinates":[[[141.01324011242178,38.28303052618688],[141.00918341275758,38.282648965525574],[141.00702809990565,38.28310773293174],[141.0069704071642,38.2830722025171],[141.0069760933004,38.28301335061058],[141.00694752260807,38.28296947118772],[141.00746582463347,38.28179576281274],[141.0068498980234,38.28157622265144],[141.00735087158546,38.28066494599522],[141.00564731447034,38.28107500783551],[141.0052571467731,38.28043842992994],[141.00604509048665,38.2797793810204],[141.00719697346636,38.27883537879397],[141.00938213559354,38.27943745738386],[141.00985490667128,38.27933893885752],[141.01045195704214,38.27857222732327],[141.0096658041264,38.27839741070801],[141.00868902079512,38.27870055123172],[141.0086736224153,38.27812297498952],[141.00947733243456,38.27789963167869],[141.00980429201203,38.27744739169435],[141.00901290386275,38.27741858960544],[141.01112206395496,38.27683255161492],[141.01111171277327,38.27672070973493],[141.01286297715225,38.2762405403588],[141.01332933947631,38.27704759974854],[141.0140515623488,38.277369292194805],[141.01324011242178,38.28303052618688]]]},"properties":{"KEY_CODE":"04209024001","PREF":"04","CITY":"209","CITY_NAME":"多賀城市","S_NAME":"宮内一丁目","SETAI":"154"}},{"type":"Feature","geometry":{"type":"Polygon","coordinates":[[[141.0140515623488,38.277369292194805],[141.01531942935304,38.278012936128746],[141.01670777115052,38.27812255621263],[141.01686170732566,38.27879578221926],[141.01823070693345,38.27949061441538],[141.01764718206556,38.28341069400863],[141.01336678937483,38.28304187594074],[141.01324011242178,38.28303052618688],[141.0140515623488,38.277369292194805]]]},"properties":{"KEY_CODE":"04209024002","PREF":"04","CITY":"209","CITY_NAME":"多賀城市","S_NAME":"宮内二丁目","SETAI":"0"}},{"type":"Feature","geometry":{"type":"Polygon","coordinates":[[[140.9986516428587,38.28912503915573],[140.99632778511545,38.29015171480394],[140.99387489248863,38.290508819387234],[140.9928684750903,38.29014867341718],[140.9925330309039,38.290289051169154],[140.98536753487423,38.29015457382725],[140.98584417356145,38.287996962940284],[140.98637931081092,38.2855360026437],[140.98721126813464,38.284030449155246],[140.98890279447428,38.284097096101],[140.9907804108173,38.28373776338304],[140.99091156847774,38.28370563320621],[140.9968993050716,38.286880375492935],[140.99726906496352,38.287127191260524],[140.9984468677539,38.28849495411583],[140.9986516428587,38.28912503915573]]]},"properties":{"KEY_CODE":"04209025000","PREF":"04","CITY":"209","CITY_NAME":"多賀城市","S_NAME":"八幡字庚田","SETAI":"252"}},{"type":"Feature","geometry":{"type":"Polygon","coordinates":[[[140.99298355734365,38.28348650350989],[140.9944216002818,38.28414298533271],[141.00011151491688,38.2848155726924],[140.99726906496352,38.287127191260524],[140.9968993050716,38.286880375492935],[140.99091156847774,38.28370563320621],[140.99298355734365,38.28348650350989]]]},"properties":{"KEY_CODE":"04209025001","PREF":"04","CITY":"209","CITY_NAME":"多賀城市","S_NAME":"八幡一丁目","SETAI":"174"}},{"type":"Feature","geometry":{"type":"Polygon","coordinates":[[[141.0065538578467,38.28714120631182],[141.00495559732022,38.28884649137657],[141.00443417471456,38.29063928551923],[141.00172214426638,38.29006860166204],[141.00083466635314,38.28908292951493],[140.99998723309488,38.28876233942357],[140.9986516428587,38.28912503915573],[140.9984468677539,38.28849495411583],[140.99726906496352,38.287127191260524],[141.00011151491688,38.2848155726924],[141.0026980875883,38.285150976598175],[141.00395930445865,38.28562707157281],[141.0065538578467,38.28714120631182]]]},"properties":{"KEY_CODE":"04209025002","PREF":"04","CITY":"209","CITY_NAME":"多賀城市","S_NAME":"八幡二丁目","SETAI":"797"}},{"type":"Feature","geometry":{"type":"Polygon","coordinates":[[[141.0065538578467,38.28714120631182],[141.00815937095157,38.288123651715416],[141.00797048321883,38.28824612521146],[141.01069130266293,38.29268383432436],[141.00874831600808,38.29233101465208],[141.00748789203215,38.291719135304184],[141.00703535169157,38.291441080900576],[141.00443417471456,38.29063928551923],[141.00495559732022,38.28884649137657],[141.0065538578467,38.28714120631182]]]},"properties":{"KEY_CODE":"04209025003","PREF":"04","CITY":"209","CITY_NAME":"多賀城市","S_NAME":"八幡三丁目","SETAI":"428"}},{"type":"Feature","geometry":{"type":"Polygon","coordinates":[[[141.00815937095157,38.288123651715416],[141.0097155941162,38.289028595278516],[141.0140660564075,38.29152733029655],[141.0150981400559,38.292420071469294],[141.01564640612705,38.29324527923248],[141.01069130266293,38.29268383432436],[141.00797048321883,38.28824612521146],[141.00815937095157,38.288123651715416]]]},"properties":{"KEY_CODE":"04209025004","PREF":"04","CITY":"209","CITY_NAME":"多賀城市","S_NAME":"八幡四丁目","SETAI":"309"}},{"type":"Feature","geometry":{"type":"Polygon","coordinates":[[[141.00255010414898,38.28279057332509],[141.00011151491688,38.2848155726924],[140.9944216002818,38.28414298533271],[140.99298355734365,38.28348650350989],[140.9941181799125,38.28334645401674],[140.9943618566753,38.28287497034853],[140.99574525844375,38.283018151139366],[140.99593320421732,38.28188507063467],[140.99674477791703,38.28185715689858],[140.99711082316125,38.28189608836617],[140.9971858998417,38.28190419404113],[140.9980930018602,38.28200039095037],[140.9981502349918,38.281886526032594],[140.99817534797697,38.28173640724256],[140.99821023696205,38.2815671020369],[140.9987034933565,38.281444439076886],[140.99891869842838,38.28140840843923],[140.99907609489676,38.28138205628103],[140.99922727686194,38.28136242878158],[140.99985979826207,38.28166756978554],[140.99987511359893,38.281674955837374],[140.99994834638002,38.2817102839832],[141.00002512923294,38.28174732658727],[141.00011326983784,38.281770844977],[141.00020331582687,38.28164699916395],[141.00143524355695,38.282044290158936],[141.00226129739025,38.28091239158001],[141.00368481700994,38.281593777499666],[141.0038767933229,38.281685666912736],[141.00255010414898,38.28279057332509]]]},"properties":{"KEY_CODE":"04209027001","PREF":"04","CITY":"209","CITY_NAME":"多賀城市","S_NAME":"町前一丁目","SETAI":"13"}},{"type":"Feature","geometry":{"type":"Polygon","coordinates":[[[141.00255010414898,38.28279057332509],[141.0067915647659,38.28484015539451],[141.0067822537871,38.284933107229946],[141.0065538578467,38.28714120631182],[141.00395930445865,38.28562707157281],[141.0026980875883,38.285150976598175],[141.00011151491688,38.2848155726924],[141.00255010414898,38.28279057332509]]]},"properties":{"KEY_CODE":"04209027002","PREF":"04","CITY":"209","CITY_NAME":"多賀城市","S_NAME":"町前二丁目","SETAI":"153"}},{"type":"Feature","geometry":{"type":"Polygon","coordinates":[[[141.0067822537871,38.284933107229946],[141.0095400276712,38.28609543920168],[141.0115698314059,38.28640250698152],[141.01054318069058,38.28769817902244],[141.0097155941162,38.289028595278516],[141.00815937095157,38.288123651715416],[141.0065538578467,38.28714120631182],[141.0067822537871,38.284933107229946]]]},"properties":{"KEY_CODE":"04209027003","PREF":"04","CITY":"209","CITY_NAME":"多賀城市","S_NAME":"町前三丁目","SETAI":"293"}},{"type":"Feature","geometry":{"type":"Polygon","coordinates":[[[141.0038767933229,38.281685666912736],[141.00428601003506,38.281441188746804],[141.00694752260807,38.28296947118772],[141.0069760933004,38.28301335061058],[141.0069704071642,38.28307220251711],[141.00685542311857,38.28426896209722],[141.0067915647659,38.28484015539451],[141.00255010414898,38.28279057332509],[141.0038767933229,38.281685666912736]]]},"properties":{"KEY_CODE":"04209027004","PREF":"04","CITY":"209","CITY_NAME":"多賀城市","S_NAME":"町前四丁目","SETAI":"0"}},{"type":"Feature","geometry":{"type":"Polygon","coordinates":[[[140.96097438175843,38.30292070112978],[140.96235102060498,38.304370789156074],[140.96168159552153,38.304780188578285],[140.96130820324402,38.3049966838748],[140.96067274352575,38.30429192247624],[140.96004600811423,38.30360347783184],[140.95978760110853,38.303339790654626],[140.95953346091707,38.303022884945186],[140.95913916500587,38.3025208626168],[140.95897614688505,38.302338022483916],[140.95884683951107,38.302209768689764],[140.95840970821234,38.30185673339573],[140.95826110440385,38.301737508864356],[140.96004152265118,38.30160753117408],[140.96018469063083,38.301552194924426],[140.96054031418072,38.30157293540552],[140.96042762406321,38.30239322537336],[140.96046471536576,38.302947146290066],[140.96097438175843,38.30292070112978]]]},"properties":{"KEY_CODE":"042090280","PREF":"04","CITY":"209","CITY_NAME":"多賀城市","S_NAME":"岩切","SETAI":"0"}},{"type":"Feature","geometry":{"type":"Polygon","coordinates":[[[140.9930870189701,38.29825679426128],[140.99342711323948,38.29977084930697],[140.9933972728001,38.30073296808211],[140.98897120282763,38.3003172800135],[140.98897020127072,38.300387668178836],[140.98573060377117,38.300104888674596],[140.98583910307488,38.29967721576003],[140.98710416969817,38.29813028641937],[140.9930870189701,38.29825679426128]]]},"properties":{"KEY_CODE":"04209029001","PREF":"04","CITY":"209","CITY_NAME":"多賀城市","S_NAME":"城南一丁目","SETAI":"387"}},{"type":"Feature","geometry":{"type":"Polygon","coordinates":[[[140.9930870189701,38.29825679426128],[140.98710416969817,38.29813028641937],[140.98867359539554,38.296233686751044],[140.98920254605798,38.295591763231556],[140.98978333969623,38.294905425836866],[140.9904743374908,38.294070443417546],[140.9916760174039,38.292634908885205],[140.9926958959896,38.29349619260837],[140.9924515938434,38.294287100275646],[140.9924014466728,38.29543235523004],[140.9930870189701,38.29825679426128]]]},"properties":{"KEY_CODE":"04209029002","PREF":"04","CITY":"209","CITY_NAME":"多賀城市","S_NAME":"城南二丁目","SETAI":"377"}}]}