{"type":"FeatureCollection","features":[{"type":"Feature","geometry":{"type":"Polygon","coordinates":[[[141.13280333286826,38.540906850631],[141.1326158669053,38.5422359013024],[141.1322103655947,38.543048327404065],[141.13139340846732,38.5438256251875],[141.12834572423606,38.54545457498056],[141.12750402089668,38.54603806207845],[141.12717530596643,38.54680564149585],[141.12725512723262,38.54850307752511],[141.1263815514059,38.54942701164583],[141.12567716996858,38.550705810104915],[141.12577476757295,38.55148920985215],[141.1255298248061,38.552272202954974],[141.12459453092254,38.5531454645539],[141.1231033988148,38.55393874026966],[141.12216567996126,38.55467981026439],[141.12040057514508,38.555047644562805],[141.11897726977315,38.55475752070813],[141.11734250250805,38.5538992003085],[141.1153738510834,38.553832775152806],[141.1148308351635,38.55419473695229],[141.11323040224934,38.55453447902548],[141.11072803984092,38.55436734675913],[141.10925487184102,38.5540960834296],[141.10855732277892,38.55375750065534],[141.1057915722839,38.5534689464419],[141.10463852929007,38.553627182454036],[141.10339575266426,38.554054622224804],[141.10154992477928,38.554159109433506],[141.09998647641342,38.55451320844345],[141.09839767995393,38.554519787305104],[141.09695433650734,38.55429754928409],[141.09595076968768,38.55432613592582],[141.09483188816102,38.55472842934754],[141.0940566626182,38.55557111384289],[141.09288663527545,38.55593535399487],[141.09200629801293,38.55479286069299],[141.0940725173321,38.55416733601885],[141.09400739257487,38.55356555567629],[141.09175316692355,38.55390798794853],[141.09233366676494,38.553641916859625],[141.09232409792418,38.55303128408908],[141.09175367200174,38.553009321199085],[141.09203467759502,38.55037589291082],[141.09031603029817,38.55111717768653],[141.08676984901555,38.552249534208364],[141.08412761051886,38.55229747044403],[141.08409909045875,38.55047400536736],[141.08235291994944,38.55045888712893],[141.08066319024078,38.55016588590904],[141.0813592906316,38.55230184806824],[141.07618946541282,38.552350608034445],[141.0761722164453,38.5505126191445],[141.07613542041477,38.54836357011023],[141.07614368828098,38.547511475199066],[141.07556186843354,38.547390499499656],[141.07471015861097,38.54739508328872],[141.07351947727273,38.548480906087036],[141.07189135490256,38.54944542545389],[141.07078575491016,38.55052809325167],[141.06942867785048,38.55058759078278],[141.06657735017234,38.548359909296984],[141.06610718503364,38.54724990108675],[141.06692326198842,38.54767577870858],[141.06897055808335,38.54692556381332],[141.06862020421167,38.54622833933517],[141.0713373897667,38.54484818790509],[141.0732075440891,38.54423791124328],[141.0753045311939,38.54316878316031],[141.0780131557542,38.54152581865773],[141.0795413891349,38.54135156102223],[141.08098926373387,38.54146392259895],[141.08250350540692,38.54104049111718],[141.08266325890807,38.54131155528691],[141.08450503059936,38.54085530396896],[141.08463254602196,38.540516476462535],[141.08644625478468,38.540065754253],[141.08981875874312,38.53905019965992],[141.09625030973498,38.536916318635335],[141.0947688390793,38.53466785965829],[141.0985055465408,38.53379806217171],[141.09906768831468,38.53463029704535],[141.1030586659568,38.53386029285759],[141.10421460075187,38.53652187118867],[141.11351570008947,38.53692407696475],[141.11463754489827,38.536873654839766],[141.11601587653908,38.53765891599107],[141.1170252067523,38.537035386068354],[141.11804268636536,38.53554679221075],[141.11937189549855,38.53466020334027],[141.12098784118908,38.53270388095929],[141.12173435102957,38.53346966391703],[141.1219737108129,38.534102401475124],[141.12131630739387,38.53463163129766],[141.12137813632896,38.53510235691745],[141.12155469859357,38.53651708660543],[141.12296326857214,38.536414788253],[141.12448657998863,38.53977510303925],[141.1261920562109,38.53873112567307],[141.12870270505627,38.53950523292077],[141.1292615766112,38.53991007797204],[141.13280333286826,38.540906850631]]]},"properties":{"KEY_CODE":"045010010","PREF":"04","CITY":"501","CITY_NAME":"涌谷町","S_NAME":"","SETAI":"2016"}},{"type":"Feature","geometry":{"type":"Polygon","coordinates":[[[141.1400226809209,38.5364224523666],[141.13945242271117,38.53693774978287],[141.13779567398115,38.537876767434746],[141.13619150306386,38.538264793782425],[141.13412928983533,38.53842240677203],[141.13313706453846,38.53956250269066],[141.13280333286826,38.540906850631],[141.1292615766112,38.53991007797204],[141.12870270505627,38.53950523292077],[141.1261920562109,38.53873112567307],[141.12448657998863,38.53977510303925],[141.12296326857214,38.536414788253],[141.12155469859357,38.53651708660543],[141.12137813632896,38.53510235691745],[141.12131630739384,38.53463163129766],[141.1219737108129,38.534102401475124],[141.12173435102957,38.53346966391703],[141.12098784118908,38.53270388095929],[141.12239103610744,38.53117362124522],[141.12292370128318,38.530868661897344],[141.12742772149645,38.53060967739027],[141.12898289303254,38.5304261370646],[141.13201767845234,38.529696422119144],[141.13256746977316,38.52940024518821],[141.13354825382567,38.52788417010472],[141.13425995482837,38.52507789332175],[141.13544105248383,38.52379228514027],[141.136403941571,38.522066333581314],[141.13731962504815,38.521187659402685],[141.13770294148875,38.519903954390905],[141.1371372227997,38.5188061336569],[141.1370629927965,38.51803348753957],[141.13741847077122,38.517368684903694],[141.13843534724742,38.51658208296375],[141.1407713190804,38.51497258682261],[141.14268475632375,38.514290298440834],[141.14667862356552,38.51325726347458],[141.14817224137056,38.51242213562798],[141.14878305608232,38.51143804241339],[141.14957831833715,38.51089406563428],[141.15096850621302,38.5103857757139],[141.15355979795322,38.513064780480015],[141.15478293209532,38.5122697268261],[141.15723849967168,38.512767903406996],[141.15943000521602,38.51299127387261],[141.17072340066716,38.5156762557644],[141.17178895127768,38.51608183621489],[141.17190731532494,38.516133860827715],[141.1719890371832,38.5162002086644],[141.1721204831607,38.51635298737471],[141.17230587352475,38.516518279153345],[141.1725625692339,38.51672475075416],[141.17363925298184,38.517438714127834],[141.17415391018343,38.51787966117471],[141.17509510530232,38.51878855108454],[141.17572987983968,38.51892282135646],[141.17625615425766,38.51938526251013],[141.1763278367599,38.519510198568305],[141.1763223021727,38.51955216402056],[141.17634788355122,38.51986882393526],[141.1763747218222,38.51996418730012],[141.17643282986816,38.52012618489177],[141.1768685336461,38.521222918711835],[141.1765280970872,38.5216035757643],[141.17659842820194,38.52369099852787],[141.17722280439867,38.525582249464485],[141.17741068958895,38.52745676150416],[141.17593843925056,38.52655141964254],[141.17555815448728,38.52524688525476],[141.17502866292557,38.52471420683289],[141.1737282673549,38.52441942104234],[141.17107390298088,38.52481465177364],[141.16932613179605,38.5245019710688],[141.16688966649977,38.52431876895086],[141.16528472638774,38.52441244669816],[141.16358228406287,38.52495754893461],[141.16230949499163,38.52566752625727],[141.15967276035974,38.52727548450953],[141.15702508706246,38.52856808442654],[141.15540695880605,38.52951177665355],[141.154547764129,38.52972290522316],[141.1526697939193,38.52964288944884],[141.15046032576078,38.53005798869466],[141.14667997402884,38.53015293790237],[141.14425558067285,38.53117646527405],[141.14326312519663,38.53250740663424],[141.14229642135598,38.5344306335375],[141.14188918695746,38.53495551342218],[141.141535646868,38.535265857546214],[141.1400226809209,38.5364224523666]]]},"properties":{"KEY_CODE":"045010020","PREF":"04","CITY":"501","CITY_NAME":"涌谷町","S_NAME":"","SETAI":"1239"}},{"type":"Feature","geometry":{"type":"Polygon","coordinates":[[[141.1694341526816,38.55449765987581],[141.1683898671246,38.554669016725335],[141.16703833930274,38.55458504963064],[141.16376856643026,38.55052719955531],[141.1624700835046,38.55092782755134],[141.16078511891428,38.550419755262595],[141.15944543877626,38.55129118653142],[141.15917199111993,38.5519132903955],[141.15784076333236,38.55187758534729],[141.15656711277876,38.55208325943962],[141.15598086369653,38.551557293659386],[141.15536622991328,38.551706935980896],[141.1541829952699,38.55106915293799],[141.15374056677308,38.55040976047214],[141.1531001174128,38.550401665976075],[141.15159801278054,38.54863073913965],[141.15228796414303,38.54706608520984],[141.15327762957992,38.5465505613009],[141.1546293441399,38.54557062930196],[141.15524130863346,38.54482935621627],[141.15499264145714,38.54397699152729],[141.15587153441732,38.543969768596696],[141.15630327375595,38.54364803938868],[141.15599941730676,38.54308679474319],[141.1560984188072,38.542058485975254],[141.15681273889592,38.54130902080359],[141.15792243314223,38.54092402627992],[141.1592732070823,38.54009281899344],[141.15929370275663,38.538579363063434],[141.15978279650363,38.53754489860592],[141.16408044623464,38.53408043587784],[141.16476910004528,38.53369727857868],[141.1645942769189,38.53507492536135],[141.16489213414874,38.53592784728699],[141.16466883952876,38.53866403267108],[141.16515013922262,38.539264026812994],[141.1656748020804,38.53889203244136],[141.1657641788045,38.53751731787341],[141.16635194995487,38.53674507806911],[141.16682590384787,38.535017612444086],[141.16767379394548,38.5343359741278],[141.1698111811434,38.53386261999466],[141.17085417639666,38.53252004771263],[141.1685866498691,38.53292918031415],[141.16704636943203,38.52799398448451],[141.16240932173707,38.528871604479605],[141.162162374295,38.5274095561412],[141.16230949499163,38.52566752625727],[141.16358228406287,38.52495754893461],[141.16528472638774,38.52441244669816],[141.16688966649977,38.52431876895086],[141.16932613179605,38.5245019710688],[141.17107390298088,38.52481465177364],[141.1737282673549,38.52441942104234],[141.17502866292557,38.52471420683289],[141.17555815448728,38.52524688525476],[141.17593843925056,38.52655141964254],[141.17741068958895,38.52745676150416],[141.1775953515462,38.53046954369039],[141.17627450469155,38.53042541549246],[141.17581965375365,38.53095083233987],[141.17504659349504,38.53284207946941],[141.1776126540841,38.53375393752879],[141.17820579246933,38.53379541036625],[141.1801344792223,38.53491574044011],[141.18048518647393,38.53543287745171],[141.17980068276455,38.536495320409486],[141.18033175225577,38.53721378134796],[141.18128981396703,38.53617629360107],[141.1821270206364,38.536716470341574],[141.18309640559883,38.53784071784761],[141.18419985047643,38.53883786656482],[141.1859146216766,38.539932989199464],[141.18524736409776,38.540552398390474],[141.18529390764974,38.541026790828184],[141.1862913843544,38.541799019290394],[141.18577629512507,38.542108704884946],[141.18171564808347,38.542896866987135],[141.1814032740858,38.543053765249645],[141.18149056021375,38.54547049691699],[141.18091159902497,38.54643379778424],[141.17935249099537,38.54718024551697],[141.178161047203,38.54806861243296],[141.1775682555722,38.549129200789544],[141.17696419204418,38.54963336559672],[141.1762555523445,38.550794087261885],[141.17457673397527,38.55257361417003],[141.17117357361104,38.55439058454682],[141.17063117915518,38.55444310970445],[141.1704187122984,38.554450198479564],[141.17017005450145,38.55450933371991],[141.17000858934398,38.554535419261654],[141.16967000106382,38.554502188516416],[141.1694341526816,38.55449765987581]]]},"properties":{"KEY_CODE":"045010030","PREF":"04","CITY":"501","CITY_NAME":"涌谷町","S_NAME":"小塚","SETAI":"175"}},{"type":"Feature","geometry":{"type":"Polygon","coordinates":[[[141.14479217089286,38.56548519400484],[141.144192471118,38.56578774042286],[141.14334346681358,38.56679533537064],[141.1427284446978,38.56751641315088],[141.14133985957235,38.56872826203892],[141.14000505153143,38.56919544378509],[141.13863353334608,38.56884147532439],[141.136378844089,38.565686121393],[141.13447188457832,38.56384585116235],[141.13394661693022,38.56314082938902],[141.1335837907279,38.56198339591333],[141.13239882515578,38.561624126334195],[141.13103847166522,38.56059849993305],[141.12992352213547,38.56029210126207],[141.12768773853722,38.55915282534223],[141.1262452962624,38.55877599169003],[141.12609305459048,38.55955691537649],[141.12499622315423,38.561452687787614],[141.12382804948135,38.561092871453326],[141.12421866477075,38.560258983836505],[141.12338475637773,38.55993252835969],[141.1238694147862,38.559024223917156],[141.12170278056195,38.55808734732133],[141.12124710256194,38.55763479236676],[141.11713394343525,38.559216307463075],[141.11651153429526,38.56097008731368],[141.11563816210906,38.56274883931247],[141.1160265550423,38.56093622160812],[141.11544813252283,38.560754073217964],[141.1147273597147,38.56110140831619],[141.1148421126895,38.56054496178133],[141.11392216122442,38.560957669367276],[141.11406966499302,38.56175644548982],[141.11331217845077,38.56150433597835],[141.11277005228064,38.56181350442174],[141.11265087138034,38.56122524366598],[141.1132059400689,38.560710950157464],[141.11237977996382,38.56048067945596],[141.11354066801127,38.56012145540394],[141.1139860477472,38.559693854742925],[141.1129729592708,38.5591454864422],[141.11275479203337,38.55963742830087],[141.11208427084517,38.55968507474081],[141.1137933738272,38.558136459362274],[141.1141471079417,38.55753551539863],[141.1116992259318,38.557780161253525],[141.10899912305769,38.55678773378011],[141.10599201496942,38.557268632903934],[141.10430780106995,38.557388415324404],[141.10348409953417,38.557731267225044],[141.10248809168658,38.559619015782],[141.1009212337899,38.56096583454242],[141.10011514343867,38.561390412489935],[141.0982287487628,38.56191134525705],[141.09722151886322,38.56018626711013],[141.1010937667694,38.558792265278065],[141.10000600521516,38.55788328935732],[141.09963673368574,38.55659005484479],[141.0989079248524,38.556485297923174],[141.09733184025202,38.55684530547372],[141.09555850517418,38.55742631472854],[141.09516959183978,38.55729542832845],[141.0940566626182,38.55557111384289],[141.09483188816102,38.55472842934754],[141.09595076968768,38.55432613592582],[141.09695433650734,38.55429754928409],[141.09839767995393,38.554519787305104],[141.09998647641342,38.55451320844345],[141.10154992477928,38.554159109433506],[141.10339575266426,38.554054622224804],[141.10463852929007,38.553627182454036],[141.1057915722839,38.5534689464419],[141.10855732277892,38.55375750065534],[141.10925487184102,38.5540960834296],[141.11072803984092,38.55436734675913],[141.11323040224934,38.55453447902548],[141.1148308351635,38.55419473695229],[141.1153738510834,38.553832775152806],[141.11734250250805,38.5538992003085],[141.11897726977315,38.55475752070813],[141.12040057514508,38.555047644562805],[141.12216567996126,38.55467981026439],[141.1231033988148,38.55393874026966],[141.12459453092254,38.5531454645539],[141.1255298248061,38.552272202954974],[141.12577476757295,38.55148920985215],[141.12567716996858,38.550705810104915],[141.1263815514059,38.54942701164583],[141.12725512723262,38.54850307752511],[141.12717530596643,38.54680564149585],[141.12750402089668,38.54603806207845],[141.12834572423606,38.54545457498056],[141.13139340846732,38.5438256251875],[141.1322103655947,38.543048327404065],[141.1326158669053,38.5422359013024],[141.13280333286826,38.540906850631],[141.13313706453846,38.53956250269066],[141.13412928983533,38.53842240677203],[141.13619150306386,38.538264793782425],[141.13779567398115,38.537876767434746],[141.13945242271117,38.53693774978287],[141.1400226809209,38.5364224523666],[141.141535646868,38.535265857546214],[141.14188918695746,38.53495551342218],[141.14229642135598,38.5344306335375],[141.14326312519663,38.53250740663424],[141.14425558067285,38.53117646527405],[141.14667997402884,38.53015293790237],[141.15046032576078,38.53005798869466],[141.1526697939193,38.52964288944884],[141.154547764129,38.52972290522316],[141.15540695880605,38.52951177665355],[141.15702508706246,38.52856808442654],[141.15967276035974,38.52727548450953],[141.16230949499163,38.52566752625727],[141.162162374295,38.5274095561412],[141.16240932173707,38.528871604479605],[141.16704636943203,38.52799398448451],[141.1685866498691,38.53292918031415],[141.17085417639666,38.53252004771263],[141.1698111811434,38.53386261999466],[141.16767379394548,38.5343359741278],[141.16682590384787,38.535017612444086],[141.16635194995487,38.53674507806911],[141.1657641788045,38.53751731787341],[141.1656748020804,38.53889203244136],[141.16515013922262,38.539264026812994],[141.16466883952876,38.53866403267108],[141.16489213414874,38.53592784728699],[141.1645942769189,38.53507492536135],[141.16476910004528,38.53369727857868],[141.16408044623464,38.53408043587784],[141.15978279650363,38.53754489860592],[141.15929370275663,38.538579363063434],[141.1592732070823,38.54009281899344],[141.15792243314223,38.54092402627992],[141.15681273889592,38.54130902080359],[141.1560984188072,38.542058485975254],[141.15599941730676,38.54308679474319],[141.15630327375595,38.54364803938868],[141.15587153441732,38.543969768596696],[141.15499264145714,38.54397699152729],[141.15524130863346,38.54482935621627],[141.1546293441399,38.54557062930196],[141.15327762957992,38.5465505613009],[141.15228796414303,38.54706608520984],[141.15159801278054,38.54863073913965],[141.1531001174128,38.550401665976075],[141.15374056677308,38.55040976047214],[141.1541829952699,38.55106915293799],[141.15536622991328,38.551706935980896],[141.15598086369653,38.551557293659386],[141.15656711277876,38.55208325943962],[141.15784076333236,38.55187758534729],[141.15917199111993,38.5519132903955],[141.15944543877626,38.55129118653142],[141.16078511891428,38.550419755262595],[141.1624700835046,38.55092782755134],[141.16376856643026,38.55052719955531],[141.16703833930274,38.55458504963064],[141.1662444043676,38.55474398756923],[141.1655005124171,38.55520176442765],[141.16512797528083,38.55530037427592],[141.1644031559648,38.555400123236176],[141.16291545058152,38.55633183730311],[141.16132502838556,38.55747525164544],[141.15992072742995,38.55853690256583],[141.15963339761308,38.559155949044005],[141.15880751093718,38.55982534194121],[141.1579168817617,38.55992536536489],[141.15712999838345,38.56005775304841],[141.15577720805737,38.56107851474555],[141.154415155023,38.56235140604773],[141.15348525365158,38.562956008801955],[141.15298854963362,38.56310376178714],[141.15180577775814,38.56276534239695],[141.15130713067,38.56247376218106],[141.15074615449737,38.562149831988464],[141.1490241056477,38.56169896642158],[141.1485893512519,38.56179768802339],[141.1480529652339,38.56235248064873],[141.1467540271313,38.56388538093075],[141.1464443206455,38.56414648418957],[141.14567274039922,38.56543401001173],[141.14521698411855,38.565475902081594],[141.14479217089286,38.56548519400484]]]},"properties":{"KEY_CODE":"045010040","PREF":"04","CITY":"501","CITY_NAME":"涌谷町","S_NAME":"涌谷","SETAI":"847"}},{"type":"Feature","geometry":{"type":"Polygon","coordinates":[[[141.1334154355495,38.58324161344769],[141.13154346525948,38.584481076329084],[141.13099450728043,38.58453695183515],[141.13033327742264,38.58372106160911],[141.13024854049598,38.58306755709955],[141.12957386219236,38.58267822192055],[141.12745754523326,38.582864740404375],[141.12579804330585,38.58137130687411],[141.12565787664536,38.58231323763037],[141.1249891133802,38.58306842688711],[141.12438221385455,38.58330839724732],[141.12306925920632,38.58299775743101],[141.12244025603397,38.58370876937726],[141.1205253783324,38.584893745407335],[141.11951801143388,38.58500933914984],[141.11844789484257,38.58543885233766],[141.1176152930524,38.585252750160194],[141.1163810180076,38.586183234925464],[141.11613807620344,38.587086654363596],[141.11521505302886,38.58814819619351],[141.11463028818685,38.58933516602655],[141.11360236563374,38.589741777661324],[141.11243530879236,38.58979016266256],[141.11162952290115,38.58951905314249],[141.1100198668063,38.5894775665056],[141.10937205478345,38.589755095137924],[141.10833416875437,38.59063898989342],[141.10816321260907,38.59059532341877],[141.1080088677471,38.590081130899314],[141.1067958796553,38.58870515886202],[141.10657305446207,38.58814256146115],[141.1066124775594,38.58647578695095],[141.107341817766,38.584619807054985],[141.10995358166068,38.58307337338199],[141.11081846740856,38.582189318029045],[141.11269759833073,38.57943179116225],[141.11451967490115,38.575177802434],[141.1159657278288,38.57276234452565],[141.11554703196913,38.57114060589057],[141.1151528311193,38.5705960966776],[141.11605459020547,38.56988920765042],[141.1158449502195,38.569047371653355],[141.11521051165164,38.568622398944555],[141.11448818564472,38.56859164380094],[141.11319096549266,38.56948993572884],[141.1108316132436,38.57013162973543],[141.10931547283522,38.57005193427654],[141.10816454199573,38.56968852620673],[141.1063572519707,38.5697776724433],[141.1066502526403,38.567945871568256],[141.10838232716753,38.56780453554035],[141.10974910174386,38.56798427865763],[141.11095262343795,38.567945494659654],[141.11264085568845,38.56724166665883],[141.11348913078731,38.565810683379524],[141.1143185108204,38.56488664515756],[141.11519313101866,38.56326836885723],[141.11563816210906,38.56274883931247],[141.11651153429526,38.56097008731368],[141.11713394343525,38.559216307463075],[141.12124710256194,38.55763479236676],[141.12170278056195,38.55808734732133],[141.1238694147862,38.559024223917156],[141.12338475637773,38.55993252835969],[141.12421866477075,38.560258983836505],[141.12382804948135,38.561092871453326],[141.12499622315423,38.561452687787614],[141.12609305459048,38.55955691537649],[141.1262452962624,38.55877599169003],[141.12768773853722,38.55915282534223],[141.12992352213547,38.56029210126207],[141.13103847166522,38.56059849993305],[141.13239882515578,38.561624126334195],[141.1335837907279,38.56198339591333],[141.13394661693022,38.56314082938902],[141.13447188457832,38.56384585116235],[141.136378844089,38.565686121393],[141.13863353334608,38.56884147532439],[141.13831443840243,38.56899377026935],[141.13647858227537,38.56978949837509],[141.1354566187175,38.57016882759019],[141.13384774991206,38.57122463263601],[141.1327034065546,38.57248927863739],[141.13225901483523,38.57331911423423],[141.13336479659017,38.575770948355974],[141.1344763953927,38.5776765980187],[141.13441544904273,38.58031966608776],[141.13425788133372,38.58281250236891],[141.1334154355495,38.58324161344769]]]},"properties":{"KEY_CODE":"045010050","PREF":"04","CITY":"501","CITY_NAME":"涌谷町","S_NAME":"下郡","SETAI":"59"}},{"type":"Feature","geometry":{"type":"Polygon","coordinates":[[[141.11563816210906,38.56274883931247],[141.11519313101866,38.56326836885723],[141.1143185108204,38.56488664515756],[141.11348913078731,38.565810683379524],[141.11264085568845,38.56724166665883],[141.11095262343795,38.567945494659654],[141.10974910174386,38.56798427865763],[141.10838232716753,38.56780453554035],[141.1066502526403,38.567945871568256],[141.1063572519707,38.5697776724433],[141.10816454199573,38.56968852620673],[141.10931547283522,38.57005193427654],[141.1108316132436,38.57013162973543],[141.11319096549266,38.56948993572884],[141.11448818564472,38.56859164380094],[141.11521051165164,38.568622398944555],[141.1158449502195,38.569047371653355],[141.11605459020547,38.56988920765042],[141.1151528311193,38.5705960966776],[141.11554703196913,38.57114060589057],[141.1159657278288,38.57276234452565],[141.11451967490115,38.575177802434],[141.11269759833073,38.57943179116225],[141.11081846740856,38.582189318029045],[141.10995358166068,38.58307337338199],[141.107341817766,38.584619807054985],[141.1066124775594,38.58647578695095],[141.10657305446207,38.58814256146115],[141.1067958796553,38.58870515886202],[141.1080088677471,38.590081130899314],[141.10816321260907,38.59059532341877],[141.10737090852325,38.58978542872244],[141.1058880309388,38.589195063686226],[141.10295935969896,38.58912424141268],[141.1020448971708,38.58800717367078],[141.1012631243839,38.587532018857125],[141.1007926123203,38.58681725892193],[141.10115637642772,38.586305134917865],[141.10126184823685,38.58533610132954],[141.0985115321825,38.584511693853955],[141.09814113256692,38.585192459411935],[141.09688089460025,38.58547094279248],[141.0965715379464,38.58484309898772],[141.0947390122933,38.58455449851305],[141.09364626835531,38.58413079479194],[141.0930554293107,38.584519490966606],[141.09218879199554,38.58445241156862],[141.09196814318935,38.58408281101316],[141.09125691113525,38.58454059575556],[141.09076323096247,38.58449014845913],[141.08965209855816,38.58351111939226],[141.0886099886732,38.583435949847306],[141.08810433488486,38.58310130762881],[141.08785974021689,38.58214630004387],[141.08807779936186,38.58178419651258],[141.0877920506258,38.58004168018491],[141.0841248996624,38.578767008223075],[141.0841937284841,38.57840002251634],[141.0840012016882,38.577001633417304],[141.08359700163857,38.57722026254505],[141.08240982659282,38.57710398390162],[141.08257554026366,38.5762524169649],[141.08214480141015,38.575349470041125],[141.0815616420248,38.57476540039328],[141.0813451562925,38.57398685762793],[141.0820234244667,38.57206663034614],[141.0831882880319,38.57095617225165],[141.0840782917098,38.569643868442085],[141.08455896380877,38.56844884473353],[141.08554805366748,38.566505386292285],[141.08684440108104,38.56630790050426],[141.08840595863094,38.56557771716109],[141.09129947200526,38.56404332616314],[141.09488311085585,38.563230725341626],[141.0982287487628,38.56191134525705],[141.10011514343867,38.561390412489935],[141.1009212337899,38.56096583454242],[141.10248809168658,38.559619015782],[141.10348409953417,38.557731267225044],[141.10430780106995,38.557388415324404],[141.10599201496942,38.557268632903934],[141.10899912305769,38.55678773378011],[141.1116992259318,38.557780161253525],[141.1141471079417,38.55753551539863],[141.1137933738272,38.558136459362274],[141.11208427084517,38.55968507474081],[141.11275479203337,38.55963742830087],[141.1129729592708,38.5591454864422],[141.1139860477472,38.559693854742925],[141.11354066801127,38.56012145540394],[141.11237977996382,38.56048067945596],[141.1132059400689,38.560710950157464],[141.11265087138034,38.56122524366598],[141.11277005228064,38.56181350442174],[141.11331217845077,38.56150433597835],[141.11406966499302,38.56175644548982],[141.11392216122442,38.560957669367276],[141.1148421126895,38.56054496178133],[141.1147273597147,38.56110140831619],[141.11544813252283,38.560754073217964],[141.1160265550423,38.56093622160812],[141.11563816210906,38.56274883931247]]]},"properties":{"KEY_CODE":"045010060","PREF":"04","CITY":"501","CITY_NAME":"涌谷町","S_NAME":"上郡","SETAI":"144"}},{"type":"Feature","geometry":{"type":"Polygon","coordinates":[[[141.19747299371235,38.59584637587902],[141.19655664011313,38.596360059646976],[141.19622474130654,38.59596989156296],[141.19464675713658,38.596494318588995],[141.19367283152073,38.59636146459311],[141.1930790810955,38.59679712502575],[141.1913478512282,38.598806928601626],[141.19153462529124,38.599157715212996],[141.19007759216365,38.59980248981277],[141.1856377288422,38.60153603467014],[141.17932756338473,38.60405633813166],[141.17523108319574,38.59761512763272],[141.1743959187949,38.59618524309426],[141.17027622370435,38.59757903513655],[141.1684544969932,38.598329751554736],[141.16736309295837,38.59853317276522],[141.1651134137176,38.59838822242596],[141.1627674876208,38.59845901433902],[141.1615566497591,38.598756748636774],[141.16122381821535,38.59889126570739],[141.16062035277966,38.59908650403443],[141.16042256789814,38.59909226268665],[141.15922217901857,38.59914711930913],[141.15872813777776,38.599299389203225],[141.15856019958218,38.59932026488119],[141.15800012801466,38.59932476569068],[141.15706633891918,38.5992541369892],[141.15620950160132,38.59927253645783],[141.1544936936227,38.5996699692114],[141.1530472096445,38.59976019528942],[141.15226373593313,38.5999059026511],[141.15154490219325,38.60016320052156],[141.15097341175388,38.60043220234713],[141.14997607909427,38.600746266972486],[141.14908501585265,38.60118138006235],[141.14781652782221,38.601609894542285],[141.14716639270367,38.60172396279282],[141.1451195621193,38.60270846435721],[141.14468562659812,38.6027975999261],[141.14448708152693,38.60277518195309],[141.14406346656224,38.602610340971545],[141.14354255023173,38.60251726659501],[141.14345524660146,38.60264010725372],[141.1432506575752,38.60310391926723],[141.14296184193861,38.60327065112736],[141.14255060265367,38.60356524162596],[141.14212882929888,38.60383508356208],[141.14198287751262,38.60391993003972],[141.14148429544204,38.60319501419794],[141.1420742072251,38.60276453715835],[141.1401098344599,38.601576402638166],[141.13955800276716,38.60206181034509],[141.1381516826708,38.59899094270212],[141.13739375721187,38.599217156363366],[141.1362433333048,38.597071432960405],[141.13525679869298,38.597326940095876],[141.1347107975471,38.59615503120992],[141.13417949836975,38.59560584611836],[141.13271189326372,38.59473378105784],[141.13193296221073,38.594496063510334],[141.13148865060333,38.593419320716016],[141.13123969034092,38.59149025975185],[141.1325056370272,38.59009534101917],[141.13311838520758,38.58884470258747],[141.1335935446676,38.58684749149278],[141.13393267671773,38.58449114378698],[141.1334154355495,38.58324161344769],[141.13425788133372,38.58281250236891],[141.13441544904273,38.58031966608776],[141.1344763953927,38.5776765980187],[141.13336479659017,38.575770948355974],[141.13225901483523,38.57331911423423],[141.1327034065546,38.57248927863739],[141.13384774991206,38.57122463263601],[141.13628696399226,38.571228489733095],[141.1388224739326,38.5714139211031],[141.14013227755925,38.57198004747834],[141.14188728321895,38.57105341906228],[141.14360345313565,38.570627856405224],[141.14557297668333,38.57041358952756],[141.14709933403245,38.57037334140702],[141.14822595410658,38.57065115823523],[141.15062428623276,38.57089344178321],[141.15286935224216,38.57107485958861],[141.15308110296436,38.57181514803077],[141.15382701228341,38.57237618978903],[141.1549474280026,38.572014449814226],[141.1570067153668,38.57172824279457],[141.16094561018028,38.57124715252554],[141.1626096274549,38.571027823388405],[141.1644356310837,38.57096736498219],[141.16553891831632,38.57082207099247],[141.1651009112644,38.572572091589095],[141.1649712484431,38.5742552184863],[141.16513104055164,38.57550874352497],[141.16553107532013,38.57681339324314],[141.1667402092258,38.57906636422434],[141.16648010347126,38.58067060061439],[141.16700834795046,38.58187704199553],[141.16783949131064,38.582587254739316],[141.1675085713792,38.583104253476456],[141.1685016517175,38.58473589643117],[141.1693522331635,38.58497038491974],[141.16950290580684,38.58645182769929],[141.1709233000022,38.58657149624716],[141.17246416965114,38.58714830048522],[141.17389880300675,38.588416847449686],[141.17483667865608,38.58842792585559],[141.17603185483142,38.587254951135115],[141.17709639832424,38.5871796343143],[141.17836078788844,38.58765750423719],[141.17895895129934,38.58810972703651],[141.17948117223816,38.5891745107318],[141.1802722472128,38.58963981386983],[141.1817194681462,38.58984880258319],[141.18225287302303,38.58959271442571],[141.18229357140171,38.58874320043045],[141.18266908468397,38.58779753431116],[141.18325016152187,38.58769952361265],[141.1839483982343,38.588066258142305],[141.18459194763048,38.589151772074786],[141.18439861306388,38.59100330329361],[141.18474400055575,38.59200566519299],[141.18577544328164,38.59111954685373],[141.1858213357054,38.58826520321976],[141.18622950787676,38.58737827010056],[141.1869613759279,38.58741886819659],[141.18926661601432,38.58949767695763],[141.1897114751783,38.58966666012631],[141.19149717221288,38.58762461672208],[141.19136568420683,38.5869745295494],[141.18971607653666,38.58660776574493],[141.18786710920608,38.585429488125065],[141.18728580668488,38.58488393000481],[141.18770510119026,38.58466630912658],[141.18973776986996,38.58460330756994],[141.19125585253647,38.584424012752464],[141.19187612517803,38.58484879402454],[141.1928871236488,38.58689838421396],[141.19423807316446,38.58798829658346],[141.19509652326627,38.58793808342188],[141.19508775598666,38.587397140488044],[141.19452724808716,38.58595824692635],[141.1948367336619,38.58436507853996],[141.19494735939688,38.58291469385638],[141.1940886548756,38.582903108060165],[141.19248780147794,38.58320515788013],[141.1916673135422,38.583111370431624],[141.1905010928302,38.58062895075013],[141.19012266437272,38.58005773409237],[141.18987601843855,38.57883675558492],[141.19016347096223,38.57838486597468],[141.19205957460557,38.57806506235597],[141.19395112665646,38.57733095689874],[141.19522449316312,38.57856286332062],[141.1968599566614,38.57649232930066],[141.19478858479022,38.575946884035275],[141.1943967943819,38.575633886640894],[141.194784862036,38.57471572675565],[141.19536847538998,38.57438017352385],[141.19585523908898,38.57418427559998],[141.19679445623967,38.573933908664706],[141.19708460616948,38.57393695135733],[141.19767573983876,38.574104041044116],[141.1981860180522,38.57459923064789],[141.2000118399667,38.57525459204023],[141.20041755196942,38.57418713891776],[141.20059067860967,38.5733155179957],[141.2012732187802,38.57243315080972],[141.20236173835232,38.57124403704241],[141.20262370396532,38.5698404492238],[141.20150516274066,38.57008861785559],[141.20101951102242,38.569682612594065],[141.20100063214534,38.56875401869701],[141.2016445491012,38.5667919336117],[141.20220441896672,38.566139542118655],[141.20302101596945,38.5664886156469],[141.20332713006636,38.56750710089881],[141.20395291138516,38.56828400319908],[141.2048863725575,38.56829864936251],[141.20641387421833,38.567923021454575],[141.20710621212154,38.568070879801866],[141.20817915416487,38.56894599922299],[141.20877273174537,38.569021244529615],[141.21037222456383,38.5684334704228],[141.21306593170672,38.56816942200747],[141.21495764377678,38.566976596540734],[141.2159949205288,38.56580328395642],[141.21652356439378,38.564287725224524],[141.21631326760024,38.56349968276731],[141.21562879901336,38.562365769412914],[141.2158945958193,38.56148143466201],[141.21655665950752,38.56042251410194],[141.21885361873197,38.55798416719365],[141.22066189302822,38.55690778812445],[141.22195821690286,38.556846199839114],[141.2256291608411,38.55721656497809],[141.2271453706183,38.55693331009151],[141.2283830608311,38.55628243820199],[141.22893384047137,38.55675610065358],[141.226409019603,38.56008200168874],[141.22576174384113,38.55981600602685],[141.22507592888138,38.56014320074839],[141.22628102530348,38.561324728635796],[141.22441557889928,38.56275696928186],[141.22372635557937,38.565319864012686],[141.22332677161012,38.566274626118584],[141.22275805673465,38.56666771513841],[141.21982398888727,38.567247683105634],[141.21772443634805,38.568631870667396],[141.21450194149173,38.56863000387187],[141.21247770500406,38.56903128355424],[141.21029001858923,38.56928862523845],[141.20901941531724,38.56978497138729],[141.20887163493822,38.570576704569454],[141.2072559615094,38.57138311623933],[141.20625611857574,38.5716920460371],[141.20474686441537,38.571979071874665],[141.20410838371637,38.5718579177898],[141.2012297873525,38.57490336191029],[141.20015507322486,38.5757369829668],[141.1993573905968,38.577251615498255],[141.1975404485297,38.57846041841228],[141.19628040341175,38.57958342008625],[141.19563442173595,38.57985694722064],[141.19261556755117,38.58204118337217],[141.1942579961158,38.58167523806327],[141.19533070806247,38.58157059631124],[141.19559336914486,38.58481588373325],[141.19578493593545,38.5878236334039],[141.19567242061177,38.588048222204016],[141.19543575680646,38.58824363160237],[141.200743644084,38.58942578295792],[141.20056918880934,38.59067380856087],[141.20088899327683,38.593956907045516],[141.19747299371235,38.59584637587902]]]},"properties":{"KEY_CODE":"045010070","PREF":"04","CITY":"501","CITY_NAME":"涌谷町","S_NAME":"小里","SETAI":"352"}},{"type":"Feature","geometry":{"type":"Polygon","coordinates":[[[141.14360345313565,38.570627856405224],[141.14188728321895,38.571053419062295],[141.14013227755927,38.57198004747834],[141.1388224739326,38.5714139211031],[141.13628696399226,38.571228489733095],[141.13384774991206,38.57122463263601],[141.1354566187175,38.57016882759019],[141.13647858227537,38.56978949837509],[141.13831443840243,38.56899377026935],[141.13863353334608,38.56884147532439],[141.14000505153143,38.56919544378509],[141.14133985957235,38.56872826203892],[141.1427284446978,38.56751641315088],[141.14334346681358,38.56679533537064],[141.144192471118,38.565787740422834],[141.14479217089286,38.56548519400484],[141.14521698411855,38.565475902081594],[141.14567274039928,38.565434010011714],[141.1464443206455,38.56414648418957],[141.1467540271313,38.56388538093075],[141.1480529652339,38.56235248064873],[141.1485893512519,38.56179768802339],[141.1490241056477,38.561698966421616],[141.1507461544973,38.562149831988464],[141.15130713067,38.56247376218106],[141.15180577775814,38.56276534239695],[141.15298854963362,38.563103761787154],[141.15348525365158,38.562956008801955],[141.154415155023,38.56235140604773],[141.15577720805737,38.56107851474555],[141.15712999838345,38.56005775304841],[141.1579168817617,38.55992536536489],[141.15880751093718,38.55982534194121],[141.15963339761308,38.559155949044005],[141.15992072742995,38.55853690256583],[141.16132502838556,38.55747525164544],[141.16291545058152,38.55633183730311],[141.1644031559648,38.555400123236176],[141.16512797528083,38.55530037427592],[141.1655005124171,38.55520176442765],[141.1662444043676,38.55474398756923],[141.16703833930274,38.55458504963064],[141.1683898671246,38.554669016725335],[141.1694341526816,38.55449765987581],[141.16967000106382,38.554502188516416],[141.17000858934398,38.554535419261654],[141.17017005450145,38.55450933371991],[141.1704187122984,38.554450198479564],[141.17063117915518,38.55444310970445],[141.17117357361104,38.55439058454682],[141.1713431455351,38.554531140709045],[141.1714942786811,38.554757898422594],[141.17138280668016,38.55498978080111],[141.17130709576747,38.55523042723329],[141.1714107779979,38.55553136493115],[141.1717976029197,38.55621957993149],[141.17222254844998,38.5567821260458],[141.1721701487202,38.5568809530804],[141.17189585406425,38.557238721194544],[141.1717566910627,38.55740100034045],[141.17164736721867,38.55771916174665],[141.17164276980918,38.55816286721979],[141.17136651254057,38.558791335813424],[141.171752100912,38.5598667998599],[141.17087715353762,38.56367894064687],[141.16986900406891,38.566616901178044],[141.16938619104894,38.56765815396158],[141.16881150021675,38.56825990136293],[141.16811239336667,38.569074843637694],[141.16768724498212,38.56944107043047],[141.16762560905977,38.56949417529727],[141.16553891831632,38.57082207099242],[141.1644356310837,38.57096736498219],[141.16260962745494,38.571027823388405],[141.16094561018028,38.57124715252554],[141.1570067153668,38.57172824279457],[141.15494742800263,38.572014449814276],[141.15382701228341,38.57237618978903],[141.15308110296436,38.57181514803077],[141.15286935224216,38.57107485958861],[141.15062428623276,38.57089344178321],[141.14822595410658,38.57065115823523],[141.14709933403245,38.57037334140701],[141.14557297668333,38.57041358952756],[141.14360345313565,38.570627856405224]]]},"properties":{"KEY_CODE":"045010080","PREF":"04","CITY":"501","CITY_NAME":"涌谷町","S_NAME":"成沢","SETAI":"25"}},{"type":"Feature","geometry":{"type":"Polygon","coordinates":[[[141.19536847538998,38.57438017352385],[141.194784862036,38.57471572675565],[141.1943967943819,38.575633886640894],[141.19478858479022,38.575946884035275],[141.1968599566614,38.57649232930066],[141.19522449316312,38.57856286332062],[141.19395112665646,38.57733095689874],[141.19205957460557,38.57806506235597],[141.19016347096223,38.57838486597468],[141.18987601843855,38.57883675558492],[141.19012266437272,38.58005773409237],[141.1905010928302,38.58062895075013],[141.1916673135422,38.583111370431624],[141.19248780147794,38.58320515788013],[141.1940886548756,38.582903108060165],[141.19494735939688,38.58291469385638],[141.1948367336619,38.58436507853996],[141.19452724808716,38.58595824692635],[141.19508775598666,38.587397140488044],[141.19509652326627,38.58793808342188],[141.19423807316446,38.58798829658346],[141.1928871236488,38.58689838421396],[141.19187612517803,38.58484879402454],[141.19125585253647,38.584424012752464],[141.18973776986996,38.58460330756994],[141.18770510119026,38.58466630912658],[141.18728580668488,38.58488393000481],[141.18786710920608,38.585429488125065],[141.18971607653666,38.58660776574493],[141.19136568420683,38.5869745295494],[141.19149717221288,38.58762461672208],[141.1897114751783,38.58966666012631],[141.18926661601432,38.58949767695763],[141.1869613759279,38.58741886819659],[141.18622950787676,38.58737827010056],[141.1858213357054,38.58826520321976],[141.18577544328164,38.59111954685373],[141.18474400055575,38.59200566519299],[141.18439861306388,38.59100330329361],[141.18459194763048,38.589151772074786],[141.1839483982343,38.588066258142305],[141.18325016152187,38.58769952361265],[141.18266908468397,38.58779753431116],[141.18229357140171,38.58874320043045],[141.18225287302303,38.58959271442571],[141.1817194681462,38.58984880258319],[141.1802722472128,38.58963981386983],[141.17948117223816,38.5891745107318],[141.17895895129934,38.58810972703651],[141.17836078788844,38.58765750423719],[141.17709639832424,38.5871796343143],[141.17603185483142,38.587254951135115],[141.17483667865608,38.58842792585559],[141.17389880300675,38.588416847449686],[141.17246416965114,38.58714830048522],[141.1709233000022,38.58657149624716],[141.16950290580684,38.58645182769929],[141.1693522331635,38.58497038491974],[141.1685016517175,38.58473589643117],[141.1675085713792,38.583104253476456],[141.16783949131064,38.582587254739316],[141.16700834795046,38.58187704199553],[141.16648010347126,38.58067060061439],[141.1667402092258,38.57906636422434],[141.16553107532013,38.57681339324314],[141.16513104055164,38.57550874352497],[141.1649712484431,38.5742552184863],[141.1651009112644,38.572572091589095],[141.16553891831632,38.57082207099247],[141.16762560905977,38.56949417529727],[141.16768724498218,38.56944107043046],[141.16863809514035,38.56970455302057],[141.16976426299846,38.56981394583592],[141.17485605075692,38.568847131046056],[141.17684599411695,38.56893694323905],[141.1781987697545,38.56942231675285],[141.1795798856431,38.57017561691502],[141.18159995340233,38.57172743231732],[141.1824682118221,38.572557237163785],[141.18302515109872,38.57270198830504],[141.18462241324931,38.571936667266364],[141.18521959998546,38.571932213685486],[141.18767751061552,38.570128498721814],[141.18793566485277,38.56937826726466],[141.18882544477432,38.56854695819869],[141.1892928777667,38.569185127735025],[141.18945440250044,38.568799777085886],[141.1900941374991,38.569059252362884],[141.18997998012327,38.568525942559056],[141.19173131138876,38.56871489631068],[141.19198840053394,38.56958631990924],[141.19066437427344,38.57186995729592],[141.19029454692546,38.57192133155378],[141.19051333834088,38.57228230644991],[141.19116815533744,38.57338747268875],[141.19138118069867,38.57392935146625],[141.19160014219517,38.57432185607191],[141.1918663491513,38.57447955309509],[141.19323525132495,38.574506917307154],[141.19536847538998,38.57438017352385]]]},"properties":{"KEY_CODE":"045010090","PREF":"04","CITY":"501","CITY_NAME":"涌谷町","S_NAME":"太田","SETAI":"115"}},{"type":"Feature","geometry":{"type":"Polygon","coordinates":[[[141.18882544477432,38.56854695819869],[141.18793566485277,38.56937826726466],[141.18767751061552,38.570128498721814],[141.18521959998546,38.571932213685486],[141.18462241324931,38.571936667266364],[141.18302515109872,38.57270198830504],[141.1824682118221,38.572557237163785],[141.18159995340233,38.57172743231732],[141.1795798856431,38.57017561691502],[141.1781987697545,38.56942231675285],[141.17684599411695,38.56893694323905],[141.17485605075692,38.568847131046056],[141.16976426299846,38.56981394583592],[141.16863809514035,38.56970455302057],[141.16768724498218,38.56944107043046],[141.16811239336667,38.569074843637694],[141.16881150021675,38.56825990136293],[141.16938619104894,38.56765815396161],[141.16986900406891,38.566616901178044],[141.17087715353762,38.56367894064687],[141.171752100912,38.5598667998599],[141.17136651254057,38.558791335813424],[141.17164276980918,38.55816286721979],[141.17164736721867,38.55771916174665],[141.1717566910627,38.55740100034045],[141.17189585406425,38.557238721194544],[141.1721701487202,38.5568809530804],[141.1733301230892,38.55632285974082],[141.1756776940105,38.55565630008942],[141.17905033467716,38.55505073541496],[141.18195079200865,38.554626647219145],[141.18312015598775,38.55681423912398],[141.18382850524776,38.55810382693795],[141.18361563589528,38.559199916070796],[141.18374543102854,38.5601929324107],[141.1837750495595,38.56081222464128],[141.18403354156658,38.560988404589615],[141.1849484449203,38.56137884804848],[141.18539863294043,38.56124110119889],[141.18618025017474,38.56137643824068],[141.18708204870225,38.56139147578399],[141.18747695776727,38.56146996611581],[141.18847613278894,38.56372687289684],[141.18959758746215,38.564827966486234],[141.19010278152845,38.56504998135767],[141.18986252448462,38.56548737407186],[141.1903156278133,38.566139876598264],[141.18979976404677,38.566628074662525],[141.1897441537754,38.56780493198118],[141.18882544477432,38.56854695819869]]]},"properties":{"KEY_CODE":"045010100","PREF":"04","CITY":"501","CITY_NAME":"涌谷町","S_NAME":"箟岳","SETAI":"37"}},{"type":"Feature","geometry":{"type":"Polygon","coordinates":[[[141.20041755196942,38.57418713891776],[141.2000118399667,38.57525459204023],[141.1981860180522,38.57459923064789],[141.19767573983876,38.574104041044116],[141.19708460616948,38.57393695135733],[141.19679445623967,38.573933908664706],[141.19585523908898,38.57418427559998],[141.19536847539004,38.57438017352385],[141.19323525132495,38.574506917307154],[141.1918663491513,38.57447955309509],[141.19160014219517,38.57432185607191],[141.19138118069867,38.57392935146625],[141.19116815533744,38.57338747268875],[141.19051333834088,38.57228230644991],[141.19029454692546,38.57192133155378],[141.19066437427344,38.57186995729592],[141.19198840053394,38.56958631990924],[141.19173131138876,38.56871489631068],[141.18997998012327,38.568525942559056],[141.1900941374991,38.569059252362884],[141.18945440250044,38.568799777085886],[141.1892928777667,38.569185127735025],[141.18882544477432,38.56854695819869],[141.1897441537754,38.56780493198118],[141.18979976404677,38.566628074662525],[141.1903156278133,38.566139876598264],[141.18986252448462,38.56548737407186],[141.19010278152845,38.56504998135767],[141.18959758746215,38.564827966486234],[141.18847613278894,38.56372687289684],[141.18747695776727,38.56146996611581],[141.18708204870225,38.56139147578399],[141.18618025017474,38.56137643824068],[141.18539863294043,38.56124110119889],[141.1849484449203,38.56137884804848],[141.18403354156658,38.560988404589615],[141.1837750495595,38.56081222464128],[141.18374543102854,38.5601929324107],[141.18361563589528,38.559199916070796],[141.18382850524776,38.55810382693795],[141.185089279554,38.55927211191174],[141.1874496411253,38.560888111146035],[141.1882536124815,38.56101252740633],[141.19048258466088,38.56084870431371],[141.19190519587383,38.56111353879382],[141.19197935462032,38.561539843188264],[141.19442740911015,38.56151182407482],[141.19463493385538,38.56216548390235],[141.1963454634998,38.56180633945308],[141.19821750674464,38.56167187826346],[141.19949108436072,38.56074278183421],[141.1999879459655,38.56000472975663],[141.20162726136607,38.55895903681945],[141.20126013387542,38.55837191474276],[141.2064337547045,38.55775577078254],[141.20718988613953,38.55633976080573],[141.20774661294362,38.55660502608704],[141.21420865729684,38.5604711324268],[141.21393652956382,38.56097540826093],[141.2137048460431,38.56236372233572],[141.21562879901336,38.562365769412914],[141.21631326760024,38.56349968276731],[141.21652356439378,38.564287725224524],[141.2159949205288,38.56580328395642],[141.21495764377678,38.566976596540734],[141.21306593170672,38.56816942200747],[141.21037222456383,38.5684334704228],[141.20877273174537,38.569021244529615],[141.20817915416487,38.56894599922299],[141.20710621212154,38.568070879801866],[141.20641387421833,38.567923021454575],[141.2048863725575,38.56829864936251],[141.20395291138516,38.56828400319908],[141.20332713006636,38.56750710089881],[141.20302101596945,38.5664886156469],[141.20220441896672,38.566139542118655],[141.2016445491012,38.5667919336117],[141.20100063214534,38.56875401869701],[141.20101951102242,38.569682612594065],[141.20150516274066,38.57008861785559],[141.20262370396532,38.5698404492238],[141.20236173835232,38.57124403704241],[141.2012732187802,38.57243315080972],[141.20059067860967,38.5733155179957],[141.20041755196942,38.57418713891776]]]},"properties":{"KEY_CODE":"045010110","PREF":"04","CITY":"501","CITY_NAME":"涌谷町","S_NAME":"吉住","SETAI":"106"}},{"type":"Feature","geometry":{"type":"Polygon","coordinates":[[[141.2283830608311,38.55628243820199],[141.2271453706183,38.55693331009151],[141.2256291608411,38.55721656497809],[141.22195821690286,38.556846199839114],[141.22066189302822,38.55690778812445],[141.21885361873197,38.55798416719365],[141.21655665950752,38.56042251410194],[141.2158945958193,38.56148143466201],[141.21562879901336,38.562365769412914],[141.2137048460431,38.56236372233572],[141.21393652956382,38.56097540826093],[141.21420865729684,38.5604711324268],[141.20774661294362,38.55660502608704],[141.20718988613953,38.55633976080573],[141.2064337547045,38.55775577078254],[141.20126013387542,38.55837191474276],[141.20162726136607,38.55895903681945],[141.1999879459655,38.56000472975663],[141.19949108436072,38.56074278183421],[141.19821750674464,38.56167187826346],[141.1963454634998,38.56180633945308],[141.19463493385538,38.56216548390235],[141.19442740911015,38.56151182407482],[141.19197935462032,38.561539843188264],[141.19190519587383,38.56111353879382],[141.19048258466088,38.56084870431371],[141.1882536124815,38.56101252740633],[141.1874496411253,38.560888111146035],[141.185089279554,38.55927211191174],[141.18382850524776,38.55810382693795],[141.18312015598775,38.55681423912398],[141.18195079200865,38.55462664721916],[141.17905033467716,38.55505073541496],[141.1756776940105,38.55565630008942],[141.1733301230892,38.55632285974082],[141.17222254844998,38.5567821260458],[141.1717976029197,38.55621957993149],[141.1714107779979,38.55553136493115],[141.17130709576747,38.55523042723329],[141.17138280668016,38.55498978080111],[141.1714942786811,38.554757898422594],[141.1713431455351,38.554531140709045],[141.17117357361104,38.55439058454682],[141.17457673397527,38.55257361417003],[141.1762555523445,38.550794087261885],[141.17696419204418,38.54963336559672],[141.1775682555722,38.549129200789544],[141.178161047203,38.54806861243296],[141.17935249099537,38.54718024551697],[141.18091159902497,38.54643379778424],[141.18149056021375,38.54547049691699],[141.1814032740858,38.543053765249645],[141.18171564808347,38.542896866987135],[141.18577629512507,38.542108704884946],[141.1862913843544,38.541799019290394],[141.18529390764974,38.541026790828184],[141.18524736409776,38.540552398390474],[141.1859146216766,38.539932989199464],[141.18419985047643,38.53883786656482],[141.18309640559883,38.53784071784761],[141.1821270206364,38.536716470341574],[141.18128981396703,38.53617629360107],[141.18033175225577,38.53721378134796],[141.17980068276455,38.536495320409486],[141.18048518647393,38.53543287745171],[141.1801344792223,38.53491574044011],[141.17820579246933,38.53379541036625],[141.1776126540841,38.53375393752879],[141.17504659349504,38.53284207946941],[141.17581965375365,38.53095083233987],[141.17627450469155,38.53042541549246],[141.1775953515462,38.53046954369039],[141.1781357135419,38.53128695445222],[141.1787827512937,38.531712567166295],[141.18078556331028,38.53199804020489],[141.1833957956993,38.53159062339627],[141.1842538269278,38.53182863515565],[141.18519575160056,38.532762081959206],[141.18573617496807,38.533898451050426],[141.18721550828087,38.535860287648816],[141.18805117781872,38.53668197672232],[141.1895732258128,38.537655721069456],[141.19111625371107,38.53841541621258],[141.19197891428357,38.53930160966907],[141.1960879484884,38.541308224872225],[141.1971267788167,38.5416148464687],[141.19905936845993,38.54132024944167],[141.200323760577,38.54094437962263],[141.20137735430356,38.54037433229813],[141.2018794044249,38.53995255459396],[141.20194269963943,38.539900692140755],[141.2028729048387,38.53929948728456],[141.20523223855972,38.53893080570643],[141.20601785291524,38.53864564263507],[141.20735581233717,38.537267460543504],[141.21252038170817,38.535743610184134],[141.2133950887943,38.534928240651766],[141.21663776658448,38.533936347551176],[141.21689495360295,38.534214650573794],[141.2177102023148,38.53490865244043],[141.21824729356035,38.53518688004874],[141.2191136097419,38.535538345528224],[141.2201000547049,38.535512846420595],[141.22230490520687,38.534922462787165],[141.2236371918325,38.534556523786705],[141.2250928405982,38.53442622837353],[141.22662962207383,38.5343855942583],[141.22733027965663,38.53535145384727],[141.22761831219566,38.53608445850818],[141.22781300411177,38.53648682735214],[141.2282694224587,38.53756133607476],[141.22840388653051,38.537863116523226],[141.22862275612306,38.5385873440767],[141.22887846316743,38.53960565728972],[141.22968619437316,38.54263807225555],[141.23037812626103,38.54462494991617],[141.2309530726291,38.54613782853743],[141.23141713996003,38.547230740907345],[141.2300485838246,38.54853935046088],[141.22911800565294,38.55050174775542],[141.22880526189715,38.55252989994465],[141.22884027845058,38.554874455435225],[141.2283830608311,38.55628243820199]]]},"properties":{"KEY_CODE":"045010120","PREF":"04","CITY":"501","CITY_NAME":"涌谷町","S_NAME":"猪岡短台","SETAI":"337"}}]}