{"type":"FeatureCollection","features":[{"type":"Feature","geometry":{"type":"Polygon","coordinates":[[[137.78583024517258,34.78007046391836],[137.78386765394094,34.77995741974565],[137.78278954561333,34.779058826064436],[137.781794791021,34.77916038287158],[137.78095672100474,34.778479700203235],[137.7810776549076,34.77831477281105],[137.78111207306716,34.77820482718958],[137.7808721363433,34.77816029574682],[137.78016052276888,34.778383958534384],[137.7790225401099,34.778549573304744],[137.77859409978785,34.778474330252244],[137.7780766839792,34.77824656870571],[137.7769572493368,34.777677425236384],[137.77628600912055,34.77791004059772],[137.77545219323184,34.77771079564919],[137.77463710845836,34.77593293745669],[137.77293943752935,34.775926806498525],[137.77052252317256,34.775419508921786],[137.77010480106406,34.77415082536322],[137.77227978750096,34.77369011429086],[137.7724574949787,34.77252658346372],[137.77264304383942,34.77128619207423],[137.77282755822407,34.770347085006115],[137.77315166879802,34.7679839223965],[137.77412549359013,34.76802274016231],[137.77663486788407,34.76747422953408],[137.7769370507384,34.769109692114355],[137.7828630316741,34.76838679978759],[137.78456684991485,34.76804321345277],[137.7851218255902,34.769076446234024],[137.78649614619357,34.76877200574026],[137.78797604635696,34.77322478757619],[137.7862123401718,34.77478634829334],[137.78569306387806,34.77566293258655],[137.7860746757642,34.777146162245984],[137.78583024517258,34.78007046391836]]]},"properties":{"KEY_CODE":"221320010","PREF":"22","CITY":"132","CITY_NAME":"浜松市東区","S_NAME":"中郡町","SETAI":"1493"}},{"type":"Feature","geometry":{"type":"Polygon","coordinates":[[[137.7724574949787,34.77252658346372],[137.77227978750096,34.77369011429086],[137.77010480106406,34.77415082536322],[137.7689184312386,34.7744131054971],[137.76845086566357,34.77292381495551],[137.76712131874046,34.77320070432096],[137.76681512201608,34.77221017375946],[137.7665962187876,34.77149287077518],[137.76352334300066,34.7720277333717],[137.76331155498957,34.77136652843439],[137.76198441314918,34.771661688393635],[137.76122123949676,34.76974687411667],[137.76007340500573,34.77035890212581],[137.75930814909094,34.76870990730477],[137.75871041575465,34.76889824503895],[137.758211008478,34.76775515172696],[137.75786501317998,34.76701230665527],[137.7573459622416,34.765844022047055],[137.75907150245527,34.76531085215135],[137.76155367156176,34.76451766207443],[137.76066978898655,34.76278105598009],[137.76126515410814,34.762476927442336],[137.76217076955,34.761988617776346],[137.76258011708686,34.76363556308891],[137.7676611541058,34.762921847433674],[137.7690171321248,34.763090473228644],[137.76970851102803,34.76592498735731],[137.77023522742587,34.76801789464925],[137.7721099322117,34.76770114840627],[137.77315166879802,34.7679839223965],[137.77282755822407,34.770347085006115],[137.77264304383942,34.77128619207423],[137.7724574949787,34.77252658346372]]]},"properties":{"KEY_CODE":"221320020","PREF":"22","CITY":"132","CITY_NAME":"浜松市東区","S_NAME":"積志町","SETAI":"1494"}},{"type":"Feature","geometry":{"type":"Polygon","coordinates":[[[137.77548367966995,34.78274690373331],[137.77514270296746,34.782624845654965],[137.77473013172664,34.78250024400016],[137.77429463713358,34.782332258892154],[137.7739934461305,34.782307065329356],[137.77326227049357,34.78224533440875],[137.7721809509662,34.782396576746514],[137.7681382323878,34.78175630742167],[137.76614641878248,34.78121501667938],[137.7659437768975,34.78199666684536],[137.76543795997668,34.78192513420203],[137.7647370406815,34.780962899230374],[137.7663888394085,34.780210771553726],[137.76694449611574,34.778890513717926],[137.7660924263539,34.777098430328124],[137.7650673638242,34.77699303176892],[137.76391043119895,34.775645594621295],[137.7600833985217,34.77570164479097],[137.7589750025856,34.7725295399627],[137.7574920018998,34.7692733630086],[137.7587104157547,34.76889824503895],[137.75930814909094,34.76870990730477],[137.76007340500573,34.77035890212581],[137.76122123949676,34.76974687411667],[137.76198441314918,34.771661688393635],[137.76331155498957,34.77136652843439],[137.76352334300066,34.7720277333717],[137.7665962187876,34.77149287077518],[137.76681512201608,34.77221017375946],[137.76712131874046,34.77320070432096],[137.76845086566357,34.77292381495551],[137.7689184312386,34.7744131054971],[137.77010480106406,34.77415082536322],[137.77052252317256,34.775419508921786],[137.77293943752935,34.775926806498525],[137.77463710845836,34.77593293745669],[137.77545219323184,34.77771079564919],[137.77628600912055,34.77791004059772],[137.77612343010466,34.77868715877216],[137.77537315823233,34.77943567798548],[137.7753347479899,34.78060681451409],[137.77577784143404,34.780744556140974],[137.77548367966995,34.78274690373331]]]},"properties":{"KEY_CODE":"221320030","PREF":"22","CITY":"132","CITY_NAME":"浜松市東区","S_NAME":"西ケ崎町","SETAI":"1282"}},{"type":"Feature","geometry":{"type":"Polygon","coordinates":[[[137.7764748845338,34.76323743648214],[137.77246587418642,34.76376693274278],[137.77272749252546,34.76501832285451],[137.77215943452325,34.76509533097252],[137.7722320610115,34.766070491429105],[137.76970851102803,34.76592498735731],[137.7690171321248,34.763090473228644],[137.7676611541058,34.762921847433674],[137.76258011708686,34.76363556308891],[137.76217076955,34.761988617776346],[137.76126515410814,34.762476927442336],[137.76066978898655,34.76278105598009],[137.76057579773538,34.76255709127441],[137.7601657388462,34.761676095719785],[137.76011234295663,34.76154055069328],[137.76001879861576,34.76131461360473],[137.7596554326344,34.760726443295844],[137.759322115464,34.76039382862486],[137.75890601577277,34.760289602720974],[137.7578830146862,34.759287542912396],[137.757649131331,34.759068077231134],[137.75739677522992,34.758664543825944],[137.75719629821302,34.75866726605734],[137.7568890886938,34.75808296394151],[137.75665127596005,34.75710117305029],[137.75702903092193,34.75653766778725],[137.75659548654406,34.754479125475],[137.7576345133102,34.755467206824065],[137.7589790272617,34.75503169853355],[137.76091778958497,34.7567771369271],[137.76202021597555,34.75635381972406],[137.76316157202228,34.75535688494026],[137.76530243490828,34.75355579067011],[137.76536295313682,34.75377321446672],[137.7664320068391,34.75385869806572],[137.7672836193803,34.753687629694284],[137.76713128947293,34.75300947381224],[137.7690330151051,34.7528633153591],[137.77120273066438,34.75306735838825],[137.77116630805764,34.753479851854976],[137.77302826888138,34.75437786831579],[137.7738369662629,34.75442793983646],[137.7741287934702,34.75648859291995],[137.7758454531995,34.75633013590015],[137.77694089171416,34.75648839182229],[137.7775074133857,34.75766680637866],[137.77652701881266,34.75772869840636],[137.77669106986514,34.759141347773145],[137.77772177318894,34.75905707919534],[137.77801377483553,34.76115970610209],[137.77864740645379,34.76109517317498],[137.77900636859775,34.762923947254116],[137.7764748845338,34.76323743648214]]]},"properties":{"KEY_CODE":"221320040","PREF":"22","CITY":"132","CITY_NAME":"浜松市東区","S_NAME":"大瀬町","SETAI":"1907"}},{"type":"Feature","geometry":{"type":"Polygon","coordinates":[[[137.77867196785937,34.753518187157255],[137.7787384436658,34.75447162328676],[137.77831727580397,34.75654788354178],[137.7791354585007,34.7581960029311],[137.7806544689758,34.75934895200833],[137.78149958210594,34.760722407109],[137.784770099991,34.76165512389227],[137.78562805782556,34.76295622718417],[137.78388261648539,34.76444602916038],[137.7834335087653,34.76680441642687],[137.7835135632254,34.767402126062386],[137.78456684991485,34.76804321345277],[137.7828630316741,34.76838679978759],[137.7769370507384,34.769109692114355],[137.77663486788407,34.76747422953408],[137.77412549359013,34.76802274016231],[137.77315166879802,34.7679839223965],[137.7721099322117,34.76770114840627],[137.77023522742587,34.76801789464925],[137.76970851102803,34.76592498735731],[137.7722320610115,34.766070491429105],[137.77215943452325,34.76509533097252],[137.77272749252546,34.76501832285451],[137.77246587418642,34.76376693274278],[137.7764748845338,34.76323743648214],[137.77900636859778,34.76292394725414],[137.77864740645379,34.76109517317498],[137.77801377483553,34.76115970610209],[137.77772177318894,34.75905707919534],[137.77669106986514,34.759141347773145],[137.77652701881266,34.75772869840636],[137.7775074133857,34.75766680637866],[137.77694089171416,34.75648839182229],[137.7758454531995,34.75633013590015],[137.7741287934702,34.75648859291995],[137.7738369662629,34.75442793983646],[137.7763614589138,34.75438376278299],[137.77867196785937,34.753518187157255]]]},"properties":{"KEY_CODE":"221320050","PREF":"22","CITY":"132","CITY_NAME":"浜松市東区","S_NAME":"大島町","SETAI":"1042"}},{"type":"Feature","geometry":{"type":"Polygon","coordinates":[[[137.75489584201247,34.75868407136037],[137.75296435865985,34.75930369299487],[137.752378082607,34.75802030435729],[137.74701190018368,34.7596977904321],[137.74415397659112,34.75820869024651],[137.74288973439286,34.75739912946556],[137.7426576766268,34.75601702469768],[137.74297390815207,34.75592587699294],[137.74293185116844,34.7520660057444],[137.74310372801847,34.74907186373028],[137.74398738628128,34.74715844874307],[137.74503874355108,34.74643012805696],[137.7467137011563,34.7457260957049],[137.74723647070482,34.74568200294683],[137.74767913280314,34.74564445174742],[137.74902784720237,34.745728408665016],[137.74921674296303,34.74572957240137],[137.75255924097533,34.74841159557783],[137.7533499918594,34.749591746014175],[137.7541918957476,34.75081699548115],[137.75448904800254,34.75127349673753],[137.75587334052915,34.7539684910259],[137.75702903092193,34.75653766778725],[137.75665127596005,34.75710117305029],[137.7568890886938,34.75808296394151],[137.7559734081094,34.75834119622985],[137.75489584201247,34.75868407136037]]]},"properties":{"KEY_CODE":"221320060","PREF":"22","CITY":"132","CITY_NAME":"浜松市東区","S_NAME":"有玉南町","SETAI":"1802"}},{"type":"Feature","geometry":{"type":"Polygon","coordinates":[[[137.74808993868658,34.76307417123381],[137.7464100798015,34.76302353013126],[137.74380228147868,34.763257754361376],[137.74322660438636,34.761132897265895],[137.742982085608,34.76001060102571],[137.74292733854716,34.75940176655927],[137.7428193264309,34.75802296665351],[137.7416236928633,34.758385033875065],[137.74146367143186,34.75927876366815],[137.7377771181113,34.75869822781253],[137.73698327292433,34.75902782638516],[137.7375082717718,34.75956368297561],[137.7375374483301,34.76095358017192],[137.73750294356785,34.76115113180627],[137.7374214859366,34.761220913721864],[137.7363126958675,34.76110076684941],[137.73589549209365,34.7608961761039],[137.73536116669297,34.7610380744806],[137.73467962474902,34.761226944616695],[137.73391113487844,34.76013831912021],[137.73348004779382,34.759634692065454],[137.73259678994032,34.75886916084224],[137.73243572364612,34.758227368660485],[137.73262976359013,34.75740865044125],[137.73269590878735,34.757177071570666],[137.7329026044809,34.75633673839609],[137.73341795861046,34.754231593502],[137.7334183900672,34.75391733622962],[137.73381329437,34.75364289444351],[137.73448495237255,34.75312664321258],[137.73465755119983,34.75291741860222],[137.73503920060307,34.752469476660565],[137.7355549153155,34.751780091705115],[137.73531645050062,34.75047379150196],[137.7357312535823,34.750555840625786],[137.7374106168914,34.74809847844948],[137.73796173500068,34.74834181710737],[137.73790650477935,34.74868658024173],[137.73917588847655,34.74880495688242],[137.73930442190826,34.74957105335736],[137.7402922108545,34.75003402846382],[137.74085591217585,34.74983836792971],[137.7418398623239,34.74980069100507],[137.74310372801847,34.74907186373028],[137.74293185116844,34.7520660057444],[137.74297390815207,34.75592587699294],[137.7426576766268,34.75601702469768],[137.74288973439286,34.75739912946556],[137.74415397659112,34.75820869024651],[137.74701190018368,34.7596977904321],[137.74725097590618,34.75996308524936],[137.7476496002794,34.76038134522543],[137.74808993868658,34.76307417123381]]]},"properties":{"KEY_CODE":"221320070","PREF":"22","CITY":"132","CITY_NAME":"浜松市東区","S_NAME":"有玉西町","SETAI":"447"}},{"type":"Feature","geometry":{"type":"Polygon","coordinates":[[[137.7600833985217,34.77570164479097],[137.75891513987284,34.77569463140598],[137.75895670916586,34.77669059684318],[137.75812174728793,34.77706917231451],[137.7557915304018,34.77598451404872],[137.7550647563656,34.7760524438927],[137.75403322863002,34.77377004664551],[137.7538390858597,34.773377985391036],[137.75381775000795,34.7731689683873],[137.75395468905464,34.772917401536134],[137.7540959138271,34.77264459173382],[137.75416244019132,34.772269344669624],[137.7540889479677,34.771538850860516],[137.75363555834608,34.77060319492921],[137.75349496910613,34.77030259617666],[137.75318403052586,34.76958882433103],[137.7529096170966,34.76914205368558],[137.75284980371177,34.769065627404245],[137.75255203919684,34.76874688609632],[137.75244605609245,34.768642287741415],[137.7505477927943,34.76749832015288],[137.75090138073304,34.76561128630811],[137.75017958645992,34.76404412213409],[137.7495210368871,34.764239366379854],[137.74896225153478,34.76279531949],[137.74808993868658,34.76307417123381],[137.7476496002794,34.76038134522543],[137.74725097590618,34.75996308524936],[137.74701190018368,34.7596977904321],[137.752378082607,34.75802030435729],[137.75296435865985,34.75930369299487],[137.75489584201247,34.75868407136037],[137.7559734081094,34.75834119622985],[137.7568890886938,34.75808296394151],[137.75719629821302,34.75866726605734],[137.75739677522992,34.758664543825944],[137.757649131331,34.759068077231134],[137.7578830146862,34.759287542912396],[137.75890601577277,34.760289602720974],[137.759322115464,34.76039382862486],[137.7596554326344,34.760726443295844],[137.76001879861576,34.76131461360473],[137.76011234295663,34.76154055069328],[137.7601657388462,34.761676095719785],[137.76057579773538,34.76255709127441],[137.76066978898655,34.76278105598009],[137.76155367156176,34.76451766207443],[137.75907150245527,34.76531085215135],[137.7573459622416,34.76584402204705],[137.75786501317998,34.76701230665527],[137.758211008478,34.76775515172696],[137.7587104157547,34.76889824503895],[137.7574920018998,34.7692733630086],[137.7589750025856,34.7725295399627],[137.7600833985217,34.77570164479097]]]},"properties":{"KEY_CODE":"221320080","PREF":"22","CITY":"132","CITY_NAME":"浜松市東区","S_NAME":"有玉北町","SETAI":"1410"}},{"type":"Feature","geometry":{"type":"Polygon","coordinates":[[[137.73909167009728,34.76091928148947],[137.7360753472141,34.761972569648],[137.73526890633536,34.76209232908151],[137.7351147732263,34.76190912470802],[137.73467962474902,34.761226944616695],[137.73536116669297,34.7610380744806],[137.73589549209365,34.7608961761039],[137.7363126958675,34.76110076684941],[137.7374214859366,34.761220913721864],[137.73750294356785,34.76115113180627],[137.7375374483301,34.76095358017192],[137.7375082717718,34.75956368297561],[137.73698327292433,34.75902782638516],[137.7377771181113,34.75869822781253],[137.74146367143186,34.75927876366815],[137.7416236928633,34.758385033875065],[137.7428193264309,34.75802296665351],[137.74292733854716,34.75940176655927],[137.73909167009728,34.76091928148947]]]},"properties":{"KEY_CODE":"22132009001","PREF":"22","CITY":"132","CITY_NAME":"浜松市東区","S_NAME":"有玉台一丁目","SETAI":"235"}},{"type":"Feature","geometry":{"type":"Polygon","coordinates":[[[137.74292733854716,34.75940176655927],[137.742982085608,34.76001060102571],[137.74322660438636,34.761132897265895],[137.74380228147868,34.763257754361376],[137.74216809331298,34.764442016708564],[137.74164347063606,34.765143124870434],[137.74143815501805,34.76494650215885],[137.74124571080566,34.76478869127651],[137.7411391076994,34.76471577773889],[137.74103074691124,34.76464834617924],[137.74091048616643,34.76457591131328],[137.74065668529525,34.76441786083181],[137.74024834577645,34.764156600009514],[137.7399841071776,34.763899754564484],[137.73986969070964,34.763757921552696],[137.73961994407546,34.76304850112937],[137.73960436095865,34.7628037626447],[137.73960877805953,34.76262970983567],[137.73961460336253,34.76220074244294],[137.73909167009728,34.76091928148947],[137.74292733854716,34.75940176655927]]]},"properties":{"KEY_CODE":"22132009002","PREF":"22","CITY":"132","CITY_NAME":"浜松市東区","S_NAME":"有玉台二丁目","SETAI":"512"}},{"type":"Feature","geometry":{"type":"Polygon","coordinates":[[[137.73961994407546,34.76304850112937],[137.73986969070964,34.763757921552696],[137.7399841071776,34.763899754564484],[137.74024834577645,34.764156600009514],[137.74065668529525,34.76441786083181],[137.74091048616643,34.76457591131328],[137.74103074691124,34.764648346179214],[137.74071092481964,34.76489551327869],[137.74060437593133,34.76499301916261],[137.74037596018167,34.76513709050319],[137.73913194947062,34.764868239448404],[137.7385900298404,34.764294603946695],[137.73823722059228,34.76318498239241],[137.73723005194745,34.76440571110455],[137.7360052765059,34.764698480571205],[137.73619424768597,34.76359605021076],[137.7361913966675,34.763147039548706],[137.73526890633536,34.76209232908151],[137.7360753472141,34.761972569648],[137.73909167009728,34.76091928148947],[137.73961460336253,34.76220074244294],[137.73960877805953,34.76262970983567],[137.73960436095865,34.7628037626447],[137.73961994407546,34.76304850112937]]]},"properties":{"KEY_CODE":"22132009003","PREF":"22","CITY":"132","CITY_NAME":"浜松市東区","S_NAME":"有玉台三丁目","SETAI":"323"}},{"type":"Feature","geometry":{"type":"Polygon","coordinates":[[[137.73997777773272,34.76674021409216],[137.73842196797136,34.766650100643716],[137.73576882087005,34.766949144423236],[137.7353040570417,34.76734480374315],[137.73414896799227,34.76679744587916],[137.73385899449883,34.76594665350939],[137.73405276114738,34.765094823165875],[137.73451754525604,34.76517718253552],[137.734902523777,34.76524113722702],[137.73505115276666,34.765235588429846],[137.73514654648255,34.76521900288336],[137.7360052765059,34.764698480571205],[137.73723005194745,34.76440571110455],[137.73823722059228,34.76318498239241],[137.7385900298404,34.764294603946695],[137.73913194947062,34.764868239448404],[137.74037596018167,34.76513709050319],[137.74060437593133,34.76499301916261],[137.74071092481964,34.76489551327869],[137.74103074691124,34.764648346179214],[137.7411391076994,34.76471577773889],[137.74124571080566,34.76478869127651],[137.74143815501805,34.76494650215885],[137.74164347063606,34.765143124870434],[137.7414253107353,34.76532275556666],[137.74111803756904,34.76553225434618],[137.7408531857235,34.76579638023632],[137.74064076593777,34.766354064468224],[137.73997777773272,34.76674021409216]]]},"properties":{"KEY_CODE":"22132009004","PREF":"22","CITY":"132","CITY_NAME":"浜松市東区","S_NAME":"有玉台四丁目","SETAI":"276"}},{"type":"Feature","geometry":{"type":"Polygon","coordinates":[[[137.74962248485292,34.7790842041069],[137.7472846186357,34.77961125995729],[137.74629962361516,34.77951693417148],[137.74603841416314,34.78006449468375],[137.74495456472334,34.779989957681074],[137.7463319106813,34.777898586763165],[137.74679384685282,34.77681905185971],[137.74728228591943,34.77378946476145],[137.74628316918242,34.770125839047054],[137.74582586944268,34.76710211372195],[137.7454181955614,34.76576661943071],[137.744442218292,34.76465861145656],[137.74380228147868,34.763257754361376],[137.7464100798015,34.76302353013126],[137.74808993868658,34.76307417123381],[137.74896225153478,34.76279531949],[137.7495210368871,34.764239366379854],[137.75017958645992,34.76404412213409],[137.75090138073304,34.76561128630811],[137.7505477927943,34.76749832015288],[137.75244605609245,34.768642287741415],[137.75255203919684,34.76874688609632],[137.75284980371177,34.769065627404245],[137.7529096170966,34.76914205368558],[137.75318403052586,34.76958882433103],[137.75349496910613,34.77030259617666],[137.75363555834608,34.77060319492921],[137.7540889479677,34.771538850860516],[137.75416244019132,34.772269344669624],[137.7540959138271,34.77264459173382],[137.75395468905464,34.772917401536134],[137.75381775000795,34.7731689683873],[137.7538390858597,34.773377985391036],[137.75403322863002,34.77377004664551],[137.7550647563656,34.7760524438927],[137.7557915304018,34.77598451404872],[137.75414417189512,34.777428688623814],[137.75254503391173,34.7780125131709],[137.74935018575732,34.77867065274947],[137.74962248485292,34.7790842041069]]]},"properties":{"KEY_CODE":"221320100","PREF":"22","CITY":"132","CITY_NAME":"浜松市東区","S_NAME":"半田町","SETAI":"632"}},{"type":"Feature","geometry":{"type":"Polygon","coordinates":[[[137.74628316918242,34.770125839047054],[137.74483967142007,34.77122704432443],[137.74384146825463,34.772546234188894],[137.74329922345552,34.773500279174186],[137.74211334358841,34.77355216212305],[137.74211966881342,34.773317837477215],[137.7420687466764,34.772242035428356],[137.74219852211132,34.77191031273655],[137.7423389422376,34.771637105948024],[137.74262180493128,34.77118676022954],[137.74208505488588,34.770273561669775],[137.74174304182228,34.76959791629162],[137.7409890489996,34.77028306581348],[137.73985538910583,34.769403050364836],[137.73972228172138,34.76932560154843],[137.73960368529544,34.76928500293805],[137.7396632142182,34.76890017368545],[137.73984667314687,34.76865315493459],[137.7402332864214,34.7682812083824],[137.740351987676,34.76759562373068],[137.74032503110917,34.767213914513206],[137.73997777773272,34.76674021409216],[137.74064076593777,34.766354064468224],[137.7408531857235,34.76579638023632],[137.74111803756904,34.76553225434618],[137.7414253107353,34.76532275556666],[137.74164347063606,34.765143124870434],[137.74216809331298,34.764442016708564],[137.74380228147868,34.763257754361376],[137.744442218292,34.76465861145656],[137.7454181955614,34.76576661943071],[137.74582586944268,34.76710211372195],[137.74628316918242,34.770125839047054]]]},"properties":{"KEY_CODE":"22132011001","PREF":"22","CITY":"132","CITY_NAME":"浜松市東区","S_NAME":"半田山一丁目","SETAI":"447"}},{"type":"Feature","geometry":{"type":"Polygon","coordinates":[[[137.73767154099554,34.77009387781243],[137.73702945457055,34.77024604246377],[137.7371603764813,34.77076472639208],[137.73559953055005,34.77112997118271],[137.73452757579852,34.7678925791175],[137.7353040570417,34.76734480374315],[137.73576882087005,34.766949144423236],[137.73842196797136,34.766650100643716],[137.73997777773272,34.76674021409216],[137.74032503110917,34.767213914513206],[137.740351987676,34.76759562373068],[137.7402332864214,34.7682812083824],[137.73984667314687,34.76865315493459],[137.7396632142182,34.76890017368545],[137.73960368529544,34.76928500293805],[137.73965438925106,34.76971981602444],[137.73767154099554,34.77009387781243]]]},"properties":{"KEY_CODE":"22132011002","PREF":"22","CITY":"132","CITY_NAME":"浜松市東区","S_NAME":"半田山二丁目","SETAI":"392"}},{"type":"Feature","geometry":{"type":"Polygon","coordinates":[[[137.74329922345552,34.773500279174186],[137.74226596637186,34.775322116674275],[137.73866246271785,34.774515417458666],[137.73782880864005,34.774446087487505],[137.73765168218614,34.774430465912936],[137.73679531365823,34.77435324025757],[137.73559953055005,34.77112997118271],[137.7371603764813,34.77076472639208],[137.73702945457055,34.77024604246377],[137.73767154099554,34.77009387781243],[137.73965438925106,34.76971981602444],[137.73960368529544,34.76928500293805],[137.73972228172138,34.76932560154843],[137.73985538910583,34.769403050364836],[137.7409890489996,34.77028306581348],[137.74174304182228,34.76959791629162],[137.74208505488588,34.770273561669775],[137.74262180493128,34.77118676022954],[137.7423389422376,34.771637105948024],[137.74219852211132,34.77191031273655],[137.7420687466764,34.772242035428356],[137.74211966881342,34.773317837477215],[137.74211334358841,34.77355216212305],[137.74329922345552,34.773500279174186]]]},"properties":{"KEY_CODE":"22132011003","PREF":"22","CITY":"132","CITY_NAME":"浜松市東区","S_NAME":"半田山三丁目","SETAI":"573"}},{"type":"Feature","geometry":{"type":"Polygon","coordinates":[[[137.74628316918242,34.770125839047054],[137.74728228591943,34.77378946476145],[137.74679384685282,34.77681905185971],[137.7463319106813,34.777898586763165],[137.74097336924513,34.779044021170556],[137.7409338203677,34.77784497953635],[137.74226596637186,34.775322116674275],[137.74329922345552,34.773500279174186],[137.74384146825463,34.772546234188894],[137.74483967142007,34.77122704432443],[137.74628316918242,34.770125839047054]]]},"properties":{"KEY_CODE":"22132011004","PREF":"22","CITY":"132","CITY_NAME":"浜松市東区","S_NAME":"半田山四丁目","SETAI":"793"}},{"type":"Feature","geometry":{"type":"Polygon","coordinates":[[[137.73765168218614,34.774430465912936],[137.73782880864005,34.774446087487505],[137.73866246271785,34.774515417458666],[137.74226596637186,34.775322116674275],[137.7409338203677,34.77784497953635],[137.74097336924513,34.779044021170556],[137.73850517090924,34.77955610131469],[137.7369378889988,34.77972254300574],[137.73692978570082,34.77921201537855],[137.7368892528313,34.776662871847066],[137.7367953136582,34.77435324025757],[137.73765168218614,34.774430465912936]]]},"properties":{"KEY_CODE":"22132011005","PREF":"22","CITY":"132","CITY_NAME":"浜松市東区","S_NAME":"半田山五丁目","SETAI":"799"}},{"type":"Feature","geometry":{"type":"Polygon","coordinates":[[[137.74391930508466,34.78022235986447],[137.74237715305242,34.78089865165769],[137.7385094259916,34.78026366360186],[137.73850517090924,34.77955610131469],[137.74097336924513,34.779044021170556],[137.7463319106813,34.777898586763165],[137.74495456472334,34.779989957681074],[137.74391930508466,34.78022235986447]]]},"properties":{"KEY_CODE":"22132011006","PREF":"22","CITY":"132","CITY_NAME":"浜松市東区","S_NAME":"半田山六丁目","SETAI":"275"}},{"type":"Feature","geometry":{"type":"Polygon","coordinates":[[[137.79070396214289,34.75415110421511],[137.79058997111485,34.75511573279593],[137.79100169571788,34.75514223579107],[137.79133143981178,34.75680854369386],[137.79101142932035,34.75825369694684],[137.79093632594646,34.75861934523491],[137.7912999704658,34.75920364231782],[137.79095502085033,34.76035453836464],[137.7895408454492,34.75895512497352],[137.78561390862893,34.75585367238928],[137.78259844963506,34.755647211279154],[137.78095043720165,34.75374472364057],[137.77956499896862,34.75364281325609],[137.77865746477892,34.753128065221524],[137.77838675739977,34.75309264526523],[137.77863119357596,34.75157578951249],[137.77990104037536,34.75169857332705],[137.77955379488117,34.7512040654193],[137.7799521305132,34.74806402160992],[137.77958226237337,34.74584315722009],[137.78195998344557,34.74586220945279],[137.7863333499952,34.74639094666565],[137.78623395488742,34.74732988991049],[137.78542547822582,34.747357793551785],[137.7854103449071,34.74798833013678],[137.78652559285038,34.74830987806504],[137.78783019853265,34.74916174050258],[137.7886082953485,34.74873951805647],[137.78880168291653,34.747750555883265],[137.79058661696777,34.74787330824436],[137.79086173697647,34.75006232883443],[137.79081500450116,34.75039377857229],[137.791151466609,34.75246680840311],[137.7910019713002,34.7530903609732],[137.79070396214289,34.75415110421511]]]},"properties":{"KEY_CODE":"221320120","PREF":"22","CITY":"132","CITY_NAME":"浜松市東区","S_NAME":"上石田町","SETAI":"779"}},{"type":"Feature","geometry":{"type":"Polygon","coordinates":[[[137.77867196785937,34.753518187157255],[137.7763614589138,34.75438376278299],[137.7738369662629,34.75442793983646],[137.77302826888138,34.75437786831579],[137.77116630805764,34.753479851854976],[137.77120273066438,34.75306735838825],[137.7690330151051,34.7528633153591],[137.76713128947293,34.75300947381224],[137.7672836193803,34.753687629694284],[137.7664320068391,34.75385869806572],[137.76536295313682,34.75377321446672],[137.76530243490828,34.75355579067011],[137.76572520891605,34.75319846156843],[137.76585267836572,34.75306654499538],[137.7660635388973,34.75261665461261],[137.76460124942102,34.752450613141946],[137.76496839707627,34.75108948231165],[137.76505921086954,34.750523646262984],[137.76528844242787,34.750318958993844],[137.76427574931512,34.75006281099653],[137.7648530584502,34.745618184453605],[137.76337330549413,34.745493445662554],[137.76391014125988,34.74161857892893],[137.7701676012511,34.74218646766785],[137.77024401615628,34.74154390164967],[137.77269084650712,34.74169140250476],[137.77263881120152,34.742425956001675],[137.77686230468822,34.74252125568618],[137.77888109494,34.742711481663534],[137.77901669403101,34.743217411779696],[137.7797172965129,34.74357570283872],[137.77929390087354,34.745341252948364],[137.77958226237337,34.74584315722009],[137.7799521305132,34.74806402160992],[137.77955379488117,34.7512040654193],[137.77990104037536,34.75169857332705],[137.77863119357596,34.75157578951249],[137.77838675739977,34.75309264526523],[137.77865746477892,34.753128065221524],[137.77867196785937,34.753518187157255]]]},"properties":{"KEY_CODE":"221320130","PREF":"22","CITY":"132","CITY_NAME":"浜松市東区","S_NAME":"市野町","SETAI":"2029"}},{"type":"Feature","geometry":{"type":"Polygon","coordinates":[[[137.76316157202228,34.75535688494026],[137.76202021597555,34.75635381972406],[137.76091778958497,34.7567771369271],[137.7589790272617,34.75503169853355],[137.7576345133102,34.755467206824065],[137.75659548654406,34.754479125475],[137.75702903092193,34.75653766778725],[137.75587334052915,34.7539684910259],[137.75448904800254,34.75127349673753],[137.7541918957476,34.75081699548115],[137.7533499918594,34.749591746014175],[137.75255924097533,34.74841159557783],[137.74921674296303,34.74572957240137],[137.75060866492646,34.745089213503135],[137.75138194460837,34.74344087728837],[137.75086850523567,34.74217438560521],[137.7521396994857,34.74180680423755],[137.75232255181362,34.740773192733336],[137.75340857709128,34.740621519103364],[137.75290908814617,34.73755440670269],[137.7546340717275,34.73731703698467],[137.755002144085,34.7390008360529],[137.75635170308442,34.73905399717807],[137.7565882211354,34.740185115495265],[137.7567756888816,34.74096660844779],[137.76002366387092,34.74126187634072],[137.76391014125988,34.74161857892893],[137.76337330549413,34.745493445662554],[137.7648530584502,34.745618184453605],[137.76427574931512,34.75006281099653],[137.76528844242787,34.750318958993844],[137.76505921086954,34.750523646262984],[137.76496839707627,34.75108948231165],[137.76460124942102,34.752450613141946],[137.7660635388973,34.75261665461261],[137.76585267836572,34.75306654499538],[137.76572520891605,34.75319846156843],[137.76530243490828,34.75355579067011],[137.76316157202228,34.75535688494026]]]},"properties":{"KEY_CODE":"221320140","PREF":"22","CITY":"132","CITY_NAME":"浜松市東区","S_NAME":"小池町","SETAI":"2771"}},{"type":"Feature","geometry":{"type":"Polygon","coordinates":[[[137.76002366387092,34.74126187634072],[137.7567756888816,34.74096660844779],[137.7565882211354,34.740185115495265],[137.7563517030845,34.73905399717809],[137.755002144085,34.7390008360529],[137.7546340717275,34.73731703698467],[137.75290908814617,34.73755440670269],[137.75266747010073,34.73636505961861],[137.7531052796269,34.73338741453647],[137.75351108592355,34.732782644252914],[137.7537150819647,34.73255302073724],[137.75380506231514,34.73247975958558],[137.75424167767207,34.732290151815285],[137.75496442092987,34.732243150705294],[137.75988224562207,34.73294328315857],[137.76005278090125,34.731674604367555],[137.7605028989444,34.73171903122566],[137.76137408636552,34.731783616868995],[137.76590702797452,34.73219767120082],[137.76646353023858,34.73250176028373],[137.76632885308794,34.7334985272885],[137.76242881816384,34.733173114680135],[137.76211491047113,34.73556922218818],[137.76081636415103,34.735465423225975],[137.76002366387092,34.74126187634072]]]},"properties":{"KEY_CODE":"221320150","PREF":"22","CITY":"132","CITY_NAME":"浜松市東区","S_NAME":"中田町","SETAI":"425"}},{"type":"Feature","geometry":{"type":"Polygon","coordinates":[[[137.7719771931705,34.731324825019485],[137.7720548343133,34.73154602320419],[137.7721177823986,34.73171149195663],[137.77241682437065,34.731948529236846],[137.77244075984277,34.73332869534817],[137.7713223098346,34.732956879127755],[137.77017637937533,34.73283719034462],[137.76646353023858,34.73250176028373],[137.76590702797452,34.73219767120082],[137.7659652768126,34.73168063905774],[137.76614223917315,34.730533264678954],[137.76646992836805,34.727952830285815],[137.76549199009912,34.72788595113867],[137.76557441513083,34.72735427431361],[137.7658439101161,34.726225768306406],[137.7672294165206,34.726408200645565],[137.7673230285813,34.725642475691274],[137.76924954521124,34.72580291643963],[137.7704159943128,34.726120637032395],[137.7721994607912,34.72656312629382],[137.7723488333793,34.72803399163906],[137.7720933652781,34.729466711859956],[137.7715963200051,34.729957035109194],[137.77177131371494,34.73089269876475],[137.77207937150362,34.7313364270741],[137.7719771931705,34.731324825019485]]]},"properties":{"KEY_CODE":"221320160","PREF":"22","CITY":"132","CITY_NAME":"浜松市東区","S_NAME":"原島町","SETAI":"1229"}},{"type":"Feature","geometry":{"type":"Polygon","coordinates":[[[137.77983796165176,34.74280873394778],[137.77901669403101,34.743217411779696],[137.77888109494,34.742711481663534],[137.77686230468822,34.74252125568618],[137.77263881120152,34.742425956001675],[137.77269084650712,34.74169140250476],[137.77024401615628,34.74154390164967],[137.7701676012511,34.74218646766785],[137.76391014125988,34.74161857892893],[137.76002366387092,34.74126187634072],[137.76081636415103,34.735465423225975],[137.76211491047113,34.73556922218818],[137.76242881816384,34.733173114680135],[137.76632885308794,34.7334985272885],[137.76646353023858,34.73250176028373],[137.77017637937533,34.73283719034462],[137.7713223098346,34.732956879127755],[137.77244075984277,34.73332869534817],[137.7737641565915,34.73345229180469],[137.77426935989735,34.73349955223396],[137.77744401907043,34.73379054979802],[137.7781404666268,34.73376202591488],[137.77939275386382,34.73372666691231],[137.7807806625018,34.734086650893325],[137.7801676099726,34.73459052700576],[137.7800151679696,34.73631769575778],[137.7802198793176,34.73770525670402],[137.78016470156163,34.738556286088674],[137.78009664240642,34.73991701068994],[137.77983796165176,34.74280873394778]]]},"properties":{"KEY_CODE":"221320170","PREF":"22","CITY":"132","CITY_NAME":"浜松市東区","S_NAME":"天王町","SETAI":"2517"}},{"type":"Feature","geometry":{"type":"Polygon","coordinates":[[[137.7863333499952,34.74639094666565],[137.78195998344557,34.74586220945279],[137.77958226237337,34.74584315722009],[137.77929390087354,34.745341252948364],[137.7797172965129,34.74357570283872],[137.77901669403101,34.743217411779696],[137.77983796165176,34.74280873394778],[137.78009664240642,34.73991701068994],[137.78016470156163,34.738556286088674],[137.7802198793176,34.73770525670402],[137.7800151679696,34.73631769575778],[137.7801676099726,34.73459052700576],[137.7807806625018,34.734086650893325],[137.78210624504834,34.734069870092235],[137.78282416753459,34.73421815225253],[137.78289286441313,34.73409087303544],[137.78765804262466,34.73410876466989],[137.78936402560507,34.734200229218274],[137.78984068532054,34.73703993253619],[137.79022162577587,34.73779534598349],[137.7900993895017,34.73988075817468],[137.78709236764345,34.73965811082929],[137.7863333499952,34.74639094666565]]]},"properties":{"KEY_CODE":"221320180","PREF":"22","CITY":"132","CITY_NAME":"浜松市東区","S_NAME":"下石田町","SETAI":"1006"}},{"type":"Feature","geometry":{"type":"Polygon","coordinates":[[[137.79058661696777,34.74787330824436],[137.78880168291653,34.747750555883265],[137.7886082953485,34.74873951805647],[137.78783019853265,34.74916174050258],[137.78652559285038,34.74830987806504],[137.7854103449071,34.74798833013678],[137.78542547822582,34.747357793551785],[137.78623395488742,34.74732988991049],[137.7863333499952,34.74639094666565],[137.78709236764345,34.73965811082929],[137.7900993895017,34.73988075817468],[137.7922965854994,34.74004844684172],[137.79220391719545,34.74086756460111],[137.79209994843532,34.74162069443109],[137.79274597337405,34.74158433064204],[137.79241655785822,34.74461904852849],[137.79175371831857,34.74455220437003],[137.79152505133825,34.746414435758716],[137.79087472299045,34.746364140181825],[137.79115400765383,34.74791086536254],[137.79058661696777,34.74787330824436]]]},"properties":{"KEY_CODE":"221320190","PREF":"22","CITY":"132","CITY_NAME":"浜松市東区","S_NAME":"流通元町","SETAI":"23"}},{"type":"Feature","geometry":{"type":"Polygon","coordinates":[[[137.8008123246684,34.7692870699488],[137.80048687035048,34.77035303764751],[137.80004839260346,34.77379745137541],[137.79983820876848,34.77451827650288],[137.79912087419052,34.773741519913024],[137.79896583147618,34.77349144369662],[137.7987888234073,34.77340055145233],[137.79857498367178,34.77321985980112],[137.79770647127734,34.77280577481216],[137.79751691721694,34.77264508327008],[137.7969069917147,34.77214375124378],[137.79676636729243,34.7719599574371],[137.79631487292517,34.772179884449784],[137.7961290390987,34.77253320096857],[137.79488270368685,34.77262552027342],[137.7911555024246,34.7717260250088],[137.79095819725475,34.770870282124136],[137.79026990033583,34.76928722781793],[137.78983293349364,34.76846219384593],[137.7906613750241,34.76816125689447],[137.79157097417232,34.76488587764307],[137.79118005071206,34.764447349650595],[137.79195610133607,34.76266004740977],[137.79245069531217,34.7616929970508],[137.79424368517337,34.76300683620866],[137.79606315369884,34.76399063220437],[137.79718175709738,34.76508104002919],[137.79743955784718,34.766432656474066],[137.79967563279072,34.766611810791645],[137.80047796458726,34.767231572059636],[137.8006691938278,34.76720844817675],[137.80072877808726,34.76802583506734],[137.8006533084585,34.7684205799394],[137.80069655815248,34.768653950621434],[137.80075880437022,34.768891373288675],[137.80080724723155,34.76912139166136],[137.8008123246684,34.7692870699488]]]},"properties":{"KEY_CODE":"221320200","PREF":"22","CITY":"132","CITY_NAME":"浜松市東区","S_NAME":"笠井町","SETAI":"1569"}},{"type":"Feature","geometry":{"type":"Polygon","coordinates":[[[137.79983820876848,34.77451827650288],[137.80069791107732,34.77616818819963],[137.8019954360128,34.78020310343053],[137.80194201119767,34.78271951714331],[137.8031408387564,34.78371173555477],[137.8030954084655,34.78649371541801],[137.80288424432536,34.78651616239239],[137.80276350039242,34.78620712712862],[137.80211455688215,34.784672109050284],[137.80188702666845,34.78432836869642],[137.80205465892553,34.783743927677534],[137.80150528716283,34.78349059179854],[137.80123405709853,34.7833743670602],[137.8010569984422,34.783230653953034],[137.8006914115208,34.78237705162655],[137.80046066531077,34.78219302428069],[137.80021201962262,34.78156744266504],[137.80081011693525,34.78016006090827],[137.80089093840957,34.77986852796608],[137.80038316295926,34.77858180932005],[137.79953216656406,34.777959365364744],[137.7989301923867,34.77759472056126],[137.79791726220827,34.77695808821419],[137.797691730347,34.776796342846445],[137.79620516389463,34.775853388092166],[137.79563732899916,34.77538693658471],[137.79329805873056,34.774448258309555],[137.79231565988832,34.77397654915819],[137.79150812515962,34.77339908855844],[137.7911555024246,34.7717260250088],[137.79488270368685,34.77262552027342],[137.7961290390987,34.77253320096857],[137.79631487292517,34.772179884449784],[137.79676636729243,34.7719599574371],[137.7969069917147,34.77214375124378],[137.79751691721694,34.77264508327008],[137.79770647127734,34.77280577481216],[137.79857498367178,34.77321985980112],[137.7987888234073,34.77340055145233],[137.79896583147618,34.77349144369662],[137.79912087419052,34.773741519913024],[137.79983820876848,34.77451827650288]]]},"properties":{"KEY_CODE":"221320210","PREF":"22","CITY":"132","CITY_NAME":"浜松市東区","S_NAME":"笠井上町","SETAI":"409"}},{"type":"Feature","geometry":{"type":"Polygon","coordinates":[[[137.79150812515962,34.77339908855844],[137.78797604635696,34.77322478757619],[137.78649614619357,34.76877200574026],[137.7851218255902,34.769076446234024],[137.78456684991485,34.76804321345277],[137.7835135632254,34.767402126062386],[137.7834335087653,34.76680441642687],[137.78388261648539,34.76444602916038],[137.78562805782556,34.76295622718417],[137.784770099991,34.76165512389227],[137.78149958210594,34.760722407109],[137.7806544689758,34.75934895200833],[137.7791354585007,34.7581960029311],[137.77831727580397,34.75654788354178],[137.7787384436658,34.75447162328676],[137.77867196785937,34.753518187157255],[137.77865746477892,34.753128065221524],[137.77956499896862,34.75364281325609],[137.78095043720165,34.75374472364057],[137.78259844963506,34.755647211279154],[137.78561390862893,34.75585367238928],[137.7895408454492,34.75895512497352],[137.79095502085033,34.76035453836464],[137.79175590105967,34.761131274036515],[137.79245069531217,34.7616929970508],[137.79195610133607,34.76266004740977],[137.79118005071206,34.764447349650595],[137.79157097417232,34.76488587764307],[137.7906613750241,34.76816125689447],[137.78983293349364,34.76846219384593],[137.79026990033583,34.76928722781793],[137.79095819725475,34.770870282124136],[137.7911555024246,34.7717260250088],[137.79150812515962,34.77339908855844]]]},"properties":{"KEY_CODE":"221320220","PREF":"22","CITY":"132","CITY_NAME":"浜松市東区","S_NAME":"笠井新田町","SETAI":"1062"}},{"type":"Feature","geometry":{"type":"Polygon","coordinates":[[[137.81875893427352,34.7640393324335],[137.80991640817265,34.76507828580386],[137.80992970514242,34.76673711228635],[137.80479018204474,34.76711609259177],[137.80479373895201,34.767880128308946],[137.8037921923827,34.76790494487519],[137.8036813454728,34.76611780206526],[137.80291508094982,34.7656503961565],[137.80259182872072,34.76178409169309],[137.80103722830944,34.76170513186319],[137.8012787163663,34.75804450579136],[137.8041354669499,34.75810811642801],[137.80390564540795,34.757566184077085],[137.80549392664835,34.757324421234266],[137.8054517499648,34.75678426979703],[137.80760635894762,34.75661628831828],[137.80756752396502,34.75612813315165],[137.8113971129168,34.754255642675545],[137.81413696888671,34.75330625038285],[137.81587607559126,34.75298123108141],[137.81663077638464,34.755926745091955],[137.81875893427352,34.7640393324335]]]},"properties":{"KEY_CODE":"221320230","PREF":"22","CITY":"132","CITY_NAME":"浜松市東区","S_NAME":"豊西町","SETAI":"317"}},{"type":"Feature","geometry":{"type":"Polygon","coordinates":[[[137.81275651330776,34.747253371528664],[137.8142240471222,34.74928875540737],[137.81516798201932,34.750658714434635],[137.81534648018476,34.750937069839615],[137.81623593599608,34.75292029147648],[137.81587607559126,34.75298123108141],[137.81413696888671,34.75330625038285],[137.8113971129168,34.754255642675545],[137.80756752396502,34.75612813315165],[137.80760635894762,34.75661628831828],[137.8054517499648,34.75678426979703],[137.80549392664835,34.757324421234266],[137.80390564540795,34.757566184077085],[137.8041354669499,34.75810811642801],[137.8012787163663,34.75804450579136],[137.7986539260701,34.75783708624014],[137.79839538035932,34.75680507772239],[137.79873387770812,34.75353702671101],[137.79881212285375,34.75157432129399],[137.79815529639626,34.751508685702476],[137.79822554206734,34.75062886007166],[137.79766461883327,34.7505781437465],[137.79778917780914,34.749429167028765],[137.7979636248114,34.748282451018895],[137.79852265943697,34.748151164667696],[137.798715218476,34.746519292088955],[137.80022590418452,34.746646622844416],[137.8021300864524,34.74693466789477],[137.80363053416443,34.747530819254706],[137.8054275097032,34.74771945168879],[137.81254063206546,34.74697846246728],[137.81275651330776,34.747253371528664]]]},"properties":{"KEY_CODE":"221320240","PREF":"22","CITY":"132","CITY_NAME":"浜松市東区","S_NAME":"常光町","SETAI":"226"}},{"type":"Feature","geometry":{"type":"Polygon","coordinates":[[[137.79778917780914,34.749429167028765],[137.79766461883327,34.7505781437465],[137.79822554206734,34.75062886007166],[137.79815529639626,34.751508685702476],[137.79881212285375,34.75157432129399],[137.79873387770812,34.75353702671101],[137.79839538035932,34.75680507772239],[137.7986539260701,34.75783708624014],[137.79852393434152,34.761603143534145],[137.79752829279485,34.76155498083642],[137.79614254971634,34.76067671319162],[137.79641516849426,34.75915549260225],[137.79500933989058,34.758915731127495],[137.7929845375171,34.75858049488276],[137.79101142932035,34.75825369694684],[137.79133143981178,34.75680854369386],[137.79100169571788,34.75514223579107],[137.79058997111485,34.75511573279593],[137.79070396214289,34.75415110421511],[137.7910019713002,34.7530903609732],[137.791151466609,34.75246680840311],[137.79081500450116,34.75039377857229],[137.79086173697647,34.75006232883443],[137.79058661696777,34.74787330824436],[137.79115400765383,34.74791086536254],[137.79230474212363,34.748066918530505],[137.7940490482086,34.7482285423638],[137.79397309649838,34.748742940441154],[137.7939133931632,34.749132069289104],[137.79597907568905,34.74930962844092],[137.79669173996518,34.749359416047234],[137.79778917780914,34.749429167028765]]]},"properties":{"KEY_CODE":"221320250","PREF":"22","CITY":"132","CITY_NAME":"浜松市東区","S_NAME":"貴平町","SETAI":"227"}},{"type":"Feature","geometry":{"type":"Polygon","coordinates":[[[137.80093663055302,34.766973771722824],[137.8004298409392,34.766999582292854],[137.80047796458726,34.767231572059636],[137.79967563279072,34.766611810791645],[137.79743955784718,34.766432656474066],[137.79718175709738,34.76508104002919],[137.79606315369884,34.76399063220437],[137.79424368517337,34.76300683620866],[137.79245069531217,34.7616929970508],[137.79175590105967,34.761131274036515],[137.79095502085033,34.76035453836466],[137.7912999704658,34.75920364231782],[137.79093632594646,34.75861934523491],[137.79101142932032,34.75825369694684],[137.7929845375171,34.75858049488276],[137.79500933989058,34.758915731127495],[137.79641516849426,34.75915549260225],[137.79614254971634,34.76067671319162],[137.79752829279485,34.76155498083642],[137.79852393434152,34.761603143534145],[137.7986539260701,34.75783708624014],[137.8012787163663,34.75804450579136],[137.80103722830944,34.76170513186319],[137.80259182872072,34.76178409169309],[137.80291508094982,34.7656503961565],[137.80089001763022,34.76616145618093],[137.80093663055302,34.766973771722824]]]},"properties":{"KEY_CODE":"221320260","PREF":"22","CITY":"132","CITY_NAME":"浜松市東区","S_NAME":"恒武町","SETAI":"486"}},{"type":"Feature","geometry":{"type":"Polygon","coordinates":[[[137.81315099569133,34.77767502563664],[137.81099750025794,34.778187559567066],[137.81161293061038,34.780275462309795],[137.81059980557552,34.779875877464086],[137.8108806429268,34.78351291275556],[137.81123028999681,34.784825027946155],[137.81034528582998,34.78535161498437],[137.80908889232828,34.78578705203987],[137.80683774187347,34.786522270810835],[137.80610938237808,34.78652217837543],[137.8030954084655,34.78649371541801],[137.8031408387564,34.78371173555477],[137.80194201119767,34.78271951714331],[137.8019954360128,34.78020310343053],[137.80069791107732,34.77616818819963],[137.79983820876848,34.77451827650288],[137.80004839260346,34.77379745137541],[137.80048687035048,34.77035303764751],[137.8008123246684,34.7692870699488],[137.80080724723155,34.76912139166136],[137.80075880437022,34.768891373288675],[137.80069655815248,34.768653950621434],[137.8006533084585,34.7684205799394],[137.80072877808726,34.76802583506734],[137.8006691938278,34.76720844817675],[137.8004298409392,34.766999582292854],[137.80093663055302,34.766973771722824],[137.80089001763022,34.76616145618093],[137.80291508094982,34.7656503961565],[137.8036813454728,34.76611780206526],[137.8037921923827,34.76790494487519],[137.80479373895201,34.767880128308946],[137.80479018204474,34.76711609259177],[137.80992970514242,34.76673711228635],[137.80991640817265,34.76507828580386],[137.81875893427352,34.7640393324335],[137.81998708741318,34.769003451892935],[137.82161857366253,34.774877091789556],[137.8173234615187,34.77633896295164],[137.816044532477,34.77681111557531],[137.81315099569133,34.77767502563664]]]},"properties":{"KEY_CODE":"221320270","PREF":"22","CITY":"132","CITY_NAME":"浜松市東区","S_NAME":"豊町","SETAI":"1158"}},{"type":"Feature","geometry":{"type":"Polygon","coordinates":[[[137.79359387593834,34.73840459993601],[137.79361855134474,34.74014111684021],[137.79292228971138,34.7400974646346],[137.79284349561235,34.740906099920586],[137.79220391719545,34.74086756460111],[137.7922965854994,34.74004844684172],[137.7900993895017,34.73988075817468],[137.79022162577587,34.73779534598349],[137.78984068532054,34.73703993253619],[137.78936402560507,34.734200229218274],[137.78964049864166,34.73356672162059],[137.78944901767386,34.732425482548784],[137.78970928676836,34.73177582243818],[137.79156985704827,34.73187859212171],[137.79360518570084,34.73425242971697],[137.79435281335162,34.735545652961974],[137.79330885030527,34.735762248208545],[137.793900032544,34.73660268434869],[137.79359387593834,34.73840459993601]]]},"properties":{"KEY_CODE":"221320280","PREF":"22","CITY":"132","CITY_NAME":"浜松市東区","S_NAME":"松小池町","SETAI":"186"}},{"type":"Feature","geometry":{"type":"Polygon","coordinates":[[[137.79980913647324,34.72745974262319],[137.79732102709352,34.72746615953627],[137.79664914617257,34.724900068006285],[137.79324506249867,34.72455366409418],[137.7936655741469,34.72358773539199],[137.79384700187052,34.72214402749514],[137.7944757636335,34.72084703520252],[137.7931117500426,34.719422171708565],[137.79287916532147,34.7189107724852],[137.79440398696627,34.71827946046119],[137.79524096269276,34.71916870411833],[137.79620653699155,34.72011342705706],[137.7976037588253,34.72287785169166],[137.79980913647324,34.72745974262319]]]},"properties":{"KEY_CODE":"221320290","PREF":"22","CITY":"132","CITY_NAME":"浜松市東区","S_NAME":"国吉町","SETAI":"299"}},{"type":"Feature","geometry":{"type":"Polygon","coordinates":[[[137.80210780898815,34.73321507080152],[137.80227166573323,34.734297095376746],[137.80258376673257,34.73652373509698],[137.803290839301,34.73912340435469],[137.8040087692675,34.74095418383966],[137.8029464390568,34.74089159214932],[137.80113629898543,34.7407490395328],[137.801056396293,34.738864311622386],[137.8003173750252,34.73878102293839],[137.800786801973,34.73453559319655],[137.80029329770164,34.73246382629209],[137.7996860475629,34.732953174595174],[137.79854899096472,34.732826157874975],[137.79863715778154,34.733474332164306],[137.7953695334001,34.733143616001236],[137.79523702334575,34.733626268120375],[137.79369456900625,34.73345020039261],[137.79360518570084,34.73425242971697],[137.79156985704827,34.73187859212171],[137.78970928676836,34.73177582243818],[137.79047724333043,34.73129423312924],[137.79075700772128,34.72986207476141],[137.79137861181994,34.73009053600325],[137.7913046668293,34.72907788983744],[137.79163847087884,34.72774733186905],[137.7923322315646,34.727683650072166],[137.79261317746767,34.7254593334302],[137.7931205676279,34.725493436973586],[137.79324506249867,34.72455366409418],[137.79664914617257,34.724900068006285],[137.79732102709352,34.72746615953627],[137.79980913647324,34.72745974262319],[137.80062567205715,34.729002622271366],[137.80186874942524,34.732256847991444],[137.80210780898815,34.73321507080152]]]},"properties":{"KEY_CODE":"221320300","PREF":"22","CITY":"132","CITY_NAME":"浜松市東区","S_NAME":"中野町","SETAI":"1116"}},{"type":"Feature","geometry":{"type":"Polygon","coordinates":[[[137.7979636248114,34.748282451018895],[137.7977891778091,34.749429167028765],[137.79669173996518,34.749359416047234],[137.79597907568905,34.74930962844092],[137.7939133931632,34.749132069289104],[137.79397309649838,34.748742940441154],[137.7940490482086,34.748228542363805],[137.79230474212363,34.748066918530505],[137.79115400765383,34.74791086536254],[137.79087472299045,34.746364140181825],[137.79152505133825,34.746414435758716],[137.79175371831857,34.74455220437003],[137.79241655785822,34.74461904852849],[137.79274597337405,34.74158433064204],[137.79209994843532,34.74162069443109],[137.79220391719545,34.74086756460111],[137.79284349561235,34.740906099920586],[137.79292228971138,34.7400974646346],[137.79361855134474,34.74014111684021],[137.79359387593834,34.73840459993601],[137.7949895455031,34.73840345176777],[137.79497296313974,34.73887579765173],[137.79693537658255,34.73902104436864],[137.79689832728977,34.73941833397805],[137.79872834210497,34.74055102409943],[137.79937625358028,34.74060505902048],[137.79924420796692,34.741688345493785],[137.80280890717268,34.741982877720694],[137.8029464390568,34.74089159214932],[137.8040087692675,34.74095418383966],[137.803290839301,34.73912340435469],[137.80258376673257,34.73652373509698],[137.80227166573323,34.734297095376746],[137.80210780898815,34.73321507080152],[137.80186874942524,34.732256847991444],[137.80062567205715,34.729002622271366],[137.79980913647324,34.72745974262319],[137.7976037588253,34.72287785169166],[137.79620653699155,34.72011342705706],[137.79524096269276,34.71916870411833],[137.79440398696627,34.71827946046119],[137.79418675752927,34.71804259733642],[137.7938240524751,34.71755255164072],[137.79368568676887,34.717003815587056],[137.79306535449734,34.71559895433601],[137.79277502644058,34.714176587353684],[137.7927333292051,34.71319768172269],[137.79318204562912,34.71223404605038],[137.79401176007272,34.71121925847137],[137.79450069392138,34.71046883158254],[137.80177427921944,34.71063506103242],[137.80201374207485,34.713128876301916],[137.80281670299183,34.71778625107155],[137.80324239124403,34.72025550892735],[137.8033278102038,34.72058757597991],[137.80534674808058,34.720406093003014],[137.8057366177405,34.722749489863084],[137.80589832852846,34.72369921941052],[137.805512270955,34.72427084554023],[137.80751199264364,34.72874179002899],[137.80810924274908,34.730060387224476],[137.8082628135626,34.730457777037444],[137.80818509583716,34.732551590179085],[137.80811904405817,34.73447292065841],[137.80845270874124,34.73608369053024],[137.80909137259346,34.73852276600434],[137.80945696595774,34.74044361719828],[137.8101401255615,34.742704181986845],[137.81066986868757,34.74407069176107],[137.81254063206546,34.74697846246728],[137.8054275097032,34.74771945168879],[137.80363053416443,34.747530819254706],[137.8021300864524,34.74693466789477],[137.80022590418452,34.746646622844416],[137.798715218476,34.746519292088955],[137.79852265943697,34.748151164667696],[137.7979636248114,34.748282451018895]]]},"properties":{"KEY_CODE":"221320310","PREF":"22","CITY":"132","CITY_NAME":"浜松市東区","S_NAME":"白鳥町","SETAI":"215"}},{"type":"Feature","geometry":{"type":"Polygon","coordinates":[[[137.79360518570084,34.73425242971697],[137.79369456900625,34.73345020039261],[137.79523702334575,34.733626268120375],[137.7953695334001,34.733143616001236],[137.79863715778154,34.733474332164306],[137.79854899096472,34.732826157874975],[137.7996860475629,34.732953174595174],[137.80029329770164,34.73246382629209],[137.800786801973,34.73453559319655],[137.8003173750252,34.73878102293839],[137.801056396293,34.738864311622386],[137.80113629898543,34.7407490395328],[137.8029464390568,34.74089159214932],[137.80280890717268,34.741982877720694],[137.79924420796692,34.741688345493785],[137.79937625358028,34.74060505902048],[137.79872834210497,34.74055102409943],[137.79689832728977,34.73941833397805],[137.79693537658255,34.73902104436864],[137.79497296313974,34.73887579765173],[137.7949895455031,34.73840345176777],[137.79359387593834,34.73840459993601],[137.793900032544,34.73660268434869],[137.79330885030527,34.735762248208545],[137.79435281335162,34.735545652961974],[137.79360518570084,34.73425242971697]]]},"properties":{"KEY_CODE":"221320320","PREF":"22","CITY":"132","CITY_NAME":"浜松市東区","S_NAME":"中里町","SETAI":"383"}},{"type":"Feature","geometry":{"type":"Polygon","coordinates":[[[137.77649827608053,34.72122655987433],[137.7761874209889,34.72199407875098],[137.77556016862655,34.72186846455138],[137.77496987943604,34.72377556687094],[137.77290246430468,34.7236240909746],[137.77282983785267,34.72407511871349],[137.77032842087152,34.724491741281525],[137.76795140189364,34.72422058326633],[137.76813584855793,34.723590768132944],[137.76695649558465,34.7231830869244],[137.76603941724957,34.72264456258022],[137.76459958783244,34.721254767227364],[137.76539991985786,34.72094066850497],[137.76503817711912,34.720545070479254],[137.76527750806326,34.718158037099144],[137.76563305789472,34.717116738384824],[137.7667026208549,34.71642171940611],[137.76903124114554,34.716333420009086],[137.77092877861745,34.715687697022545],[137.7715531740341,34.714673499866926],[137.77161690643317,34.71331031163161],[137.7771348005969,34.71595680802848],[137.77764109120162,34.71608181961864],[137.7776136323682,34.716485477564625],[137.77656560254877,34.71626129825328],[137.77663503511837,34.71647679453527],[137.77677714058277,34.71691794850547],[137.77778565274375,34.71682117229968],[137.7775263339825,34.71772290260147],[137.7768352495631,34.7178010153949],[137.77680713687877,34.71887061413741],[137.77502208012322,34.718619592546844],[137.7748001027097,34.72026426300926],[137.77649827608053,34.72122655987433]]]},"properties":{"KEY_CODE":"221320330","PREF":"22","CITY":"132","CITY_NAME":"浜松市東区","S_NAME":"和田町","SETAI":"1626"}},{"type":"Feature","geometry":{"type":"Polygon","coordinates":[[[137.78294938004507,34.72031038733781],[137.78212064835483,34.7216176961671],[137.78142217933814,34.72132843229468],[137.7791920102241,34.724891268303374],[137.77901866215106,34.72481571837098],[137.77900099538897,34.72483646014493],[137.77896008048708,34.72440166123421],[137.77939584014987,34.72313708695288],[137.77881141959324,34.722919626733024],[137.77937852459152,34.72189037125485],[137.77774216065671,34.721286423936796],[137.77649827608053,34.72122655987433],[137.7748001027097,34.72026426300926],[137.77502208012322,34.718619592546844],[137.77680713687877,34.71887061413741],[137.7768352495631,34.7178010153949],[137.7775263339825,34.71772290260147],[137.77778565274375,34.71682117229968],[137.77677714058277,34.71691794850547],[137.77663503511837,34.71647679453527],[137.77656560254877,34.71626129825328],[137.7776136323682,34.716485477564625],[137.77764109120162,34.71608181961864],[137.77979092270667,34.71686190097089],[137.78078144072657,34.71647764996934],[137.78129406225898,34.71701665335976],[137.78231160414833,34.716549305830576],[137.7829604441008,34.718371027982705],[137.782357452606,34.71817784807094],[137.78246880304377,34.718900245924075],[137.78294938004507,34.72031038733781]]]},"properties":{"KEY_CODE":"221320340","PREF":"22","CITY":"132","CITY_NAME":"浜松市東区","S_NAME":"天龍川町","SETAI":"1190"}},{"type":"Feature","geometry":{"type":"Polygon","coordinates":[[[137.77754419976765,34.733141920724535],[137.77744401907043,34.73379054979802],[137.77426935989735,34.73349955223396],[137.7737641565915,34.73345229180469],[137.77244075984277,34.73332869534817],[137.77241682437065,34.731948529236846],[137.7721177823986,34.73171149195663],[137.7720548343133,34.73154602320419],[137.7719771931705,34.731324825019485],[137.77207937150362,34.7313364270741],[137.77177131371494,34.73089269876475],[137.7715963200051,34.729957035109194],[137.7720933652781,34.729466711859956],[137.7723488333793,34.72803399163906],[137.7721994607912,34.72656312629382],[137.7704159943128,34.726120637032395],[137.77032842087152,34.724491741281525],[137.77282983785267,34.72407511871349],[137.77290246430468,34.7236240909746],[137.77496987943604,34.72377556687094],[137.77556016862655,34.72186846455138],[137.7761874209889,34.72199407875098],[137.77649827608053,34.72122655987433],[137.77774216065671,34.721286423936796],[137.77937852459158,34.72189037125485],[137.77881141959324,34.722919626732995],[137.77939584014993,34.7231370869529],[137.77896008048708,34.72440166123421],[137.77900099538897,34.72483646014493],[137.77901866215106,34.72481571837098],[137.77911295721094,34.725007005807235],[137.7790416772069,34.72512152199817],[137.77882265754496,34.72570746024423],[137.77871212439248,34.72650026682674],[137.77862830281316,34.72708532222274],[137.77827779409446,34.72944715254933],[137.77800210523387,34.73000387930952],[137.77771052439695,34.7322254863497],[137.77760713095446,34.73304707447045],[137.77754419976765,34.733141920724535]]]},"properties":{"KEY_CODE":"221320350","PREF":"22","CITY":"132","CITY_NAME":"浜松市東区","S_NAME":"篠ケ瀬町","SETAI":"1912"}},{"type":"Feature","geometry":{"type":"Polygon","coordinates":[[[137.78936402560507,34.734200229218274],[137.78765804262466,34.73410876466989],[137.78289286441313,34.73409087303544],[137.78282416753459,34.73421815225253],[137.78210624504834,34.734069870092235],[137.7807806625018,34.734086650893325],[137.77939275386382,34.73372666691231],[137.7781404666268,34.73376202591488],[137.77744401907043,34.73379054979802],[137.77754419976765,34.733141920724535],[137.77760713095446,34.73304707447045],[137.77771052439695,34.7322254863497],[137.77800210523387,34.73000387930952],[137.77827779409446,34.72944715254933],[137.77862830281316,34.72708532222274],[137.7818153506243,34.727242490862864],[137.78179035802526,34.72614307852334],[137.78379692137818,34.726913939156105],[137.78537994738392,34.727615776505196],[137.78751910809007,34.727340652942566],[137.78776793773017,34.72757270614818],[137.7867553436878,34.72812691581216],[137.78527369405919,34.72972380798029],[137.78511781792378,34.730906387563124],[137.78615458543388,34.731947698112634],[137.7871200636173,34.73253261502874],[137.78684973181018,34.73305459396245],[137.7860286328298,34.73253335169413],[137.78555614464153,34.73328556492032],[137.78631264082085,34.733869814481935],[137.788425181252,34.733851992046134],[137.78865499228365,34.73319482973073],[137.78782730979873,34.7323697284803],[137.78944901767386,34.732425482548784],[137.78964049864166,34.73356672162059],[137.78936402560507,34.734200229218274]]]},"properties":{"KEY_CODE":"221320360","PREF":"22","CITY":"132","CITY_NAME":"浜松市東区","S_NAME":"北島町","SETAI":"1530"}},{"type":"Feature","geometry":{"type":"Polygon","coordinates":[[[137.78379692137818,34.726913939156105],[137.78179035802526,34.72614307852334],[137.7818153506243,34.727242490862864],[137.77862830281316,34.72708532222274],[137.77871212439248,34.72650026682674],[137.77882265754496,34.72570746024423],[137.7790416772069,34.72512152199817],[137.77911295721094,34.725007005807235],[137.7791920102241,34.724891268303374],[137.78142217933814,34.72132843229468],[137.78212064835483,34.7216176961671],[137.78294938004507,34.72031038733781],[137.78364257587248,34.72053763755945],[137.7842124779202,34.72053877274045],[137.78467293045566,34.72192008387256],[137.78443296929225,34.72231080877224],[137.78352106380427,34.72211227507582],[137.78342584434128,34.7227734607197],[137.78544376118,34.72336788287152],[137.7866748111028,34.72409720681578],[137.78607610519992,34.72524250079125],[137.78519966321622,34.72477501520658],[137.7853177342352,34.72532787743499],[137.78380405208407,34.72550286476755],[137.78379692137818,34.726913939156105]]]},"properties":{"KEY_CODE":"221320370","PREF":"22","CITY":"132","CITY_NAME":"浜松市東区","S_NAME":"薬師町","SETAI":"560"}},{"type":"Feature","geometry":{"type":"Polygon","coordinates":[[[137.78944901767386,34.732425482548784],[137.78782730979873,34.7323697284803],[137.78865499228365,34.73319482973073],[137.788425181252,34.733851992046134],[137.78631264082085,34.733869814481935],[137.78555614464153,34.73328556492032],[137.7860286328298,34.73253335169413],[137.78684973181018,34.73305459396245],[137.7871200636173,34.73253261502874],[137.78615458543388,34.731947698112634],[137.78511781792378,34.730906387563124],[137.78527369405919,34.72972380798029],[137.7867553436878,34.72812691581216],[137.78776793773017,34.72757270614818],[137.7884687020312,34.727104403582885],[137.78892862296826,34.72668581013734],[137.78975489127146,34.72504813898813],[137.78970231818715,34.72366841297244],[137.79071942975224,34.7237301779407],[137.79019977960982,34.72733363177405],[137.78945763063064,34.7283037151445],[137.7913046668293,34.72907788983744],[137.79137861181994,34.73009053600325],[137.79075700772128,34.72986207476141],[137.79047724333043,34.73129423312924],[137.78970928676836,34.73177582243818],[137.78944901767386,34.732425482548784]]]},"properties":{"KEY_CODE":"221320380","PREF":"22","CITY":"132","CITY_NAME":"浜松市東区","S_NAME":"安新町","SETAI":"305"}},{"type":"Feature","geometry":{"type":"Polygon","coordinates":[[[137.79324506249867,34.72455366409418],[137.7931205676279,34.725493436973586],[137.79261317746767,34.7254593334302],[137.7923322315646,34.727683650072166],[137.79163847087884,34.72774733186905],[137.7913046668293,34.72907788983744],[137.78945763063064,34.7283037151445],[137.79019977960982,34.72733363177405],[137.79071942975224,34.7237301779407],[137.78970231818715,34.72366841297244],[137.78975489127146,34.72504813898813],[137.78892862296826,34.72668581013734],[137.7884687020312,34.727104403582885],[137.78855786166156,34.725855382710826],[137.7878906812713,34.72350912606247],[137.78852761785714,34.72340865026425],[137.7881559722299,34.722026053027975],[137.78877638682278,34.721916041628816],[137.78730296861772,34.719806735248284],[137.79133215425787,34.71973752164557],[137.7931117500426,34.719422171708565],[137.7944757636335,34.72084703520252],[137.79384700187052,34.72214402749514],[137.7936655741469,34.72358773539199],[137.79324506249867,34.72455366409418]]]},"properties":{"KEY_CODE":"221320390","PREF":"22","CITY":"132","CITY_NAME":"浜松市東区","S_NAME":"安間町","SETAI":"506"}},{"type":"Feature","geometry":{"type":"Polygon","coordinates":[[[137.79306535449734,34.71559895433601],[137.79368568676887,34.717003815587056],[137.7938240524751,34.71755255164072],[137.79418675752927,34.71804259733642],[137.79440398696627,34.71827946046119],[137.79287916532147,34.7189107724852],[137.7931117500426,34.719422171708565],[137.79133215425787,34.71973752164557],[137.78730296861772,34.719806735248284],[137.78593359862484,34.714964501839084],[137.78758121882967,34.71502396733042],[137.79087607415713,34.715264105513384],[137.79164460354644,34.71475027577328],[137.79289791963924,34.714994267359074],[137.79306535449734,34.71559895433601]]]},"properties":{"KEY_CODE":"221320400","PREF":"22","CITY":"132","CITY_NAME":"浜松市東区","S_NAME":"材木町","SETAI":"204"}},{"type":"Feature","geometry":{"type":"Polygon","coordinates":[[[137.7881559722299,34.722026053027975],[137.78705970989057,34.72210676793142],[137.78647524422556,34.72084981777321],[137.78678075341048,34.72014888576374],[137.7842124779202,34.72053877274045],[137.78364257587248,34.72053763755945],[137.78365426372332,34.72045319096541],[137.7839810761909,34.718437664917964],[137.7838684961588,34.718154864582324],[137.78422604456108,34.71784499711279],[137.7840969631027,34.71699628675903],[137.7835696287542,34.715464180704565],[137.7837037423319,34.71438786410765],[137.78298901251446,34.713821894294135],[137.78355452873382,34.7132529606029],[137.78420680184766,34.71262580028656],[137.78528339993377,34.71256302265421],[137.78539231715706,34.712894675970006],[137.78711193399886,34.71332135892678],[137.78758121882967,34.71502396733042],[137.78593359862484,34.714964501839084],[137.78730296861772,34.719806735248284],[137.78877638682278,34.721916041628816],[137.7881559722299,34.722026053027975]]]},"properties":{"KEY_CODE":"221320410","PREF":"22","CITY":"132","CITY_NAME":"浜松市東区","S_NAME":"龍光町","SETAI":"174"}},{"type":"Feature","geometry":{"type":"Polygon","coordinates":[[[137.78355452873382,34.7132529606029],[137.78298901251446,34.713821894294135],[137.7837037423319,34.71438786410765],[137.7835696287542,34.715464180704565],[137.7831274733602,34.71548733091756],[137.78197357085182,34.71555385271852],[137.78126442781834,34.71567569413468],[137.78101469812532,34.71567688160724],[137.78072097878797,34.71558695653802],[137.7795182010487,34.715278636092364],[137.77889411298406,34.71468205971008],[137.77867391680454,34.71468074385911],[137.77754455620746,34.713813947112385],[137.77758779514215,34.71318332909073],[137.77612305301895,34.712541009138505],[137.77620822679498,34.711431751819376],[137.7776766739591,34.71145687529897],[137.777697377827,34.71209998691332],[137.77770565011662,34.712287228793805],[137.77762322564385,34.71289310410429],[137.7797748874836,34.71275270522063],[137.77981108832472,34.71190822625996],[137.78049179560185,34.71191143673231],[137.78137326051208,34.7125777069599],[137.78213104372253,34.71252939242045],[137.7822276077054,34.71314591990501],[137.78355452873382,34.7132529606029]]]},"properties":{"KEY_CODE":"221320420","PREF":"22","CITY":"132","CITY_NAME":"浜松市東区","S_NAME":"長鶴町","SETAI":"366"}},{"type":"Feature","geometry":{"type":"Polygon","coordinates":[[[137.78776793773017,34.72757270614818],[137.78751910809007,34.727340652942566],[137.78537994738392,34.727615776505196],[137.78379692137818,34.726913939156105],[137.78380405208407,34.72550286476755],[137.7853177342352,34.72532787743499],[137.78519966321622,34.72477501520658],[137.78607610519992,34.72524250079125],[137.7866748111028,34.72409720681578],[137.78544376118,34.72336788287152],[137.78342584434128,34.7227734607197],[137.78352106380427,34.72211227507582],[137.78443296929225,34.72231080877224],[137.78467293045566,34.72192008387256],[137.7842124779202,34.72053877274045],[137.78678075341048,34.72014888576374],[137.78647524422556,34.72084981777321],[137.78705970989057,34.72210676793142],[137.7881559722299,34.722026053027975],[137.78852761785714,34.72340865026425],[137.7878906812713,34.72350912606247],[137.78855786166156,34.725855382710826],[137.7884687020312,34.727104403582885],[137.78776793773017,34.72757270614818]]]},"properties":{"KEY_CODE":"221320430","PREF":"22","CITY":"132","CITY_NAME":"浜松市東区","S_NAME":"薬新町","SETAI":"389"}},{"type":"Feature","geometry":{"type":"Polygon","coordinates":[[[137.7517205545228,34.719415109671424],[137.75121736762188,34.719378217759115],[137.7509081073571,34.71845540468473],[137.7503921167625,34.71856238511562],[137.75019948795335,34.7176659218221],[137.7506879307848,34.71720733852808],[137.75139848849543,34.71503097043748],[137.7531354938784,34.71223577224131],[137.75364906070857,34.71128039616219],[137.75439928959494,34.711421051386225],[137.7557720126899,34.712530503431715],[137.75427538689334,34.71318070574728],[137.75310276498706,34.71444869694353],[137.75224735553044,34.71525633453912],[137.75312304030203,34.715839630652795],[137.75273554997486,34.716228836488085],[137.75352007091826,34.71684988222531],[137.75483798164888,34.716839909324605],[137.75477552513806,34.71724237459197],[137.7568051837238,34.71750632310172],[137.75710314129225,34.716127473189246],[137.75917325414358,34.71644388682637],[137.75958004156675,34.71610619003666],[137.7602303005179,34.716108441014484],[137.7616999343337,34.716211707982374],[137.76143993572086,34.71705188109893],[137.76168455669517,34.71714871855454],[137.76174857286023,34.717162908559686],[137.76140629620696,34.718047095059774],[137.7613246489977,34.718318873055466],[137.76046069886723,34.718124763300025],[137.75614431879413,34.71782964374339],[137.7560542156965,34.718319974858],[137.7546299350478,34.718146482401934],[137.75425004646453,34.718714907732],[137.7535162852834,34.71862294925781],[137.75231597236555,34.71929748309663],[137.7517205545228,34.719415109671424]]]},"properties":{"KEY_CODE":"221320440","PREF":"22","CITY":"132","CITY_NAME":"浜松市東区","S_NAME":"神立町","SETAI":"723"}},{"type":"Feature","geometry":{"type":"Polygon","coordinates":[[[137.75917325414358,34.71644388682637],[137.75710314129225,34.716127473189246],[137.7568051837238,34.71750632310172],[137.75477552513806,34.71724237459197],[137.75483798164888,34.716839909324605],[137.75352007091826,34.71684988222531],[137.75273554997486,34.716228836488085],[137.75312304030203,34.715839630652795],[137.75224735553044,34.71525633453912],[137.75310276498706,34.71444869694353],[137.75427538689334,34.71318070574728],[137.7557720126899,34.712530503431715],[137.7578720050389,34.71325349272831],[137.75793549235806,34.71410239155061],[137.75987083475752,34.71465320248669],[137.7600227022407,34.71602126163024],[137.75958004156675,34.71610619003666],[137.75917325414358,34.71644388682637]]]},"properties":{"KEY_CODE":"221320450","PREF":"22","CITY":"132","CITY_NAME":"浜松市東区","S_NAME":"将監町","SETAI":"435"}},{"type":"Feature","geometry":{"type":"Polygon","coordinates":[[[137.76194180241626,34.71562679496165],[137.7616999343337,34.716211707982374],[137.7602303005179,34.716108441014484],[137.7600227022407,34.71602126163024],[137.75987083475752,34.71465320248669],[137.75793549235806,34.71410239155061],[137.7578720050389,34.71325349272831],[137.7557720126899,34.712530503431715],[137.75439928959494,34.711421051386225],[137.75364906070857,34.71128039616219],[137.7539801477131,34.70984246631748],[137.75417702392684,34.7080756650892],[137.75422864357665,34.70638586723754],[137.75483070162497,34.70592346565256],[137.7557819793633,34.70635029724209],[137.7567375325261,34.70614541597983],[137.75787941759035,34.70678509581978],[137.75869260008844,34.70669919790905],[137.7590537843444,34.70798555664021],[137.7596660700411,34.70842522106662],[137.7598458499474,34.70871379609479],[137.7614410343205,34.709049277805846],[137.76167747729258,34.70986526259805],[137.7616624462472,34.71081254658476],[137.75890524704366,34.71187108327014],[137.75868238566574,34.712762329315666],[137.76205130430134,34.71422145091749],[137.761997172245,34.71499877901877],[137.76194180241626,34.71562679496165]]]},"properties":{"KEY_CODE":"221320460","PREF":"22","CITY":"132","CITY_NAME":"浜松市東区","S_NAME":"植松町","SETAI":"1502"}},{"type":"Feature","geometry":{"type":"Polygon","coordinates":[[[137.76245345392866,34.71725900258442],[137.76205167302805,34.71833326465661],[137.76140629620696,34.71804709505975],[137.76174857286023,34.717162908559686],[137.76168455669517,34.71714871855454],[137.76143993572086,34.71705188109893],[137.7616999343337,34.716211707982374],[137.76194180241626,34.71562679496165],[137.761997172245,34.71499877901877],[137.76205130430134,34.71422145091749],[137.75868238566574,34.712762329315666],[137.75890524704366,34.71187108327014],[137.7616624462472,34.71081254658476],[137.76167747729258,34.70986526259805],[137.7617354870642,34.70911134876103],[137.76286356525407,34.70940017032151],[137.7672063880555,34.71097603141694],[137.76699921089337,34.712697683269475],[137.76652207150084,34.712079851894245],[137.7654748312066,34.71342474391193],[137.7636652623077,34.71386498427815],[137.76349498935303,34.71487345422901],[137.76260988449351,34.71449076061686],[137.76245345392866,34.71725900258442]]]},"properties":{"KEY_CODE":"221320470","PREF":"22","CITY":"132","CITY_NAME":"浜松市東区","S_NAME":"子安町","SETAI":"778"}},{"type":"Feature","geometry":{"type":"Polygon","coordinates":[[[137.7667026208549,34.71642171940611],[137.76534962440778,34.715682562464536],[137.76386566621886,34.71703905584455],[137.76313136496537,34.7168554632538],[137.76245345392866,34.71725900258442],[137.76260988449351,34.71449076061686],[137.76349498935303,34.71487345422901],[137.7636652623077,34.71386498427815],[137.7654748312066,34.71342474391193],[137.76652207150084,34.712079851894245],[137.76699921089337,34.712697683269475],[137.7672063880555,34.71097603141694],[137.77162955284481,34.71311164740824],[137.77161690643317,34.71331031163161],[137.7715531740341,34.714673499866926],[137.77092877861745,34.715687697022545],[137.76903124114554,34.716333420009086],[137.7667026208549,34.71642171940611]]]},"properties":{"KEY_CODE":"221320480","PREF":"22","CITY":"132","CITY_NAME":"浜松市東区","S_NAME":"大蒲町","SETAI":"1143"}},{"type":"Feature","geometry":{"type":"Polygon","coordinates":[[[137.7667026208549,34.71642171940611],[137.76563305789472,34.717116738384824],[137.76527750806326,34.718158037099144],[137.76503817711912,34.720545070479254],[137.76539991985786,34.72094066850497],[137.76459958783244,34.721254767227364],[137.76603941724957,34.72264456258022],[137.76695649558465,34.7231830869244],[137.76667813065862,34.7237834588534],[137.76403682652304,34.72354642228509],[137.76364025275365,34.72207767688247],[137.7610827599435,34.721514862498864],[137.7611633075381,34.72079372616504],[137.7613246489977,34.718318873055466],[137.76140629620696,34.71804709505975],[137.76205167302805,34.71833326465661],[137.76245345392866,34.71725900258442],[137.76313136496537,34.7168554632538],[137.76386566621886,34.71703905584455],[137.76534962440778,34.715682562464536],[137.7667026208549,34.71642171940611]]]},"properties":{"KEY_CODE":"221320490","PREF":"22","CITY":"132","CITY_NAME":"浜松市東区","S_NAME":"宮竹町","SETAI":"479"}},{"type":"Feature","geometry":{"type":"Polygon","coordinates":[[[137.7611633075381,34.72079372616504],[137.75790260659505,34.72065451482283],[137.7577869619552,34.72022250083693],[137.75615545700788,34.72074416912403],[137.7541267310573,34.7210995678741],[137.75231597236555,34.71929748309663],[137.7535162852834,34.71862294925781],[137.75425004646453,34.718714907732],[137.7546299350478,34.718146482401934],[137.7560542156965,34.718319974858],[137.75614431879413,34.71782964374339],[137.76046069886723,34.718124763300025],[137.7613246489977,34.718318873055466],[137.7611633075381,34.72079372616504]]]},"properties":{"KEY_CODE":"221320500","PREF":"22","CITY":"132","CITY_NAME":"浜松市東区","S_NAME":"西塚町","SETAI":"415"}},{"type":"Feature","geometry":{"type":"Polygon","coordinates":[[[137.76614223917315,34.730533264678954],[137.76530792769816,34.73047640177368],[137.7638823728343,34.730513298809576],[137.7595960947545,34.730143639471045],[137.7596134591572,34.7300048556734],[137.75898613499177,34.73003950237278],[137.75895188832655,34.73015789820742],[137.75804990752997,34.730054660875226],[137.75513581443778,34.72980293731888],[137.75440281854583,34.72862015835532],[137.7537080130528,34.72664275664728],[137.75204861896788,34.72700601061928],[137.7517855393879,34.72602979682718],[137.75586191249405,34.72490622203826],[137.75617719758642,34.724993731146185],[137.75645166685007,34.725328865885395],[137.75668784034943,34.725343073606915],[137.75721705604255,34.72526065448477],[137.7573287226773,34.72516498682305],[137.75833415593243,34.726287831861775],[137.76308221737122,34.72663804219315],[137.76300756389065,34.72714806824946],[137.76557441513083,34.72735427431361],[137.76549199009912,34.72788595113867],[137.76646992836805,34.727952830285815],[137.76614223917315,34.730533264678954]]]},"properties":{"KEY_CODE":"221320510","PREF":"22","CITY":"132","CITY_NAME":"浜松市東区","S_NAME":"丸塚町","SETAI":"1199"}},{"type":"Feature","geometry":{"type":"Polygon","coordinates":[[[137.75351108592355,34.732782644252914],[137.7531052796269,34.73338741453647],[137.75252456703544,34.732582642320104],[137.7529259812895,34.7319919331026],[137.75204861896788,34.72700601061928],[137.7537080130528,34.72664275664728],[137.75440281854583,34.72862015835532],[137.75513581443778,34.72980293731888],[137.75804990752997,34.730054660875226],[137.75895188832655,34.73015789820742],[137.75898613499177,34.73003950237278],[137.7596134591572,34.7300048556734],[137.7595960947545,34.730143639471045],[137.7638823728343,34.730513298809576],[137.76530792769816,34.73047640177368],[137.76614223917312,34.730533264678954],[137.7659652768126,34.73168063905774],[137.76590702797452,34.73219767120082],[137.76137408636552,34.731783616868995],[137.7605028989444,34.73171903122566],[137.76005278090125,34.731674604367555],[137.75988224562207,34.73294328315857],[137.75496442092987,34.732243150705294],[137.75424167767207,34.732290151815285],[137.75380506231514,34.73247975958558],[137.7537150819647,34.73255302073724],[137.75351108592355,34.732782644252914]]]},"properties":{"KEY_CODE":"221320520","PREF":"22","CITY":"132","CITY_NAME":"浜松市東区","S_NAME":"上新屋町","SETAI":"723"}},{"type":"Feature","geometry":{"type":"Polygon","coordinates":[[[137.7704159943128,34.726120637032395],[137.76924954521124,34.72580291643963],[137.7673230285813,34.725642475691274],[137.7672294165206,34.726408200645565],[137.7658439101161,34.726225768306406],[137.76557441513083,34.72735427431361],[137.76300756389065,34.72714806824946],[137.76308221737122,34.72663804219315],[137.75833415593243,34.726287831861775],[137.7573287226773,34.72516498682305],[137.75721705604255,34.72526065448477],[137.75668784034943,34.725343073606915],[137.75645166685007,34.725328865885395],[137.75617719758642,34.724993731146185],[137.75586191249405,34.72490622203826],[137.7517855393879,34.72602979682718],[137.75140997887942,34.724340289167024],[137.7543302037132,34.72370007901839],[137.75408549865566,34.72239535808661],[137.7529894610696,34.7225372585271],[137.75138876590952,34.72100420276179],[137.75224898315037,34.72046967651969],[137.7517205545228,34.719415109671424],[137.75231597236555,34.71929748309663],[137.7541267310573,34.7210995678741],[137.75615545700788,34.72074416912403],[137.7577869619552,34.72022250083693],[137.75790260659505,34.72065451482283],[137.7611633075381,34.72079372616504],[137.7610827599435,34.721514862498864],[137.76364025275365,34.72207767688247],[137.76403682652304,34.72354642228509],[137.76667813065862,34.7237834588534],[137.76695649558465,34.7231830869244],[137.76813584855793,34.723590768132944],[137.76795140189364,34.72422058326633],[137.77032842087152,34.724491741281525],[137.7704159943128,34.726120637032395]]]},"properties":{"KEY_CODE":"221320530","PREF":"22","CITY":"132","CITY_NAME":"浜松市東区","S_NAME":"上西町","SETAI":"1662"}}]}