{"type":"FeatureCollection","features":[{"type":"Feature","geometry":{"type":"Polygon","coordinates":[[[138.78940722276926,34.75389066296929],[138.78761473538958,34.756854621071206],[138.78632554835198,34.758187457693644],[138.7872815323665,34.760359833127666],[138.7889470473157,34.76220116037245],[138.78898673977747,34.763638116742165],[138.79060970936575,34.76582156478953],[138.78919263293332,34.76540878757784],[138.78830859838897,34.76573787744383],[138.78708938682175,34.76542657978902],[138.78670408989066,34.76463081661933],[138.78477853512865,34.76381708582652],[138.78349368598137,34.76379004990502],[138.78408807694072,34.762950604227186],[138.78252953666757,34.759064683886784],[138.78192671206224,34.75817711030673],[138.78209171805443,34.75629012443268],[138.78175970502284,34.754297684259626],[138.78209743057118,34.75376710524418],[138.7832724717918,34.75360977047694],[138.78360302059636,34.75422139532596],[138.78429026019714,34.75414118880236],[138.78416261168826,34.75342605329379],[138.78594935715367,34.75313401675678],[138.7865466886723,34.75311399570127],[138.78940722276926,34.75389066296929]]]},"properties":{"KEY_CODE":"22305001006","PREF":"22","CITY":"305","CITY_NAME":"松崎町","S_NAME":"江奈","SETAI":"167"}},{"type":"Feature","geometry":{"type":"Polygon","coordinates":[[[138.78209743057118,34.75376710524418],[138.78175970502284,34.754297684259626],[138.78209171805443,34.75629012443268],[138.78192671206224,34.75817711030673],[138.78252953666757,34.759064683886784],[138.78408807694072,34.762950604227186],[138.78349368598137,34.76379004990502],[138.78118552833294,34.762791338005094],[138.78001760236262,34.76284169510416],[138.778732310053,34.76360026961301],[138.7779309603355,34.76342498244645],[138.77702005707172,34.76256914327819],[138.77558344399444,34.76241396564996],[138.7758123823215,34.76128202450319],[138.77668777247277,34.76042190293412],[138.77580895023627,34.75928599478927],[138.77626463578125,34.758682336606135],[138.77779704600573,34.75873643389947],[138.77844910378502,34.758473245012105],[138.77876145591918,34.75837337606707],[138.780318895264,34.755536760908576],[138.7812620468594,34.75371072046663],[138.78209743057118,34.75376710524418]]]},"properties":{"KEY_CODE":"22305001007","PREF":"22","CITY":"305","CITY_NAME":"松崎町","S_NAME":"江奈","SETAI":"171"}},{"type":"Feature","geometry":{"type":"Polygon","coordinates":[[[138.780318895264,34.755536760908576],[138.77876145591918,34.75837337606707],[138.77844910378502,34.758473245012105],[138.77774526002645,34.757707601929724],[138.77758405877984,34.75566514038405],[138.7788411229151,34.75504756625772],[138.77975874926497,34.754609223903884],[138.780318895264,34.755536760908576]]]},"properties":{"KEY_CODE":"22305002008","PREF":"22","CITY":"305","CITY_NAME":"松崎町","S_NAME":"江奈","SETAI":"103"}},{"type":"Feature","geometry":{"type":"Polygon","coordinates":[[[138.77580895023627,34.75928599478927],[138.77507901710106,34.758890894677315],[138.77511915784203,34.758153335912525],[138.77610674156358,34.75818356828963],[138.7763717898191,34.75773937350496],[138.7762001862141,34.75585880505644],[138.77758405877984,34.75566514038405],[138.77774526002645,34.757707601929724],[138.77844910378502,34.758473245012105],[138.77779704600573,34.75873643389947],[138.77626463578125,34.758682336606135],[138.77580895023627,34.75928599478927]]]},"properties":{"KEY_CODE":"22305002009","PREF":"22","CITY":"305","CITY_NAME":"松崎町","S_NAME":"江奈","SETAI":"58"}},{"type":"Feature","geometry":{"type":"Polygon","coordinates":[[[138.77985843964387,34.74664619608819],[138.77969485252234,34.747908237085454],[138.78031626639023,34.74851682763971],[138.7803098247274,34.749442812935655],[138.78077246830563,34.74968027118984],[138.77959972951822,34.751584714861856],[138.7785134004683,34.75166786833302],[138.77849509844293,34.752449481233135],[138.77736981867568,34.752177002617756],[138.77785600944557,34.751350676433646],[138.77672406771254,34.75093916369992],[138.7785539830546,34.74727488351246],[138.77912350239237,34.746493727550536],[138.77985843964387,34.74664619608819]]]},"properties":{"KEY_CODE":"22305003001","PREF":"22","CITY":"305","CITY_NAME":"松崎町","S_NAME":"松崎","SETAI":"84"}},{"type":"Feature","geometry":{"type":"Polygon","coordinates":[[[138.77521109412822,34.75460185791926],[138.77447480749817,34.75492072369605],[138.77331130410138,34.754863684359684],[138.77455855615503,34.75332529268585],[138.77387875567427,34.75332523818192],[138.77466830193208,34.75182051188466],[138.77736981867568,34.752177002617756],[138.77658002546895,34.75348719874489],[138.77521109412822,34.75460185791926]]]},"properties":{"KEY_CODE":"22305003002","PREF":"22","CITY":"305","CITY_NAME":"松崎町","S_NAME":"松崎","SETAI":"59"}},{"type":"Feature","geometry":{"type":"Polygon","coordinates":[[[138.77736981867568,34.752177002617756],[138.77466830193208,34.75182051188466],[138.77531795243834,34.749574666561955],[138.77502139822482,34.74805486201288],[138.7775316258419,34.747139248553246],[138.77807816023176,34.74656002161032],[138.77912350239237,34.746493727550536],[138.7785539830546,34.74727488351246],[138.77672406771254,34.75093916369992],[138.77785600944557,34.751350676433646],[138.77736981867568,34.752177002617756]]]},"properties":{"KEY_CODE":"22305003003","PREF":"22","CITY":"305","CITY_NAME":"松崎町","S_NAME":"松崎","SETAI":"85"}},{"type":"Feature","geometry":{"type":"Polygon","coordinates":[[[138.77764537100606,34.753531178893624],[138.7788411229151,34.75504756625772],[138.77758405877984,34.75566514038405],[138.7762001862141,34.75585880505644],[138.77547457584507,34.7548135735884],[138.77764537100606,34.753531178893624]]]},"properties":{"KEY_CODE":"22305003004","PREF":"22","CITY":"305","CITY_NAME":"松崎町","S_NAME":"松崎","SETAI":"76"}},{"type":"Feature","geometry":{"type":"Polygon","coordinates":[[[138.77736981867568,34.752177002617756],[138.77849509844293,34.752449481233135],[138.77764537100606,34.753531178893624],[138.77547457584507,34.7548135735884],[138.77521109412822,34.75460185791926],[138.77658002546895,34.75348719874489],[138.77736981867568,34.752177002617756]]]},"properties":{"KEY_CODE":"22305003005","PREF":"22","CITY":"305","CITY_NAME":"松崎町","S_NAME":"松崎","SETAI":"46"}},{"type":"Feature","geometry":{"type":"Polygon","coordinates":[[[138.780318895264,34.755536760908576],[138.77975874926497,34.754609223903884],[138.7788411229151,34.75504756625772],[138.77764537100606,34.753531178893624],[138.77849509844293,34.752449481233135],[138.7785134004683,34.75166786833302],[138.77959972951822,34.751584714861856],[138.78077246830563,34.74968027118984],[138.7803098247274,34.749442812935655],[138.78031626639023,34.74851682763971],[138.77969485252234,34.747908237085454],[138.77985843964387,34.74664619608819],[138.78030760155164,34.74486115477185],[138.78086277097827,34.743722679714004],[138.78216429582457,34.74372172184162],[138.78300816962664,34.74431905817611],[138.78335785678055,34.7452034777452],[138.78430018407306,34.7456235312081],[138.78464132501608,34.74582390559291],[138.78474776344459,34.74595185190885],[138.78577237443844,34.747135885067514],[138.785568207625,34.74969168272825],[138.78526849391181,34.75017263106479],[138.7860543560297,34.75147075146861],[138.7862716949282,34.75251495299636],[138.78594935715367,34.75313401675678],[138.78416261168826,34.75342605329379],[138.78429026019714,34.75414118880236],[138.78360302059636,34.75422139532596],[138.7832724717918,34.75360977047694],[138.78209743057118,34.75376710524418],[138.7812620468594,34.75371072046663],[138.780318895264,34.755536760908576]]]},"properties":{"KEY_CODE":"223050040","PREF":"22","CITY":"305","CITY_NAME":"松崎町","S_NAME":"宮内","SETAI":"166"}},{"type":"Feature","geometry":{"type":"Polygon","coordinates":[[[138.8496707803225,34.78217932234309],[138.84901079521686,34.783298606741916],[138.84908113625605,34.78485951824089],[138.8499414256532,34.78727547200535],[138.85101126218333,34.78804940066635],[138.8529378766059,34.79184162917357],[138.8529213226707,34.7928194556061],[138.85206733425332,34.794317283296444],[138.85200098912821,34.79583518886136],[138.8510089671253,34.79717377943236],[138.8505692003136,34.79848793852197],[138.85052446902142,34.799745446033164],[138.84962499697127,34.80094120515217],[138.8465359813204,34.80115243070656],[138.84442157091934,34.802034151790025],[138.84405201373303,34.8019983047063],[138.8448253468573,34.79950976437656],[138.84437117683612,34.79946697506174],[138.8434432459986,34.80047782566536],[138.84194188471565,34.80100459295326],[138.84102045175592,34.8006726498932],[138.8377784290736,34.800199054613294],[138.8357994259187,34.80043675964805],[138.8354497533557,34.798918309296894],[138.83585690461862,34.798139708031975],[138.83669868800507,34.79760176536576],[138.83811054504028,34.797414392451394],[138.838605731113,34.796520167629645],[138.83876102021773,34.79390026223845],[138.84016115951212,34.792820356153726],[138.84136004544,34.79118964077683],[138.8404425177051,34.7902661619425],[138.84013234606664,34.7889013078546],[138.83977648205538,34.788771585493244],[138.83745713276824,34.79104892195866],[138.83673375977193,34.7910457349178],[138.83557000574234,34.7919750572256],[138.83469890991694,34.79309992714334],[138.83364096025227,34.7935318189832],[138.83281828348598,34.792519141789654],[138.83142695152958,34.7913665964452],[138.82927844595105,34.789572476005816],[138.82820076470398,34.788233356999285],[138.82599839946084,34.78647340019036],[138.8239849338854,34.784320409154304],[138.82244704325035,34.783694144464086],[138.8199596525456,34.781976622220725],[138.8172831662014,34.78159513517689],[138.81790256561976,34.77993868207473],[138.81514784270755,34.779914037200456],[138.81305224678223,34.779235949770374],[138.81157425020757,34.777913450550024],[138.80912445119452,34.77645951430633],[138.80856248198387,34.77636180247046],[138.8075000678066,34.775118589300185],[138.8074682656942,34.774633387190335],[138.8087634892312,34.77350211820177],[138.8117720902255,34.77207920079146],[138.81352750807227,34.771731766690735],[138.81482429922679,34.77120871438483],[138.81593408121356,34.771215945571676],[138.81736970845333,34.77193158791581],[138.81837890304328,34.77274245009059],[138.81816418695908,34.77346920391386],[138.81942489753357,34.77573361182627],[138.8201456405264,34.7765686221191],[138.8214860025711,34.777017832666274],[138.8219868900673,34.778349008110844],[138.82362801948605,34.77927675130571],[138.82444019838752,34.77999652981926],[138.82453239818963,34.78064048784059],[138.82643196885633,34.78140605388205],[138.82766751740215,34.78131070366774],[138.82990876716784,34.78162223897956],[138.83096940439802,34.7815453661513],[138.8318239872954,34.781907586195125],[138.83288453913033,34.78180900266909],[138.83463819550246,34.78109118625722],[138.83788642014372,34.78131273572143],[138.83970032492323,34.78196578875734],[138.84217824024543,34.781761282452095],[138.84325626567994,34.78183710639785],[138.84406055744583,34.7823189856513],[138.84440981339776,34.784239598973144],[138.8496707803225,34.78217932234309]]]},"properties":{"KEY_CODE":"223050060","PREF":"22","CITY":"305","CITY_NAME":"松崎町","S_NAME":"門野","SETAI":"14"}},{"type":"Feature","geometry":{"type":"Polygon","coordinates":[[[138.80118200693116,34.76773392251638],[138.80028965984746,34.768998337524586],[138.79867092278002,34.76993128022377],[138.79708723179178,34.76900159618494],[138.79655477459758,34.76827366828496],[138.79499604556634,34.76792777408814],[138.7945225192504,34.76743381289912],[138.79334735143567,34.76737304693471],[138.7923235637137,34.766834516707604],[138.7918397646187,34.76629268508882],[138.79060970936575,34.76582156478953],[138.78898673977747,34.763638116742165],[138.7889470473157,34.76220116037245],[138.7872815323665,34.760359833127666],[138.78632554835198,34.758187457693644],[138.78761473538958,34.756854621071206],[138.78940722276926,34.75389066296929],[138.79227855031252,34.754687079438284],[138.79361560885803,34.75456406395556],[138.79460471503626,34.75592370011563],[138.79534726829266,34.756062872893594],[138.79654200409294,34.75550545094136],[138.79700191934455,34.75592578009009],[138.79732449365181,34.75857004234234],[138.79696205584327,34.75936404111742],[138.79685469425013,34.76109458879738],[138.79553326809994,34.763100588559794],[138.7969639727692,34.76348451840303],[138.79894895115945,34.764661097405046],[138.80102430387717,34.76515774635359],[138.80101163292795,34.765490080970785],[138.80118200693116,34.76773392251638]]]},"properties":{"KEY_CODE":"223050070","PREF":"22","CITY":"305","CITY_NAME":"松崎町","S_NAME":"櫻田","SETAI":"141"}},{"type":"Feature","geometry":{"type":"Polygon","coordinates":[[[138.80277802792517,34.75550327306328],[138.8028782369521,34.7557506633734],[138.80249386389664,34.756410069263275],[138.80215225800487,34.757086972955896],[138.80238447135875,34.75840420383972],[138.802139627863,34.75876418577051],[138.80113171204934,34.75982144234383],[138.8008094641041,34.76086539313233],[138.80122983083794,34.763543183319506],[138.8010418896787,34.76469735217616],[138.80102430387717,34.76515774635359],[138.79894895115945,34.764661097405046],[138.7969639727692,34.76348451840303],[138.79553326809994,34.763100588559794],[138.79685469425013,34.76109458879738],[138.79696205584327,34.75936404111742],[138.79732449365181,34.75857004234234],[138.79700191934455,34.75592578009009],[138.79654200409294,34.75550545094136],[138.79534726829266,34.756062872893594],[138.79460471503626,34.75592370011563],[138.79361560885803,34.75456406395556],[138.7946604334425,34.75373191401806],[138.79567892446747,34.75247159118161],[138.79648892828027,34.75213954126685],[138.8012547166297,34.75103968454073],[138.80209914526398,34.75057392505628],[138.8043790590547,34.751563146470346],[138.80508240580946,34.752448372435495],[138.80553042888448,34.75401296406045],[138.8043207110671,34.75429726781796],[138.8039658221966,34.754305086074325],[138.80348694860598,34.754262228088976],[138.80286861440084,34.75423479967777],[138.80270762100312,34.75420746216116],[138.80231650220233,34.75417888425812],[138.80209505692747,34.754218049574845],[138.80204382955236,34.7543627125954],[138.80269467327057,34.75529077596599],[138.80277802792517,34.75550327306328]]]},"properties":{"KEY_CODE":"223050080","PREF":"22","CITY":"305","CITY_NAME":"松崎町","S_NAME":"那賀","SETAI":"108"}},{"type":"Feature","geometry":{"type":"Polygon","coordinates":[[[138.8013172518645,34.76824111957318],[138.80101163292795,34.765490080970785],[138.8010418896787,34.76469735217616],[138.80122983083794,34.763543183319506],[138.8008094641041,34.76086539313233],[138.80113171204934,34.75982144234383],[138.802139627863,34.75876418577051],[138.80238447135875,34.75840420383972],[138.80215225800487,34.757086972955896],[138.80249386389664,34.756410069263275],[138.8028782369521,34.7557506633734],[138.80277802792517,34.75550327306328],[138.80269467327057,34.75529077596599],[138.80204382955236,34.7543627125954],[138.80209505692747,34.754218049574845],[138.80231650220233,34.75417888425812],[138.80270762100312,34.75420746216116],[138.80286861440084,34.75423479967777],[138.80348694860598,34.754262228088976],[138.8039658221966,34.754305086074325],[138.8043207110671,34.75429726781796],[138.80553042888448,34.75401296406045],[138.80584693721798,34.754752269619736],[138.80699651042852,34.7559868194341],[138.80765228363802,34.7563215073338],[138.80547586587087,34.758898302530866],[138.804389789512,34.760990472603574],[138.80354398307117,34.76367771511694],[138.80290559686063,34.76670459578357],[138.80268055942423,34.76710311710168],[138.80144481857386,34.76854717865324],[138.8013172518645,34.76824111957318]]]},"properties":{"KEY_CODE":"223050090","PREF":"22","CITY":"305","CITY_NAME":"松崎町","S_NAME":"建久寺","SETAI":"24"}},{"type":"Feature","geometry":{"type":"Polygon","coordinates":[[[138.80435659879245,34.772209188666935],[138.8040438476537,34.77167652688149],[138.80276400137853,34.77180375264568],[138.80015852345588,34.77062256978145],[138.79895865706408,34.77038287867902],[138.79867092278002,34.76993128022377],[138.80028965984746,34.768998337524586],[138.80118200693116,34.76773392251638],[138.8013172518645,34.76824111957318],[138.80144481857386,34.76854717865324],[138.80268055942423,34.76710311710168],[138.80290559686063,34.76670459578357],[138.80354398307117,34.76367771511694],[138.804389789512,34.76099047260356],[138.80547586587087,34.758898302530866],[138.80765228363802,34.7563215073338],[138.80849924130857,34.75660187991413],[138.8111074642566,34.75686664997698],[138.81196836084106,34.7571745852722],[138.81303181778858,34.7580906845692],[138.81141445166068,34.75941672479651],[138.8105832617336,34.75981403946813],[138.81020389125402,34.76135276445551],[138.809841713361,34.76496980069663],[138.80948101810802,34.76609993490597],[138.80850734514843,34.76796558663571],[138.8075766195135,34.769116070086596],[138.80435659879245,34.772209188666935]]]},"properties":{"KEY_CODE":"223050100","PREF":"22","CITY":"305","CITY_NAME":"松崎町","S_NAME":"吉田","SETAI":"40"}},{"type":"Feature","geometry":{"type":"Polygon","coordinates":[[[138.8492491085541,34.778363261058495],[138.8496707803225,34.78217932234309],[138.84440981339776,34.784239598973144],[138.84406055744583,34.7823189856513],[138.84325626567994,34.78183710639785],[138.84217824024543,34.781761282452095],[138.83970032492323,34.78196578875734],[138.83788642014372,34.78131273572143],[138.83463819550246,34.78109118625722],[138.83288453913033,34.78180900266909],[138.8318239872954,34.781907586195125],[138.83096940439802,34.7815453661513],[138.82990876716784,34.78162223897956],[138.82766751740215,34.78131070366774],[138.82643196885633,34.78140605388205],[138.82453239818963,34.78064048784059],[138.82444019838752,34.77999652981926],[138.82362801948605,34.77927675130571],[138.8219868900673,34.778349008110844],[138.8214860025711,34.777017832666274],[138.8201456405264,34.7765686221191],[138.81942489753357,34.77573361182627],[138.81816418695908,34.77346920391386],[138.81837890304328,34.77274245009059],[138.81736970845333,34.77193158791581],[138.81593408121356,34.771215945571676],[138.81482429922679,34.77120871438483],[138.81352750807227,34.771731766690735],[138.8117720902255,34.77207920079146],[138.8087634892312,34.77350211820177],[138.8074682656942,34.774633387190335],[138.80702160838143,34.77370918960475],[138.8055599160406,34.77337346354316],[138.80511375344818,34.77257744643378],[138.80435659879245,34.772209188666935],[138.8075766195135,34.769116070086596],[138.80850734514843,34.76796558663571],[138.80948101810802,34.76609993490597],[138.809841713361,34.76496980069663],[138.81020389125402,34.76135276445551],[138.8105832617336,34.75981403946813],[138.81141445166068,34.75941672479651],[138.81303181778858,34.7580906845692],[138.81393576453277,34.75882280152628],[138.81373377567064,34.759618412773584],[138.8153515902245,34.76018804703725],[138.81663674155442,34.76100465484108],[138.81773146564242,34.76231114405036],[138.81863511507464,34.76393551257696],[138.81900793868505,34.76534196068484],[138.8211791772751,34.76949299157992],[138.82242980345913,34.77217621559689],[138.82342820987705,34.773759897637774],[138.824922778612,34.775342371533426],[138.8266538945033,34.77661623544323],[138.8283733359478,34.77750791864546],[138.83057746145823,34.77811593855754],[138.8348119173917,34.77850078187964],[138.83753983599627,34.778262860269265],[138.8403270037134,34.77744277939088],[138.84276182049805,34.77713865813326],[138.84489255907522,34.77789230120433],[138.84649987105894,34.77820564202231],[138.84745892390086,34.77790312161976],[138.8492491085541,34.778363261058495]]]},"properties":{"KEY_CODE":"223050110","PREF":"22","CITY":"305","CITY_NAME":"松崎町","S_NAME":"船田","SETAI":"49"}},{"type":"Feature","geometry":{"type":"Polygon","coordinates":[[[138.8492491085541,34.778363261058495],[138.84745892390086,34.77790312161976],[138.84649987105894,34.77820564202231],[138.84489255907522,34.77789230120433],[138.84276182049805,34.77713865813326],[138.8403270037134,34.77744277939088],[138.83753983599627,34.778262860269265],[138.8348119173917,34.77850078187964],[138.83057746145823,34.77811593855754],[138.8283733359478,34.77750791864546],[138.8266538945033,34.77661623544323],[138.824922778612,34.775342371533426],[138.82342820987705,34.773759897637774],[138.82242980345913,34.77217621559689],[138.8211791772751,34.76949299157992],[138.81900793868505,34.76534196068484],[138.81863511507464,34.76393551257696],[138.81773146564242,34.76231114405036],[138.81663674155442,34.76100465484108],[138.8153515902245,34.76018804703725],[138.81373377567064,34.759618412773584],[138.81393576453277,34.75882280152628],[138.81880812731288,34.75939854262961],[138.8197563438757,34.758980278228584],[138.82065238207122,34.75683319543443],[138.82140343442887,34.75621230139787],[138.82287512855382,34.75645911496937],[138.82335765676726,34.757285605679286],[138.82376063333012,34.75816668359972],[138.82356645589292,34.760052386677906],[138.8248218004706,34.76264897666433],[138.82539196511266,34.763373493037854],[138.82929631019337,34.765188736765985],[138.83077159351342,34.76609191013704],[138.83167951648053,34.766996624810105],[138.832946321266,34.76895391137433],[138.8373167302352,34.77317791736557],[138.8382242068421,34.77393622453018],[138.83937767467597,34.77413781877951],[138.84209827965836,34.77349990059169],[138.8443933062051,34.773977134349465],[138.84639599621627,34.775460542000296],[138.8492491085541,34.778363261058495]]]},"properties":{"KEY_CODE":"223050120","PREF":"22","CITY":"305","CITY_NAME":"松崎町","S_NAME":"峰輪","SETAI":"78"}},{"type":"Feature","geometry":{"type":"Polygon","coordinates":[[[138.8429085352245,34.75174635916655],[138.843538263002,34.75327966433443],[138.8441564513846,34.75632048585313],[138.8437071882804,34.75935910791449],[138.84408419727302,34.760303719401286],[138.84548680148131,34.76116836588119],[138.8464026696009,34.76351883300207],[138.84823694941025,34.76563574332893],[138.8494570299143,34.76843253627732],[138.848759415392,34.7700521322193],[138.8487479809366,34.77188459035189],[138.84939791301855,34.7725746661504],[138.84888746573728,34.773642375316776],[138.84949190365097,34.77398026786938],[138.84916725739257,34.775534003225275],[138.84959032368843,34.77780105446653],[138.8492491085541,34.778363261058495],[138.84639599621627,34.775460542000296],[138.8443933062051,34.773977134349465],[138.84209827965836,34.77349990059169],[138.83937767467597,34.77413781877951],[138.8382242068421,34.77393622453018],[138.8373167302352,34.77317791736557],[138.832946321266,34.76895391137433],[138.83167951648053,34.766996624810105],[138.83077159351342,34.76609191013704],[138.82929631019337,34.765188736765985],[138.82539196511266,34.763373493037854],[138.8248218004706,34.76264897666433],[138.82356645589292,34.760052386677906],[138.82376063333012,34.75816668359972],[138.82335765676726,34.757285605679286],[138.82486495736927,34.75715548424367],[138.82742339943206,34.756500426435096],[138.82898048411917,34.75699207954621],[138.8320865329289,34.756923301230586],[138.8357385258044,34.75573498640915],[138.83845229083934,34.75357465610662],[138.84002652902365,34.75315554487691],[138.84108936190802,34.75223817564762],[138.8429085352245,34.75174635916655]]]},"properties":{"KEY_CODE":"223050130","PREF":"22","CITY":"305","CITY_NAME":"松崎町","S_NAME":"大澤","SETAI":"55"}},{"type":"Feature","geometry":{"type":"Polygon","coordinates":[[[138.87647131149583,34.78873788508476],[138.87476830196658,34.78851498577648],[138.87222322899567,34.78853639138444],[138.86967862467057,34.787895064836526],[138.8687586624686,34.78820537695824],[138.86699838402342,34.788228745567984],[138.86523045697749,34.787763721588014],[138.8644600220346,34.78716002191131],[138.86162050348776,34.787439967513514],[138.8602813572701,34.78719235621838],[138.85518051279502,34.78554888033096],[138.85322949217522,34.78429045380766],[138.8508803885215,34.78328192022792],[138.8496707803225,34.78217932234309],[138.8492491085541,34.778363261058495],[138.84959032368843,34.77780105446653],[138.84916725739257,34.775534003225275],[138.84949190365097,34.77398026786938],[138.84888746573728,34.773642375316776],[138.84939791301855,34.7725746661504],[138.8487479809366,34.77188459035189],[138.848759415392,34.7700521322193],[138.8494570299143,34.76843253627732],[138.84823694941025,34.76563574332893],[138.8464026696009,34.76351883300207],[138.84548680148131,34.76116836588119],[138.84408419727302,34.760303719401286],[138.8437071882804,34.75935910791449],[138.8441564513846,34.75632048585313],[138.843538263002,34.75327966433443],[138.8429085352245,34.75174635916655],[138.84480703826554,34.75026452579716],[138.8464083422145,34.74971044512634],[138.84656838767222,34.74922257420853],[138.84870879574635,34.74774461068785],[138.85083698022592,34.74603419900308],[138.8511262130406,34.74531181639533],[138.85145212820655,34.743082897593354],[138.85199198800376,34.742240067138646],[138.8529789304568,34.74157553627555],[138.85519546193117,34.74144706368502],[138.85673360475565,34.74107938360832],[138.85930793838577,34.73914089232422],[138.85949239979126,34.7377580056883],[138.861563850081,34.73915394411574],[138.862727229615,34.739033006597694],[138.8631982332171,34.74026996844375],[138.86474663279074,34.740204067416755],[138.86645760134792,34.73962772103391],[138.8674168899548,34.74013730474833],[138.8674349141565,34.74127953405822],[138.86857944788002,34.74199406783865],[138.87051891293376,34.74189732266476],[138.87187321141857,34.74098898123127],[138.87369291143048,34.740497708746496],[138.8745459933241,34.74086048984555],[138.8763035360528,34.7407743556161],[138.87727328039773,34.741758809058425],[138.87934535086634,34.742795599151215],[138.87975066615272,34.743572038721],[138.88131519552303,34.745151848513096],[138.88276060651054,34.74556989631693],[138.88175501450834,34.74721343322017],[138.88203917185956,34.747908129242745],[138.8835457163328,34.74809255246513],[138.885074573092,34.74923662963189],[138.88810375255406,34.750405457807595],[138.88872614067571,34.751575906134214],[138.8884309325003,34.75257725179553],[138.88843835058063,34.752746828475395],[138.8893023985985,34.753579434501376],[138.88965386640078,34.754079534944324],[138.88995654476307,34.75481010788169],[138.89021847864754,34.75497620653155],[138.89246545589006,34.75613163524343],[138.8925197005415,34.75644136980832],[138.89208652055936,34.75728302789786],[138.89180801502317,34.75794754577828],[138.89120997792287,34.758678447343975],[138.89077412688897,34.759585481036744],[138.89131679164586,34.76017468581496],[138.89230202592023,34.76066315382401],[138.8925401149491,34.7613646114184],[138.8931878686706,34.76244987862763],[138.89320896366053,34.76319091244554],[138.8928695940077,34.7634051390302],[138.8922721349845,34.763644425952684],[138.89222952657698,34.76393756726334],[138.89236639662874,34.76433902037571],[138.89260555769607,34.7658953959159],[138.89289872354996,34.76707632453887],[138.8932228115195,34.767964006516635],[138.89370721033504,34.76863085092613],[138.89508865350956,34.76970399271292],[138.8957582989747,34.769827745284786],[138.89681876503866,34.770667095690655],[138.8969563574759,34.771821768511565],[138.89671714992065,34.77212288151434],[138.89643653806937,34.772361162312826],[138.89642882571462,34.773821430336966],[138.89551299890618,34.774237446839905],[138.8945012203248,34.77438316092643],[138.8943138433381,34.77458464835341],[138.89399411930106,34.77501956276779],[138.89377158899214,34.775269623533475],[138.89276032126776,34.77552562101914],[138.8921105194612,34.77587088013939],[138.89163173278646,34.77669820032442],[138.8904206568265,34.77786145550266],[138.8900439236989,34.77786914880795],[138.88943043161822,34.77759910314068],[138.8884627503263,34.77710987144113],[138.88768884008445,34.77694077115546],[138.88669464310416,34.77665572811455],[138.88549933082632,34.776154379194374],[138.88526312882408,34.77599327093911],[138.88489335533572,34.77580652607323],[138.88414923645186,34.77613274593851],[138.88355295672,34.776186477117236],[138.8825329696209,34.7771126813573],[138.88120848550201,34.77755721944114],[138.87981496859646,34.77834526064046],[138.87866373138087,34.77977052204616],[138.87840034025191,34.780535561952576],[138.87831506068795,34.780769108254574],[138.87801075214688,34.781165057805545],[138.87750998774987,34.78151640191216],[138.87683550069863,34.78164148681478],[138.87641233858812,34.781798326027456],[138.87608110828273,34.78232071559818],[138.87582635791404,34.78326716588874],[138.8759890233297,34.78451011308662],[138.8765309502424,34.7854442181323],[138.87670741295733,34.78627268279336],[138.87667636018813,34.78720870383575],[138.87637420343265,34.78809696452769],[138.87647131149583,34.78873788508476]]]},"properties":{"KEY_CODE":"223050140","PREF":"22","CITY":"305","CITY_NAME":"松崎町","S_NAME":"池代","SETAI":"64"}},{"type":"Feature","geometry":{"type":"Polygon","coordinates":[[[138.82140343442887,34.75621230139787],[138.82065238207122,34.75683319543443],[138.8197563438757,34.758980278228584],[138.81880812731288,34.75939854262961],[138.81393576453277,34.75882280152628],[138.81303181778858,34.7580906845692],[138.81196836084106,34.7571745852722],[138.8111074642566,34.75686664997698],[138.80849924130857,34.75660187991413],[138.80765228363802,34.7563215073338],[138.80699651042852,34.7559868194341],[138.80584693721798,34.754752269619736],[138.80553042888448,34.75401296406045],[138.80508240580946,34.752448372435495],[138.8043790590547,34.751563146470346],[138.80209914526398,34.75057392505628],[138.8012547166297,34.75103968454073],[138.79648892828027,34.75213954126685],[138.79567892446747,34.75247159118161],[138.7946604334425,34.75373191401806],[138.79361560885803,34.75456406395556],[138.79322612625546,34.753505390633364],[138.793598443284,34.75224397840498],[138.7953088949308,34.7494514350472],[138.7951708762724,34.74908072461499],[138.79660706670066,34.74779037853579],[138.79950202575102,34.74666373082422],[138.80018725208203,34.74602737502464],[138.80142092542832,34.74569938105579],[138.80226921958857,34.746242364889476],[138.80359529716375,34.74531443705565],[138.8046780605381,34.7453019198695],[138.80533665387995,34.74478014187714],[138.80533173153293,34.74390302297196],[138.80480626819102,34.74341630483889],[138.80532061683894,34.741667046660325],[138.80623346847915,34.741363521475535],[138.80922952863838,34.741499378024116],[138.81297048088064,34.741193716292074],[138.81532673455382,34.741422731161684],[138.81570105211617,34.74084532631142],[138.8169313738259,34.740724227653075],[138.81726026879107,34.74005482196258],[138.8174657870544,34.74094067828622],[138.81729153305704,34.74247410507716],[138.8179949265683,34.74339296928059],[138.82098508448587,34.74610739669529],[138.8212685814406,34.747742763084545],[138.82050580818,34.7533300484136],[138.82052589784627,34.75408184067266],[138.82140343442887,34.75621230139787]]]},"properties":{"KEY_CODE":"223050150","PREF":"22","CITY":"305","CITY_NAME":"松崎町","S_NAME":"南郷","SETAI":"55"}},{"type":"Feature","geometry":{"type":"Polygon","coordinates":[[[138.80532061683894,34.741667046660325],[138.80480626819102,34.74341630483889],[138.80533173153293,34.74390302297196],[138.80533665387995,34.74478014187714],[138.8046780605381,34.7453019198695],[138.80359529716375,34.74531443705565],[138.80226921958857,34.746242364889476],[138.80142092542832,34.74569938105579],[138.80018725208203,34.74602737502464],[138.79950202575102,34.74666373082422],[138.79660706670066,34.74779037853579],[138.7951708762724,34.74908072461499],[138.7953088949308,34.7494514350472],[138.793598443284,34.75224397840498],[138.79322612625546,34.753505390633364],[138.79361560885803,34.75456406395556],[138.79227855031252,34.754687079438284],[138.78940722276926,34.75389066296929],[138.7865466886723,34.75311399570127],[138.78594935715367,34.75313401675678],[138.7862716949282,34.75251495299636],[138.7860543560297,34.75147075146861],[138.78526849391181,34.75017263106479],[138.785568207625,34.74969168272825],[138.78577237443844,34.747135885067514],[138.78474776344459,34.74595185190885],[138.78478238474435,34.74567551616198],[138.78479994621898,34.745535304213874],[138.7850459972133,34.744955876910474],[138.7864229549287,34.74394673164916],[138.78699102798254,34.74371282822192],[138.7875297201391,34.74348885150556],[138.78802426020144,34.743266950580896],[138.78843846429083,34.74290986825295],[138.78883370424023,34.74194514608212],[138.78873094970876,34.740878773337755],[138.79033667088487,34.73981807386452],[138.79110195615763,34.73975526057547],[138.7918360911757,34.7399621272075],[138.79241166685756,34.74026022410739],[138.79395937373448,34.74181443744678],[138.79438045568753,34.74194695853985],[138.79472989510126,34.7420262646932],[138.7985375925348,34.74105971396952],[138.80532061683894,34.741667046660325]]]},"properties":{"KEY_CODE":"223050160","PREF":"22","CITY":"305","CITY_NAME":"松崎町","S_NAME":"伏倉","SETAI":"179"}},{"type":"Feature","geometry":{"type":"Polygon","coordinates":[[[138.8429085352245,34.75174635916655],[138.84108936190802,34.75223817564762],[138.84002652902365,34.75315554487691],[138.83845229083934,34.75357465610662],[138.8357385258044,34.75573498640915],[138.8320865329289,34.756923301230586],[138.82898048411917,34.75699207954621],[138.82742339943206,34.756500426435096],[138.82486495736927,34.75715548424367],[138.82335765676726,34.757285605679286],[138.82287512855382,34.75645911496937],[138.82140343442887,34.75621230139787],[138.82052589784627,34.75408184067266],[138.82050580818,34.7533300484136],[138.8212685814406,34.747742763084545],[138.82098508448587,34.74610739669529],[138.8179949265683,34.74339296928059],[138.81729153305704,34.74247410507716],[138.8174657870544,34.74094067828622],[138.81726026879107,34.74005482196258],[138.81649199216503,34.73877510616672],[138.81683195955074,34.738145676590385],[138.81808105757776,34.73771829610385],[138.81905880821597,34.73639889875431],[138.82022995904137,34.73613961825911],[138.8214283670986,34.735123853405796],[138.82335514188054,34.734944135537184],[138.82632892519538,34.73417788084439],[138.82875201842367,34.73961748435301],[138.8294259512812,34.74027347702832],[138.8310804972613,34.741115276070886],[138.835948643025,34.74317052240423],[138.8371123685981,34.74426323928138],[138.83809166277672,34.74597364010352],[138.83891752008168,34.74682686242878],[138.84026301295842,34.74751212111165],[138.84656838767222,34.74922257420853],[138.8464083422145,34.74971044512634],[138.84480703826554,34.75026452579716],[138.8429085352245,34.75174635916655]]]},"properties":{"KEY_CODE":"223050180","PREF":"22","CITY":"305","CITY_NAME":"松崎町","S_NAME":"明伏","SETAI":"44"}},{"type":"Feature","geometry":{"type":"Polygon","coordinates":[[[138.85949239979126,34.7377580056883],[138.85930793838577,34.73914089232422],[138.85673360475565,34.74107938360832],[138.85519546193117,34.74144706368502],[138.8529789304568,34.74157553627555],[138.85199198800376,34.742240067138646],[138.85145212820655,34.743082897593354],[138.8511262130406,34.74531181639533],[138.85083698022592,34.74603419900308],[138.84870879574635,34.74774461068785],[138.84656838767222,34.74922257420853],[138.84026301295842,34.74751212111165],[138.83891752008168,34.74682686242878],[138.83809166277672,34.74597364010352],[138.8371123685981,34.74426323928138],[138.835948643025,34.74317052240423],[138.8310804972613,34.741115276070886],[138.8294259512812,34.74027347702832],[138.82875201842367,34.73961748435301],[138.82632892519538,34.73417788084439],[138.82822845809252,34.733733805336314],[138.82902328709122,34.73304326116216],[138.83098775012957,34.73222159791422],[138.83221417062342,34.73218666330954],[138.83226731925444,34.73137516933087],[138.83314108709104,34.7292878935387],[138.83382091993448,34.72905978367454],[138.83506035690684,34.72777287293453],[138.83664540870984,34.726799125471366],[138.84187960233604,34.72484756994378],[138.84296618872744,34.72265977704157],[138.84441516783633,34.72193565682831],[138.84502728567836,34.72191401328689],[138.8462506079877,34.720680034277734],[138.84680710175923,34.71939667254285],[138.8476687810687,34.71836850707784],[138.84850258942197,34.71915989638782],[138.8486646540326,34.720037427594264],[138.84940198760847,34.72090260252502],[138.85142876300253,34.72170280467086],[138.85220018122348,34.72220767961937],[138.8524201962523,34.723021064263065],[138.85378214461286,34.724047228054616],[138.8536727322191,34.72492550893141],[138.85430385525598,34.7281556517337],[138.85538307885912,34.72804573845449],[138.8567449056403,34.72900777187989],[138.85713275044205,34.73049060191951],[138.85774259372792,34.73172443757438],[138.85765749627916,34.733734346380295],[138.85808918890316,34.73563060070106],[138.85884899992067,34.73639153242157],[138.8590381894884,34.737520016626355],[138.85949239979126,34.7377580056883]]]},"properties":{"KEY_CODE":"223050200","PREF":"22","CITY":"305","CITY_NAME":"松崎町","S_NAME":"小杉原","SETAI":"33"}},{"type":"Feature","geometry":{"type":"Polygon","coordinates":[[[138.7965183845641,34.72995536671158],[138.79773479400615,34.73029150527737],[138.8026543595706,34.731234916480254],[138.80208812042224,34.732300628002776],[138.80037778897474,34.73391842829009],[138.7972621673118,34.735848071591015],[138.7964181007311,34.73623466969464],[138.79530105375753,34.73520521633127],[138.79321709173368,34.73394114388663],[138.79245266650832,34.73355013045413],[138.79315109765884,34.73260815060956],[138.7936751400829,34.731919552932055],[138.79396206015446,34.73168393112563],[138.79596123911202,34.73114617689227],[138.7963878324456,34.7310319105106],[138.79673969337998,34.73103148731187],[138.7967754981356,34.73044687695677],[138.7965183845641,34.72995536671158]]]},"properties":{"KEY_CODE":"22305021027","PREF":"22","CITY":"305","CITY_NAME":"松崎町","S_NAME":"岩科北側","SETAI":"48"}},{"type":"Feature","geometry":{"type":"Polygon","coordinates":[[[138.81726026879107,34.74005482196258],[138.8169313738259,34.740724227653075],[138.81570105211617,34.74084532631142],[138.81532673455382,34.741422731161684],[138.81297048088064,34.741193716292074],[138.80922952863838,34.741499378024116],[138.80623346847915,34.741363521475535],[138.80532061683894,34.741667046660325],[138.7985375925348,34.74105971396952],[138.79839086498262,34.73977713066086],[138.79773446488457,34.73783900394742],[138.7964181007311,34.73623466969464],[138.7972621673118,34.735848071591015],[138.80037778897474,34.73391842829009],[138.80208812042224,34.732300628002776],[138.8026543595706,34.731234916480254],[138.79773479400615,34.73029150527737],[138.7965183845641,34.72995536671158],[138.79656814213968,34.729830736543015],[138.79666134433117,34.72973600361583],[138.79845519749946,34.72902260167919],[138.7986458261135,34.728847606634105],[138.79877269945877,34.72856952988797],[138.79972770026757,34.72754077325073],[138.80025400601698,34.72791083368766],[138.80055816529907,34.72903626870264],[138.80156970701321,34.72995188159781],[138.80271010264835,34.7298445885242],[138.80335695885736,34.729269666538954],[138.80351285470508,34.726954899280315],[138.80480060246754,34.72643581432766],[138.80505011680668,34.72594588415345],[138.80439879451265,34.72494054890811],[138.80571108732403,34.72448448869427],[138.80649391308043,34.72481582959555],[138.80678789566477,34.72405888711984],[138.80669314417875,34.72260480168239],[138.8074764386237,34.72211418408327],[138.80982280114122,34.72208803023384],[138.81127171599096,34.72178233320868],[138.8122828609238,34.72107893721386],[138.81451056728417,34.720435350645374],[138.81608405145582,34.720769100886365],[138.8176145738339,34.71993961880284],[138.82024873831216,34.719151175213845],[138.82038341392297,34.71868547501527],[138.82186212343873,34.71829198118984],[138.82279681980668,34.71757931723265],[138.823988935368,34.71747323259377],[138.82454802113915,34.71706748741999],[138.8256046413653,34.71720667818752],[138.82746815377598,34.718110068658284],[138.82860687359596,34.71799915791561],[138.83023801190058,34.717139845990175],[138.83031957825037,34.716762590009566],[138.8338527340001,34.71680038329285],[138.83935417248972,34.71671018376074],[138.84028623543665,34.716957770676856],[138.8413069183384,34.7176877448196],[138.84466669513216,34.71836188282993],[138.84766264132577,34.71835880731295],[138.8476687810687,34.71836850707784],[138.84680710175923,34.71939667254285],[138.8462506079877,34.720680034277734],[138.84502728567836,34.72191401328689],[138.84441516783633,34.72193565682831],[138.84296618872744,34.72265977704157],[138.84187960233604,34.72484756994378],[138.83664540870984,34.726799125471366],[138.83506035690684,34.72777287293453],[138.83382091993448,34.72905978367454],[138.83314108709104,34.7292878935387],[138.83226731925444,34.73137516933087],[138.83221417062342,34.73218666330954],[138.83098775012957,34.73222159791422],[138.82902328709122,34.73304326116216],[138.82822845809252,34.733733805336314],[138.82632892519538,34.73417788084439],[138.82335514188054,34.734944135537184],[138.8214283670986,34.735123853405796],[138.82022995904137,34.73613961825911],[138.81905880821597,34.73639889875431],[138.81808105757776,34.73771829610385],[138.81683195955074,34.738145676590385],[138.81649199216503,34.73877510616672],[138.81726026879107,34.74005482196258]]]},"properties":{"KEY_CODE":"22305021028","PREF":"22","CITY":"305","CITY_NAME":"松崎町","S_NAME":"岩科北側","SETAI":"22"}},{"type":"Feature","geometry":{"type":"Polygon","coordinates":[[[138.7985375925348,34.74105971396952],[138.79472989510126,34.7420262646932],[138.79438045568753,34.74194695853985],[138.79395937373448,34.74181443744675],[138.79241166685756,34.740260224107416],[138.7918360911757,34.7399621272075],[138.79110195615763,34.73975526057547],[138.79121890117918,34.73871443175583],[138.7907205988072,34.73769802523843],[138.78902758105795,34.735955663795465],[138.7884127589014,34.73480493657783],[138.78688090413,34.73395100693692],[138.78826993881205,34.73314785964205],[138.78999911515143,34.73305421925299],[138.79190188163747,34.73390046607446],[138.79245266650835,34.73355013045414],[138.79321709173368,34.73394114388663],[138.79530105375753,34.73520521633127],[138.7964181007311,34.73623466969464],[138.79773446488457,34.73783900394742],[138.79839086498262,34.73977713066086],[138.7985375925348,34.74105971396952]]]},"properties":{"KEY_CODE":"22305021029","PREF":"22","CITY":"305","CITY_NAME":"松崎町","S_NAME":"岩科北側","SETAI":"39"}},{"type":"Feature","geometry":{"type":"Polygon","coordinates":[[[138.79110195615763,34.73975526057547],[138.79033667088487,34.73981807386452],[138.78873094970876,34.740878773337755],[138.78883370424023,34.74194514608212],[138.78843846429083,34.74290986825295],[138.78699102798254,34.743712828221916],[138.78664144311088,34.74253884706579],[138.7854255046496,34.739585239359805],[138.78446350518828,34.738050082804726],[138.7827810234341,34.73653137411154],[138.78509503642374,34.735496801353996],[138.7864948387618,34.73430911005376],[138.78688090413,34.73395100693692],[138.7884127589014,34.73480493657783],[138.78902758105795,34.735955663795465],[138.7907205988072,34.73769802523843],[138.79121890117918,34.73871443175583],[138.79110195615763,34.73975526057547]]]},"properties":{"KEY_CODE":"22305021030","PREF":"22","CITY":"305","CITY_NAME":"松崎町","S_NAME":"岩科北側","SETAI":"39"}},{"type":"Feature","geometry":{"type":"Polygon","coordinates":[[[138.78699102798254,34.743712828221916],[138.7864229549287,34.74394673164916],[138.7850459972133,34.744955876910474],[138.78479994621898,34.745535304213874],[138.78478238474435,34.74567551616198],[138.78464132501608,34.74582390559291],[138.78430018407306,34.7456235312081],[138.78335785678055,34.7452034777452],[138.78300816962664,34.74431905817611],[138.78216429582457,34.74372172184162],[138.78086277097827,34.743722679714004],[138.77949855606204,34.74349809229913],[138.77834259733322,34.74292507464212],[138.7772138246647,34.74194457749276],[138.77665406910683,34.740404112397336],[138.77653416771994,34.739520546666185],[138.7765154726917,34.739200526976795],[138.77702362359082,34.738365459099626],[138.7776622954588,34.73792764637594],[138.7800326709327,34.736628007114454],[138.78177228334113,34.73673320617646],[138.7827810234341,34.73653137411154],[138.78446350518828,34.738050082804726],[138.7854255046496,34.739585239359805],[138.78664144311088,34.74253884706579],[138.78699102798254,34.743712828221916]]]},"properties":{"KEY_CODE":"22305021031","PREF":"22","CITY":"305","CITY_NAME":"松崎町","S_NAME":"岩科北側","SETAI":"35"}},{"type":"Feature","geometry":{"type":"Polygon","coordinates":[[[138.7800326709327,34.736628007114454],[138.7776622954588,34.73792764637594],[138.77702362359082,34.738365459099626],[138.7765154726917,34.739200526976795],[138.77653416771994,34.739520546666185],[138.7764608128115,34.739889085955525],[138.7746279464855,34.73932451406739],[138.77421455747677,34.73762872569194],[138.77198734313984,34.73612881501328],[138.77061617405639,34.734539544104194],[138.76944742535687,34.73210826877382],[138.76944750928868,34.732107845970845],[138.7705587085494,34.73172347664354],[138.77263757757527,34.73168162917076],[138.77483000512166,34.7311230141265],[138.77658873578235,34.73014734678024],[138.77718342654921,34.72958334232458],[138.77736123819346,34.728490418478714],[138.77716016938422,34.72744425385706],[138.77789734460467,34.72628744530389],[138.78005218484478,34.72561691767044],[138.7816790453099,34.72463466843229],[138.78253180623742,34.72361348240951],[138.78274693546047,34.72247548544219],[138.78354966228832,34.723783554421885],[138.7836613554046,34.724898039885375],[138.7846451722472,34.72563401831334],[138.7855834717149,34.725792970394885],[138.78609755287997,34.72674299919652],[138.785817352877,34.72677012450785],[138.78567231805377,34.72680327472621],[138.78507050466797,34.7270783100477],[138.78467848536025,34.727374407172825],[138.7843514605453,34.7275992271438],[138.784034712906,34.72775130278368],[138.78394508324982,34.727822757510815],[138.78281299716386,34.728780527798214],[138.7813649183572,34.730908177249354],[138.7812003264651,34.73208794418286],[138.78156802233144,34.73322261260528],[138.7820879064814,34.73474528302908],[138.78177228334113,34.73673320617646],[138.7800326709327,34.736628007114454]]]},"properties":{"KEY_CODE":"22305022024","PREF":"22","CITY":"305","CITY_NAME":"松崎町","S_NAME":"岩科南側","SETAI":"57"}},{"type":"Feature","geometry":{"type":"Polygon","coordinates":[[[138.7827810234341,34.73653137411154],[138.78177228334113,34.73673320617646],[138.7820879064814,34.73474528302908],[138.78156802233144,34.73322261260528],[138.7812003264651,34.73208794418286],[138.78136491835718,34.73090817724933],[138.78281299716383,34.728780527798214],[138.78394508324982,34.72782275751085],[138.7837567850663,34.728431306482996],[138.78374139906532,34.728572476235996],[138.78416652857385,34.7302185803853],[138.78429653201468,34.73215068000573],[138.78512002369865,34.73328519798831],[138.7864948387618,34.73430911005376],[138.78509503642374,34.735496801353996],[138.7827810234341,34.73653137411154]]]},"properties":{"KEY_CODE":"22305022025","PREF":"22","CITY":"305","CITY_NAME":"松崎町","S_NAME":"岩科南側","SETAI":"24"}},{"type":"Feature","geometry":{"type":"Polygon","coordinates":[[[138.78688090413,34.73395100693692],[138.7864948387618,34.73430911005376],[138.78512002369865,34.73328519798831],[138.78429653201468,34.73215068000573],[138.78416652857385,34.7302185803853],[138.78374139906532,34.728572476235996],[138.7837567850663,34.728431306482996],[138.78394508324982,34.72782275751085],[138.7843514605453,34.7275992271438],[138.78467848536025,34.727374407172825],[138.78507050466797,34.7270783100477],[138.78567231805377,34.72680327472621],[138.785817352877,34.72677012450785],[138.78625463458698,34.726727848312095],[138.7874357011018,34.7270641063285],[138.78935458811677,34.72760130071801],[138.7912349570919,34.72783786896338],[138.79297142393375,34.7276367356264],[138.79363974383665,34.72746797363543],[138.79487576616228,34.726982933657],[138.79604261894394,34.726300864728366],[138.79637869092522,34.72685694864167],[138.79709634130717,34.727651804413945],[138.7986183384338,34.72849343966932],[138.7986458261135,34.728847606634105],[138.79845519749946,34.72902260167919],[138.79666134433117,34.72973600361583],[138.79656814213968,34.729830736543015],[138.7965183845641,34.72995536671158],[138.7967754981356,34.73044687695677],[138.79673969337998,34.73103148731187],[138.7963878324456,34.7310319105106],[138.79596123911202,34.73114617689227],[138.79396206015446,34.73168393112563],[138.7936751400829,34.731919552932055],[138.79315109765884,34.73260815060956],[138.79245266650835,34.73355013045414],[138.79190188163747,34.73390046607446],[138.78999911515143,34.73305421925299],[138.78826993881205,34.73314785964205],[138.78688090413,34.73395100693692]]]},"properties":{"KEY_CODE":"22305022026","PREF":"22","CITY":"305","CITY_NAME":"松崎町","S_NAME":"岩科南側","SETAI":"32"}},{"type":"Feature","geometry":{"type":"Polygon","coordinates":[[[138.78609755287997,34.72674299919652],[138.7855834717149,34.725792970394885],[138.7846451722472,34.72563401831334],[138.7836613554046,34.724898039885375],[138.78354966228832,34.723783554421885],[138.78274693546047,34.72247548544219],[138.78253180623742,34.72361348240951],[138.7816790453099,34.72463466843229],[138.78005218484478,34.72561691767044],[138.77789734460467,34.72628744530389],[138.77716016938422,34.72744425385706],[138.77736123819346,34.728490418478714],[138.77718342654921,34.72958334232458],[138.77658873578235,34.73014734678024],[138.77483000512166,34.7311230141265],[138.77263757757527,34.73168162917076],[138.7705587085494,34.73172347664354],[138.76944750928868,34.732107845970845],[138.7702737507826,34.7295850937768],[138.77029761283012,34.72689247658935],[138.7699123314159,34.723729830194074],[138.77032774456708,34.72106344484713],[138.77082914050374,34.7197835721097],[138.77160821320518,34.718651110386],[138.77358134337948,34.716457174432165],[138.77659323591098,34.716656772116934],[138.77760766756947,34.714341637498876],[138.77879801881667,34.71317662692594],[138.78076999721327,34.71284161865997],[138.7847447419903,34.71388324337237],[138.78556146226805,34.714795406093295],[138.78785401460073,34.714875419666406],[138.79141643675678,34.71528652215645],[138.7924103538717,34.71358197040407],[138.7934578657266,34.71242327320105],[138.7946160238877,34.710734197225996],[138.79402661920946,34.709760942165374],[138.79380583344232,34.70839716868876],[138.79436986509884,34.707123175902304],[138.79517073968242,34.70660344681004],[138.7971902819084,34.70722063321486],[138.79838313753075,34.7069349840437],[138.7998260993484,34.705771358293056],[138.80190200658635,34.70469896825083],[138.80361537684874,34.704133959457],[138.80499174223095,34.7041149955451],[138.80618853898736,34.70315308556672],[138.80711164589826,34.70299439270668],[138.80898683760364,34.703468091472445],[138.8096888555734,34.70315794498316],[138.8114212767598,34.70173942725521],[138.81234660216893,34.701823871182405],[138.81426792629992,34.70291934982916],[138.81523464580505,34.703889277669724],[138.81726937022418,34.70427374807953],[138.818163036822,34.70375499475842],[138.81945168179152,34.70395203053931],[138.82143831609412,34.70351898697607],[138.8224525701766,34.703592545188975],[138.82267845329372,34.70414120299654],[138.8235763153904,34.704304093564616],[138.82425354301267,34.703823666255104],[138.82620568216427,34.704209687068946],[138.82715080365972,34.704167077416706],[138.82918809198247,34.70480251667184],[138.8327043861634,34.704548603210014],[138.83493719280887,34.7060309478493],[138.83628965998034,34.70634414764602],[138.83794994341486,34.70627591779094],[138.83919662299888,34.70731933387534],[138.84332835233099,34.70850934003329],[138.84559051483825,34.70894400843702],[138.8469950942939,34.70853994603368],[138.85061333693255,34.708305062539424],[138.8515362091277,34.70766281779769],[138.8523052280456,34.70769478010423],[138.8517699421073,34.70922232476057],[138.85267983425925,34.71015847746681],[138.85054171585438,34.7114891559768],[138.84946056485657,34.71182974349929],[138.84957631663215,34.712451212352555],[138.84884758640405,34.71361397002339],[138.8461242871572,34.71470529550174],[138.84670472695512,34.716686152361405],[138.84766264132577,34.71835880731295],[138.84466669513216,34.71836188282993],[138.8413069183384,34.7176877448196],[138.84028623543665,34.716957770676856],[138.83935417248972,34.71671018376074],[138.8338527340001,34.71680038329285],[138.83031957825037,34.716762590009566],[138.83023801190058,34.717139845990175],[138.82860687359596,34.71799915791561],[138.82746815377598,34.718110068658284],[138.8256046413653,34.71720667818752],[138.82454802113915,34.71706748741999],[138.823988935368,34.71747323259377],[138.82279681980668,34.71757931723265],[138.82186212343873,34.71829198118984],[138.82038341392297,34.71868547501527],[138.82024873831216,34.719151175213845],[138.8176145738339,34.71993961880284],[138.81608405145582,34.720769100886365],[138.81451056728417,34.720435350645374],[138.8122828609238,34.72107893721386],[138.81127171599096,34.72178233320868],[138.80982280114122,34.72208803023384],[138.8074764386237,34.72211418408327],[138.80669314417875,34.72260480168239],[138.80678789566477,34.72405888711984],[138.80649391308043,34.72481582959555],[138.80571108732403,34.72448448869427],[138.80439879451265,34.72494054890811],[138.80505011680668,34.72594588415345],[138.80480060246754,34.72643581432766],[138.80351285470508,34.726954899280315],[138.80335695885736,34.729269666538954],[138.80271010264835,34.7298445885242],[138.80156970701321,34.72995188159781],[138.80055816529907,34.72903626870264],[138.80025400601698,34.72791083368766],[138.79972770026757,34.72754077325073],[138.79877269945877,34.72856952988797],[138.7986183384338,34.72849343966932],[138.79709634130717,34.727651804413945],[138.79637869092522,34.72685694864167],[138.79604261894394,34.72630086472836],[138.79487576616228,34.726982933657],[138.79363974383665,34.72746797363543],[138.79297142393375,34.7276367356264],[138.7912349570919,34.72783786896338],[138.78935458811677,34.72760130071801],[138.7874357011018,34.7270641063285],[138.78625463458698,34.726727848312095],[138.78609755287997,34.72674299919652]]]},"properties":{"KEY_CODE":"22305022028","PREF":"22","CITY":"305","CITY_NAME":"松崎町","S_NAME":"岩科南側","SETAI":"52"}},{"type":"Feature","geometry":{"type":"Polygon","coordinates":[[[138.77387875567427,34.75332523818192],[138.77336258511585,34.753858305420756],[138.77067466880018,34.75332476978525],[138.76978899727303,34.753660558137106],[138.76913791305643,34.75296506840557],[138.76865447200805,34.75143255868993],[138.76770626350364,34.752402827751354],[138.7671471429845,34.752447277543354],[138.76670750715766,34.75160804902461],[138.76682180263208,34.75080890829361],[138.7663363632281,34.75066386282783],[138.7650702446923,34.75128331042244],[138.76516775922795,34.752395722603325],[138.76468633415556,34.75247958042555],[138.76492657160588,34.75087466041822],[138.76438459659923,34.7488079314122],[138.76351202569646,34.74758150763319],[138.76410098020742,34.74705958895734],[138.7653641375629,34.744473978578455],[138.76615381822833,34.74328119867121],[138.76621031297347,34.741355754462326],[138.76703328314758,34.73975843790901],[138.76763607130107,34.739178279127536],[138.7680274467064,34.7379743603435],[138.76944742535687,34.73210826877382],[138.77061617405639,34.734539544104194],[138.77198734313984,34.73612881501328],[138.77421455747677,34.73762872569194],[138.7746279464855,34.73932451406739],[138.7764608128115,34.739889085955525],[138.77665406910683,34.740404112397336],[138.7772138246647,34.74194457749276],[138.77834259733322,34.74292507464212],[138.77949855606204,34.74349809229913],[138.78086277097827,34.743722679714004],[138.78030760155164,34.74486115477185],[138.77985843964387,34.74664619608819],[138.77912350239237,34.746493727550536],[138.77807816023176,34.74656002161032],[138.7775316258419,34.747139248553246],[138.77502139822482,34.74805486201288],[138.77531795243834,34.749574666561955],[138.77466830193208,34.75182051188466],[138.77387875567427,34.75332523818192]]]},"properties":{"KEY_CODE":"223050230","PREF":"22","CITY":"305","CITY_NAME":"松崎町","S_NAME":"道部","SETAI":"133"}},{"type":"Feature","geometry":{"type":"Polygon","coordinates":[[[138.76468633415556,34.75247958042555],[138.76446110077,34.751731739116394],[138.76267385143504,34.75061853797797],[138.76165101507397,34.750466436916206],[138.76057558263255,34.749911539763524],[138.76062822452195,34.74894405441603],[138.76010165126777,34.74787043657931],[138.75953295144916,34.74797981534273],[138.75902053611733,34.74619040052647],[138.7581984059982,34.74628764880908],[138.75740990329655,34.74735867326142],[138.7565433535173,34.74756785488319],[138.75496759453935,34.74696708394968],[138.75465660009746,34.746347330259034],[138.75486221112575,34.745377702286085],[138.7558035663456,34.74463644371241],[138.75724332192436,34.74437027693995],[138.75779365861507,34.743635178043384],[138.7597758408645,34.74256980706921],[138.76107510689124,34.742095575666646],[138.760678585299,34.74173127101978],[138.7612279342558,34.74104307833868],[138.76110473069966,34.74007413761971],[138.76156946424746,34.73956559085502],[138.76051044102215,34.7382912484353],[138.75931856713666,34.737816770985276],[138.75782683057952,34.737831629270666],[138.7579640945226,34.73911524129239],[138.75709044391718,34.738776319429554],[138.75660401590258,34.74003856374519],[138.75593730166582,34.73986965171714],[138.75715249369398,34.73835934974426],[138.75716456346598,34.737182062973375],[138.75831602047515,34.73573009403151],[138.75985043144127,34.736003358512946],[138.76204200727506,34.734439581196334],[138.76390458814848,34.73262767014313],[138.76469371459277,34.73229435361792],[138.76944750928868,34.732107845970845],[138.76944742535687,34.73210826877382],[138.7680274467064,34.7379743603435],[138.76763607130107,34.739178279127536],[138.76703328314758,34.73975843790901],[138.76621031297347,34.741355754462326],[138.76615381822833,34.74328119867121],[138.7653641375629,34.744473978578455],[138.76410098020742,34.74705958895734],[138.76351202569646,34.74758150763319],[138.76438459659923,34.7488079314122],[138.76492657160588,34.75087466041822],[138.76468633415556,34.75247958042555]]]},"properties":{"KEY_CODE":"223050240","PREF":"22","CITY":"305","CITY_NAME":"松崎町","S_NAME":"岩地","SETAI":"92"}},{"type":"Feature","geometry":{"type":"Polygon","coordinates":[[[138.76944750928868,34.732107845970845],[138.76469371459277,34.73229435361792],[138.76390458814848,34.73262767014313],[138.76204200727506,34.734439581196334],[138.75985043144127,34.736003358512946],[138.75831602047515,34.73573009403151],[138.75716456346598,34.737182062973375],[138.75715249369398,34.73835934974426],[138.75593730166582,34.73986965171714],[138.75549173659556,34.73951981639515],[138.75580347112347,34.73862392720219],[138.75679453612,34.73809258996029],[138.75661734251744,34.737302252893045],[138.75727697219673,34.73660848022069],[138.7569404655208,34.73550663183484],[138.7562731764965,34.735140236557804],[138.75689590413833,34.73451686009513],[138.75638906318113,34.733423396691904],[138.75508658544948,34.73281491025737],[138.75423278839727,34.732864447374496],[138.75183631845934,34.73482394622947],[138.7514406661397,34.735791249687836],[138.75002784399385,34.736251271049376],[138.74978560388277,34.73559448355333],[138.74994096865285,34.73424902795121],[138.74931934678384,34.733438907867516],[138.75013892781183,34.73275064312139],[138.75189598841578,34.732225959723294],[138.75204714058003,34.73167978951813],[138.75111336792116,34.72996666159263],[138.75182706453234,34.728464255477164],[138.75254954643069,34.725941055446135],[138.75255507095054,34.723993773559656],[138.75446184884086,34.72318215508706],[138.75568298520346,34.72190020115505],[138.7570682984946,34.719596689634315],[138.76095763308476,34.71778943600854],[138.76336537348078,34.71633025768141],[138.76581175801965,34.71467354261588],[138.76714786929526,34.713458128237846],[138.76864042376002,34.71159762215636],[138.76988847981016,34.71178435769825],[138.77067710925033,34.71229891485821],[138.77093496525038,34.71373763067234],[138.77153997642563,34.714161425494304],[138.77315536112553,34.71452954547384],[138.7730931767976,34.71617719416417],[138.77358134337948,34.716457174432165],[138.77160821320518,34.718651110386],[138.77082914050374,34.7197835721097],[138.77032774456708,34.72106344484713],[138.7699123314159,34.723729830194074],[138.77029761283012,34.72689247658935],[138.7702737507826,34.7295850937768],[138.76944750928868,34.732107845970845]]]},"properties":{"KEY_CODE":"223050250","PREF":"22","CITY":"305","CITY_NAME":"松崎町","S_NAME":"石部","SETAI":"79"}},{"type":"Feature","geometry":{"type":"Polygon","coordinates":[[[138.74931934678384,34.733438907867516],[138.7480349752199,34.733395604927765],[138.74690876634136,34.73292006985558],[138.746353072156,34.73223151278289],[138.7467185990163,34.73103353983742],[138.74612207057928,34.72983470300783],[138.74687795225677,34.729239553062826],[138.7468779587382,34.72801415379473],[138.7452610351487,34.72817491736926],[138.74486605060872,34.72753830068124],[138.74499526659008,34.72655719607255],[138.7441571886693,34.72636054506086],[138.7428032723336,34.72675458205822],[138.74262351432543,34.72838574015385],[138.7416292958993,34.72857169515055],[138.741871439146,34.728110580236994],[138.74178166686147,34.72653123502169],[138.7404739970123,34.72706573864946],[138.73939833177332,34.726651323854796],[138.73917104274028,34.724699092210734],[138.74188160056283,34.724114912552466],[138.74260920134387,34.72350309329345],[138.74186478231917,34.72321242160813],[138.741729469933,34.722496952533255],[138.74258176172708,34.722333824350855],[138.74289526638697,34.72164267673807],[138.7427672591753,34.72043120778099],[138.74184068239944,34.71945136303243],[138.7408620744027,34.71971193081516],[138.74132588384774,34.718132480460994],[138.74188354881127,34.719174477819585],[138.74321577545675,34.71774922786205],[138.74254715413292,34.7153569842233],[138.74180471408314,34.71497347876732],[138.742271107928,34.71466687291679],[138.74212700075682,34.71242148957061],[138.7417203000262,34.71222931471151],[138.7416227499075,34.71059421348862],[138.7408211655754,34.708617800074116],[138.74056198185082,34.70694513913053],[138.73949416275423,34.70574641293246],[138.74021784153405,34.70572242725605],[138.7394955082647,34.70508012779024],[138.7405333511713,34.704216243422835],[138.74169447009322,34.70257052663507],[138.7406399337691,34.700410060535745],[138.74106151435973,34.70124839299505],[138.74237526257795,34.702083649459475],[138.74448709777732,34.702644430772665],[138.74531073029505,34.70356249523362],[138.74629836403116,34.70359117159304],[138.74792296079607,34.70427136558179],[138.74847585575455,34.70488210483714],[138.74992989975436,34.705589447571754],[138.7509344519283,34.70678331316813],[138.75189775161058,34.70706796966437],[138.75790287750127,34.706988322229286],[138.76017369375393,34.7076838688555],[138.7607645211514,34.708810794650276],[138.76150315623707,34.70948528418503],[138.7624448845189,34.7096396201608],[138.76390578802383,34.709064425962715],[138.76620800051052,34.7101450531198],[138.7672809874658,34.71034514001805],[138.76775878345228,34.71116391464658],[138.76864042376002,34.71159762215636],[138.76714786929526,34.713458128237846],[138.76581175801965,34.71467354261588],[138.76336537348078,34.71633025768141],[138.76095763308476,34.71778943600854],[138.7570682984946,34.719596689634315],[138.75568298520346,34.72190020115505],[138.75446184884086,34.72318215508706],[138.75255507095054,34.723993773559656],[138.75254954643069,34.725941055446135],[138.75182706453234,34.728464255477164],[138.75111336792116,34.72996666159263],[138.75204714058003,34.73167978951813],[138.75189598841578,34.732225959723294],[138.75013892781183,34.73275064312139],[138.74931934678384,34.733438907867516]]]},"properties":{"KEY_CODE":"223050260","PREF":"22","CITY":"305","CITY_NAME":"松崎町","S_NAME":"雲見","SETAI":"112"}}]}