{"type":"FeatureCollection","features":[{"type":"Feature","geometry":{"type":"Polygon","coordinates":[[[135.2833986719032,34.7807753458383],[135.28300505484722,34.78107745232288],[135.28188657599782,34.780515305213726],[135.28130279033348,34.78036393422732],[135.28048119791754,34.78031624918879],[135.2774991307136,34.77993082594616],[135.27642927877727,34.78024604740052],[135.27427807818975,34.7795439397624],[135.27232393205156,34.78006315950375],[135.27141211813597,34.7804445913904],[135.2689266563601,34.78038290849195],[135.26752083598421,34.781012352240765],[135.26700627013514,34.780434868357766],[135.2671702546556,34.77971694969598],[135.26750993412787,34.77931995037203],[135.2679772209024,34.77861321877206],[135.2680356779678,34.778468535691864],[135.26828248936047,34.77807224890968],[135.2684674491724,34.777762076995366],[135.2684967662826,34.77721421793227],[135.26936006463512,34.77626555021932],[135.26966056436405,34.7757877182313],[135.26963979911756,34.77491797597623],[135.26996129613227,34.77460675080965],[135.2701969548188,34.774433658295564],[135.27016788614225,34.774037243186314],[135.27028613715575,34.77362617066403],[135.27041548935685,34.77323078795624],[135.27078039039006,34.77289443694983],[135.27100450535235,34.77266734538616],[135.27110131100625,34.77229249608069],[135.27135724479274,34.77149949767237],[135.27139180128685,34.77141584677615],[135.27161996660138,34.77106477375647],[135.27155115547586,34.770776840185675],[135.27132107117842,34.77047662881125],[135.27245522454652,34.76957994465141],[135.27278156251532,34.76921684204182],[135.27308901848198,34.76911530651824],[135.2736987754683,34.76821815220115],[135.273750447394,34.76795858414727],[135.2740933026101,34.76736773256707],[135.27477236569558,34.76680357503457],[135.27487505711622,34.76670812715785],[135.27592910277565,34.76645882254031],[135.27625274460001,34.76586135262902],[135.27699520234714,34.76463186689058],[135.27750669693157,34.76422449505299],[135.27736198034992,34.76398673258999],[135.27712770143796,34.763558105565814],[135.27725402701438,34.7629013154901],[135.27767515027352,34.7622332217662],[135.27837601775985,34.76167112766553],[135.27877908551042,34.761575595342315],[135.27967635927632,34.76123507512433],[135.27975121868982,34.76109476589276],[135.28005879404984,34.76052895767572],[135.2798646439232,34.76050567890781],[135.28045747737082,34.75957255612205],[135.2805759447746,34.75918625785628],[135.2806241402905,34.759102497039684],[135.28083822411062,34.75871996069911],[135.28074598057694,34.75853362594572],[135.28078631836675,34.75800144832232],[135.28089190251666,34.75744397182874],[135.2806882798206,34.75706919787292],[135.2808474934163,34.75690343994001],[135.2806324871928,34.75624930102148],[135.28065610807238,34.7554490681171],[135.2805361529564,34.755226890751494],[135.28113342507945,34.75396919996279],[135.28090338270096,34.75367125700993],[135.28098495511878,34.75316354821017],[135.28078767656896,34.75286535225689],[135.28049404139202,34.75249804396992],[135.27995440365146,34.75186897487534],[135.28123304511098,34.75074345829413],[135.2817019953278,34.75068345969414],[135.28232937382512,34.750628983568966],[135.2825292068152,34.75019697862279],[135.28320540501178,34.74987618799558],[135.28375322833594,34.7495518903122],[135.2847254491137,34.7490935596502],[135.2851786877115,34.74885563836746],[135.28600043711987,34.74861032466826],[135.28654961185504,34.74840545210902],[135.28728589381387,34.74785205169409],[135.28742441064378,34.747314601738466],[135.28770431711703,34.746726463386246],[135.28839426945902,34.746182434620074],[135.28872286249614,34.74579223180195],[135.28907196644232,34.7455235632422],[135.28924426781566,34.74507599158196],[135.2893645949793,34.744856444362846],[135.29028736435427,34.74374406650453],[135.29003606944255,34.74321657632866],[135.29115837446759,34.74231108442023],[135.29234856607738,34.74210606922659],[135.2939659176128,34.74197345203693],[135.29475634347594,34.742397235552005],[135.29534745595328,34.74321627282936],[135.29644541917335,34.74358380891059],[135.29607130039875,34.745126569277225],[135.29529910913635,34.7454238126571],[135.2958854643592,34.74614342357855],[135.29666475411443,34.745952616556146],[135.296066318735,34.74706134500159],[135.2979581825842,34.74679903085038],[135.29769171823773,34.74742145317932],[135.29687029675122,34.74770557641213],[135.29631708243446,34.74899128011409],[135.2963823688603,34.749117107327436],[135.29651728323802,34.74918463447187],[135.29661431763554,34.74929626547535],[135.2965961612939,34.7494738819287],[135.29648997197552,34.74972670540061],[135.2964730649252,34.7497916308297],[135.29672616798968,34.75027824179141],[135.29721516114097,34.75076143375917],[135.2974812129457,34.750952434537076],[135.29755208365924,34.75111047127189],[135.29679543590828,34.75194128829043],[135.29659219970316,34.75205247991878],[135.2965782705404,34.75329757457045],[135.2966577921316,34.75393514280286],[135.29690838783037,34.754446984253676],[135.29700356116138,34.75502132631173],[135.29747097258496,34.755861465158134],[135.29769740102157,34.756077709907764],[135.2977139450727,34.75636970383619],[135.29775653084675,34.7573077181003],[135.2975928832759,34.75750733248449],[135.29731969184442,34.75815586083949],[135.29703617343273,34.75894419755269],[135.29619400289468,34.75969991950503],[135.29617039633064,34.7602013959825],[135.29656479963506,34.76011897183142],[135.29687368773634,34.76028498124816],[135.2971629938176,34.761400199344784],[135.29719817742912,34.76179064300237],[135.29712956609723,34.76209134223224],[135.2968717881885,34.762651302023464],[135.2969938642516,34.76310204529479],[135.29718492567918,34.76412719953429],[135.29732657242184,34.76493921553779],[135.29746524305727,34.76502643278221],[135.29805047832707,34.765719720007155],[135.29763424844256,34.76574724200421],[135.29745835140469,34.76597357517565],[135.29715739715456,34.76593356080658],[135.29705495754843,34.76598254495337],[135.29702534816502,34.76611489890671],[135.29715575134233,34.766283449826545],[135.2971436339638,34.7664301732854],[135.29663874427433,34.76651080200093],[135.2964034858539,34.7664842149773],[135.2958217025391,34.76703490939352],[135.2956462675672,34.76726518439326],[135.29558727556562,34.76760144271048],[135.29475015670658,34.767787094440436],[135.29404778678733,34.767597291233706],[135.2936506394642,34.768866690990926],[135.29222319903778,34.76852471303322],[135.29142407484636,34.76781366005343],[135.29076024424177,34.76532482499554],[135.28953221828877,34.764161199087496],[135.28902409283626,34.76292569688402],[135.2889432773289,34.76121004405322],[135.28828070067073,34.760460985692134],[135.28729799054167,34.76008558332419],[135.28654949700214,34.76025541010089],[135.28650204225167,34.7610338571028],[135.28651484613306,34.76142715990902],[135.28631800509262,34.76175646958411],[135.28605724852292,34.76244221264311],[135.28551041014765,34.76279975826615],[135.2842127939954,34.76339121687146],[135.2839963786514,34.763845045777835],[135.28415742248015,34.7643957881543],[135.28446091889933,34.76479188690184],[135.2842412792878,34.765871831089434],[135.2840863498531,34.766218131762805],[135.2838781466519,34.76621356177652],[135.2833805726147,34.766292805446234],[135.28306940801522,34.7665897585801],[135.2828637828658,34.76698856841454],[135.28279333557245,34.76715631039517],[135.28283171318006,34.767243339340844],[135.28226895057534,34.76719787001088],[135.27996098860768,34.76580690956781],[135.27941792570854,34.76549027290896],[135.278323179824,34.76518482429991],[135.2771787291358,34.76602868573593],[135.2766462483601,34.76644523336279],[135.27723026805333,34.767644849863245],[135.27926129087916,34.769035762979314],[135.27947602565632,34.77064149635717],[135.28148203601057,34.77296696670955],[135.28152622726984,34.773017328701165],[135.2813270161635,34.77362017682095],[135.2841067437212,34.77674396962919],[135.28435869355854,34.7765350888072],[135.2857338458125,34.77595204557683],[135.285931221112,34.77571823488675],[135.28635413888054,34.77534011383944],[135.2865758777692,34.77516202882703],[135.2868648231252,34.77492749846905],[135.2889548642113,34.77689696091221],[135.28699271176066,34.77706279485915],[135.28672268083452,34.77754676671511],[135.28614045781515,34.77819685210862],[135.28458322427971,34.779368401361886],[135.28442345941454,34.780559013199685],[135.284132756188,34.7807617201163],[135.28377437397268,34.78076452195815],[135.28356558422095,34.7807120662717],[135.2833986719032,34.7807753458383]]]},"properties":{"KEY_CODE":"282060010","PREF":"28","CITY":"206","CITY_NAME":"芦屋市","S_NAME":"奥山","SETAI":"187"}},{"type":"Feature","geometry":{"type":"Polygon","coordinates":[[[135.2843565891721,34.76608840578682],[135.28485832289323,34.76790852069873],[135.284391034739,34.76899829078051],[135.2851717052245,34.77054324158203],[135.2871827352356,34.77100129021071],[135.28791012052145,34.77167166620273],[135.28811799184228,34.77196427335289],[135.28795316442586,34.772443620335885],[135.28746891536727,34.77297111266713],[135.28749482306665,34.773167678971475],[135.28770294079627,34.773599868965476],[135.28777607885266,34.77393959318832],[135.28725718427523,34.77450552569927],[135.2869295932042,34.77478571537861],[135.2865758777692,34.77516202882703],[135.28635413888054,34.77534011383944],[135.285931221112,34.77571823488675],[135.2857338458125,34.77595204557683],[135.28435869355854,34.7765350888072],[135.2841067437212,34.77674396962919],[135.2813270161635,34.77362017682095],[135.28152622726984,34.773017328701165],[135.28148203601057,34.77296696670955],[135.27947602565632,34.77064149635717],[135.27926129087916,34.769035762979314],[135.27723026805333,34.767644849863245],[135.2766462483601,34.766445233362774],[135.2771787291358,34.76602868573593],[135.278323179824,34.76518482429991],[135.27941792570854,34.76549027290896],[135.27996098860768,34.76580690956781],[135.28226895057534,34.76719787001088],[135.28283171318006,34.767243339340844],[135.28279333557245,34.76715631039517],[135.2828637828658,34.76698856841454],[135.28306940801522,34.7665897585801],[135.2833805726147,34.766292805446234],[135.2838781466519,34.76621356177652],[135.2840863498531,34.766218131762805],[135.2843565891721,34.76608840578682]]]},"properties":{"KEY_CODE":"282060020","PREF":"28","CITY":"206","CITY_NAME":"芦屋市","S_NAME":"奥池町","SETAI":"222"}},{"type":"Feature","geometry":{"type":"Polygon","coordinates":[[[135.29215843066007,34.77631480978259],[135.29161847701118,34.776181171986266],[135.2889548642113,34.77689696091221],[135.2868648231252,34.77492749846905],[135.2869295932042,34.77478571537861],[135.28725718427523,34.77450552569927],[135.28777607885266,34.77393959318832],[135.28770294079627,34.773599868965476],[135.28749482306665,34.773167678971475],[135.28746891536727,34.77297111266713],[135.28795316442586,34.772443620335885],[135.28811799184228,34.77196427335289],[135.28791012052145,34.77167166620273],[135.2871827352356,34.77100129021071],[135.2851717052245,34.77054324158203],[135.284391034739,34.76899829078051],[135.28485832289323,34.76790852069873],[135.2843565891721,34.76608840578682],[135.2842412792878,34.765871831089434],[135.28446091889933,34.76479188690184],[135.28415742248015,34.7643957881543],[135.2839963786514,34.763845045777835],[135.2842127939954,34.76339121687146],[135.28551041014765,34.76279975826615],[135.28605724852292,34.76244221264311],[135.28631800509262,34.76175646958411],[135.28651484613306,34.76142715990902],[135.28650204225167,34.7610338571028],[135.28654949700214,34.76025541010089],[135.28729799054167,34.76008558332419],[135.28828070067073,34.760460985692134],[135.2889432773289,34.76121004405322],[135.28902409283626,34.76292569688402],[135.28953221828877,34.764161199087496],[135.29076024424177,34.76532482499554],[135.29142407484636,34.76781366005343],[135.29222319903778,34.76852471303322],[135.2936506394642,34.768866690990926],[135.29404778678733,34.767597291233706],[135.29475015670658,34.767787094440436],[135.29558727556562,34.76760144271048],[135.2956462675672,34.76726518439326],[135.2958217025391,34.76703490939352],[135.2964034858539,34.7664842149773],[135.29663874427433,34.76651080200093],[135.2971436339638,34.7664301732854],[135.29715575134233,34.766283449826545],[135.29702534816502,34.76611489890671],[135.29705495754843,34.76598254495337],[135.29715739715456,34.76593356080658],[135.29745835140469,34.76597357517565],[135.29763424844256,34.76574724200421],[135.29805047832707,34.765719720007155],[135.29826625679854,34.766074225931966],[135.29890619400302,34.76664876023734],[135.2988924948409,34.76774244251418],[135.2981752787499,34.768782963108954],[135.29838883759982,34.76937101775462],[135.298416783385,34.76998195423212],[135.29837178942353,34.77020767709825],[135.29660247374812,34.77115414867938],[135.29686217925556,34.771777198654036],[135.2967968339216,34.772454943158166],[135.29693901001193,34.77307723622613],[135.29674760335655,34.77319002808916],[135.2959269909978,34.77289130126113],[135.29515724430632,34.77348095363698],[135.29497763838248,34.77444130646962],[135.29486005560463,34.7747746511618],[135.29448715712718,34.775524969541365],[135.29442192083866,34.775544499970984],[135.29400586670667,34.77552567450948],[135.29353011166918,34.77562845274643],[135.29325088011402,34.775683478660305],[135.29321335732155,34.77568630973913],[135.29293418127423,34.77613642664838],[135.29271280902162,34.77640424512152],[135.29215843066007,34.77631480978259]]]},"properties":{"KEY_CODE":"282060030","PREF":"28","CITY":"206","CITY_NAME":"芦屋市","S_NAME":"奥池南町","SETAI":"329"}},{"type":"Feature","geometry":{"type":"Polygon","coordinates":[[[135.31285047578183,34.7521799472834],[135.3121466005667,34.753601878070185],[135.31102538902323,34.75517913359676],[135.30747032747797,34.7584928582171],[135.30709823962982,34.75819990411709],[135.3062240102484,34.757511083189506],[135.30555150966842,34.75678501062545],[135.30530170031676,34.75586555252825],[135.30537924606944,34.755580412932716],[135.30543056717585,34.75543816603364],[135.3058068615884,34.7543544047506],[135.3058769997913,34.75424524831937],[135.30607895009092,34.75402517327481],[135.30655538148824,34.75357824589816],[135.3070354635269,34.753282562218594],[135.30782576449343,34.75244253117524],[135.3085464459217,34.752201681709025],[135.30938016140067,34.75124438764856],[135.30939627565456,34.75084522363685],[135.30936724919587,34.75065572821234],[135.30825340405985,34.75039464040857],[135.3095471301205,34.74848529915746],[135.31051630259572,34.74854090719717],[135.31285047578183,34.7521799472834]]]},"properties":{"KEY_CODE":"282060040","PREF":"28","CITY":"206","CITY_NAME":"芦屋市","S_NAME":"六麓荘町","SETAI":"246"}},{"type":"Feature","geometry":{"type":"Polygon","coordinates":[[[135.3046140382018,34.76335928231882],[135.30425826477585,34.763519731951924],[135.30370619323693,34.76372245061006],[135.30361526562425,34.76376261346044],[135.30244223527072,34.764050697256195],[135.30236721528152,34.764093831350785],[135.30089949450274,34.76552077824141],[135.30047573394233,34.76564879775248],[135.30026875128996,34.76562424182784],[135.29934800359254,34.76590212315373],[135.2992187591347,34.76606709954979],[135.29897618528508,34.76656918757065],[135.29826625679854,34.766074225931966],[135.29805047832707,34.765719720007155],[135.29746524305727,34.76502643278221],[135.29732657242184,34.76493921553779],[135.29718492567918,34.76412719953429],[135.2969938642516,34.76310204529479],[135.2968717881885,34.762651302023464],[135.29712956609723,34.76209134223224],[135.29719817742912,34.76179064300237],[135.2971629938176,34.761400199344784],[135.29687368773634,34.76028498124816],[135.29656479963506,34.76011897183142],[135.29617039633064,34.7602013959825],[135.29619400289468,34.75969991950503],[135.29703617343273,34.75894419755269],[135.29731969184442,34.75815586083949],[135.2975928832759,34.75750733248449],[135.29775653084675,34.7573077181003],[135.2977139450727,34.75636970383619],[135.29769740102157,34.756077709907764],[135.29747097258496,34.755861465158134],[135.29700356116138,34.75502132631173],[135.29690838783037,34.754446984253676],[135.2966577921316,34.75393514280286],[135.2965782705404,34.75329757457045],[135.29659219970316,34.75205247991878],[135.29679543590828,34.75194128829043],[135.29755208365924,34.75111047127189],[135.2974812129457,34.750952434537076],[135.29721516114097,34.75076143375917],[135.29672616798968,34.75027824179141],[135.2964730649252,34.7497916308297],[135.29648997197552,34.74972670540061],[135.2965961612939,34.7494738819287],[135.29661431763554,34.74929626547535],[135.29651728323802,34.74918463447187],[135.2963823688603,34.749117107327436],[135.29631708243446,34.74899128011409],[135.29687029675122,34.74770557641213],[135.29769171823773,34.74742145317932],[135.2979581825842,34.74679903085038],[135.2983827924983,34.74650283448365],[135.29865525936012,34.746571662543346],[135.29886133942526,34.74715949084147],[135.29882593490038,34.74719639314453],[135.298867548323,34.74747973802167],[135.29953516118135,34.74751317356781],[135.30004886045796,34.74745218993541],[135.3004290314247,34.74753748339088],[135.3007086689527,34.747664562727756],[135.30337096823246,34.74863806734302],[135.30583469796375,34.749524507506365],[135.30548743660577,34.75066663399611],[135.30544254135557,34.75086165007179],[135.30515596104107,34.751489602993466],[135.30502665125096,34.752264194347816],[135.30540412345158,34.75208103173844],[135.30578679746193,34.75189768491359],[135.30610105435906,34.75165051356833],[135.30712070103314,34.75124318637501],[135.30751478488654,34.75114566228377],[135.30797867428737,34.750932783384734],[135.30828392372476,34.75058820872935],[135.30825533462473,34.750435472113146],[135.30936724919587,34.75065572821234],[135.30939627565456,34.75084522363685],[135.30938016140067,34.75124438764856],[135.3085464459217,34.752201681709025],[135.30782576449343,34.75244253117524],[135.3070354635269,34.753282562218594],[135.30655538148824,34.75357824589816],[135.30607895009092,34.75402517327481],[135.3058769997913,34.75424524831937],[135.3058068615884,34.7543544047506],[135.30543056717585,34.75543816603364],[135.30537924606944,34.755580412932716],[135.30530170031676,34.75586555252825],[135.30555150966842,34.75678501062545],[135.3062240102484,34.757511083189506],[135.30709823962982,34.75819990411709],[135.30747032747797,34.7584928582171],[135.30683799596858,34.759159917844265],[135.30662640730358,34.75941739574734],[135.30622574455808,34.75998963793613],[135.30602225056518,34.76025366996993],[135.30598356478322,34.76034581422362],[135.3055809673068,34.761429783427],[135.30554074577262,34.76205971285645],[135.30529822181833,34.76222729029637],[135.30507783755854,34.762412719687774],[135.3046140382018,34.76335928231882]]]},"properties":{"KEY_CODE":"282060050","PREF":"28","CITY":"206","CITY_NAME":"芦屋市","S_NAME":"剱谷","SETAI":"0"}},{"type":"Feature","geometry":{"type":"Polygon","coordinates":[[[135.31051630259572,34.74854090719717],[135.3095471301205,34.74848529915746],[135.30825340405985,34.75039464040857],[135.30825533462473,34.750435472113146],[135.30828392372476,34.75058820872935],[135.30797867428737,34.750932783384734],[135.30751478488654,34.75114566228377],[135.30712070103314,34.75124318637501],[135.30610105435906,34.75165051356833],[135.30578679746193,34.75189768491359],[135.30540412345158,34.75208103173844],[135.30502665125096,34.752264194347816],[135.30515596104107,34.751489602993466],[135.30544254135557,34.75086165007179],[135.30548743660577,34.75066663399611],[135.30583469796375,34.749524507506365],[135.30337096823246,34.74863806734302],[135.3007086689527,34.747664562727756],[135.3004290314247,34.74753748339088],[135.30122708695183,34.74633558898772],[135.30107436333864,34.74599988621953],[135.30123138374165,34.74598779229557],[135.3013469264311,34.7459601107859],[135.30167263626745,34.745656941974104],[135.30182035223254,34.74541110667106],[135.30188444476076,34.74531763428007],[135.3021279469282,34.744996524808336],[135.3022501755047,34.744876672329276],[135.30236079866924,34.74479339308567],[135.3025260596073,34.74466883016046],[135.3026578616463,34.74457256380752],[135.3030300086225,34.744308457648096],[135.30314060290078,34.74421531825984],[135.30323645276297,34.744160184571264],[135.303610974203,34.74395352618719],[135.30386523428143,34.74386684537306],[135.30396842377058,34.74384095047594],[135.3044244833691,34.74373420738826],[135.30505351179403,34.74354973926515],[135.30629118976836,34.74329927252664],[135.30940099495575,34.743381695703654],[135.3107206046427,34.74285882742122],[135.31026496685323,34.74552699037974],[135.3098501944733,34.746234158153435],[135.31055906269634,34.74708119184356],[135.31051630259572,34.74854090719717]]]},"properties":{"KEY_CODE":"282060060","PREF":"28","CITY":"206","CITY_NAME":"芦屋市","S_NAME":"朝日ヶ丘町","SETAI":"2891"}},{"type":"Feature","geometry":{"type":"Polygon","coordinates":[[[135.30107436333864,34.74599988621953],[135.30122708695183,34.74633558898772],[135.3004290314247,34.74753748339088],[135.30004886045796,34.74745218993541],[135.29953516118135,34.74751317356781],[135.298867548323,34.74747973802167],[135.29882593490038,34.74719639314453],[135.29886133942526,34.74715949084147],[135.29865525936012,34.746571662543346],[135.2983827924983,34.74650283448365],[135.2979581825842,34.74679903085038],[135.296066318735,34.74706134500159],[135.29666475411443,34.745952616556146],[135.2958854643592,34.74614342357855],[135.29529910913635,34.7454238126571],[135.29607130039875,34.745126569277225],[135.29644541917335,34.74358380891059],[135.29739121627898,34.74174608005419],[135.2989472418413,34.739601229689335],[135.3001654060658,34.73836825072976],[135.30226574558344,34.73891636487752],[135.30285312265747,34.739557496601186],[135.30319340482427,34.74088161787985],[135.3028058052418,34.741428116391496],[135.30210636908402,34.74115705213314],[135.30176675966902,34.742321368633675],[135.3028521426991,34.74314333318815],[135.30070133822213,34.744743355300955],[135.30064045250805,34.745630220620264],[135.30107436333864,34.74599988621953]]]},"properties":{"KEY_CODE":"282060070","PREF":"28","CITY":"206","CITY_NAME":"芦屋市","S_NAME":"山手町","SETAI":"791"}},{"type":"Feature","geometry":{"type":"Polygon","coordinates":[[[135.3001654060658,34.73836825072976],[135.2989472418413,34.739601229689335],[135.29739121627898,34.74174608005419],[135.29644541917335,34.74358380891059],[135.29534745595328,34.74321627282936],[135.29475634347594,34.742397235552005],[135.2939659176128,34.74197345203693],[135.29234856607738,34.74210606922659],[135.2933332790425,34.74083035213797],[135.29461323282712,34.74015021387175],[135.29394574405336,34.73959207214168],[135.2948411133953,34.73903990227656],[135.2948716517368,34.73787001890581],[135.29630991429607,34.73680295532164],[135.29772424453796,34.73712135232],[135.2985581808126,34.738287341597555],[135.3001654060658,34.73836825072976]]]},"properties":{"KEY_CODE":"282060080","PREF":"28","CITY":"206","CITY_NAME":"芦屋市","S_NAME":"山芦屋町","SETAI":"596"}},{"type":"Feature","geometry":{"type":"Polygon","coordinates":[[[135.31578494231715,34.747362669562946],[135.3158569456952,34.747807745887854],[135.31434568145286,34.74881426735014],[135.31476392214805,34.74958440290686],[135.3137848025705,34.75133534067189],[135.31285047578183,34.7521799472834],[135.31051630259572,34.74854090719717],[135.31055906269634,34.74708119184356],[135.3098501944733,34.746234158153435],[135.31026496685323,34.74552699037974],[135.3107206046427,34.74285882742122],[135.31149950863735,34.74007721398256],[135.31254577299745,34.740383889855956],[135.3142415930167,34.74093829654228],[135.31643542352722,34.741276253455894],[135.31646994109016,34.74128048199735],[135.31699356326374,34.74136217214826],[135.3164621985653,34.74438958051886],[135.31700986214886,34.74472686392334],[135.31721238423467,34.745917122459694],[135.31647443094232,34.746542272122696],[135.31571796724714,34.74732701164692],[135.31578494231715,34.747362669562946]]]},"properties":{"KEY_CODE":"282060090","PREF":"28","CITY":"206","CITY_NAME":"芦屋市","S_NAME":"岩園町","SETAI":"1338"}},{"type":"Feature","geometry":{"type":"Polygon","coordinates":[[[135.3107206046427,34.74285882742122],[135.30940099495575,34.743381695703654],[135.30629118976836,34.74329927252664],[135.30505351179403,34.74354973926515],[135.3044244833691,34.74373420738823],[135.30435842698205,34.74346303038592],[135.30524564647484,34.74279267126787],[135.30494977350756,34.74181793940754],[135.30543704824342,34.74148586147996],[135.3059434397635,34.74004892039622],[135.30513678230247,34.739837606822704],[135.30501963287142,34.739327106156125],[135.30553983274328,34.73827528940135],[135.30796054300595,34.73914879060769],[135.31149950863735,34.74007721398256],[135.3107206046427,34.74285882742122]]]},"properties":{"KEY_CODE":"282060100","PREF":"28","CITY":"206","CITY_NAME":"芦屋市","S_NAME":"東山町","SETAI":"1065"}},{"type":"Feature","geometry":{"type":"Polygon","coordinates":[[[135.30553983274328,34.73827528940135],[135.30501963287142,34.739327106156125],[135.30513678230247,34.739837606822704],[135.3059434397635,34.74004892039622],[135.30543704824342,34.74148586147996],[135.30494977350756,34.74181793940754],[135.30524564647484,34.74279267126787],[135.30435842698205,34.74346303038592],[135.3044244833691,34.74373420738823],[135.30396842377058,34.74384095047594],[135.30386523428143,34.74386684537306],[135.303610974203,34.74395352618719],[135.30323645276297,34.744160184571264],[135.30314060290078,34.74421531825984],[135.3030300086225,34.744308457648096],[135.3026578616463,34.74457256380752],[135.3025260596073,34.74466883016046],[135.30236079866924,34.74479339308567],[135.3022501755047,34.744876672329276],[135.3021279469282,34.744996524808336],[135.30188444476076,34.74531763428007],[135.30182035223254,34.74541110667106],[135.30167263626745,34.745656941974104],[135.3013469264311,34.7459601107859],[135.30123138374165,34.74598779229557],[135.30107436333864,34.74599988621953],[135.30064045250805,34.745630220620264],[135.30070133822213,34.744743355300955],[135.3028521426991,34.74314333318815],[135.30176675966902,34.742321368633675],[135.30210636908402,34.74115705213314],[135.3028058052418,34.741428116391496],[135.30319340482427,34.74088161787985],[135.30285312265747,34.739557496601186],[135.30226574558344,34.73891636487752],[135.3001654060658,34.73836825072976],[135.30103715845718,34.73651304946798],[135.30340960815332,34.73744815780525],[135.30553983274328,34.73827528940135]]]},"properties":{"KEY_CODE":"282060110","PREF":"28","CITY":"206","CITY_NAME":"芦屋市","S_NAME":"東芦屋町","SETAI":"999"}},{"type":"Feature","geometry":{"type":"Polygon","coordinates":[[[135.3001654060658,34.73836825072976],[135.2985581808126,34.738287341597555],[135.29772424453796,34.73712135232],[135.29630991429607,34.73680295532164],[135.2964210058539,34.73552608564381],[135.29696343615205,34.734485814977056],[135.29886752813192,34.735444443048685],[135.30103715845718,34.73651304946798],[135.3001654060658,34.73836825072976]]]},"properties":{"KEY_CODE":"282060120","PREF":"28","CITY":"206","CITY_NAME":"芦屋市","S_NAME":"西山町","SETAI":"618"}},{"type":"Feature","geometry":{"type":"Polygon","coordinates":[[[135.29234856607738,34.74210606922659],[135.29115837446759,34.74231108442023],[135.29003606944255,34.74321657632866],[135.29028736435427,34.74374406650453],[135.2893645949793,34.744856444362846],[135.28692714028298,34.74467498626734],[135.28668396465335,34.744658861600804],[135.28585064725303,34.744606789496856],[135.28511244002198,34.7445156563954],[135.2843540998842,34.744573418556264],[135.2855614674134,34.74320052844637],[135.28625139189015,34.742417624966365],[135.28679122977687,34.741879285741724],[135.28726564080603,34.74158710328676],[135.2878028201836,34.7408189087663],[135.28846448695813,34.740667232251255],[135.28903903009862,34.74053651889612],[135.28951105813994,34.74098579384337],[135.29015439297797,34.740665228983445],[135.29126085086747,34.73735043265698],[135.29266871044788,34.7368818541276],[135.2919611110836,34.73565468293598],[135.29275528845724,34.734690622291474],[135.29276229293362,34.73340823835031],[135.29321071421097,34.73370669172727],[135.2938130942415,34.73291992079421],[135.29382066008745,34.73290324092598],[135.29696343615205,34.734485814977056],[135.2964210058539,34.73552608564381],[135.29630991429607,34.73680295532164],[135.2948716517368,34.73787001890581],[135.2948411133953,34.73903990227656],[135.29394574405336,34.73959207214168],[135.29461323282712,34.74015021387175],[135.2933332790425,34.74083035213797],[135.29234856607738,34.74210606922659]]]},"properties":{"KEY_CODE":"282060130","PREF":"28","CITY":"206","CITY_NAME":"芦屋市","S_NAME":"三条町","SETAI":"898"}},{"type":"Feature","geometry":{"type":"Polygon","coordinates":[[[135.31629877150635,34.74104100643038],[135.31652702067433,34.741071981968396],[135.31643542352722,34.741276253455894],[135.3142415930167,34.74093829654228],[135.31254577299745,34.740383889855956],[135.3128213616808,34.73867383656847],[135.3138346689814,34.73529972048601],[135.31595235407912,34.73574056142522],[135.31997105202862,34.736926157122156],[135.31986970844508,34.73710600189267],[135.31953888715077,34.73815465277058],[135.31858003343842,34.738253970162404],[135.31758045747878,34.73939324205648],[135.31755194873713,34.73944953126626],[135.3177841327097,34.73994866629756],[135.3164324456074,34.74091006111068],[135.31629877150635,34.74104100643038]]]},"properties":{"KEY_CODE":"282060140","PREF":"28","CITY":"206","CITY_NAME":"芦屋市","S_NAME":"翠ケ丘町","SETAI":"2042"}},{"type":"Feature","geometry":{"type":"Polygon","coordinates":[[[135.3106659082339,34.73472952946581],[135.3138346689814,34.73529972048601],[135.3128213616808,34.73867383656847],[135.31254577299745,34.740383889855956],[135.31149950863735,34.74007721398256],[135.31088177153322,34.737930933842875],[135.31040694723663,34.73549334229519],[135.31065896257803,34.7347481778489],[135.3106659082339,34.73472952946581]]]},"properties":{"KEY_CODE":"282060150","PREF":"28","CITY":"206","CITY_NAME":"芦屋市","S_NAME":"親王塚町","SETAI":"688"}},{"type":"Feature","geometry":{"type":"Polygon","coordinates":[[[135.30752565927577,34.733872820765605],[135.31065896257803,34.7347481778489],[135.31040694723663,34.73549334229519],[135.31088177153322,34.737930933842875],[135.31149950863735,34.74007721398256],[135.30796054300595,34.73914879060769],[135.30553983274328,34.73827528940135],[135.30751177658783,34.73390391962585],[135.30752565927577,34.733872820765605]]]},"properties":{"KEY_CODE":"282060160","PREF":"28","CITY":"206","CITY_NAME":"芦屋市","S_NAME":"大原町","SETAI":"1176"}},{"type":"Feature","geometry":{"type":"Polygon","coordinates":[[[135.30505272735826,34.73355975396762],[135.30751177658783,34.73390391962585],[135.30553983274328,34.73827528940135],[135.30340960815332,34.73744815780525],[135.30505272735826,34.73355975396762]]]},"properties":{"KEY_CODE":"282060170","PREF":"28","CITY":"206","CITY_NAME":"芦屋市","S_NAME":"船戸町","SETAI":"449"}},{"type":"Feature","geometry":{"type":"Polygon","coordinates":[[[135.30207290100216,34.73285853649233],[135.30505272735826,34.73355975396762],[135.30340960815332,34.73744815780525],[135.30103715845718,34.73651304946798],[135.30207290100216,34.73285853649233]]]},"properties":{"KEY_CODE":"282060180","PREF":"28","CITY":"206","CITY_NAME":"芦屋市","S_NAME":"松ノ内町","SETAI":"568"}},{"type":"Feature","geometry":{"type":"Polygon","coordinates":[[[135.30018728717292,34.73242209533651],[135.30207290100216,34.73285853649233],[135.30103715845718,34.73651304946798],[135.29886752813192,34.735444443048685],[135.29925377138167,34.734964589647404],[135.30018728717292,34.73242209533651]]]},"properties":{"KEY_CODE":"282060190","PREF":"28","CITY":"206","CITY_NAME":"芦屋市","S_NAME":"月若町","SETAI":"330"}},{"type":"Feature","geometry":{"type":"Polygon","coordinates":[[[135.2981614326728,34.73189630857946],[135.30018728717292,34.73242209533651],[135.29925377138167,34.734964589647404],[135.29886752813192,34.735444443048685],[135.29696343615205,34.734485814977056],[135.2981614326728,34.73189630857946]]]},"properties":{"KEY_CODE":"282060200","PREF":"28","CITY":"206","CITY_NAME":"芦屋市","S_NAME":"西芦屋町","SETAI":"269"}},{"type":"Feature","geometry":{"type":"Polygon","coordinates":[[[135.29467845733373,34.73103579251702],[135.29588599924674,34.73135528005075],[135.2981614326728,34.73189630857946],[135.29696343615205,34.734485814977056],[135.29382066008745,34.73290324092598],[135.29467845733373,34.73103579251702]]]},"properties":{"KEY_CODE":"282060210","PREF":"28","CITY":"206","CITY_NAME":"芦屋市","S_NAME":"三条南町","SETAI":"430"}},{"type":"Feature","geometry":{"type":"Polygon","coordinates":[[[135.3204841241445,34.73548600322631],[135.32071250595592,34.73631039433715],[135.31997105202862,34.736926157122156],[135.31595235407912,34.73574056142522],[135.3138346689814,34.73529972048601],[135.3106659082339,34.73472952946581],[135.31114807939488,34.733216978796364],[135.31470294680807,34.73390715247758],[135.3175461609021,34.73454945198494],[135.32047882865476,34.735349559611855],[135.3204841241445,34.73548600322631]]]},"properties":{"KEY_CODE":"282060220","PREF":"28","CITY":"206","CITY_NAME":"芦屋市","S_NAME":"楠町","SETAI":"1290"}},{"type":"Feature","geometry":{"type":"Polygon","coordinates":[[[135.3106659082339,34.73472952946581],[135.31065896257803,34.7347481778489],[135.30752565927577,34.733872820765605],[135.30809690110027,34.73262535692548],[135.31114807939488,34.733216978796364],[135.3106659082339,34.73472952946581]]]},"properties":{"KEY_CODE":"282060230","PREF":"28","CITY":"206","CITY_NAME":"芦屋市","S_NAME":"上宮川町","SETAI":"305"}},{"type":"Feature","geometry":{"type":"Polygon","coordinates":[[[135.30259310766934,34.73148586233547],[135.30438409922007,34.73192175370123],[135.3057055629293,34.732181641714675],[135.30809690110027,34.73262535692548],[135.30752565927577,34.733872820765605],[135.30751177658783,34.73390391962585],[135.30505272735826,34.73355975396762],[135.30207290100216,34.73285853649233],[135.30259310766934,34.73148586233547]]]},"properties":{"KEY_CODE":"282060240","PREF":"28","CITY":"206","CITY_NAME":"芦屋市","S_NAME":"業平町","SETAI":"587"}},{"type":"Feature","geometry":{"type":"Polygon","coordinates":[[[135.2988510598476,34.73035018331155],[135.30259310766934,34.73148586233547],[135.30207290100216,34.73285853649233],[135.30018728717292,34.73242209533651],[135.2981614326728,34.73189630857946],[135.2988510598476,34.73035018331155]]]},"properties":{"KEY_CODE":"282060250","PREF":"28","CITY":"206","CITY_NAME":"芦屋市","S_NAME":"前田町","SETAI":"241"}},{"type":"Feature","geometry":{"type":"Polygon","coordinates":[[[135.2988510598476,34.73035018331155],[135.2981614326728,34.73189630857946],[135.29588599924674,34.73135528005075],[135.2962868600928,34.73037852858167],[135.29515365429722,34.73011254547494],[135.29553448571826,34.72929145702914],[135.2988510598476,34.73035018331155]]]},"properties":{"KEY_CODE":"282060260","PREF":"28","CITY":"206","CITY_NAME":"芦屋市","S_NAME":"清水町","SETAI":"342"}},{"type":"Feature","geometry":{"type":"Polygon","coordinates":[[[135.32153859544852,34.732954912975465],[135.32154683153522,34.733839121877],[135.3207036442827,34.734197953612025],[135.32047882865476,34.735349559611855],[135.3175461609021,34.73454945198494],[135.31470294680807,34.73390715247758],[135.31535911783615,34.733249289223046],[135.3160110086464,34.731755775152735],[135.3176682934093,34.73221100730882],[135.32153859544852,34.732954912975465]]]},"properties":{"KEY_CODE":"282060270","PREF":"28","CITY":"206","CITY_NAME":"芦屋市","S_NAME":"春日町","SETAI":"943"}},{"type":"Feature","geometry":{"type":"Polygon","coordinates":[[[135.3124780041525,34.7306483957788],[135.3160110086464,34.731755775152735],[135.31535911783615,34.733249289223046],[135.31470294680807,34.73390715247758],[135.31114807939488,34.733216978796364],[135.31120245138072,34.73231494023629],[135.31209036702614,34.73171777172231],[135.3124780041525,34.7306483957788]]]},"properties":{"KEY_CODE":"282060280","PREF":"28","CITY":"206","CITY_NAME":"芦屋市","S_NAME":"打出小槌町","SETAI":"736"}},{"type":"Feature","geometry":{"type":"Polygon","coordinates":[[[135.30937918326853,34.72971251482154],[135.3124780041525,34.7306483957788],[135.31209036702614,34.73171777172231],[135.31120245138072,34.73231494023629],[135.31114807939488,34.733216978796364],[135.30809690110027,34.73262535692548],[135.30937918326853,34.72971251482154]]]},"properties":{"KEY_CODE":"282060290","PREF":"28","CITY":"206","CITY_NAME":"芦屋市","S_NAME":"宮塚町","SETAI":"622"}},{"type":"Feature","geometry":{"type":"Polygon","coordinates":[[[135.30719931161056,34.72905866933965],[135.30937918326853,34.72971251482154],[135.30809690110027,34.73262535692548],[135.3057055629293,34.732181641714675],[135.30719931161056,34.72905866933965]]]},"properties":{"KEY_CODE":"282060300","PREF":"28","CITY":"206","CITY_NAME":"芦屋市","S_NAME":"茶屋之町","SETAI":"473"}},{"type":"Feature","geometry":{"type":"Polygon","coordinates":[[[135.30585564175203,34.728654317258446],[135.30719931161056,34.72905866933965],[135.3057055629293,34.732181641714675],[135.30438409922007,34.73192175370123],[135.30585564175203,34.728654317258446]]]},"properties":{"KEY_CODE":"282060310","PREF":"28","CITY":"206","CITY_NAME":"芦屋市","S_NAME":"大桝町","SETAI":"350"}},{"type":"Feature","geometry":{"type":"Polygon","coordinates":[[[135.3033767370132,34.727699670900854],[135.30585564175203,34.728654317258446],[135.30438409922007,34.73192175370123],[135.30259310766934,34.73148586233547],[135.3033767370132,34.727699670900854]]]},"properties":{"KEY_CODE":"282060320","PREF":"28","CITY":"206","CITY_NAME":"芦屋市","S_NAME":"公光町","SETAI":"277"}},{"type":"Feature","geometry":{"type":"Polygon","coordinates":[[[135.3033767370132,34.727699670900854],[135.30259310766934,34.73148586233547],[135.2988510598476,34.73035018331155],[135.29962698459644,34.72860589218939],[135.30075067141345,34.72657007301219],[135.3033767370132,34.727699670900854]]]},"properties":{"KEY_CODE":"282060330","PREF":"28","CITY":"206","CITY_NAME":"芦屋市","S_NAME":"川西町","SETAI":"570"}},{"type":"Feature","geometry":{"type":"Polygon","coordinates":[[[135.29641786543164,34.72731927286137],[135.29925673976055,34.728259091484574],[135.29962698459644,34.72860589218939],[135.2988510598476,34.73035018331155],[135.29553448571826,34.72929145702914],[135.29564713134053,34.728177259030204],[135.29641786543164,34.72731927286137]]]},"properties":{"KEY_CODE":"282060340","PREF":"28","CITY":"206","CITY_NAME":"芦屋市","S_NAME":"津知町","SETAI":"527"}},{"type":"Feature","geometry":{"type":"Polygon","coordinates":[[[135.32242623019673,34.73248303057854],[135.32154271264545,34.73288515731495],[135.32153859544852,34.732954912975465],[135.3176682934093,34.73221100730882],[135.3160110086464,34.731755775152735],[135.31666277747127,34.730894407729394],[135.31676746146442,34.73093877617083],[135.31985010983723,34.73180191901997],[135.32242623019673,34.73248303057854]]]},"properties":{"KEY_CODE":"282060350","PREF":"28","CITY":"206","CITY_NAME":"芦屋市","S_NAME":"打出町","SETAI":"237"}},{"type":"Feature","geometry":{"type":"Polygon","coordinates":[[[135.31907947603713,34.726219513498094],[135.31935022747678,34.72550206385646],[135.3200147160409,34.725832055208265],[135.32056012844237,34.725989898918606],[135.32120977296415,34.72616126178103],[135.32225304784828,34.72640126087781],[135.3223337842724,34.72641187333047],[135.322316689794,34.726494834322075],[135.32225112899224,34.726812852415364],[135.32189951026655,34.72811551051498],[135.31985010983723,34.73180191901997],[135.31676746146442,34.73093877617083],[135.31842588611457,34.72789970088942],[135.31907947603713,34.726219513498094]]]},"properties":{"KEY_CODE":"282060360","PREF":"28","CITY":"206","CITY_NAME":"芦屋市","S_NAME":"南宮町","SETAI":"1500"}},{"type":"Feature","geometry":{"type":"Polygon","coordinates":[[[135.31283871611723,34.729047936418624],[135.3140919216278,34.72966873178452],[135.31666277747127,34.730894407729394],[135.3160110086464,34.731755775152735],[135.3124780041525,34.7306483957788],[135.31283871611723,34.729047936418624]]]},"properties":{"KEY_CODE":"282060370","PREF":"28","CITY":"206","CITY_NAME":"芦屋市","S_NAME":"若宮町","SETAI":"266"}},{"type":"Feature","geometry":{"type":"Polygon","coordinates":[[[135.31008602537008,34.727800251098245],[135.31283871611723,34.729047936418624],[135.3124780041525,34.7306483957788],[135.30937918326853,34.72971251482154],[135.31008602537008,34.727800251098245]]]},"properties":{"KEY_CODE":"282060380","PREF":"28","CITY":"206","CITY_NAME":"芦屋市","S_NAME":"宮川町","SETAI":"311"}},{"type":"Feature","geometry":{"type":"Polygon","coordinates":[[[135.30759614693974,34.72505509234857],[135.3104557406434,34.725997165928945],[135.30964304963257,34.72764801931298],[135.30634206062243,34.72658959164178],[135.30759614693974,34.72505509234857]]]},"properties":{"KEY_CODE":"282060390","PREF":"28","CITY":"206","CITY_NAME":"芦屋市","S_NAME":"竹園町","SETAI":"363"}},{"type":"Feature","geometry":{"type":"Polygon","coordinates":[[[135.3038649396257,34.7258043858978],[135.30634206062243,34.72658959164178],[135.30964304963257,34.72764801931298],[135.31008602537008,34.727800251098245],[135.30937918326853,34.72971251482154],[135.30719931161056,34.72905866933965],[135.30585564175203,34.728654317258446],[135.3033767370132,34.727699670900854],[135.3038649396257,34.7258043858978]]]},"properties":{"KEY_CODE":"282060400","PREF":"28","CITY":"206","CITY_NAME":"芦屋市","S_NAME":"精道町","SETAI":"449"}},{"type":"Feature","geometry":{"type":"Polygon","coordinates":[[[135.3043751502906,34.722890122293485],[135.3056897369013,34.72302682046402],[135.3087875933417,34.72368869870272],[135.30759614693974,34.72505509234857],[135.30634206062243,34.72658959164178],[135.3038649396257,34.7258043858978],[135.3043751502906,34.722890122293485]]]},"properties":{"KEY_CODE":"282060410","PREF":"28","CITY":"206","CITY_NAME":"芦屋市","S_NAME":"浜芦屋町","SETAI":"477"}},{"type":"Feature","geometry":{"type":"Polygon","coordinates":[[[135.30149015991412,34.725042683754815],[135.30214828124556,34.72525027836067],[135.30287208420273,34.72548678461424],[135.3038649396257,34.7258043858978],[135.3033767370132,34.727699670900854],[135.30075067141345,34.72657007301219],[135.3007599928186,34.72655013844799],[135.3008702538145,34.726261918958706],[135.301105880204,34.72578114057507],[135.30149015991412,34.725042683754815]]]},"properties":{"KEY_CODE":"282060420","PREF":"28","CITY":"206","CITY_NAME":"芦屋市","S_NAME":"平田北町","SETAI":"323"}},{"type":"Feature","geometry":{"type":"Polygon","coordinates":[[[135.32242623019673,34.73248303057854],[135.31985010983723,34.73180191901997],[135.32189951026655,34.72811551051498],[135.32225112899224,34.726812852415364],[135.322316689794,34.726494834322075],[135.3223337842724,34.72641187333047],[135.3224249278589,34.72615773661255],[135.32252725560423,34.725847166018085],[135.32253060117,34.725820235677055],[135.32383618389773,34.72585314512007],[135.32416838999728,34.725856920615946],[135.32419780280762,34.72559131234058],[135.32421725740105,34.72557044847221],[135.3242368440059,34.72556761338609],[135.3242544248084,34.725575499248876],[135.32425881844097,34.725579124867],[135.3242643949082,34.72558894008302],[135.32433550715652,34.72585809595698],[135.324362702924,34.726663700337774],[135.3243545902919,34.72670574030438],[135.32415506657748,34.72769122931739],[135.32377512955364,34.72870579157836],[135.32357805826658,34.72973280528935],[135.3235140009751,34.730926491809235],[135.32288947556336,34.73087373716903],[135.32269446402475,34.73246380688036],[135.32242623019673,34.73248303057854]]]},"properties":{"KEY_CODE":"282060430","PREF":"28","CITY":"206","CITY_NAME":"芦屋市","S_NAME":"大東町","SETAI":"1695"}},{"type":"Feature","geometry":{"type":"Polygon","coordinates":[[[135.31695371291187,34.72442221773497],[135.31935022747678,34.72550206385649],[135.31907947603713,34.726219513498094],[135.31842588611457,34.72789970088942],[135.31676746146442,34.73093877617083],[135.31666277747127,34.730894407729394],[135.3140919216278,34.72966873178452],[135.31550938739147,34.727453087698166],[135.31608735424047,34.7261458043824],[135.31638071411777,34.72557072221218],[135.31658689059697,34.72514635428011],[135.31695371291187,34.72442221773497]]]},"properties":{"KEY_CODE":"282060440","PREF":"28","CITY":"206","CITY_NAME":"芦屋市","S_NAME":"浜町","SETAI":"1037"}},{"type":"Feature","geometry":{"type":"Polygon","coordinates":[[[135.31441018924298,34.72324688124139],[135.316335955873,34.72413239738025],[135.31695371291187,34.72442221773497],[135.31658689059697,34.72514635428011],[135.31638071411777,34.72557072221218],[135.31608735424047,34.7261458043824],[135.31550938739147,34.727453087698166],[135.3140919216278,34.72966873178452],[135.31283871611723,34.729047936418624],[135.312805848792,34.72804856378872],[135.3136349891568,34.725896256908094],[135.3138140407375,34.72510969306584],[135.31441018924298,34.72324688124139]]]},"properties":{"KEY_CODE":"282060450","PREF":"28","CITY":"206","CITY_NAME":"芦屋市","S_NAME":"西蔵町","SETAI":"849"}},{"type":"Feature","geometry":{"type":"Polygon","coordinates":[[[135.3126579681553,34.72236219278894],[135.31441018924298,34.72324688124139],[135.3138140407375,34.72510969306584],[135.3136349891568,34.725896256908094],[135.312805848792,34.72804856378872],[135.31283871611723,34.729047936418624],[135.31008602537008,34.727800251098245],[135.30964304963257,34.72764801931298],[135.3104557406434,34.725997165928945],[135.3126579681553,34.72236219278894]]]},"properties":{"KEY_CODE":"282060460","PREF":"28","CITY":"206","CITY_NAME":"芦屋市","S_NAME":"呉川町","SETAI":"1182"}},{"type":"Feature","geometry":{"type":"Polygon","coordinates":[[[135.31012593028203,34.72102877606162],[135.3115591582855,34.72177492812079],[135.3126579681553,34.72236219278894],[135.3104557406434,34.725997165928945],[135.30759614693974,34.72505509234857],[135.3087875933417,34.72368869870272],[135.30986998020998,34.72090025660997],[135.31012593028203,34.72102877606162]]]},"properties":{"KEY_CODE":"282060470","PREF":"28","CITY":"206","CITY_NAME":"芦屋市","S_NAME":"伊勢町","SETAI":"810"}},{"type":"Feature","geometry":{"type":"Polygon","coordinates":[[[135.30488541135952,34.71914466882123],[135.3083351909146,34.72014645257361],[135.30986998020998,34.72090025660997],[135.3087875933417,34.72368869870272],[135.3056897369013,34.72302682046402],[135.3043751502906,34.722890122293485],[135.30488541135952,34.71914466882123]]]},"properties":{"KEY_CODE":"282060480","PREF":"28","CITY":"206","CITY_NAME":"芦屋市","S_NAME":"松浜町","SETAI":"972"}},{"type":"Feature","geometry":{"type":"Polygon","coordinates":[[[135.30494779444527,34.718732027764325],[135.30488541135952,34.71914466882123],[135.3043751502906,34.722890122293485],[135.3038649396257,34.7258043858978],[135.30287208420273,34.72548678461424],[135.30214828124556,34.72525027836067],[135.30149015991412,34.725042683754815],[135.30154384915062,34.724950560059604],[135.30162820240446,34.72476734163265],[135.30213904549078,34.72355981589761],[135.30289608445466,34.721304622879785],[135.30318632055256,34.72044816858048],[135.30351988499788,34.719095556185515],[135.3035434724133,34.71893901957759],[135.3042300572163,34.71880536570749],[135.30494779444527,34.718732027764325]]]},"properties":{"KEY_CODE":"282060490","PREF":"28","CITY":"206","CITY_NAME":"芦屋市","S_NAME":"平田町","SETAI":"504"}},{"type":"Feature","geometry":{"type":"Polygon","coordinates":[[[135.32114400827427,34.72349570481512],[135.32131810640396,34.724800152942166],[135.32232837103382,34.72582892210064],[135.32234416555778,34.72584428702802],[135.32225304784828,34.72640126087781],[135.32120977296415,34.72616126178103],[135.32056012844237,34.725989898918606],[135.3200147160409,34.725832055208265],[135.31935022747678,34.72550206385649],[135.31695371291187,34.72442221773497],[135.316335955873,34.72413239738025],[135.31696196335093,34.72327587739203],[135.31770778265334,34.72278460754975],[135.31790850729925,34.722074487205326],[135.31811147375282,34.721409703468964],[135.31815370395216,34.72128822715901],[135.31830769968866,34.72074511526838],[135.31970841391066,34.7210246419078],[135.32063900312812,34.72260340303157],[135.32114400827427,34.72349570481512]]]},"properties":{"KEY_CODE":"282060500","PREF":"28","CITY":"206","CITY_NAME":"芦屋市","S_NAME":"新浜町","SETAI":"565"}},{"type":"Feature","geometry":{"type":"Polygon","coordinates":[[[135.32346597913934,34.7242592929686],[135.32382500114616,34.72472358666912],[135.3223662979779,34.725704521213096],[135.32232837103382,34.72582892210064],[135.32131810640396,34.724800152942166],[135.32114400827427,34.72349570481512],[135.32063900312812,34.72260340303157],[135.31970841391066,34.7210246419078],[135.31830769968866,34.72074511526838],[135.31894295326802,34.718170207662176],[135.31913084647738,34.71750835346568],[135.31924144813317,34.71711855397516],[135.31946520953306,34.71716505538443],[135.32045533842302,34.71735704803125],[135.32096968039698,34.71746021038973],[135.32371770081002,34.71801836000565],[135.32378130541892,34.71804488723177],[135.32383217256688,34.7180977179205],[135.32386599642916,34.718187591119374],[135.32388604592956,34.71904651250623],[135.32382270846787,34.71913534465706],[135.32381752723313,34.72355441727412],[135.32346597913934,34.7242592929686]]]},"properties":{"KEY_CODE":"282060510","PREF":"28","CITY":"206","CITY_NAME":"芦屋市","S_NAME":"浜風町","SETAI":"516"}},{"type":"Feature","geometry":{"type":"Polygon","coordinates":[[[135.31696196335093,34.72327587739203],[135.316335955873,34.72413239738025],[135.31441018924298,34.72324688124139],[135.31510868238402,34.72099603215434],[135.31536680192264,34.72005290220731],[135.31624201098916,34.717119562671805],[135.316390604454,34.716594661689896],[135.31907508155209,34.717085813613984],[135.31924144813317,34.71711855397516],[135.31913084647738,34.71750835346568],[135.31894295326802,34.718170207662176],[135.31830769968866,34.72074511526838],[135.31815370395216,34.72128822715901],[135.31811147375282,34.721409703468964],[135.31790850729925,34.722074487205326],[135.31770778265334,34.72278460754975],[135.31696196335093,34.72327587739203]]]},"properties":{"KEY_CODE":"282060520","PREF":"28","CITY":"206","CITY_NAME":"芦屋市","S_NAME":"高浜町","SETAI":"2098"}},{"type":"Feature","geometry":{"type":"Polygon","coordinates":[[[135.31536680192264,34.72005290220731],[135.31510868238402,34.72099603215434],[135.31441018924298,34.72324688124139],[135.3126579681553,34.72236219278894],[135.3115591582855,34.72177492812079],[135.31025059087492,34.720851285383915],[135.3103402619771,34.72075210869973],[135.31062152943124,34.72037954530108],[135.31099756486068,34.72009453627712],[135.31132843568346,34.7200810337857],[135.31150018531997,34.72011430514985],[135.312223202043,34.720307382192566],[135.31247284864443,34.72029917764961],[135.31276914435165,34.72023270567021],[135.31286804147436,34.72019993626692],[135.31300647262665,34.720033460085276],[135.31316730573204,34.71950311344038],[135.31351921421887,34.717694934096336],[135.31400274498336,34.71607035487809],[135.31616772723606,34.71654321666137],[135.31624201098916,34.717119562671805],[135.31536680192264,34.72005290220731]]]},"properties":{"KEY_CODE":"282060530","PREF":"28","CITY":"206","CITY_NAME":"芦屋市","S_NAME":"若葉町","SETAI":"1328"}},{"type":"Feature","geometry":{"type":"Polygon","coordinates":[[[135.31099756486068,34.72009453627712],[135.31062152943124,34.72037954530108],[135.3103402619771,34.72075210869973],[135.31025059087492,34.720851285383915],[135.31012593028203,34.72102877606162],[135.30986998020998,34.72090025660997],[135.3083351909146,34.72014645257361],[135.30488541135952,34.71914466882123],[135.30494779444527,34.718732027764325],[135.30554394848818,34.718698955430426],[135.30559194598203,34.718274456730434],[135.3098152077351,34.718338824150926],[135.31180824190045,34.71922162499312],[135.31316730573204,34.71950311344038],[135.31300647262665,34.720033460085276],[135.31286804147436,34.72019993626692],[135.31276914435165,34.72023270567021],[135.31247284864443,34.72029917764961],[135.312223202043,34.720307382192566],[135.31150018531997,34.72011430514985],[135.31132843568346,34.7200810337857],[135.31099756486068,34.72009453627712]]]},"properties":{"KEY_CODE":"282060540","PREF":"28","CITY":"206","CITY_NAME":"芦屋市","S_NAME":"緑町","SETAI":"654"}},{"type":"Feature","geometry":{"type":"Polygon","coordinates":[[[135.31400274498336,34.71607035487809],[135.31351921421887,34.717694934096336],[135.31316730573204,34.71950311344038],[135.31180824190045,34.71922162499312],[135.3098152077351,34.718338824150926],[135.30559194598203,34.718274456730434],[135.30583247898747,34.71582038455991],[135.3062341039003,34.7145380678187],[135.30691479031827,34.71467601455393],[135.30866017572316,34.71502713716642],[135.30897304690194,34.715087732725614],[135.3095639327815,34.715203849359085],[135.31148991113145,34.71559208121813],[135.31400274498336,34.71607035487809]]]},"properties":{"KEY_CODE":"282060550","PREF":"28","CITY":"206","CITY_NAME":"芦屋市","S_NAME":"潮見町","SETAI":"437"}},{"type":"Feature","geometry":{"type":"Polygon","coordinates":[[[135.31742851575314,34.712469618480064],[135.3181347823033,34.71260687545606],[135.3182226121103,34.712627011551476],[135.318661339542,34.712743047836014],[135.31915974893144,34.712886066212],[135.31949705020367,34.71299306102827],[135.32029733059227,34.71333998333608],[135.32135341005053,34.71466064969244],[135.32207059331162,34.71487582790344],[135.32207052793746,34.714936568325676],[135.32207666648506,34.71626930038748],[135.32139687179867,34.716295526022485],[135.31639919766013,34.715302942811874],[135.3110044154968,34.71422771116668],[135.30970609472834,34.713968955138085],[135.30911160525108,34.71385033358675],[135.30899645156532,34.713827311912894],[135.3061076827201,34.713254477280834],[135.30620704494706,34.7123224866353],[135.30647664688155,34.70980437070194],[135.30738818072322,34.709849334822664],[135.30833336479807,34.709913039149086],[135.30865202455266,34.71057729554283],[135.31174842123036,34.712101433274974],[135.31357268343774,34.71242523176196],[135.31551159202326,34.712374529149415],[135.3163756280628,34.71236699078774],[135.31677171965106,34.71239027221465],[135.31742851575314,34.712469618480064]]]},"properties":{"KEY_CODE":"282060560","PREF":"28","CITY":"206","CITY_NAME":"芦屋市","S_NAME":"陽光町","SETAI":"1145"}},{"type":"Feature","geometry":{"type":"Polygon","coordinates":[[[135.3224249278589,34.72615773661255],[135.3223337842724,34.72641187333047],[135.32234416555778,34.72584428702802],[135.3223662979779,34.725704521213096],[135.32382500114616,34.724723586669114],[135.32346597913934,34.7242592929686],[135.32381752723313,34.72355441727412],[135.32382270846787,34.71913534465706],[135.32388604592956,34.71904651250623],[135.32386599642916,34.718187591119374],[135.32383217256688,34.7180977179205],[135.32378130541892,34.71804488723177],[135.32371770081002,34.71801836000565],[135.32096968039698,34.71746021038973],[135.32045533842302,34.71735704803125],[135.31946520953306,34.71716505538443],[135.31924144813317,34.71711855397516],[135.31907508155209,34.717085813613984],[135.316390604454,34.716594661689896],[135.31616772723606,34.71654321666137],[135.31490835673338,34.71624335249679],[135.31174070460872,34.71563161840765],[135.31148991113145,34.71559208121813],[135.3095639327815,34.715203849359085],[135.30897304690194,34.715087732725614],[135.30866017572316,34.71502713716642],[135.30691479031827,34.71467601455393],[135.3062341039003,34.7145380678187],[135.30583247898747,34.71582038455991],[135.30554394848818,34.71869895543044],[135.30494779444527,34.718732027764325],[135.3042300572163,34.71880536570749],[135.3035434724133,34.71893901957759],[135.30482257486878,34.70562614830743],[135.3053512181244,34.70116464055329],[135.3058995191652,34.70116013777498],[135.3081393474492,34.68350773241722],[135.32430802330612,34.679330973897606],[135.3243599616899,34.704221823148025],[135.32436341799703,34.71864485011626],[135.3243288483058,34.7255861617187],[135.32433157022567,34.725814040532335],[135.3242643949082,34.72558894008302],[135.32425881844097,34.725579124867],[135.3242544248084,34.725575499248876],[135.3242368440059,34.72556761338609],[135.32421725740105,34.72557044847221],[135.32419780280762,34.72559131234058],[135.32416838999728,34.725856920615946],[135.32383618389773,34.72585314512007],[135.32253060117,34.725820235677055],[135.32252725560423,34.725847166018085],[135.3224249278589,34.72615773661255]],[[135.30911160525108,34.71385033358675],[135.30970609472834,34.713968955138085],[135.3110044154968,34.71422771116668],[135.31639919766013,34.715302942811874],[135.32139687179867,34.716295526022485],[135.32207666648506,34.71626930038748],[135.32207052793746,34.714936568325676],[135.3220723968281,34.7132121566922],[135.322072522066,34.713099614185616],[135.32207276801893,34.71287918736752],[135.32207754153717,34.70856599100212],[135.32114832261718,34.70836704091052],[135.31845581934803,34.709421347358976],[135.31661601231337,34.710288125538284],[135.31637857866573,34.709956354530185],[135.31788002580853,34.70928824862412],[135.31775738784066,34.708899350144904],[135.31651606379282,34.70945238672614],[135.31630098200716,34.70909212407347],[135.31753435371763,34.708573803882686],[135.3172339424171,34.708130563590245],[135.31590165540763,34.70853431867003],[135.31664981500677,34.7079263959194],[135.31761056612388,34.70785613299829],[135.31770030403544,34.70799020834189],[135.31778747701526,34.70812045228988],[135.31788297967577,34.708263212336206],[135.31841700963707,34.70906106917783],[135.31929921418396,34.7086612164528],[135.31953641457378,34.708553704684746],[135.31965523177922,34.70849986707298],[135.3197754189579,34.70844537832341],[135.32005487582083,34.70831867893097],[135.32180171298796,34.70794733534877],[135.32197833209463,34.70790420683155],[135.32201133859644,34.705717557035705],[135.32089755148502,34.704939778287624],[135.3120533292492,34.70567271401512],[135.31161812905947,34.7084530467856],[135.31028289132448,34.70726678265818],[135.3093909491685,34.70772566482536],[135.30859923608944,34.70770046112098],[135.30698176292057,34.70716802112032],[135.30690058845408,34.70592463370891],[135.30665103369427,34.70820834965162],[135.30647664688155,34.70980437070192],[135.30620704494706,34.7123224866353],[135.3061076827201,34.71325447728081],[135.30899645156532,34.713827311912894],[135.30911160525108,34.71385033358675]]]},"properties":{"KEY_CODE":"282060600","PREF":"28","CITY":"206","CITY_NAME":"芦屋市","S_NAME":"","SETAI":"0"}},{"type":"Feature","geometry":{"type":"Polygon","coordinates":[[[135.32207754153717,34.70856599100212],[135.32207276801893,34.71287918736752],[135.322072522066,34.713099614185616],[135.3220723968281,34.7132121566922],[135.32207059331162,34.71487582790344],[135.32135341005053,34.71466064969244],[135.32029733059227,34.71333998333608],[135.31949705020367,34.71299306102827],[135.31915974893144,34.712886066212],[135.318661339542,34.712743047836014],[135.3182226121103,34.712627011551476],[135.3181347823033,34.71260687545606],[135.31742851575314,34.712469618480064],[135.31677171965106,34.71239027221465],[135.3163756280628,34.71236699078774],[135.31551159202326,34.712374529149415],[135.31357268343774,34.71242523176196],[135.31174842123036,34.712101433274974],[135.30865202455266,34.71057729554283],[135.30833336479807,34.709913039149086],[135.31007346337222,34.71019234621731],[135.3124249316721,34.71108986051631],[135.3148340055631,34.71126427526378],[135.31534907422258,34.711151097435454],[135.31591810874312,34.71099325338932],[135.31638315619804,34.71080469470866],[135.3165039896188,34.71053665516685],[135.31661601231337,34.710288125538284],[135.31845581934803,34.709421347358976],[135.32114832261718,34.70836704091052],[135.32207754153717,34.70856599100212]]]},"properties":{"KEY_CODE":"282060610","PREF":"28","CITY":"206","CITY_NAME":"芦屋市","S_NAME":"海洋町","SETAI":"648"}},{"type":"Feature","geometry":{"type":"Polygon","coordinates":[[[135.31598032844926,34.70924458424897],[135.31637857866573,34.70995635453019],[135.31661601231337,34.710288125538284],[135.3165039896188,34.71053665516685],[135.31638315619804,34.71080469470866],[135.31591810874312,34.71099325338932],[135.31534907422258,34.711151097435454],[135.3148340055631,34.71126427526378],[135.3124249316721,34.71108986051631],[135.31007346337222,34.71019234621731],[135.30833336479807,34.709913039149086],[135.30738818072322,34.709849334822664],[135.30647664688155,34.70980437070194],[135.3066510336942,34.708208349651606],[135.3116555323586,34.70848627032514],[135.31244610755357,34.70918855740391],[135.31343243393775,34.70821420438463],[135.3137268944655,34.70837860587395],[135.31527676829646,34.7080419987479],[135.3155517607627,34.70847840564404],[135.31598032844926,34.70924458424897]]]},"properties":{"KEY_CODE":"282060621","PREF":"28","CITY":"206","CITY_NAME":"芦屋市","S_NAME":"南浜町","SETAI":"340"}},{"type":"Feature","geometry":{"type":"Polygon","coordinates":[[[135.31161812905947,34.7084530467856],[135.3116555323586,34.70848627032514],[135.30665103369427,34.70820834965162],[135.30690058845408,34.70592463370891],[135.30698176292057,34.70716802112032],[135.30859923608944,34.70770046112098],[135.3093909491685,34.70772566482536],[135.31028289132448,34.70726678265818],[135.31161812905947,34.7084530467856]]]},"properties":{"KEY_CODE":"282060622","PREF":"28","CITY":"206","CITY_NAME":"芦屋市","S_NAME":"南浜町","SETAI":"0"}},{"type":"Feature","geometry":{"type":"Polygon","coordinates":[[[135.31637857866573,34.70995635453019],[135.31598032844926,34.70924458424897],[135.3155517607627,34.70847840564404],[135.31527676829646,34.7080419987479],[135.3137268944655,34.70837860587395],[135.31343243393775,34.70821420438466],[135.31244610755357,34.70918855740391],[135.3116555323586,34.70848627032514],[135.3120533292492,34.70567271401512],[135.32089755148502,34.704939778287624],[135.32201133859644,34.705717557035705],[135.32197833209463,34.70790420683155],[135.32180171298796,34.70794733534877],[135.32005487582083,34.70831867893097],[135.3197754189579,34.70844537832341],[135.31965523177922,34.70849986707298],[135.31953641457378,34.708553704684746],[135.31929921418396,34.7086612164528],[135.3184170096371,34.70906106917781],[135.31788297967577,34.708263212336206],[135.31778747701526,34.70812045228988],[135.31770030403544,34.70799020834189],[135.31761056612388,34.70785613299829],[135.31664981500677,34.7079263959194],[135.31590165540763,34.70853431867003],[135.3172339424171,34.708130563590274],[135.31753435371763,34.708573803882686],[135.31630098200716,34.709092124073486],[135.31651606379282,34.70945238672617],[135.31775738784066,34.70889935014492],[135.31788002580853,34.70928824862413],[135.31637857866573,34.70995635453019]]]},"properties":{"KEY_CODE":"282060630","PREF":"28","CITY":"206","CITY_NAME":"芦屋市","S_NAME":"涼風町","SETAI":"421"}}]}