{"type":"FeatureCollection","features":[{"type":"Feature","geometry":{"type":"Polygon","coordinates":[[[139.84805335387983,38.79457525767912],[139.84857255075954,38.796115859914146],[139.84985633167972,38.79911423300314],[139.85101758578233,38.800261579398935],[139.85023291526772,38.80032410979265],[139.85046594501878,38.8022626089305],[139.8517021471217,38.803576537402094],[139.85200602813634,38.80479243443399],[139.85094974527738,38.80462705818515],[139.8508812948361,38.80444391919577],[139.85005479858862,38.80336425532558],[139.84951928277718,38.8029455053711],[139.84920307549058,38.80283235421334],[139.8468189622066,38.802508413635614],[139.8442224545844,38.801791449646146],[139.84323440938806,38.80091743850071],[139.84293373057946,38.79969029985213],[139.84292398061208,38.79911479782023],[139.84345691242163,38.7971672680633],[139.8435272759926,38.79695672534581],[139.84447467461544,38.79461167111458],[139.84619430051265,38.79474497758885],[139.846419247304,38.794762497502084],[139.8464817311369,38.79443773167607],[139.84805335387983,38.79457525767912]]]},"properties":{"KEY_CODE":"06426001001","PREF":"06","CITY":"426","CITY_NAME":"三川町","S_NAME":"大字横山字袖東","SETAI":"129"}},{"type":"Feature","geometry":{"type":"Polygon","coordinates":[[[139.84873371486051,38.79221779644207],[139.84948871327472,38.792547606157555],[139.85033223125615,38.79540447518788],[139.84857255075954,38.796115859914146],[139.84805335387983,38.79457525767912],[139.8477764728108,38.793907564109],[139.84718767558397,38.792740507291676],[139.8472131240403,38.79239445681855],[139.84736670337765,38.79238265999957],[139.8482818359678,38.79230225051046],[139.84873371486051,38.79221779644207]]]},"properties":{"KEY_CODE":"06426001002","PREF":"06","CITY":"426","CITY_NAME":"三川町","S_NAME":"大字横山字西田","SETAI":"36"}},{"type":"Feature","geometry":{"type":"Polygon","coordinates":[[[139.846419247304,38.794762497502084],[139.84619430051265,38.79474497758885],[139.8467932711822,38.792876112313486],[139.84718767558397,38.792740507291676],[139.8477764728108,38.793907564109],[139.84805335387986,38.79457525767911],[139.84648173113692,38.7944377316761],[139.846419247304,38.794762497502084]]]},"properties":{"KEY_CODE":"06426001003","PREF":"06","CITY":"426","CITY_NAME":"三川町","S_NAME":"大字横山字袖川原","SETAI":"7"}},{"type":"Feature","geometry":{"type":"Polygon","coordinates":[[[139.8434411955515,38.78072837327798],[139.84570980496585,38.78089757882532],[139.8456323497821,38.78187984586209],[139.84496169762383,38.78435788085215],[139.84534101409713,38.78674272026217],[139.8458163002278,38.78850578401522],[139.8460434491538,38.78933394892265],[139.8464720621278,38.7905255599708],[139.84664937339357,38.79091878381365],[139.84715043341956,38.792042596507336],[139.8472131240403,38.79239445681855],[139.84718767558397,38.792740507291676],[139.8467932711822,38.792876112313486],[139.84619430051265,38.79474497758885],[139.84447467461544,38.79461167111458],[139.84471948883515,38.79341842034748],[139.84459288177192,38.790167950814904],[139.84393934988012,38.78834285144801],[139.8437329969658,38.787703896463206],[139.84337367993638,38.7865846470947],[139.84326179918367,38.78569424706958],[139.8433338199437,38.784007154108465],[139.8434411955515,38.78072837327798]]]},"properties":{"KEY_CODE":"06426001004","PREF":"06","CITY":"426","CITY_NAME":"三川町","S_NAME":"大字横山字不動野","SETAI":"9"}},{"type":"Feature","geometry":{"type":"Polygon","coordinates":[[[139.84855416552668,38.7917638899043],[139.8482818359678,38.79230225051046],[139.84736670337765,38.79238265999957],[139.84715043341956,38.792042596507336],[139.84664937339357,38.79091878381365],[139.8464720621278,38.7905255599708],[139.8460434491538,38.78933394892265],[139.8458163002278,38.78850578401522],[139.84716415850966,38.78860328785997],[139.85082592414292,38.7888580323167],[139.86097636803825,38.7895553988647],[139.86483158623068,38.78977095101966],[139.8676652492901,38.792063825706514],[139.86294027746337,38.79175669399711],[139.85809512954071,38.79142909739855],[139.8557037634608,38.79127359979579],[139.8535253756331,38.7911099827991],[139.85139681044933,38.79096644941857],[139.85012193692876,38.79080865484731],[139.8483868463908,38.79134288250169],[139.84855416552668,38.7917638899043]]]},"properties":{"KEY_CODE":"06426001005","PREF":"06","CITY":"426","CITY_NAME":"三川町","S_NAME":"大字横山字角地田","SETAI":"13"}},{"type":"Feature","geometry":{"type":"Polygon","coordinates":[[[139.87313587848078,38.78616877082292],[139.8703086065329,38.79063076398987],[139.86953403596914,38.79349512830173],[139.8676652492901,38.792063825706514],[139.86483158623068,38.78977095101966],[139.86097636803825,38.7895553988647],[139.85082592414292,38.7888580323167],[139.85087823896387,38.78833499307747],[139.8509242481201,38.78781265065591],[139.85317003477533,38.787981990544445],[139.85329909463914,38.78696150728065],[139.8521012839076,38.78687039302979],[139.84957819045854,38.78669423441077],[139.84736497993453,38.78656342334735],[139.8476789849995,38.784058170244954],[139.84786917214043,38.7827356536439],[139.84790132146745,38.782483402453835],[139.849756046866,38.78261133584688],[139.84986644470186,38.78161625463296],[139.84802572720835,38.78151110289027],[139.84810695044868,38.78082164620882],[139.8482121360476,38.78046908581982],[139.8517387650275,38.78072028431445],[139.85210717451545,38.777629213732006],[139.8563959009647,38.77792917557473],[139.86038457949397,38.77818694168438],[139.8631152886802,38.778363215352044],[139.86301788861445,38.7793883930019],[139.8623207357127,38.78550093444349],[139.86546095391725,38.785770627783556],[139.8690754636637,38.78601824973139],[139.87313587848078,38.78616877082292]]]},"properties":{"KEY_CODE":"06426001006","PREF":"06","CITY":"426","CITY_NAME":"三川町","S_NAME":"大字横山字トツラ田","SETAI":"13"}},{"type":"Feature","geometry":{"type":"Polygon","coordinates":[[[139.85087823896387,38.78833499307747],[139.85082592414292,38.78885803231667],[139.84716415850966,38.78860328785997],[139.84736497993453,38.786563423347346],[139.84957819045854,38.78669423441077],[139.8521012839076,38.78687039302979],[139.85329909463908,38.786961507280665],[139.85317003477533,38.787981990544445],[139.8509242481201,38.78781265065591],[139.85087823896387,38.78833499307747]]]},"properties":{"KEY_CODE":"06426001007","PREF":"06","CITY":"426","CITY_NAME":"三川町","S_NAME":"大字横山字堤","SETAI":"7"}},{"type":"Feature","geometry":{"type":"Polygon","coordinates":[[[139.84802572720835,38.78151110289027],[139.84986644470186,38.781616254632915],[139.849756046866,38.78261133584688],[139.84790132146745,38.782483402453835],[139.84802572720835,38.78151110289027]]]},"properties":{"KEY_CODE":"06426001007","PREF":"06","CITY":"426","CITY_NAME":"三川町","S_NAME":"大字横山字堤","SETAI":"0"}},{"type":"Feature","geometry":{"type":"Polygon","coordinates":[[[139.85194373760197,38.77549181281707],[139.85030586141252,38.77750303078114],[139.84887588526692,38.777540270117974],[139.84743324984126,38.77925058991277],[139.8456323497821,38.78187984586209],[139.84570980496585,38.78089757882532],[139.8434411955515,38.78072837327798],[139.84345293595698,38.78055519795327],[139.84364078529256,38.77881995795552],[139.84396430742177,38.777240415039444],[139.84510991386523,38.77536123463818],[139.8454605635902,38.77507296200401],[139.8460466396748,38.774623955707845],[139.84662733353207,38.77420614987258],[139.84745248998274,38.77364288918721],[139.84935112944316,38.77243398350958],[139.84936383478572,38.772425363272674],[139.85041472696466,38.772581856131765],[139.85072412075024,38.77446993326685],[139.85193963762222,38.77317557520641],[139.85336382980222,38.77327929062977],[139.85321953311217,38.774075627052774],[139.85279368044115,38.77474460865305],[139.85194373760197,38.77549181281707]]]},"properties":{"KEY_CODE":"06426001008","PREF":"06","CITY":"426","CITY_NAME":"三川町","S_NAME":"大字横山字横山","SETAI":"203"}},{"type":"Feature","geometry":{"type":"Polygon","coordinates":[[[139.84810695044868,38.78082164620882],[139.84802572720835,38.78151110289027],[139.84790132146745,38.782483402453835],[139.84786917214043,38.7827356536439],[139.8476789849995,38.784058170244954],[139.84736497993453,38.786563423347346],[139.84716415850966,38.78860328785997],[139.8458163002278,38.78850578401522],[139.84534101409713,38.78674272026217],[139.84496169762383,38.78435788085215],[139.8456323497821,38.78187984586209],[139.84743324984126,38.77925058991277],[139.84887588526692,38.777540270117974],[139.85030586141252,38.77750303078114],[139.85194373760197,38.77549181281707],[139.8523096988223,38.77551515199269],[139.8521850589692,38.77664806758367],[139.85210717451545,38.777629213732006],[139.8517387650275,38.78072028431445],[139.8482121360476,38.78046908581982],[139.84810695044868,38.78082164620882]]]},"properties":{"KEY_CODE":"06426001009","PREF":"06","CITY":"426","CITY_NAME":"三川町","S_NAME":"大字横山字城下","SETAI":"153"}},{"type":"Feature","geometry":{"type":"Polygon","coordinates":[[[139.8563959009647,38.77792917557473],[139.85210717451545,38.777629213732006],[139.8521850589692,38.77664806758367],[139.8523096988223,38.77551515199269],[139.85279368044115,38.77474460865305],[139.85321953311217,38.774075627052774],[139.85784047093506,38.77438690562365],[139.85676782979397,38.774755051261515],[139.8563959009647,38.77792917557473]]]},"properties":{"KEY_CODE":"06426001011","PREF":"06","CITY":"426","CITY_NAME":"三川町","S_NAME":"大字横山字大正","SETAI":"15"}},{"type":"Feature","geometry":{"type":"Polygon","coordinates":[[[139.85977781173384,38.77371388893531],[139.8601352773927,38.77515135061674],[139.8606313417177,38.77577735803197],[139.86038457949397,38.77818694168438],[139.8563959009647,38.77792917557473],[139.85676782979397,38.774755051261515],[139.85784047093506,38.77438690562365],[139.85977781173384,38.77371388893531]]]},"properties":{"KEY_CODE":"06426001014","PREF":"06","CITY":"426","CITY_NAME":"三川町","S_NAME":"大字横山字石行","SETAI":"7"}},{"type":"Feature","geometry":{"type":"Polygon","coordinates":[[[139.86322724363555,38.77735856030299],[139.8631152886802,38.778363215352044],[139.86038457949397,38.77818694168438],[139.8606313417177,38.77577735803197],[139.8601352773927,38.77515135061674],[139.85977781173384,38.77371388893531],[139.86076237171937,38.773381585867575],[139.86379705602226,38.772207795533845],[139.86350894474828,38.774658720706185],[139.86322724363555,38.77735856030299]]]},"properties":{"KEY_CODE":"06426001015","PREF":"06","CITY":"426","CITY_NAME":"三川町","S_NAME":"大字横山字クネハタ","SETAI":"6"}},{"type":"Feature","geometry":{"type":"Polygon","coordinates":[[[139.85321953311217,38.774075627052774],[139.85336382980222,38.77327929062977],[139.85193963762222,38.77317557520641],[139.85072412075024,38.77446993326685],[139.85041472696466,38.772581856131765],[139.84936383478572,38.772425363272674],[139.8511690972718,38.77108487681559],[139.8535186957351,38.76795647674093],[139.85382889718724,38.76711619977753],[139.85609385951835,38.76729364015003],[139.85605857295198,38.76755445695647],[139.85592631152937,38.76793875406238],[139.85773056726012,38.76826883872731],[139.86282701184098,38.7686394916381],[139.863244527351,38.76854456304516],[139.86318610150045,38.7691952378616],[139.8640836287843,38.76923730653985],[139.8639134120031,38.77122864434605],[139.86379705602226,38.772207795533866],[139.86076237171937,38.773381585867575],[139.85977781173384,38.77371388893531],[139.85784047093506,38.77438690562365],[139.85321953311217,38.774075627052774]]]},"properties":{"KEY_CODE":"06426001016","PREF":"06","CITY":"426","CITY_NAME":"三川町","S_NAME":"大字横山字畑田","SETAI":"66"}},{"type":"Feature","geometry":{"type":"Polygon","coordinates":[[[139.863244527351,38.76854456304516],[139.86282701184098,38.7686394916381],[139.8577305672601,38.76826883872731],[139.85592631152937,38.76793875406233],[139.85605857295198,38.76755445695647],[139.85609385951835,38.76729364015003],[139.85387890744497,38.76696276710946],[139.85401942106074,38.766132470167456],[139.85400358347312,38.76498767145616],[139.85388765228882,38.764017140858954],[139.85373803705048,38.7634335607893],[139.85321702945,38.76196514371545],[139.8523103613486,38.76009358833425],[139.8508163997057,38.757685719377726],[139.84932293499006,38.75576641459826],[139.85184374951749,38.755211180246974],[139.85161174658532,38.75471305080307],[139.85781173424664,38.755120634644946],[139.85798424083814,38.757168734299206],[139.85970347824738,38.75728060582706],[139.8674950924036,38.757859959137676],[139.86584932132732,38.759729733723134],[139.86397558548666,38.761739908332615],[139.8633401856437,38.76656330372414],[139.863244527351,38.76854456304516]]]},"properties":{"KEY_CODE":"06426001017","PREF":"06","CITY":"426","CITY_NAME":"三川町","S_NAME":"大字横山字土橋","SETAI":"39"}},{"type":"Feature","geometry":{"type":"Polygon","coordinates":[[[139.85970347824738,38.75728060582706],[139.85798424083814,38.757168734299206],[139.85781173424664,38.755120634644946],[139.85161174658532,38.75471305080307],[139.85184374951749,38.755211180246974],[139.84932293499006,38.75576641459826],[139.84866699170615,38.75376672942659],[139.84886082901633,38.75273404799694],[139.8497125891761,38.751483655874],[139.8518025836041,38.75015174589067],[139.85555027943488,38.74913336034587],[139.8562312564641,38.750856189773494],[139.85729490221362,38.751090994458195],[139.85749862158912,38.7506771711071],[139.85869579617787,38.750762041951056],[139.8587821767142,38.749993931683434],[139.86064549843817,38.750099389183596],[139.86024917400732,38.75229687317082],[139.85970347824738,38.75728060582706]]]},"properties":{"KEY_CODE":"06426002001","PREF":"06","CITY":"426","CITY_NAME":"三川町","S_NAME":"大字助川字北畑","SETAI":"29"}},{"type":"Feature","geometry":{"type":"Polygon","coordinates":[[[139.8674950924036,38.757859959137676],[139.85970347824738,38.75728060582706],[139.86024917400732,38.75229687317082],[139.86064549843817,38.750099389183596],[139.86076126156553,38.75010584149318],[139.8608574175447,38.74917847078881],[139.86731473803403,38.749561501053925],[139.86765525863387,38.74653896265715],[139.87039765660677,38.74673667916004],[139.87117039637954,38.74735168415697],[139.87087982931553,38.750292157036526],[139.8705264774384,38.75353573397784],[139.8701400043475,38.75483317862363],[139.8674950924036,38.757859959137676]]]},"properties":{"KEY_CODE":"06426002002","PREF":"06","CITY":"426","CITY_NAME":"三川町","S_NAME":"大字助川字村下","SETAI":"15"}},{"type":"Feature","geometry":{"type":"Polygon","coordinates":[[[139.8688576550834,38.770092765614734],[139.86746379059937,38.77071018269504],[139.8676719694448,38.76901699767825],[139.87064588401063,38.76856503844598],[139.87062553819152,38.7687679886439],[139.86973424602826,38.768857492427514],[139.86904690065208,38.770005505771344],[139.8688576550834,38.770092765614734]]]},"properties":{"KEY_CODE":"06426003001","PREF":"06","CITY":"426","CITY_NAME":"三川町","S_NAME":"大字堤野字堀田","SETAI":"3"}},{"type":"Feature","geometry":{"type":"Polygon","coordinates":[[[139.86746379059937,38.77071018269504],[139.86379705602226,38.772207795533845],[139.8639134120031,38.77122864434605],[139.8640836287843,38.76923730653985],[139.8631861015005,38.76919523786159],[139.863244527351,38.76854456304516],[139.8633401856437,38.76656330372414],[139.86397558548666,38.761739908332615],[139.86584932132732,38.759729733723134],[139.86889097174483,38.75997556196059],[139.8696336477274,38.761445731835494],[139.87063497438612,38.76420163496681],[139.8703098526954,38.764173199480446],[139.8701013330504,38.766151710145934],[139.87041496141487,38.76713708649142],[139.87100872413612,38.76717111129089],[139.87064588401063,38.76856503844598],[139.8676719694448,38.76901699767825],[139.86746379059937,38.77071018269504]]]},"properties":{"KEY_CODE":"06426003002","PREF":"06","CITY":"426","CITY_NAME":"三川町","S_NAME":"大字堤野字野中","SETAI":"16"}},{"type":"Feature","geometry":{"type":"Polygon","coordinates":[[[139.87171371754894,38.76948215297532],[139.86904690065208,38.770005505771344],[139.86973424602826,38.768857492427514],[139.87062553819152,38.7687679886439],[139.87196955746757,38.7688732105567],[139.8719500931196,38.767924601778816],[139.87342878657,38.7678541067463],[139.87274927101512,38.768563459951864],[139.872840158244,38.769315166219286],[139.87215449672715,38.76940849502553],[139.87171371754894,38.76948215297532]]]},"properties":{"KEY_CODE":"06426004001","PREF":"06","CITY":"426","CITY_NAME":"三川町","S_NAME":"大字横内字西上田元","SETAI":"15"}},{"type":"Feature","geometry":{"type":"Polygon","coordinates":[[[139.87144052715408,38.7704391983481],[139.8688576550834,38.770092765614734],[139.86904690065208,38.770005505771344],[139.87171371754894,38.76948215297532],[139.87144052715408,38.7704391983481]]]},"properties":{"KEY_CODE":"06426004002","PREF":"06","CITY":"426","CITY_NAME":"三川町","S_NAME":"大字横内字月野木","SETAI":"6"}},{"type":"Feature","geometry":{"type":"Polygon","coordinates":[[[139.8758389448097,38.77822162099498],[139.87064523944917,38.777858807276196],[139.87144052715408,38.7704391983481],[139.87171371754894,38.76948215297532],[139.87215449672715,38.76940849502553],[139.87260355844427,38.77090383078208],[139.8758389448097,38.77822162099498]]]},"properties":{"KEY_CODE":"06426004003","PREF":"06","CITY":"426","CITY_NAME":"三川町","S_NAME":"大字横内字荒田","SETAI":"1"}},{"type":"Feature","geometry":{"type":"Polygon","coordinates":[[[139.8764933559839,38.7797550406014],[139.8758389448097,38.77822162099498],[139.87260355844427,38.77090383078208],[139.87215449672715,38.76940849502553],[139.872840158244,38.769315166219286],[139.87274927101512,38.768563459951864],[139.87342878657,38.7678541067463],[139.87408457454285,38.76748604159848],[139.87489141637138,38.7686421054809],[139.8756519149518,38.7683967873462],[139.87630048418637,38.768575789701686],[139.87588401010498,38.76763787137377],[139.87661326768028,38.76813607391806],[139.88049900427825,38.767084177634814],[139.88179237618496,38.76996833909306],[139.87994333539376,38.770526336498655],[139.88205401343342,38.77540735609679],[139.88244408556164,38.776298161312155],[139.87995509541744,38.77705830819954],[139.87884884297551,38.77788879809649],[139.8764933559839,38.7797550406014]]]},"properties":{"KEY_CODE":"06426004004","PREF":"06","CITY":"426","CITY_NAME":"三川町","S_NAME":"大字横内字日野宮","SETAI":"19"}},{"type":"Feature","geometry":{"type":"Polygon","coordinates":[[[139.87490571259005,38.767404508459485],[139.8744912042017,38.76742391816964],[139.87475432617813,38.76705474438035],[139.87490571259005,38.767404508459485]]]},"properties":{"KEY_CODE":"06426004005","PREF":"06","CITY":"426","CITY_NAME":"三川町","S_NAME":"大字横内字東上田元","SETAI":"1"}},{"type":"Feature","geometry":{"type":"Polygon","coordinates":[[[139.8756519149518,38.7683967873462],[139.87489141637138,38.7686421054809],[139.87408457454285,38.76748604159848],[139.8744912042017,38.76742391816964],[139.87490571259005,38.767404508459485],[139.8756519149518,38.7683967873462]]]},"properties":{"KEY_CODE":"06426004006","PREF":"06","CITY":"426","CITY_NAME":"三川町","S_NAME":"大字横内字俵田","SETAI":"6"}},{"type":"Feature","geometry":{"type":"Polygon","coordinates":[[[139.87062553819152,38.7687679886439],[139.87064588401063,38.76856503844598],[139.87100872413612,38.76717111129089],[139.87041496141487,38.76713708649142],[139.8701013330504,38.766151710145934],[139.8703098526954,38.764173199480446],[139.87063497438612,38.76420163496681],[139.87107338970432,38.76534681593802],[139.87436460328294,38.76445478946097],[139.8748397783445,38.76545048391283],[139.87562498924984,38.76525041166871],[139.87638504794234,38.76709637648962],[139.87588401010498,38.76763787137377],[139.87630048418637,38.768575789701686],[139.8756519149518,38.7683967873462],[139.87490571259005,38.767404508459485],[139.87475432617813,38.76705474438035],[139.8744912042017,38.76742391816964],[139.87408457454285,38.76748604159848],[139.87342878657,38.7678541067463],[139.8719500931196,38.767924601778816],[139.87196955746757,38.7688732105567],[139.87062553819152,38.7687679886439]]]},"properties":{"KEY_CODE":"06426004007","PREF":"06","CITY":"426","CITY_NAME":"三川町","S_NAME":"大字横内字中上田元","SETAI":"5"}},{"type":"Feature","geometry":{"type":"Polygon","coordinates":[[[139.87064523944917,38.777858807276196],[139.86629408685013,38.77758921185513],[139.86654421203573,38.774122511697726],[139.8672277287253,38.77258373306748],[139.86746379059937,38.77071018269504],[139.8688576550834,38.770092765614734],[139.87144052715408,38.7704391983481],[139.87064523944917,38.777858807276196]]]},"properties":{"KEY_CODE":"06426005001","PREF":"06","CITY":"426","CITY_NAME":"三川町","S_NAME":"大字竹原田字太刀内","SETAI":"4"}},{"type":"Feature","geometry":{"type":"Polygon","coordinates":[[[139.86629408685013,38.77758921185513],[139.86322724363555,38.77735856030299],[139.86350894474828,38.774658720706185],[139.86379705602226,38.772207795533845],[139.86746379059937,38.77071018269504],[139.8672277287253,38.77258373306748],[139.86654421203573,38.774122511697726],[139.86629408685013,38.77758921185513]]]},"properties":{"KEY_CODE":"06426005002","PREF":"06","CITY":"426","CITY_NAME":"三川町","S_NAME":"大字竹原田字切添","SETAI":"9"}},{"type":"Feature","geometry":{"type":"Polygon","coordinates":[[[139.8701438065796,38.78193551873904],[139.87035690583045,38.77988685991128],[139.86923548725036,38.779807547792544],[139.8692707378897,38.77939381046586],[139.8676733591877,38.77939143096561],[139.8678608278131,38.781791125524954],[139.86589353057994,38.781668162518734],[139.86612802124904,38.77950904795594],[139.86623778148956,38.778137426187165],[139.86629408685013,38.77758921185513],[139.87064523944917,38.777858807276196],[139.8758389448097,38.77822162099498],[139.8764933559839,38.7797550406014],[139.874415628439,38.781322417731985],[139.87405920994894,38.78165126380244],[139.87379444736484,38.78219255997746],[139.8701438065796,38.78193551873904]]]},"properties":{"KEY_CODE":"06426006001","PREF":"06","CITY":"426","CITY_NAME":"三川町","S_NAME":"大字加藤字高山","SETAI":"4"}},{"type":"Feature","geometry":{"type":"Polygon","coordinates":[[[139.8678608278131,38.781791125524954],[139.8676733591877,38.77939143096561],[139.8692707378897,38.77939381046586],[139.86923548725036,38.779807547792544],[139.87035690583045,38.77988685991128],[139.8701438065796,38.78193551873904],[139.8678608278131,38.781791125524954]]]},"properties":{"KEY_CODE":"06426006002","PREF":"06","CITY":"426","CITY_NAME":"三川町","S_NAME":"大字加藤字赤田","SETAI":"5"}},{"type":"Feature","geometry":{"type":"Polygon","coordinates":[[[139.86569078316057,38.78372591203841],[139.86546095391725,38.785770627783556],[139.8623207357127,38.78550093444349],[139.86301788861445,38.7793883930019],[139.86348199130197,38.7794565718253],[139.86612802124904,38.77950904795596],[139.86589353057994,38.781668162518734],[139.86569078316057,38.78372591203841]]]},"properties":{"KEY_CODE":"06426007001","PREF":"06","CITY":"426","CITY_NAME":"三川町","S_NAME":"大字菱沼字村下","SETAI":"5"}},{"type":"Feature","geometry":{"type":"Polygon","coordinates":[[[139.86629408685013,38.77758921185513],[139.86623778148956,38.778137426187165],[139.86612802124904,38.77950904795596],[139.86348199130197,38.7794565718253],[139.86301788861445,38.7793883930019],[139.8631152886802,38.778363215352044],[139.86322724363555,38.77735856030299],[139.86629408685013,38.77758921185513]]]},"properties":{"KEY_CODE":"06426007002","PREF":"06","CITY":"426","CITY_NAME":"三川町","S_NAME":"大字菱沼字村上","SETAI":"5"}},{"type":"Feature","geometry":{"type":"Polygon","coordinates":[[[139.86924428855778,38.78394881754944],[139.86944034868293,38.7848018767056],[139.8690754636637,38.78601824973139],[139.86546095391725,38.785770627783556],[139.86569078316057,38.78372591203841],[139.86695874938258,38.78379622414665],[139.86738312377148,38.783872362935796],[139.86784636135496,38.78380018108396],[139.86916692453627,38.783570245948134],[139.86924428855778,38.78394881754944]]]},"properties":{"KEY_CODE":"06426008001","PREF":"06","CITY":"426","CITY_NAME":"三川町","S_NAME":"大字小尺字村下","SETAI":"9"}},{"type":"Feature","geometry":{"type":"Polygon","coordinates":[[[139.87374206256536,38.78346626974416],[139.87366721386738,38.784221384238556],[139.87106941321437,38.78407787044553],[139.86924428855778,38.78394881754944],[139.86916692453627,38.78357024594814],[139.86784636135496,38.78380018108396],[139.86738312377148,38.783872362935796],[139.86695874938258,38.78379622414665],[139.86569078316057,38.78372591203839],[139.86589353057994,38.781668162518734],[139.8678608278131,38.781791125524954],[139.8701438065796,38.78193551873904],[139.87379444736484,38.78219255997746],[139.87374206256536,38.78346626974416]]]},"properties":{"KEY_CODE":"06426008002","PREF":"06","CITY":"426","CITY_NAME":"三川町","S_NAME":"大字小尺字前田元","SETAI":"6"}},{"type":"Feature","geometry":{"type":"Polygon","coordinates":[[[139.87313587848078,38.78616877082292],[139.8690754636637,38.78601824973139],[139.86944034868293,38.7848018767056],[139.86924428855778,38.78394881754944],[139.87106941321437,38.78407787044553],[139.87366721386738,38.784221384238535],[139.87362092412678,38.784817817253774],[139.87341901733825,38.78571377321694],[139.87313587848078,38.78616877082292]]]},"properties":{"KEY_CODE":"06426008003","PREF":"06","CITY":"426","CITY_NAME":"三川町","S_NAME":"大字小尺字四本田","SETAI":"2"}},{"type":"Feature","geometry":{"type":"Polygon","coordinates":[[[139.88305788769475,38.78609987132153],[139.88234860605834,38.786762853415745],[139.88269924963666,38.788211015153806],[139.88190680088124,38.789182705481586],[139.88132217074968,38.78950295963984],[139.88093557186502,38.78894198581593],[139.880757666063,38.788924349849225],[139.8802716883362,38.78888562423857],[139.8798884552481,38.78859296017661],[139.87934897380885,38.7884597681061],[139.8782422593402,38.787307216090774],[139.87645885835272,38.78540507498441],[139.87465907124044,38.78588496692033],[139.87313587848078,38.7861687708229],[139.87341901733825,38.78571377321694],[139.87362092412678,38.784817817253774],[139.87366721386738,38.784221384238535],[139.87374206256536,38.78346626974416],[139.87379444736484,38.78219255997746],[139.87405920994894,38.78165126380244],[139.874415628439,38.781322417731985],[139.87649335598385,38.77975504060139],[139.87884884297551,38.77788879809649],[139.87995509541744,38.77705830819951],[139.8801281752842,38.777402891971605],[139.88146153241723,38.780451322893754],[139.88289456928985,38.783612735571765],[139.88302766842082,38.78414701268907],[139.88299339529544,38.78427693622095],[139.88290816264458,38.78468303847446],[139.8830375745199,38.78500051637703],[139.88331443078138,38.78526556207332],[139.8836309659904,38.78560370195326],[139.88319726591035,38.78589633866214],[139.88305788769475,38.78609987132153]]]},"properties":{"KEY_CODE":"06426009001","PREF":"06","CITY":"426","CITY_NAME":"三川町","S_NAME":"大字横川字家岸","SETAI":"37"}},{"type":"Feature","geometry":{"type":"Polygon","coordinates":[[[139.8836309659904,38.78560370195326],[139.88623405366627,38.78836228662158],[139.88788340576025,38.790097113483014],[139.88852004049028,38.791103477477904],[139.88719388368858,38.792390135594594],[139.885970291547,38.792819540209464],[139.88546989502876,38.79294385814085],[139.88300725957703,38.79033897662519],[139.88190680088124,38.789182705481586],[139.88269924963666,38.788211015153806],[139.88234860605834,38.786762853415745],[139.88305788769475,38.78609987132153],[139.88319726591035,38.78589633866214],[139.8836309659904,38.78560370195326]]]},"properties":{"KEY_CODE":"06426009002","PREF":"06","CITY":"426","CITY_NAME":"三川町","S_NAME":"大字横川字上小荒","SETAI":"7"}},{"type":"Feature","geometry":{"type":"Polygon","coordinates":[[[139.88735094275728,38.78248025574016],[139.88557499206726,38.78292898596455],[139.88425275284982,38.78394778466738],[139.88299339529544,38.78427693622095],[139.88302766842082,38.78414701268907],[139.88289456928985,38.783612735571765],[139.88146153241723,38.780451322893754],[139.8801281752842,38.777402891971605],[139.87995509541744,38.77705830819954],[139.88244408556164,38.776298161312155],[139.88374939242527,38.77930454989937],[139.8856966043197,38.77873575464188],[139.88735094275728,38.78248025574016]]]},"properties":{"KEY_CODE":"06426009004","PREF":"06","CITY":"426","CITY_NAME":"三川町","S_NAME":"大字横川字重合","SETAI":"5"}},{"type":"Feature","geometry":{"type":"Polygon","coordinates":[[[139.889387717995,38.78990445634045],[139.88871706791838,38.790885484219174],[139.88788340576025,38.790097113483014],[139.88623405366627,38.78836228662158],[139.8836309659904,38.78560370195326],[139.88331443078138,38.78526556207332],[139.8830375745199,38.78500051637703],[139.88290816264458,38.78468303847446],[139.88299339529544,38.78427693622095],[139.88425275284982,38.78394778466738],[139.88557499206726,38.78292898596455],[139.88735094275728,38.78248025574016],[139.88899161292198,38.78630570130938],[139.8877940060713,38.78701685850835],[139.8892331884988,38.788589502450954],[139.889387717995,38.78990445634045]]]},"properties":{"KEY_CODE":"06426009005","PREF":"06","CITY":"426","CITY_NAME":"三川町","S_NAME":"大字横川字隠里","SETAI":"19"}},{"type":"Feature","geometry":{"type":"Polygon","coordinates":[[[139.87473742173145,38.797015342226075],[139.87355666091614,38.79645176893432],[139.87071899112513,38.79438237468317],[139.87306479394323,38.79302435494864],[139.8737802440688,38.79260359215923],[139.87946021898202,38.78929016439908],[139.87952807236198,38.789475674362734],[139.88093493424734,38.789226876082544],[139.88132217074968,38.78950295963984],[139.88190680088124,38.789182705481586],[139.88300725957703,38.79033897662519],[139.88546989502873,38.79294385814085],[139.88469098441362,38.79332617896169],[139.88310461397953,38.794289037799295],[139.88008734133382,38.79380757144493],[139.8788630790889,38.79452572536599],[139.87650953629233,38.795073319943874],[139.87473742173145,38.797015342226075]]]},"properties":{"KEY_CODE":"06426010001","PREF":"06","CITY":"426","CITY_NAME":"三川町","S_NAME":"大字横川新田字中新田","SETAI":"1"}},{"type":"Feature","geometry":{"type":"Polygon","coordinates":[[[139.88093557186502,38.78894198581593],[139.88093493424734,38.789226876082544],[139.87952807236198,38.789475674362734],[139.87946021898205,38.78929016439908],[139.8737802440688,38.79260359215923],[139.87306479394323,38.79302435494864],[139.87071899112513,38.79438237468317],[139.86953403596914,38.79349512830173],[139.8703086065329,38.79063076398987],[139.87313587848078,38.78616877082292],[139.87465907124044,38.78588496692033],[139.87645885835272,38.78540507498441],[139.8782422593402,38.787307216090774],[139.87934897380885,38.7884597681061],[139.8798884552481,38.78859296017661],[139.8802716883362,38.78888562423857],[139.880757666063,38.788924349849225],[139.88093557186502,38.78894198581593]]]},"properties":{"KEY_CODE":"06426010002","PREF":"06","CITY":"426","CITY_NAME":"三川町","S_NAME":"大字横川新田字上ノ割","SETAI":"15"}},{"type":"Feature","geometry":{"type":"Polygon","coordinates":[[[139.84393934988012,38.78834285144801],[139.84459288177192,38.790167950814904],[139.84471948883515,38.79341842034748],[139.84447467461544,38.79461167111458],[139.8435272759926,38.79695672534581],[139.84166256089398,38.79649713963265],[139.84111479544885,38.79635300933525],[139.83745983799224,38.79620853557435],[139.83635087284287,38.79616320709113],[139.83643899080928,38.79513839259057],[139.83660256409408,38.793074442734756],[139.83686128454525,38.789782907095955],[139.83833711245254,38.79002939320374],[139.8388949174697,38.78954401151226],[139.84128698353967,38.78944690380274],[139.84121564105124,38.78808052344139],[139.841246248142,38.78743582885833],[139.84143059069686,38.78780533191798],[139.84163385077935,38.78786110418233],[139.8437329969658,38.78770389646322],[139.84393934988012,38.78834285144801]]]},"properties":{"KEY_CODE":"06426011002","PREF":"06","CITY":"426","CITY_NAME":"三川町","S_NAME":"大字青山","SETAI":"0"}},{"type":"Feature","geometry":{"type":"Polygon","coordinates":[[[139.83785222733982,38.787367619747734],[139.8370767252499,38.787472647273184],[139.83036987336897,38.787170185421886],[139.83056038023298,38.7845700263745],[139.8321822572914,38.784637680349526],[139.83225700754952,38.78375885312284],[139.83382631531387,38.78382913169521],[139.8338647786604,38.78299742921862],[139.83420428589193,38.78122196831196],[139.8373531963301,38.781368158704495],[139.83757901403294,38.7808139380896],[139.83770359557207,38.78014892307269],[139.83824503775688,38.78133675116394],[139.8391989886111,38.78315699059667],[139.84005460946278,38.784685014879194],[139.84017686931298,38.78514183092753],[139.84011214120056,38.7854267419328],[139.83988983727204,38.785948199178605],[139.8397458046689,38.78638811628805],[139.83971485753113,38.78693315029356],[139.83785222733982,38.787367619747734]]]},"properties":{"KEY_CODE":"06426011002","PREF":"06","CITY":"426","CITY_NAME":"三川町","S_NAME":"大字青山","SETAI":"37"}},{"type":"Feature","geometry":{"type":"Polygon","coordinates":[[[139.83635087284287,38.79616320709113],[139.83628155778572,38.79673564375352],[139.833554691316,38.7955428350968],[139.82982749767604,38.79399371411852],[139.83022624567013,38.78890942915962],[139.83036987336897,38.787170185421886],[139.8370767252499,38.787472647273184],[139.83785222733982,38.787367619747734],[139.8397963693831,38.787124287507766],[139.8411630402326,38.78724988631954],[139.84121564105124,38.78808052344139],[139.84128698353967,38.78944690380274],[139.8388949174697,38.78954401151226],[139.83833711245254,38.79002939320374],[139.83686128454525,38.789782907095955],[139.83660256409408,38.793074442734756],[139.83643899080928,38.79513839259057],[139.83635087284287,38.79616320709113]]]},"properties":{"KEY_CODE":"06426011003","PREF":"06","CITY":"426","CITY_NAME":"三川町","S_NAME":"大字青山字東沖","SETAI":"30"}},{"type":"Feature","geometry":{"type":"Polygon","coordinates":[[[139.8437329969658,38.787703896463206],[139.84163385077935,38.78786110418233],[139.84143059069686,38.78780533191798],[139.841246248142,38.78743582885833],[139.8411630402326,38.78724988631954],[139.8397963693831,38.787124287507766],[139.83971485753113,38.78693315029356],[139.8397458046689,38.78638811628805],[139.83988983727204,38.785948199178605],[139.84011214120056,38.7854267419328],[139.84017686931298,38.78514183092753],[139.84005460946278,38.784685014879194],[139.8391989886111,38.78315699059667],[139.8389782604865,38.78269511474615],[139.84217018993576,38.78268050939525],[139.8433067475652,38.78271109655304],[139.8433338199437,38.784007154108465],[139.84326179918367,38.78569424706958],[139.84337367993638,38.7865846470947],[139.8437329969658,38.787703896463206]]]},"properties":{"KEY_CODE":"06426011007","PREF":"06","CITY":"426","CITY_NAME":"三川町","S_NAME":"大字青山字筬元","SETAI":"18"}},{"type":"Feature","geometry":{"type":"Polygon","coordinates":[[[139.84193576260103,38.806038516601916],[139.84204065867536,38.80690690242657],[139.83372378009554,38.80653229585764],[139.83396434020855,38.80270571475558],[139.83401526642973,38.801906361627964],[139.8341010401188,38.80062788426711],[139.8341605767807,38.799546806939986],[139.8343935610236,38.795925256570996],[139.83628155778572,38.79673564375352],[139.83635087284287,38.79616320709113],[139.83745983799224,38.79620853557435],[139.83955291491503,38.796307954686796],[139.83950601908717,38.79748260657406],[139.83968015902138,38.79832244014497],[139.84047639390508,38.801093543052765],[139.84149008926775,38.80361157386717],[139.84184172396886,38.80486716762629],[139.84187738735514,38.80523386502176],[139.84193576260103,38.806038516601916]]]},"properties":{"KEY_CODE":"06426012001","PREF":"06","CITY":"426","CITY_NAME":"三川町","S_NAME":"大字神花字天神堂","SETAI":"46"}},{"type":"Feature","geometry":{"type":"Polygon","coordinates":[[[139.84920307549058,38.80283235421334],[139.84951928277712,38.8029455053711],[139.84772270832457,38.804838123510436],[139.8481139530197,38.80511336138799],[139.8482640424912,38.805592220587705],[139.8483025018978,38.8059412054026],[139.84793035089848,38.80536982963108],[139.84676433812243,38.80545883076784],[139.84696455663797,38.80586322863922],[139.8470925680354,38.806246749635434],[139.8431117928931,38.8060722554484],[139.84193576260103,38.806038516601916],[139.84187738735514,38.80523386502176],[139.84184172396886,38.80486716762629],[139.84149008926775,38.80361157386717],[139.84047639390508,38.801093543052765],[139.83968015902138,38.79832244014497],[139.83950601908717,38.79748260657406],[139.8395529149151,38.796307954686796],[139.84166256089398,38.79649713963265],[139.8435272759926,38.79695672534581],[139.84345691242163,38.7971672680633],[139.84292398061208,38.79911479782023],[139.84293373057946,38.79969029985213],[139.84323440938806,38.800917438500704],[139.8442224545844,38.801791449646146],[139.8468189622066,38.802508413635614],[139.84920307549058,38.80283235421334]]]},"properties":{"KEY_CODE":"06426012002","PREF":"06","CITY":"426","CITY_NAME":"三川町","S_NAME":"大字神花字前外川原","SETAI":"49"}},{"type":"Feature","geometry":{"type":"Polygon","coordinates":[[[139.8332727819074,38.811755654956215],[139.83303607038448,38.814306583736055],[139.82409245419316,38.814015948954264],[139.8236869692202,38.81276940438975],[139.8237893249215,38.812215554504185],[139.82470888531506,38.811003837323796],[139.82493343481212,38.81002204547917],[139.82487755763984,38.80973869739593],[139.8244466902634,38.80845037095476],[139.82317572529908,38.80868735809994],[139.82222187847202,38.8061120070261],[139.82264874383608,38.80614467160145],[139.82405238885542,38.80678752175424],[139.8245025471221,38.80656027899443],[139.82361719607545,38.80510692040145],[139.82314991217316,38.80485304323294],[139.82314139804302,38.804322172710314],[139.8228005931392,38.80415679571411],[139.82187619489915,38.80461725199211],[139.8210587840541,38.80384066464201],[139.82041350129245,38.802228475090175],[139.82145510598187,38.80194386251248],[139.8211074057871,38.80113530022553],[139.8230255287843,38.80059378856635],[139.8230224867059,38.799021943601],[139.83307138396174,38.7994972489466],[139.8341605767807,38.799546806939986],[139.8341010401188,38.80062788426711],[139.83401526642973,38.801906361627964],[139.83396434020855,38.80270571475558],[139.83372378009554,38.80653229585764],[139.8332727819074,38.811755654956215]]]},"properties":{"KEY_CODE":"06426012007","PREF":"06","CITY":"426","CITY_NAME":"三川町","S_NAME":"大字神花字尾花","SETAI":"18"}},{"type":"Feature","geometry":{"type":"Polygon","coordinates":[[[139.8420460579951,38.81487773156908],[139.84231662760257,38.81541181395126],[139.84410855811367,38.81612992717768],[139.8434973556775,38.81670356422991],[139.84299590531668,38.81729586280786],[139.84260105382344,38.817894480113765],[139.8418926497179,38.819273978797085],[139.84146853420276,38.82092452482247],[139.84122295218717,38.82250606274194],[139.8411791605137,38.82437294204885],[139.83913861193483,38.82310095663487],[139.83684258225057,38.8215286330241],[139.83278202728226,38.821318802144646],[139.83263572834838,38.81976272148428],[139.83306115767192,38.814307361297985],[139.83840885118073,38.81452537575218],[139.838460831298,38.81373080719608],[139.8395860952446,38.81376936292431],[139.83946979677268,38.81429284556983],[139.84033440456784,38.81467277477825],[139.84119287139163,38.81462698878048],[139.84172889705147,38.81453173187064],[139.84226466591065,38.81445491037183],[139.8420460579951,38.81487773156908]]]},"properties":{"KEY_CODE":"06426013001","PREF":"06","CITY":"426","CITY_NAME":"三川町","S_NAME":"大字猪子字旭谷地","SETAI":"156"}},{"type":"Feature","geometry":{"type":"Polygon","coordinates":[[[139.84578292453577,38.81432150620593],[139.8450064320714,38.815310126060794],[139.84421989618068,38.81602163846577],[139.84410855811367,38.81612992717768],[139.84231662760257,38.81541181395126],[139.8420460579951,38.81487773156908],[139.84226466591065,38.81445491037183],[139.84172889705147,38.81453173187064],[139.84119287139163,38.81462698878048],[139.84033440456784,38.81467277477825],[139.83946979677268,38.81429284556983],[139.8395860952446,38.81376936292431],[139.838460831298,38.81373080719608],[139.83840885118073,38.81452537575218],[139.83306115767192,38.814307361297985],[139.83303607038448,38.814306583736055],[139.8332727819074,38.811755654956215],[139.84258229707902,38.812162509960544],[139.84348753858032,38.81354482909915],[139.84454935397588,38.81310393436947],[139.84512131640838,38.81367504198127],[139.84578292453577,38.81432150620593]]]},"properties":{"KEY_CODE":"06426013002","PREF":"06","CITY":"426","CITY_NAME":"三川町","S_NAME":"大字猪子字高倉","SETAI":"46"}},{"type":"Feature","geometry":{"type":"Polygon","coordinates":[[[139.84704875091606,38.81272610571064],[139.84634240413519,38.813594976526396],[139.84578292453577,38.81432150620593],[139.84512131640838,38.81367504198127],[139.84454935397588,38.81310393436947],[139.84348753858032,38.81354482909915],[139.84258229707902,38.812162509960544],[139.8332727819074,38.811755654956215],[139.83372378009554,38.80653229585764],[139.84204065867536,38.80690690242657],[139.84193576260103,38.806038516601916],[139.8431117928931,38.8060722554484],[139.84709256803538,38.80624674963543],[139.84696455663797,38.80586322863922],[139.84676433812243,38.80545883076784],[139.84793035089848,38.805369829631054],[139.8483025018978,38.8059412054026],[139.8482640424912,38.805592220587705],[139.8481139530197,38.80511336138799],[139.84772270832457,38.80483812351045],[139.84951928277718,38.802945505371085],[139.8500547985887,38.80336425532561],[139.8508812948361,38.80444391919577],[139.85094974527738,38.80462705818515],[139.85109693464767,38.80588204150168],[139.8501448956618,38.807941253532235],[139.84950822513136,38.808884346862946],[139.84884683389672,38.80990999317301],[139.84823601524621,38.81111566994175],[139.84795650165464,38.811522929113195],[139.84704875091606,38.81272610571064]]]},"properties":{"KEY_CODE":"06426013003","PREF":"06","CITY":"426","CITY_NAME":"三川町","S_NAME":"大字猪子字宮前","SETAI":"48"}},{"type":"Feature","geometry":{"type":"Polygon","coordinates":[[[139.83432705164574,38.83022349433508],[139.83376462556242,38.83053138610259],[139.83257782264542,38.83118146931004],[139.83181488389891,38.83160692949666],[139.83139218925317,38.83179790927789],[139.8311242616769,38.8319114594342],[139.83073004413387,38.83207347276261],[139.83032723945573,38.832225206665996],[139.82913580811407,38.83254682474478],[139.82841775847038,38.83273983279022],[139.82791932905394,38.83288292486135],[139.82764508670525,38.83296488281656],[139.82517720772967,38.83382014761075],[139.8247474297653,38.83406467193194],[139.82405811343267,38.83459199359864],[139.82382461054303,38.83483440756117],[139.82377764685944,38.8349040998435],[139.82368918711558,38.83507675182481],[139.82356581207517,38.83540907526162],[139.823526229627,38.83563803068793],[139.82344064206123,38.836040777976066],[139.82334107850008,38.83638808692991],[139.8232903675182,38.83651918851722],[139.82247533452374,38.838287759499984],[139.8209655128328,38.83911003709008],[139.81555200018772,38.84040658260089],[139.8141913374248,38.84060973860595],[139.8127987998493,38.84073778715795],[139.8126933525777,38.84059111057556],[139.81318283562806,38.8399450746205],[139.81439418784524,38.838952023709595],[139.8148871009304,38.83780983408116],[139.81488331740897,38.83706975769823],[139.81429464484214,38.834109880336634],[139.814381027315,38.8318147791822],[139.81471510720766,38.830500183379364],[139.81505576254713,38.82897541997363],[139.8155346142578,38.82857033151399],[139.81614251226304,38.82818860317513],[139.8162762457431,38.8277874066803],[139.81517822527255,38.8263434466761],[139.81524173964382,38.82508512239838],[139.81405604342442,38.82385089560207],[139.8154616736818,38.82386095666474],[139.81632457606005,38.82316410570483],[139.8147329064938,38.82243949095374],[139.81603454199526,38.82110488250737],[139.81724705466664,38.82090562003022],[139.81906418753042,38.81987660605753],[139.81947973803156,38.82042262509322],[139.82069758334333,38.819456867829004],[139.82196102273616,38.81938784720366],[139.82293171596956,38.81827382094132],[139.82410932528632,38.81857986401986],[139.8246947357387,38.81841227100034],[139.8236848088042,38.81739262584796],[139.82271725913418,38.816718478642],[139.82266221279443,38.816150883858505],[139.82292774023992,38.815203896941],[139.82306089108482,38.81469958024561],[139.82409245419316,38.814015948954264],[139.83303607038448,38.814306583736055],[139.83306115767192,38.814307361297985],[139.83263572834838,38.81976272148428],[139.83278202728226,38.821318802144646],[139.83684258225057,38.8215286330241],[139.83913861193483,38.82310095663487],[139.8411791605137,38.82437294204885],[139.84114117499405,38.824841420695144],[139.84091356414763,38.825346366303535],[139.84081576210417,38.82552831322596],[139.83985116662055,38.8266248079677],[139.8396150912063,38.826850693290325],[139.83858117261278,38.82768252207638],[139.83645097145998,38.82901313909477],[139.83545362165063,38.82958611074497],[139.83457110217736,38.83008552293913],[139.83432705164574,38.83022349433508]],[[139.83308788472675,38.826650500346624],[139.833254980341,38.82608276850163],[139.83094058890612,38.82588679742141],[139.83106263206452,38.82480455888819],[139.82833190627215,38.824794290090836],[139.82719426690446,38.825259009295216],[139.82629457091488,38.82657525009044],[139.82593096690005,38.8294092640482],[139.82556312093124,38.83005013944872],[139.82894338222826,38.82897819363268],[139.82937513404823,38.82762744467648],[139.83004976186186,38.82791594829553],[139.8303207094029,38.828028978604195],[139.83043183910883,38.82810523768662],[139.83084865260915,38.82848710113835],[139.83214916543537,38.82929655605361],[139.83453891716286,38.82729807633743],[139.83308788472675,38.826650500346624]]]},"properties":{"KEY_CODE":"06426014001","PREF":"06","CITY":"426","CITY_NAME":"三川町","S_NAME":"大字成田新田","SETAI":"57"}},{"type":"Feature","geometry":{"type":"Polygon","coordinates":[[[139.83004976186186,38.82791594829553],[139.82937513404823,38.82762744467648],[139.82894338222826,38.82897819363268],[139.82556312093124,38.83005013944872],[139.82593096690005,38.8294092640482],[139.82629457091488,38.82657525009044],[139.82719426690446,38.825259009295216],[139.82833190627215,38.824794290090836],[139.83106263206452,38.82480455888819],[139.83094058890612,38.82588679742141],[139.833254980341,38.82608276850163],[139.83308788472675,38.826650500346624],[139.83453891716286,38.82729807633743],[139.83214916543537,38.82929655605361],[139.83084865260915,38.82848710113835],[139.83043183910883,38.82810523768662],[139.8303207094029,38.828028978604195],[139.83004976186186,38.82791594829553]]]},"properties":{"KEY_CODE":"06426014003","PREF":"06","CITY":"426","CITY_NAME":"三川町","S_NAME":"大字成田新田字内嶋野","SETAI":"70"}},{"type":"Feature","geometry":{"type":"Polygon","coordinates":[[[139.8343935610236,38.795925256570996],[139.8341605767807,38.799546806939986],[139.83307138396174,38.7994972489466],[139.8230224867059,38.799021943601],[139.8228801070148,38.79883688710807],[139.82246191250118,38.79842514364387],[139.82226658830962,38.79822673172449],[139.82210480443135,38.7980050322809],[139.8219165546058,38.79783701806967],[139.8216707763469,38.79764473043261],[139.8211181353436,38.79642873216895],[139.82042888529057,38.79627497583574],[139.8204368787318,38.79590090999741],[139.82079882757122,38.795134658714794],[139.82028356098843,38.79490189151912],[139.82008003135093,38.79478189362144],[139.81998602703828,38.7945485479702],[139.82002334955985,38.79391939930252],[139.8197651214638,38.79375641846684],[139.81957971706794,38.79353156978532],[139.81948084682244,38.79269559368313],[139.8193485794093,38.79205906442046],[139.82134037836843,38.79163783616781],[139.8213657023446,38.79130952422554],[139.82078900820258,38.790856222215155],[139.8202993157085,38.79066125820842],[139.82029702667643,38.79045432393783],[139.82035827982773,38.790154756781966],[139.82027636328314,38.78953119093143],[139.82017019592953,38.78842897729199],[139.82231198196607,38.788542788465676],[139.8221348925872,38.79098961137499],[139.8234917045596,38.791266935476244],[139.82602976655662,38.79232942934509],[139.82845404897367,38.79337864429315],[139.82982749767604,38.79399371411852],[139.833554691316,38.7955428350968],[139.8343935610236,38.795925256570996]]]},"properties":{"KEY_CODE":"06426015001","PREF":"06","CITY":"426","CITY_NAME":"三川町","S_NAME":"大字東沼字興屋下","SETAI":"19"}},{"type":"Feature","geometry":{"type":"Polygon","coordinates":[[[139.83022624567013,38.78890942915962],[139.82982749767604,38.79399371411852],[139.82845404897367,38.79337864429315],[139.82602976655662,38.79232942934509],[139.8234917045596,38.791266935476244],[139.8221348925872,38.79098961137499],[139.82231198196607,38.788542788465676],[139.82419779626085,38.788615787515724],[139.8268750406441,38.788255554500964],[139.82685292498817,38.788721836884356],[139.83022624567013,38.78890942915962]]]},"properties":{"KEY_CODE":"06426015002","PREF":"06","CITY":"426","CITY_NAME":"三川町","S_NAME":"大字東沼字村岸","SETAI":"18"}},{"type":"Feature","geometry":{"type":"Polygon","coordinates":[[[139.8193485794093,38.79205906442046],[139.8187118245644,38.790564464023774],[139.81785343079812,38.78968474029154],[139.82006209676226,38.7880101295342],[139.82017019592953,38.78842897729199],[139.82027636328314,38.78953119093143],[139.82035827982773,38.790154756781966],[139.82029702667643,38.79045432393783],[139.8202993157085,38.79066125820842],[139.82078900820258,38.790856222215155],[139.8213657023446,38.79130952422554],[139.82134037836843,38.79163783616781],[139.8193485794093,38.79205906442046]]]},"properties":{"KEY_CODE":"06426015003","PREF":"06","CITY":"426","CITY_NAME":"三川町","S_NAME":"大字東沼字鷹野西","SETAI":"8"}},{"type":"Feature","geometry":{"type":"Polygon","coordinates":[[[139.82231198196607,38.788542788465676],[139.82017019592953,38.78842897729199],[139.82006209676226,38.7880101295342],[139.8219950034095,38.786421492522045],[139.82458088649298,38.7854107766113],[139.8246617026832,38.784619841785414],[139.82711861794206,38.7847368471153],[139.82714844940023,38.78435381584303],[139.83056183800053,38.78454287170237],[139.83056038023298,38.7845700263745],[139.83036987336897,38.787170185421886],[139.83022624567013,38.78890942915962],[139.82685292498817,38.788721836884356],[139.8268750406441,38.788255554500964],[139.82419779626085,38.788615787515724],[139.82231198196607,38.788542788465676]]]},"properties":{"KEY_CODE":"064260160","PREF":"06","CITY":"426","CITY_NAME":"三川町","S_NAME":"大字善阿弥","SETAI":"20"}},{"type":"Feature","geometry":{"type":"Polygon","coordinates":[[[139.82006209676226,38.7880101295342],[139.81785343079812,38.78968474029154],[139.8143609968708,38.788117592270204],[139.81308664009921,38.78697000783425],[139.81144329208965,38.785026711824365],[139.81252054665478,38.78479372271373],[139.81366976953188,38.78524698939071],[139.81325524844425,38.786130162039406],[139.81504600232194,38.78630565449398],[139.81540006105195,38.78727799834456],[139.81687024969736,38.7873469347479],[139.81689859479522,38.78638875526764],[139.81764756210728,38.78641453963517],[139.8178160220508,38.78575865586517],[139.81908995010437,38.785022126626096],[139.82009584764626,38.78471455066943],[139.82042848184304,38.7837017091788],[139.824715946086,38.78389596138673],[139.8246617026832,38.784619841785414],[139.82458088649298,38.7854107766113],[139.8219950034095,38.786421492522045],[139.82006209676226,38.7880101295342]]]},"properties":{"KEY_CODE":"06426017001","PREF":"06","CITY":"426","CITY_NAME":"三川町","S_NAME":"大字角田二口字寿美田","SETAI":"12"}},{"type":"Feature","geometry":{"type":"Polygon","coordinates":[[[139.81958328558338,38.79372415824375],[139.81868319209542,38.792870824957305],[139.8177599069983,38.792988376187814],[139.81675773376912,38.7924798456933],[139.81495271058608,38.79313248009533],[139.8123804330832,38.794895737242456],[139.81090391996344,38.794812332567915],[139.81052524183096,38.794318905210275],[139.80963089852656,38.788552513066065],[139.81195404005064,38.78826313544198],[139.81090843131435,38.7854053294385],[139.81144329208965,38.785026711824365],[139.81308664009921,38.78697000783425],[139.8143609968708,38.788117592270204],[139.81785343079812,38.78968474029154],[139.8187118245644,38.790564464023774],[139.8193485794093,38.79205906442046],[139.81948084682244,38.79269559368313],[139.81957971706794,38.79353156978532],[139.81958328558338,38.79372415824375]]]},"properties":{"KEY_CODE":"06426017002","PREF":"06","CITY":"426","CITY_NAME":"三川町","S_NAME":"大字角田二口字門前","SETAI":"9"}},{"type":"Feature","geometry":{"type":"Polygon","coordinates":[[[139.8434534936237,38.82610877626594],[139.8434152997881,38.82570250123119],[139.84385659555358,38.82504628128031],[139.8436474883189,38.824923951476215],[139.8441829258321,38.82342544376543],[139.84496417875712,38.82256799061569],[139.84503786717244,38.82314073223788],[139.84715659707163,38.82410057442583],[139.84716694647648,38.8244462284577],[139.84716485893804,38.824989192796096],[139.84720010011662,38.82540881473908],[139.84710333367633,38.82578425118888],[139.84706007251202,38.826566161472776],[139.84483966457498,38.826428973556666],[139.8434534936237,38.82610877626594]]]},"properties":{"KEY_CODE":"06426018001","PREF":"06","CITY":"426","CITY_NAME":"三川町","S_NAME":"大字押切新田字茨谷地","SETAI":"8"}},{"type":"Feature","geometry":{"type":"Polygon","coordinates":[[[139.8436474883189,38.824923951476215],[139.84237213742557,38.824542815814816],[139.84114117499405,38.82484142069516],[139.8411791605137,38.82437294204884],[139.84120086524825,38.82409885545851],[139.84122295218717,38.82250606274194],[139.84146853420276,38.82092452482247],[139.8418926497179,38.81927397879709],[139.84260105382344,38.817894480113765],[139.84299590531668,38.81729586280786],[139.8434973556775,38.81670356422991],[139.84632690931403,38.817273609911375],[139.84612931366647,38.81751785102666],[139.8476974784181,38.81759173360721],[139.84709690055465,38.81985579821514],[139.84496417875712,38.82256799061569],[139.8441829258321,38.82342544376543],[139.8436474883189,38.824923951476215]]]},"properties":{"KEY_CODE":"06426018002","PREF":"06","CITY":"426","CITY_NAME":"三川町","S_NAME":"大字押切新田字前川原","SETAI":"20"}},{"type":"Feature","geometry":{"type":"Polygon","coordinates":[[[139.847624319813,38.823782523910346],[139.84715659707163,38.82410057442583],[139.84503786717244,38.82314073223788],[139.84496417875712,38.82256799061569],[139.84709690055465,38.81985579821514],[139.8476974784181,38.81759173360721],[139.84905063903554,38.81745630480143],[139.84837156252473,38.82005402229197],[139.84722833862187,38.82242064225161],[139.847624319813,38.823782523910346]]]},"properties":{"KEY_CODE":"06426018003","PREF":"06","CITY":"426","CITY_NAME":"三川町","S_NAME":"大字押切新田字歌枕","SETAI":"37"}},{"type":"Feature","geometry":{"type":"Polygon","coordinates":[[[139.847624319813,38.823782523910346],[139.84722833862187,38.82242064225161],[139.84837156252473,38.82005402229197],[139.84905063903554,38.81745630480143],[139.84905917395525,38.81743751470574],[139.84992358862945,38.81711145900895],[139.8537792981418,38.81701104668918],[139.8534488852071,38.81781159968228],[139.85014698422808,38.817855704180644],[139.84967132342217,38.818126683389465],[139.84973148834854,38.82345397435494],[139.84934252690695,38.823757000199066],[139.847624319813,38.823782523910346]]]},"properties":{"KEY_CODE":"06426018005","PREF":"06","CITY":"426","CITY_NAME":"三川町","S_NAME":"大字押切新田字早稲田","SETAI":"10"}},{"type":"Feature","geometry":{"type":"Polygon","coordinates":[[[139.8537792981418,38.81701104668918],[139.84992358862945,38.81711145900895],[139.84905917395525,38.81743751470574],[139.84905063903554,38.81745630480143],[139.84772162894438,38.817445123643544],[139.8479323529227,38.815457253706484],[139.84851305014735,38.81382228467052],[139.8503581348513,38.81433284286678],[139.85206795639644,38.81411493102634],[139.8520219441103,38.81428219084649],[139.85172971207493,38.815210447798144],[139.85208238451276,38.815896231928654],[139.85283000507945,38.81616050899647],[139.85314276906888,38.81620817120558],[139.85370489594538,38.81621006087914],[139.85376419252535,38.816209008658014],[139.8537792981418,38.81701104668918]]]},"properties":{"KEY_CODE":"06426018006","PREF":"06","CITY":"426","CITY_NAME":"三川町","S_NAME":"大字押切新田字五反","SETAI":"58"}},{"type":"Feature","geometry":{"type":"Polygon","coordinates":[[[139.86983567576746,38.82660594695212],[139.8684405244068,38.82734948052204],[139.86454990407807,38.823889063071505],[139.86198376241438,38.82305827500328],[139.85938954329686,38.82202098202685],[139.85939357630497,38.82195598410421],[139.85954009806125,38.82183945860432],[139.8601994165534,38.82100932687383],[139.86239105851092,38.82273917650677],[139.86319350570653,38.82220623261682],[139.86438129330728,38.82333842388616],[139.86607444963707,38.82226359229995],[139.86789425454674,38.82370655912836],[139.86738530465715,38.824166089494604],[139.86884909102443,38.825141030896944],[139.86835042580884,38.82561155852245],[139.86983567576746,38.82660594695212]]]},"properties":{"KEY_CODE":"06426018007","PREF":"06","CITY":"426","CITY_NAME":"三川町","S_NAME":"大字押切新田字刈取","SETAI":"18"}},{"type":"Feature","geometry":{"type":"Polygon","coordinates":[[[139.8684405244068,38.82734948052204],[139.86578382476213,38.82831876408459],[139.864439015814,38.82943870035425],[139.86395206352168,38.827998294865594],[139.86326048038717,38.82593846155955],[139.8611812189701,38.82635079897908],[139.8611080030599,38.82636905284739],[139.8607614828799,38.82547199782977],[139.8601666323442,38.82535036059144],[139.85943517919426,38.82322204105633],[139.85938954329686,38.82202098202685],[139.86198376241438,38.82305827500328],[139.86454990407807,38.823889063071505],[139.8684405244068,38.82734948052204]]]},"properties":{"KEY_CODE":"06426018008","PREF":"06","CITY":"426","CITY_NAME":"三川町","S_NAME":"大字押切新田字足子","SETAI":"8"}},{"type":"Feature","geometry":{"type":"Polygon","coordinates":[[[139.8601666323442,38.82535036059144],[139.85989459533369,38.82541404303829],[139.85893693734724,38.82551389363662],[139.85892948101457,38.82504418778822],[139.85892399782531,38.82469372060102],[139.85721912380308,38.82470323972686],[139.85724101726728,38.82690968856912],[139.85630265510153,38.82673478177586],[139.8558736890371,38.82645017530532],[139.85564948742916,38.826219146862336],[139.85519221925222,38.82583337721847],[139.85448678050173,38.825423994047696],[139.85414461886484,38.82525996335723],[139.8538474334572,38.825241290485806],[139.85336470857024,38.82523718125438],[139.85322341103338,38.8250040263888],[139.85216329854188,38.82495784744926],[139.85176423590667,38.824908755939134],[139.85150761201754,38.82478639489427],[139.85086320264693,38.824527762533975],[139.84932381857735,38.824449945725895],[139.84840524709998,38.824448838945145],[139.84716694647648,38.8244462284577],[139.84715659707163,38.82410057442583],[139.847624319813,38.823782523910346],[139.84934252690695,38.823757000199066],[139.84973148834854,38.82345397435494],[139.84967132342217,38.818126683389465],[139.85014698422808,38.817855704180644],[139.8534488852071,38.81781159968228],[139.8537792981418,38.81701104668918],[139.85376419252532,38.816209008658014],[139.85461883768787,38.81619321285925],[139.8551601487331,38.816197736720326],[139.85601449661223,38.816388000212996],[139.85671941337907,38.816941721643495],[139.8570261082896,38.81758614663745],[139.85725375267776,38.81820267521813],[139.85812762286133,38.82039476493395],[139.85852308537412,38.82139977485423],[139.85939357630497,38.82195598410421],[139.85938954329686,38.82202098202685],[139.85943517919426,38.82322204105633],[139.8601666323442,38.82535036059144]]]},"properties":{"KEY_CODE":"06426018009","PREF":"06","CITY":"426","CITY_NAME":"三川町","S_NAME":"大字押切新田字杉苗田","SETAI":"0"}},{"type":"Feature","geometry":{"type":"Polygon","coordinates":[[[139.85370719944598,38.814537425884005],[139.85370489594538,38.816210060879165],[139.85314276906888,38.81620817120558],[139.85283000507945,38.81616050899647],[139.85208238451276,38.815896231928654],[139.85172971207493,38.815210447798144],[139.8520219441103,38.81428219084649],[139.85210694154358,38.81411244254856],[139.85272602620864,38.81454511871644],[139.85370719944598,38.814537425884005]]]},"properties":{"KEY_CODE":"06426018011","PREF":"06","CITY":"426","CITY_NAME":"三川町","S_NAME":"大字押切新田字北田","SETAI":"41"}},{"type":"Feature","geometry":{"type":"Polygon","coordinates":[[[139.85992081065015,38.82045269649993],[139.8597520937878,38.82044200264186],[139.85812762286133,38.82039476493395],[139.85725375267776,38.81820267521813],[139.8570261082896,38.81758614663745],[139.85671941337907,38.816941721643495],[139.85601449661223,38.816388000212996],[139.8551601487331,38.816197736720326],[139.85461883768787,38.81619321285925],[139.85376419252535,38.816209008658014],[139.85370489594538,38.81621006087914],[139.85370719944598,38.814537425884005],[139.85272602620864,38.81454511871644],[139.85210694154358,38.81411244254856],[139.85206795639644,38.81411493102634],[139.8503581348513,38.81433284286678],[139.84851305014735,38.81382228467052],[139.84903589382978,38.81301660590653],[139.85016713019002,38.812233630298884],[139.8526395230262,38.812646100487335],[139.85370218378276,38.812472993182396],[139.8536878221313,38.81193207178812],[139.8631911468291,38.81183150039831],[139.86322474084233,38.81407774847402],[139.86323629822468,38.815348486053935],[139.86325927588047,38.816115256211766],[139.86148570246792,38.81668735904652],[139.8611337786382,38.81707813953456],[139.8611943610305,38.81757172678069],[139.86149830956552,38.8185473276589],[139.86139686043805,38.81872405354993],[139.86027900735309,38.81931805714277],[139.85992081065015,38.82045269649993]]]},"properties":{"KEY_CODE":"06426018012","PREF":"06","CITY":"426","CITY_NAME":"三川町","S_NAME":"大字押切新田字街道表","SETAI":"83"}},{"type":"Feature","geometry":{"type":"Polygon","coordinates":[[[139.85954009806125,38.82183945860432],[139.85939357630497,38.82195598410421],[139.85852308537412,38.82139977485423],[139.85812762286133,38.82039476493395],[139.8597520937878,38.82044200264186],[139.85992081065015,38.82045269649993],[139.85954009806125,38.82183945860432]]]},"properties":{"KEY_CODE":"06426018013","PREF":"06","CITY":"426","CITY_NAME":"三川町","S_NAME":"大字押切新田字潴","SETAI":"16"}},{"type":"Feature","geometry":{"type":"Polygon","coordinates":[[[139.8479323529227,38.815457253706484],[139.84772162894438,38.817445123643544],[139.8476974784181,38.81759173360721],[139.84612931366647,38.81751785102666],[139.84632690931403,38.817273609911396],[139.84751352949064,38.815357870240675],[139.8479323529227,38.815457253706484]]]},"properties":{"KEY_CODE":"06426018015","PREF":"06","CITY":"426","CITY_NAME":"三川町","S_NAME":"大字押切新田字美河","SETAI":"3"}},{"type":"Feature","geometry":{"type":"Polygon","coordinates":[[[139.8479323529227,38.815457253706484],[139.84751352949064,38.815357870240675],[139.84632690931403,38.817273609911396],[139.8434973556775,38.81670356422991],[139.84410855811367,38.81612992717768],[139.84421989618068,38.81602163846577],[139.8450064320714,38.815310126060794],[139.8456413140615,38.81450527059393],[139.84578292453577,38.81432150620595],[139.84634240413519,38.813594976526396],[139.84704875091606,38.81272610571064],[139.84795650165464,38.811522929113195],[139.85016713019002,38.812233630298884],[139.84903589382978,38.81301660590653],[139.84851305014735,38.81382228467052],[139.8479323529227,38.815457253706484]]]},"properties":{"KEY_CODE":"06426018016","PREF":"06","CITY":"426","CITY_NAME":"三川町","S_NAME":"大字押切新田字下川原","SETAI":"7"}},{"type":"Feature","geometry":{"type":"Polygon","coordinates":[[[139.8631911468291,38.81183150039831],[139.8536878221313,38.81193207178812],[139.85370218378276,38.812472993182396],[139.8526395230262,38.812646100487335],[139.85016713019002,38.812233630298884],[139.84795650165464,38.811522929113195],[139.84823601524621,38.81111566994175],[139.84884683389672,38.80990999317301],[139.84950822513136,38.808884346862946],[139.8501448956618,38.807941253532235],[139.85109693464767,38.80588204150168],[139.85094974527738,38.80462705818515],[139.85200602813634,38.80479243443399],[139.85426916880573,38.805169601595814],[139.85501060273347,38.80505628907545],[139.86304258951634,38.804974676707126],[139.86307022772826,38.80625343288832],[139.8631448278027,38.81035806012462],[139.8631911468291,38.81183150039831]]]},"properties":{"KEY_CODE":"06426018017","PREF":"06","CITY":"426","CITY_NAME":"三川町","S_NAME":"大字押切新田字豊秋","SETAI":"140"}},{"type":"Feature","geometry":{"type":"Polygon","coordinates":[[[139.86304258951634,38.804974676707126],[139.85501060273347,38.80505628907545],[139.85426916880573,38.805169601595814],[139.85200602813634,38.80479243443399],[139.8517021471217,38.803576537402094],[139.85046594501878,38.8022626089305],[139.85023291526772,38.80032410979265],[139.85101758578233,38.800261579398935],[139.84985633167972,38.79911423300314],[139.85134938195756,38.79875938123651],[139.85168366111884,38.79959983092981],[139.85285393983452,38.799323049386174],[139.85159873945526,38.79587017048291],[139.85175075139648,38.795815845626436],[139.862988287155,38.795688159199784],[139.86301790456517,38.797537951529506],[139.86306614721548,38.799911513724346],[139.8630195007269,38.80335376988481],[139.86304258951634,38.804974676707126]]]},"properties":{"KEY_CODE":"06426018022","PREF":"06","CITY":"426","CITY_NAME":"三川町","S_NAME":"大字押切新田字対馬","SETAI":"130"}},{"type":"Feature","geometry":{"type":"Polygon","coordinates":[[[139.85159873945526,38.79587017048291],[139.85285393983452,38.799323049386174],[139.85168366111884,38.79959983092981],[139.85134938195756,38.79875938123651],[139.84985633167972,38.79911423300314],[139.84857255075954,38.796115859914146],[139.85033223125615,38.79540447518788],[139.850860610133,38.795186090503364],[139.85159873945526,38.79587017048291]]]},"properties":{"KEY_CODE":"06426018026","PREF":"06","CITY":"426","CITY_NAME":"三川町","S_NAME":"大字押切新田字桜木","SETAI":"47"}},{"type":"Feature","geometry":{"type":"Polygon","coordinates":[[[139.8629907819804,38.795576982451514],[139.862988287155,38.795688159199784],[139.85175075139648,38.795815845626436],[139.85159873945526,38.79587017048291],[139.850860610133,38.795186090503364],[139.85033223125615,38.79540447518788],[139.84948871327472,38.792547606157555],[139.84873371486051,38.79221779644207],[139.84855416552668,38.7917638899043],[139.8483868463908,38.791342882501695],[139.85012193692876,38.7908086548473],[139.85139681044933,38.79096644941857],[139.8535253756331,38.7911099827991],[139.8557037634608,38.79127359979579],[139.85809512954071,38.79142909739855],[139.86294027746337,38.79175669399711],[139.86294761227555,38.79229078859604],[139.8629907819804,38.795576982451514]]]},"properties":{"KEY_CODE":"06426018027","PREF":"06","CITY":"426","CITY_NAME":"三川町","S_NAME":"大字押切新田字三本木","SETAI":"35"}},{"type":"Feature","geometry":{"type":"Polygon","coordinates":[[[139.86989832111632,38.81221381406083],[139.87031323416173,38.81257814046937],[139.8706387634892,38.81324126569762],[139.87061543200593,38.81343095774675],[139.87034856865574,38.81407020158809],[139.86994432286735,38.81448985409818],[139.86942893640625,38.81478542448153],[139.86867581218198,38.81485240845487],[139.86836893793017,38.814727837552624],[139.86704049121485,38.81388553919011],[139.86663651756268,38.81377099886107],[139.8660361965102,38.81406711918311],[139.86446929886435,38.815332387145645],[139.86412527593325,38.81557319168306],[139.8637720358956,38.815843478472],[139.86323629822468,38.815348486053935],[139.86322474084233,38.81407774847402],[139.8631911468291,38.81183150039831],[139.8631448278027,38.81035806012462],[139.86307022772826,38.80625343288832],[139.8630195007269,38.80335376988481],[139.86306614721548,38.799911513724346],[139.86301790456517,38.797537951529506],[139.8629907819804,38.795576982451514],[139.86294761227555,38.79229078859604],[139.86294027746337,38.79175669399711],[139.8676652492901,38.792063825706514],[139.86953403596914,38.79349512830173],[139.87071899112513,38.79438237468317],[139.87355666091614,38.79645176893432],[139.87473742173145,38.797015342226025],[139.87427225718534,38.79754753384326],[139.87422753419133,38.800236211953795],[139.87371307092693,38.800740547737306],[139.873256598439,38.801178778842605],[139.8728947178864,38.801544732561545],[139.87279206535814,38.80183539818644],[139.87279844288736,38.80213104252243],[139.87270585652018,38.80231481518951],[139.87178812758737,38.80349766216698],[139.87192635716372,38.80435602286822],[139.8719755873116,38.80468861950367],[139.871451028686,38.80503690346161],[139.87069063702018,38.8053914051826],[139.87055877929117,38.8056587469395],[139.87066123278905,38.80615998988579],[139.87146263649217,38.807011427308076],[139.8714663688548,38.80737630561719],[139.87129303137453,38.80763795730545],[139.8709641398507,38.80786848682815],[139.8707655971655,38.80793737234115],[139.86976750877372,38.80805259145935],[139.869610753802,38.808110840481945],[139.8692964197781,38.80854220826731],[139.86880662234705,38.809778961098864],[139.8687279478484,38.810343883780874],[139.8689877984038,38.81125322173807],[139.86989832111632,38.81221381406083]]]},"properties":{"KEY_CODE":"064260190","PREF":"06","CITY":"426","CITY_NAME":"三川町","S_NAME":"大字土口","SETAI":"58"}}]}