{"type":"FeatureCollection","features":[{"type":"Feature","geometry":{"type":"Polygon","coordinates":[[[135.53666644231308,34.677647347852535],[135.53759132682373,34.681498450748215],[135.5339456253436,34.68156645233841],[135.5339488140571,34.68146081959407],[135.53418769379715,34.67981098571336],[135.53425432020381,34.67848025085042],[135.53421644545938,34.677956104818165],[135.535002354555,34.67795754497228],[135.53666644231308,34.677647347852535]]]},"properties":{"KEY_CODE":"27115001001","PREF":"27","CITY":"115","CITY_NAME":"大阪市東成区","S_NAME":"中道一丁目","SETAI":"1109"}},{"type":"Feature","geometry":{"type":"Polygon","coordinates":[[[135.5384114753443,34.677296582972104],[135.53895966434686,34.677959288492886],[135.54017651229282,34.678854953992804],[135.5404271474254,34.679299606380496],[135.54048650454715,34.681281593700135],[135.5404639926711,34.681367856481025],[135.53927356405143,34.681487475463925],[135.53759132682373,34.681498450748215],[135.53666644231308,34.677647347852535],[135.53822321293597,34.67745518580822],[135.5384114753443,34.677296582972104]]]},"properties":{"KEY_CODE":"27115001002","PREF":"27","CITY":"115","CITY_NAME":"大阪市東成区","S_NAME":"中道二丁目","SETAI":"1521"}},{"type":"Feature","geometry":{"type":"Polygon","coordinates":[[[135.53626292377774,34.67420007827687],[135.5364249293095,34.67606259228128],[135.53666644231308,34.677647347852535],[135.535002354555,34.67795754497228],[135.53421644545938,34.677956104818165],[135.53318391578486,34.67437951018242],[135.53626292377774,34.67420007827687]]]},"properties":{"KEY_CODE":"27115001003","PREF":"27","CITY":"115","CITY_NAME":"大阪市東成区","S_NAME":"中道三丁目","SETAI":"1349"}},{"type":"Feature","geometry":{"type":"Polygon","coordinates":[[[135.5384114753443,34.677296582972104],[135.53822321293597,34.67745518580822],[135.53666644231308,34.677647347852535],[135.5364249293095,34.67606259228128],[135.53626292377774,34.67420007827687],[135.53667438173997,34.673992881694204],[135.53936803878938,34.673912627618506],[135.53841120191092,34.6766590455968],[135.5384114753443,34.677296582972104]]]},"properties":{"KEY_CODE":"27115001004","PREF":"27","CITY":"115","CITY_NAME":"大阪市東成区","S_NAME":"中道四丁目","SETAI":"848"}},{"type":"Feature","geometry":{"type":"Polygon","coordinates":[[[135.53626292377774,34.67420007827687],[135.53318391578486,34.67437951018242],[135.53286794402933,34.67263134487446],[135.53206040627038,34.67079213358228],[135.53562809461332,34.670719386041995],[135.53615010421026,34.67233211449449],[135.53626292377774,34.67420007827687]]]},"properties":{"KEY_CODE":"27115002001","PREF":"27","CITY":"115","CITY_NAME":"大阪市東成区","S_NAME":"東小橋一丁目","SETAI":"1706"}},{"type":"Feature","geometry":{"type":"Polygon","coordinates":[[[135.53498568481723,34.668328360049664],[135.5356271446997,34.67071402971266],[135.53562809461332,34.670719386041995],[135.53206040627038,34.67079213358228],[135.53155761858213,34.669225944658116],[135.5312562765322,34.66825355114896],[135.53284329218076,34.66824215684135],[135.53498568481723,34.668328360049664]]]},"properties":{"KEY_CODE":"27115002002","PREF":"27","CITY":"115","CITY_NAME":"大阪市東成区","S_NAME":"東小橋二丁目","SETAI":"1159"}},{"type":"Feature","geometry":{"type":"Polygon","coordinates":[[[135.53498568481723,34.668328360049664],[135.53284329218076,34.66824215684135],[135.5312562765322,34.66825355114896],[135.53050594231928,34.66604901052333],[135.53029087832482,34.66541177247431],[135.5315804845924,34.66543657984643],[135.53406743961992,34.66553721668571],[135.53433109477817,34.66631676195846],[135.53498568481723,34.668328360049664]]]},"properties":{"KEY_CODE":"27115002003","PREF":"27","CITY":"115","CITY_NAME":"大阪市東成区","S_NAME":"東小橋三丁目","SETAI":"953"}},{"type":"Feature","geometry":{"type":"Polygon","coordinates":[[[135.53899184873438,34.6705704088412],[135.5389506217854,34.67191716625683],[135.53917553489245,34.67210507762288],[135.53966744323932,34.672812222719486],[135.53936803878938,34.673912627618506],[135.53667438173997,34.673992881694204],[135.53626292377774,34.67420007827687],[135.53615010421026,34.67233211449449],[135.53562809461332,34.670719386041995],[135.5356271446997,34.67071402971266],[135.5380519098742,34.67051093937535],[135.53899184873438,34.6705704088412]]]},"properties":{"KEY_CODE":"27115003001","PREF":"27","CITY":"115","CITY_NAME":"大阪市東成区","S_NAME":"玉津一丁目","SETAI":"1146"}},{"type":"Feature","geometry":{"type":"Polygon","coordinates":[[[135.53899184873438,34.6705704088412],[135.5380519098742,34.67051093937535],[135.5356271446997,34.67071402971266],[135.53498568481723,34.668328360049664],[135.53433109477817,34.66631676195846],[135.53916243495,34.667802425902416],[135.53899184873438,34.6705704088412]]]},"properties":{"KEY_CODE":"27115003002","PREF":"27","CITY":"115","CITY_NAME":"大阪市東成区","S_NAME":"玉津二丁目","SETAI":"1367"}},{"type":"Feature","geometry":{"type":"Polygon","coordinates":[[[135.53929312246376,34.66562125956148],[135.53916243495,34.667802425902416],[135.53433109477817,34.66631676195846],[135.53406743961992,34.66553721668571],[135.5358128960482,34.66558893391834],[135.53772213767263,34.6656187077447],[135.5392837902752,34.665620943207934],[135.53929312246376,34.66562125956148]]]},"properties":{"KEY_CODE":"27115003003","PREF":"27","CITY":"115","CITY_NAME":"大阪市東成区","S_NAME":"玉津三丁目","SETAI":"695"}},{"type":"Feature","geometry":{"type":"Polygon","coordinates":[[[135.5445796587085,34.680736141376194],[135.5447386909069,34.68187404006951],[135.54164851030197,34.68227902064931],[135.54012407905228,34.68367541969928],[135.5401153591505,34.68215310978765],[135.5404639926711,34.681367856481025],[135.54048650454715,34.681281593700135],[135.544030891977,34.680808470667856],[135.5445796587085,34.680736141376194]]]},"properties":{"KEY_CODE":"27115004001","PREF":"27","CITY":"115","CITY_NAME":"大阪市東成区","S_NAME":"中本一丁目","SETAI":"1105"}},{"type":"Feature","geometry":{"type":"Polygon","coordinates":[[[135.54031523256114,34.678380212597055],[135.54118767271638,34.67842095794682],[135.54399197032672,34.68066042214951],[135.544030891977,34.680808470667856],[135.54048650454715,34.681281593700135],[135.5404271474254,34.679299606380496],[135.54031523256114,34.678380212597055]]]},"properties":{"KEY_CODE":"27115004002","PREF":"27","CITY":"115","CITY_NAME":"大阪市東成区","S_NAME":"中本二丁目","SETAI":"1181"}},{"type":"Feature","geometry":{"type":"Polygon","coordinates":[[[135.54421023657164,34.678172092180425],[135.5445796587085,34.680736141376194],[135.544030891977,34.680808470667856],[135.54399197032672,34.68066042214951],[135.54118767271638,34.67842095794682],[135.54031523256114,34.678380212597055],[135.54007486501845,34.677836713274196],[135.54082975968913,34.677609101917525],[135.5427480580475,34.67759995002791],[135.54270656100985,34.67818817044703],[135.54421023657164,34.678172092180425]]]},"properties":{"KEY_CODE":"27115004003","PREF":"27","CITY":"115","CITY_NAME":"大阪市東成区","S_NAME":"中本三丁目","SETAI":"1150"}},{"type":"Feature","geometry":{"type":"Polygon","coordinates":[[[135.5409939308305,34.67429202314715],[135.54068899902177,34.675275354198945],[135.54082975968913,34.677609101917525],[135.54007486501845,34.677836713274196],[135.54031523256114,34.678380212597055],[135.5404271474254,34.679299606380496],[135.54017651229282,34.678854953992804],[135.53895966434686,34.677959288492886],[135.5384114753443,34.677296582972104],[135.53841120191092,34.6766590455968],[135.53936803878938,34.673912627618506],[135.5409939308305,34.67429202314715]]]},"properties":{"KEY_CODE":"27115004004","PREF":"27","CITY":"115","CITY_NAME":"大阪市東成区","S_NAME":"中本四丁目","SETAI":"886"}},{"type":"Feature","geometry":{"type":"Polygon","coordinates":[[[135.5441460585832,34.677660527902255],[135.54421023657164,34.678172092180425],[135.54270656100985,34.67818817044703],[135.5427480580475,34.67759995002791],[135.54082975968913,34.677609101917525],[135.54068899902177,34.675275354198945],[135.5409939308305,34.67429202314715],[135.54130587111263,34.67437545656207],[135.54368921035308,34.67439944600542],[135.5441460585832,34.677660527902255]]]},"properties":{"KEY_CODE":"27115004005","PREF":"27","CITY":"115","CITY_NAME":"大阪市東成区","S_NAME":"中本五丁目","SETAI":"1498"}},{"type":"Feature","geometry":{"type":"Polygon","coordinates":[[[135.54368921035308,34.67439944600542],[135.54130587111263,34.67437545656207],[135.5409939308305,34.67429202314715],[135.53936803878938,34.673912627618506],[135.53966744323932,34.672812222719486],[135.53917553489245,34.67210507762288],[135.54290892855838,34.66899493808159],[135.54293434530393,34.66898474971145],[135.54330512033033,34.671417818398695],[135.54368921035308,34.67439944600542]]]},"properties":{"KEY_CODE":"27115005001","PREF":"27","CITY":"115","CITY_NAME":"大阪市東成区","S_NAME":"大今里西一丁目","SETAI":"1545"}},{"type":"Feature","geometry":{"type":"Polygon","coordinates":[[[135.54290892855838,34.66899493808159],[135.53917553489245,34.67210507762288],[135.5389506217854,34.67191716625683],[135.53899184873438,34.6705704088412],[135.53916243495,34.667802425902416],[135.54289410641056,34.669000939132076],[135.54290892855838,34.66899493808159]]]},"properties":{"KEY_CODE":"27115005002","PREF":"27","CITY":"115","CITY_NAME":"大阪市東成区","S_NAME":"大今里西二丁目","SETAI":"754"}},{"type":"Feature","geometry":{"type":"Polygon","coordinates":[[[135.54239280861586,34.66539386408483],[135.54289410641056,34.669000939132076],[135.53916243495,34.667802425902416],[135.53929312246376,34.66562125956148],[135.54239280861586,34.66539386408483]]]},"properties":{"KEY_CODE":"27115005003","PREF":"27","CITY":"115","CITY_NAME":"大阪市東成区","S_NAME":"大今里西三丁目","SETAI":"1599"}},{"type":"Feature","geometry":{"type":"Polygon","coordinates":[[[135.54940079107485,34.68011422264974],[135.54960153213722,34.68124522697611],[135.54790631014433,34.681467017196745],[135.54474880323642,34.68190365838949],[135.5447386909069,34.68187404006951],[135.5445796587085,34.680736141376194],[135.54939971397562,34.68010830253852],[135.54940079107485,34.68011422264974]]]},"properties":{"KEY_CODE":"27115006001","PREF":"27","CITY":"115","CITY_NAME":"大阪市東成区","S_NAME":"東中本一丁目","SETAI":"523"}},{"type":"Feature","geometry":{"type":"Polygon","coordinates":[[[135.54890086780472,34.67742377320947],[135.54939971397562,34.68010830253852],[135.5445796587085,34.680736141376194],[135.54421023657164,34.678172092180425],[135.5441460585832,34.677660527902255],[135.54616070571177,34.67765745684834],[135.54751227734457,34.67754667922284],[135.5488938197358,34.677395011596936],[135.54890086780472,34.67742377320947]]]},"properties":{"KEY_CODE":"27115006002","PREF":"27","CITY":"115","CITY_NAME":"大阪市東成区","S_NAME":"東中本二丁目","SETAI":"1292"}},{"type":"Feature","geometry":{"type":"Polygon","coordinates":[[[135.54833132795682,34.67436301797109],[135.5488938197358,34.677395011596936],[135.54751227734457,34.67754667922284],[135.54616070571177,34.67765745684834],[135.5441460585832,34.677660527902255],[135.54368921035308,34.67439944600542],[135.54561351998203,34.67450197560907],[135.54617052397035,34.674551024634944],[135.54833132795682,34.67436301797109]]]},"properties":{"KEY_CODE":"27115006003","PREF":"27","CITY":"115","CITY_NAME":"大阪市東成区","S_NAME":"東中本三丁目","SETAI":"981"}},{"type":"Feature","geometry":{"type":"Polygon","coordinates":[[[135.55339794563156,34.679602789108216],[135.55354916510444,34.680773328388455],[135.5520043136665,34.68086824711824],[135.5508246395738,34.68106957099298],[135.54960153213722,34.68124522697611],[135.54940079107485,34.68011422264974],[135.55339794563156,34.679602789108216]]]},"properties":{"KEY_CODE":"27115007001","PREF":"27","CITY":"115","CITY_NAME":"大阪市東成区","S_NAME":"東今里一丁目","SETAI":"577"}},{"type":"Feature","geometry":{"type":"Polygon","coordinates":[[[135.5528726601843,34.676601099600134],[135.55339794563156,34.679602789108216],[135.54940079107485,34.68011422264974],[135.54939971397562,34.68010830253852],[135.54890086780472,34.67742377320947],[135.5505405516377,34.67728797004466],[135.5528726601843,34.676601099600134]]]},"properties":{"KEY_CODE":"27115007002","PREF":"27","CITY":"115","CITY_NAME":"大阪市東成区","S_NAME":"東今里二丁目","SETAI":"602"}},{"type":"Feature","geometry":{"type":"Polygon","coordinates":[[[135.55241649401552,34.67385686908037],[135.5528726601843,34.676601099600134],[135.5505405516377,34.67728797004466],[135.54890086780472,34.67742377320947],[135.5488938197358,34.677395011596936],[135.54833132795682,34.67436301797109],[135.54891707457054,34.67430109065696],[135.55077500917082,34.674111577170486],[135.55241649401552,34.67385686908037]]]},"properties":{"KEY_CODE":"27115007003","PREF":"27","CITY":"115","CITY_NAME":"大阪市東成区","S_NAME":"東今里三丁目","SETAI":"757"}},{"type":"Feature","geometry":{"type":"Polygon","coordinates":[[[135.54833132795682,34.67436301797109],[135.54617052397035,34.674551024634944],[135.54561351998203,34.67450197560907],[135.54368921035308,34.67439944600542],[135.54330512033033,34.671417818398695],[135.5446200251861,34.67108747428015],[135.5477103157871,34.67074764095313],[135.5482118220877,34.673468955230994],[135.54880816651172,34.673519334208194],[135.54891707457054,34.67430109065696],[135.54833132795682,34.67436301797109]]]},"properties":{"KEY_CODE":"27115008001","PREF":"27","CITY":"115","CITY_NAME":"大阪市東成区","S_NAME":"大今里一丁目","SETAI":"1523"}},{"type":"Feature","geometry":{"type":"Polygon","coordinates":[[[135.55241649401552,34.67385686908037],[135.55077500917082,34.674111577170486],[135.54891707457054,34.67430109065696],[135.54880816651172,34.673519334208194],[135.5482118220877,34.673468955230994],[135.5477103157871,34.67074764095313],[135.5477090260816,34.67074200174403],[135.55179525352727,34.67028982580366],[135.55241649401552,34.67385686908037]]]},"properties":{"KEY_CODE":"27115008002","PREF":"27","CITY":"115","CITY_NAME":"大阪市東成区","S_NAME":"大今里二丁目","SETAI":"1280"}},{"type":"Feature","geometry":{"type":"Polygon","coordinates":[[[135.54751089950904,34.66789587831094],[135.54776375932468,34.668504488098506],[135.54745855546824,34.66896636752277],[135.5477090260816,34.67074200174403],[135.5477103157871,34.67074764095313],[135.5446200251861,34.67108747428015],[135.54330512033033,34.671417818398695],[135.54293434530393,34.66898474971145],[135.54613053559106,34.66821981098087],[135.54751089950904,34.66789587831094]]]},"properties":{"KEY_CODE":"27115008003","PREF":"27","CITY":"115","CITY_NAME":"大阪市東成区","S_NAME":"大今里三丁目","SETAI":"1127"}},{"type":"Feature","geometry":{"type":"Polygon","coordinates":[[[135.55140472503595,34.66803250786869],[135.5515182335351,34.6686973642609],[135.55162473234677,34.66926317017158],[135.55179525352727,34.67028982580366],[135.5477090260816,34.67074200174403],[135.54745855546824,34.66896636752277],[135.54776375932468,34.668504488098506],[135.54751089950904,34.66789587831094],[135.54867668600247,34.66762030028307],[135.54933659071128,34.667652881062516],[135.5501730749956,34.66782034902774],[135.55141360489145,34.66801394685974],[135.55140472503595,34.66803250786869]]]},"properties":{"KEY_CODE":"27115008004","PREF":"27","CITY":"115","CITY_NAME":"大阪市東成区","S_NAME":"大今里四丁目","SETAI":"837"}},{"type":"Feature","geometry":{"type":"Polygon","coordinates":[[[135.54545754505577,34.665140060023056],[135.54613053559106,34.66821981098087],[135.54293434530393,34.66898474971145],[135.54290892855838,34.66899493808159],[135.54289410641056,34.669000939132076],[135.54239280861586,34.66539386408483],[135.5424729667762,34.66538021895398],[135.54545754505577,34.665140060023056]]]},"properties":{"KEY_CODE":"27115009001","PREF":"27","CITY":"115","CITY_NAME":"大阪市東成区","S_NAME":"大今里南一丁目","SETAI":"1601"}},{"type":"Feature","geometry":{"type":"Polygon","coordinates":[[[135.54910609543975,34.66488228339003],[135.54861331288578,34.66511217862054],[135.54884640048954,34.66644600723501],[135.54855534119181,34.66646958184513],[135.54867668600247,34.66762030028307],[135.54751089950904,34.66789587831094],[135.54613053559106,34.66821981098087],[135.54545754505577,34.665140060023056],[135.546194551448,34.665098286932015],[135.54836394912854,34.664937293406716],[135.54910609543975,34.66488228339003]]]},"properties":{"KEY_CODE":"27115009002","PREF":"27","CITY":"115","CITY_NAME":"大阪市東成区","S_NAME":"大今里南二丁目","SETAI":"896"}},{"type":"Feature","geometry":{"type":"Polygon","coordinates":[[[135.55084713805044,34.66475488089084],[135.5510799075797,34.66622505608008],[135.55120177478378,34.666214658229165],[135.55141360489145,34.66801394685974],[135.5501730749956,34.66782034902774],[135.54933659071128,34.667652881062516],[135.54867668600247,34.66762030028307],[135.54855534119181,34.66646958184513],[135.54884640048954,34.66644600723501],[135.54861331288578,34.66511217862054],[135.54910609543975,34.66488228339003],[135.55084713805044,34.66475488089084]]]},"properties":{"KEY_CODE":"27115009003","PREF":"27","CITY":"115","CITY_NAME":"大阪市東成区","S_NAME":"大今里南三丁目","SETAI":"803"}},{"type":"Feature","geometry":{"type":"Polygon","coordinates":[[[135.5535076138218,34.66457306635374],[135.55359798406187,34.66537475350377],[135.55299297359116,34.665416770829815],[135.55326324438448,34.668112848210164],[135.55141360489145,34.66801394685974],[135.55120177478378,34.666214658229165],[135.5510799075797,34.66622505608008],[135.55084713805044,34.66475488089084],[135.55191128117397,34.66469117693183],[135.5535076138218,34.66457306635374]]]},"properties":{"KEY_CODE":"27115009004","PREF":"27","CITY":"115","CITY_NAME":"大阪市東成区","S_NAME":"大今里南四丁目","SETAI":"1001"}},{"type":"Feature","geometry":{"type":"Polygon","coordinates":[[[135.55472201367573,34.66446481180324],[135.55496304771285,34.66682623420904],[135.5550374272931,34.667528413212],[135.55510503125132,34.66820634027556],[135.55479383127272,34.668193795829964],[135.55436630838935,34.66817463042742],[135.55423236385786,34.66816765000688],[135.55326324438448,34.668112848210164],[135.55299297359116,34.665416770829815],[135.55359798406187,34.66537475350377],[135.5535076138218,34.66457306635374],[135.55472201367573,34.66446481180324]]]},"properties":{"KEY_CODE":"27115009005","PREF":"27","CITY":"115","CITY_NAME":"大阪市東成区","S_NAME":"大今里南五丁目","SETAI":"583"}},{"type":"Feature","geometry":{"type":"Polygon","coordinates":[[[135.5568790897972,34.66829307935086],[135.55665707666302,34.668294616698965],[135.55618801627594,34.66828549952875],[135.55510503125132,34.66820634027556],[135.5550374272931,34.667528413212],[135.55496304771285,34.66682623420904],[135.55472201367573,34.66446481180324],[135.55650927316142,34.66434735812506],[135.55710160351805,34.66430795391946],[135.5572654116019,34.665781245510686],[135.55753494550802,34.66820671403757],[135.5576280873232,34.668204516437584],[135.5568790897972,34.66829307935086]]]},"properties":{"KEY_CODE":"27115009006","PREF":"27","CITY":"115","CITY_NAME":"大阪市東成区","S_NAME":"大今里南六丁目","SETAI":"862"}},{"type":"Feature","geometry":{"type":"Polygon","coordinates":[[[135.55555981897498,34.676224242300975],[135.5561847640848,34.679863677897174],[135.55422257162843,34.680700568870776],[135.55357860447907,34.680768505868905],[135.55354916510444,34.680773328388455],[135.55339794563156,34.679602789108216],[135.5528726601843,34.676601099600134],[135.55555981897498,34.676224242300975]]]},"properties":{"KEY_CODE":"27115010001","PREF":"27","CITY":"115","CITY_NAME":"大阪市東成区","S_NAME":"神路一丁目","SETAI":"894"}},{"type":"Feature","geometry":{"type":"Polygon","coordinates":[[[135.5552096878495,34.673481816610156],[135.55555981897498,34.676224242300975],[135.5528726601843,34.676601099600134],[135.55241649401552,34.67385686908037],[135.55389760336936,34.67357239565403],[135.5552096878495,34.673481816610156]]]},"properties":{"KEY_CODE":"27115010002","PREF":"27","CITY":"115","CITY_NAME":"大阪市東成区","S_NAME":"神路二丁目","SETAI":"269"}},{"type":"Feature","geometry":{"type":"Polygon","coordinates":[[[135.5546737353909,34.669971864772506],[135.5552096878495,34.673481816610156],[135.55389760336936,34.67357239565403],[135.55241649401552,34.67385686908037],[135.55179525352727,34.67028982580366],[135.55230625585023,34.6702426799118],[135.55446160123324,34.6700040527745],[135.5546737353909,34.669971864772506]]]},"properties":{"KEY_CODE":"27115010003","PREF":"27","CITY":"115","CITY_NAME":"大阪市東成区","S_NAME":"神路三丁目","SETAI":"742"}},{"type":"Feature","geometry":{"type":"Polygon","coordinates":[[[135.55141360489145,34.66801394685974],[135.55326324438448,34.668112848210164],[135.55423236385786,34.66816765000688],[135.55436630838935,34.66817463042742],[135.55479383127272,34.668193795829964],[135.55476236082063,34.6688434728113],[135.5547459785886,34.669045828696575],[135.5547276835088,34.66927128039225],[135.5546737353909,34.669971864772506],[135.55446160123324,34.6700040527745],[135.55230625585023,34.6702426799118],[135.55179525352727,34.67028982580366],[135.55162473234677,34.66926317017158],[135.5515182335351,34.6686973642609],[135.55140472503595,34.66803250786869],[135.55141360489145,34.66801394685974]]]},"properties":{"KEY_CODE":"27115010004","PREF":"27","CITY":"115","CITY_NAME":"大阪市東成区","S_NAME":"神路四丁目","SETAI":"838"}},{"type":"Feature","geometry":{"type":"Polygon","coordinates":[[[135.55744224253672,34.67331934282696],[135.55799166090375,34.679278332966085],[135.5561847640848,34.679863677897174],[135.55555981897498,34.676224242300975],[135.5552096878495,34.673481816610156],[135.55744224253672,34.67331934282696]]]},"properties":{"KEY_CODE":"27115011001","PREF":"27","CITY":"115","CITY_NAME":"大阪市東成区","S_NAME":"深江北一丁目","SETAI":"1460"}},{"type":"Feature","geometry":{"type":"Polygon","coordinates":[[[135.5598201011016,34.673164535810905],[135.56015623717371,34.67885229749503],[135.5580105377814,34.679271499102576],[135.55799166090375,34.679278332966085],[135.55744224253672,34.67331934282696],[135.5598201011016,34.673164535810905]]]},"properties":{"KEY_CODE":"27115011002","PREF":"27","CITY":"115","CITY_NAME":"大阪市東成区","S_NAME":"深江北二丁目","SETAI":"804"}},{"type":"Feature","geometry":{"type":"Polygon","coordinates":[[[135.5625077171486,34.67480945646047],[135.56326954270642,34.67584385011898],[135.56304341673055,34.67656889580791],[135.56333051951697,34.67824926546253],[135.56333323875464,34.67827547471799],[135.56015623717371,34.67885229749503],[135.5598201011016,34.673164535810905],[135.5622225863802,34.67300935947354],[135.5625077171486,34.67480945646047]]]},"properties":{"KEY_CODE":"27115011003","PREF":"27","CITY":"115","CITY_NAME":"大阪市東成区","S_NAME":"深江北三丁目","SETAI":"895"}},{"type":"Feature","geometry":{"type":"Polygon","coordinates":[[[135.5568790897972,34.66829307935086],[135.55744224253672,34.67331934282696],[135.5552096878495,34.673481816610156],[135.5546737353909,34.669971864772506],[135.5547276835088,34.66927128039225],[135.5547459785886,34.669045828696575],[135.55476236082063,34.6688434728113],[135.55479383127272,34.668193795829964],[135.55510503125132,34.66820634027556],[135.55618801627594,34.66828549952875],[135.55665707666302,34.668294616698965],[135.5568790897972,34.66829307935086]]]},"properties":{"KEY_CODE":"27115012001","PREF":"27","CITY":"115","CITY_NAME":"大阪市東成区","S_NAME":"深江南一丁目","SETAI":"1054"}},{"type":"Feature","geometry":{"type":"Polygon","coordinates":[[[135.5594588155911,34.66819803191047],[135.5598201011016,34.673164535810905],[135.55744224253672,34.67331934282696],[135.5568790897972,34.66829307935086],[135.5576280873232,34.668204516437584],[135.55851819646153,34.6682135113558],[135.55899798573202,34.667803791533444],[135.5592512425202,34.66804585870524],[135.5594588155911,34.66819803191047]]]},"properties":{"KEY_CODE":"27115012002","PREF":"27","CITY":"115","CITY_NAME":"大阪市東成区","S_NAME":"深江南二丁目","SETAI":"833"}},{"type":"Feature","geometry":{"type":"Polygon","coordinates":[[[135.5620070664566,34.66813889006765],[135.56191742182506,34.66912205648406],[135.56190209533705,34.67065442399632],[135.5620954789118,34.672577446536636],[135.5622225863802,34.67300935947354],[135.5598201011016,34.673164535810905],[135.5594588155911,34.66819803191047],[135.5620070664566,34.66813889006765]]]},"properties":{"KEY_CODE":"27115012003","PREF":"27","CITY":"115","CITY_NAME":"大阪市東成区","S_NAME":"深江南三丁目","SETAI":"882"}}]}