{"type":"FeatureCollection","features":[{"type":"Feature","geometry":{"type":"Polygon","coordinates":[[[135.5322785263785,34.558615000977],[135.52826873799697,34.55933098675816],[135.52836200238852,34.556837942629215],[135.5287073440515,34.55684420080728],[135.52897639455531,34.555642834343125],[135.5289199006577,34.55525087905246],[135.5289442284234,34.55504249626513],[135.52832054042648,34.55507841245972],[135.52824851936973,34.55501122570346],[135.52823765311675,34.55492230031545],[135.52821421272446,34.554776557918984],[135.52822610813217,34.554705045644546],[135.5283037113151,34.554205001299394],[135.52868588253725,34.55422238892355],[135.52903319945034,34.55419315632386],[135.5291597855922,34.554193079124076],[135.52942159759584,34.55415520637092],[135.529688430357,34.55412566319164],[135.53021746888658,34.55413121319889],[135.5305261650081,34.55410464583921],[135.53105488228564,34.55387142929992],[135.53220800555832,34.55382949056941],[135.53234264869167,34.55659302349805],[135.5322785263785,34.558615000977]]]},"properties":{"KEY_CODE":"27143001001","PREF":"27","CITY":"143","CITY_NAME":"堺市東区","S_NAME":"石原町一丁","SETAI":"3"}},{"type":"Feature","geometry":{"type":"Polygon","coordinates":[[[135.53820608266568,34.55817291429419],[135.536227833381,34.5580164127056],[135.53617632877047,34.558016217824466],[135.53519059055182,34.55809939610619],[135.5322785263785,34.558615000977],[135.53234264869167,34.55659302349805],[135.53220800555832,34.55382949056941],[135.53224206195142,34.55382641093439],[135.53279103421204,34.55377818598932],[135.53347889796214,34.55356655324364],[135.53404803841178,34.55360125738173],[135.53448824140685,34.553599971160295],[135.53491583652314,34.55330127448811],[135.53500869438744,34.552828747592535],[135.53688502791763,34.552788801154435],[135.538496895336,34.55271359979788],[135.53847860128272,34.55374690379345],[135.53850858399775,34.55421510397106],[135.53853417500514,34.554900357240655],[135.53852027793633,34.555235981097354],[135.53852450913058,34.55551096128853],[135.5384839883049,34.556012562156475],[135.5384605520975,34.55626447806289],[135.53840751984714,34.55759951633201],[135.5382535045288,34.55802561017242],[135.53820608266568,34.55817291429419]]]},"properties":{"KEY_CODE":"27143001002","PREF":"27","CITY":"143","CITY_NAME":"堺市東区","S_NAME":"石原町二丁","SETAI":"15"}},{"type":"Feature","geometry":{"type":"Polygon","coordinates":[[[135.52903319945034,34.55419315632386],[135.52868588253725,34.55422238892355],[135.5283037113151,34.554205001299394],[135.52815300332642,34.554082293959056],[135.52858373701054,34.55318539008834],[135.5272357999562,34.552392073130264],[135.52740618705957,34.551787302317464],[135.52792881378357,34.55140278776676],[135.52826581495935,34.55117039353885],[135.52893113487437,34.551468902637055],[135.52909433589497,34.55129218295592],[135.53000265382877,34.55145329231771],[135.53024094299334,34.55141138279017],[135.53066779818496,34.55102508015266],[135.5309540059259,34.55033059241999],[135.53098509329618,34.54996277672892],[135.53108728492288,34.550167841463946],[135.53124554472694,34.55037861403396],[135.5322024459829,34.55047410905822],[135.532627941845,34.550924098687425],[135.5348406368251,34.55090123720844],[135.53505756358422,34.55138648979469],[135.53499732725706,34.55242301738987],[135.53500869438744,34.552828747592535],[135.53491583652314,34.55330127448811],[135.53448824140685,34.553599971160295],[135.53404803841178,34.55360125738173],[135.53347889796214,34.55356655324364],[135.53279103421204,34.55377818598932],[135.53224206195142,34.55382641093439],[135.53220800555832,34.55382949056941],[135.53105488228564,34.55387142929992],[135.5305261650081,34.55410464583921],[135.53021746888658,34.55413121319889],[135.529688430357,34.55412566319164],[135.52942159759584,34.55415520637092],[135.5291597855922,34.554193079124076],[135.52903319945034,34.55419315632386]]]},"properties":{"KEY_CODE":"27143001003","PREF":"27","CITY":"143","CITY_NAME":"堺市東区","S_NAME":"石原町三丁","SETAI":"185"}},{"type":"Feature","geometry":{"type":"Polygon","coordinates":[[[135.5408873418742,34.55473987502606],[135.53891597508346,34.55476205774914],[135.53853417500514,34.554900357240655],[135.53850858399775,34.55421510397106],[135.53847860128272,34.55374690379345],[135.538496895336,34.55271359979788],[135.53688502791763,34.552788801154435],[135.53500869438744,34.552828747592535],[135.53499732725706,34.55242301738987],[135.5366601285321,34.55232620011899],[135.53703347996105,34.551812753967845],[135.5370766093924,34.55160260745129],[135.53742659930774,34.55094060156867],[135.5375420010541,34.550853137976254],[135.53790015026533,34.54996099022356],[135.53939046003836,34.54988334721013],[135.53943554300153,34.54961066365478],[135.54110272610515,34.54963494492026],[135.5411735123633,34.55030980586072],[135.5416821464707,34.55085924502974],[135.5421339342968,34.55096291812558],[135.5420999067294,34.552741335625086],[135.5419119546487,34.55323788152195],[135.54087581688538,34.55329401455611],[135.5408867956323,34.55349633488046],[135.54090769639663,34.553922946173365],[135.54091265040933,34.55438569895459],[135.5408873418742,34.55473987502606]]]},"properties":{"KEY_CODE":"27143001004","PREF":"27","CITY":"143","CITY_NAME":"堺市東区","S_NAME":"石原町四丁","SETAI":"340"}},{"type":"Feature","geometry":{"type":"Polygon","coordinates":[[[135.5207869900745,34.53636416125396],[135.52049352289893,34.53632821477157],[135.52026319707971,34.53625715858111],[135.52042119546596,34.53577516774362],[135.52087906868852,34.535368450952504],[135.52295878309536,34.532416832242774],[135.52378981847812,34.53106577505589],[135.52273911064168,34.530834883536556],[135.5230251813898,34.53048481796795],[135.52462196499218,34.530729382124704],[135.5247400088087,34.530923814619335],[135.52579089132868,34.52886856213672],[135.52612638479133,34.52805959955419],[135.52656257620686,34.52808932109776],[135.5265873479199,34.527153086947756],[135.5269434979989,34.5276052339569],[135.52758560622885,34.527669978568404],[135.52815136781862,34.525883456664616],[135.52839679537442,34.525875951470724],[135.52938499474877,34.52473438138537],[135.52984387447398,34.523788121770444],[135.53020049288213,34.52354185043124],[135.53057661696033,34.5226230204884],[135.5314785009075,34.522571398727074],[135.53146671924566,34.52213650151042],[135.5322660838267,34.52205743540029],[135.53250698792402,34.521363324851364],[135.5328673841099,34.521421047547],[135.53301628969098,34.520956899898415],[135.53665565115028,34.52159464343137],[135.53692967800507,34.521891359657886],[135.536993899424,34.521294473708544],[135.53814943515698,34.52069185934908],[135.5392629773526,34.52089186921587],[135.5392866228566,34.52068460447939],[135.54012924537193,34.52112249052082],[135.540732830358,34.52203728784437],[135.53952268970303,34.52335587972675],[135.53979895188377,34.5236434407846],[135.5391639583575,34.52395362763002],[135.53889466356037,34.52458143480804],[135.5379946524005,34.525697070545505],[135.53778906197437,34.525564302259774],[135.5369645275671,34.526907715266226],[135.5365555815519,34.52730749093307],[135.53612818439285,34.52682706782606],[135.53629278908136,34.527584985622504],[135.53592674472407,34.52822763411842],[135.5351879631817,34.52810762759251],[135.53527196872122,34.52713076195739],[135.53484548145175,34.52690192406938],[135.5348945408091,34.52619637303083],[135.5348616461507,34.525660253797895],[135.53419385333632,34.52581674904131],[135.53416533406758,34.52506047328723],[135.5335266425192,34.525141572295034],[135.53348554417113,34.52590547087728],[135.5330744275532,34.52602025686285],[135.5326987467161,34.52622772607912],[135.53261385035063,34.52619119862138],[135.53220466309304,34.52546375372672],[135.53208181396383,34.52523649074137],[135.53151324046533,34.5254623748185],[135.53075984983303,34.52592011655328],[135.5303683716866,34.52658448523094],[135.53072432476716,34.527143537540056],[135.53057919173838,34.52733230356496],[135.53077545844633,34.528362502079254],[135.53055093768188,34.528434608952026],[135.53070343236297,34.52886159758673],[135.53218664244565,34.52950202448935],[135.5327901614764,34.530599566543955],[135.53213696646736,34.53080146694833],[135.53150422142153,34.5307927052935],[135.53068659518638,34.53107862835876],[135.52996154382788,34.531018229767774],[135.52996292227536,34.53077242315519],[135.52909925298252,34.53066373270515],[135.5288677238486,34.53137618907974],[135.5280054628049,34.53137906292824],[135.52732171995044,34.53009777637682],[135.52777881320355,34.52910826312939],[135.5277434576605,34.527853290587124],[135.52697502259844,34.52796836491609],[135.5268940789645,34.52913174849132],[135.52657364234295,34.52971623273551],[135.52628271984403,34.53110870043208],[135.52649283606527,34.531366032372844],[135.5263133335522,34.5327166718686],[135.52511826453718,34.53251468448625],[135.52496792189092,34.53313081634154],[135.5253979341367,34.533760327828965],[135.5233737211929,34.53361384671519],[135.52351828395544,34.534562866819044],[135.52270071672672,34.53457334494444],[135.52201272468483,34.53559912863991],[135.52155547729845,34.5355240863957],[135.5207869900745,34.53636416125396]]]},"properties":{"KEY_CODE":"271430020","PREF":"27","CITY":"143","CITY_NAME":"堺市東区","S_NAME":"大美野","SETAI":"2497"}},{"type":"Feature","geometry":{"type":"Polygon","coordinates":[[[135.55285907942493,34.528742051862245],[135.55286032736214,34.5294424345129],[135.5533525019675,34.52982104498687],[135.55307088514814,34.53050208192425],[135.5521329317576,34.53031510577999],[135.5515821498989,34.53219193790876],[135.5507775915434,34.53255185355458],[135.55011216297845,34.53244573241263],[135.5493246509899,34.53224477925951],[135.54932495183328,34.53162351363403],[135.5482537098083,34.53128661222314],[135.54762785961472,34.53146319835367],[135.54617435606602,34.5309594351947],[135.5460215072486,34.53044851493856],[135.5455198768891,34.53057159920842],[135.54516440080423,34.52982552522604],[135.5446575532246,34.529797156537576],[135.54422443053699,34.52978751398572],[135.54394851795553,34.52977324472911],[135.54356675420175,34.52976379077529],[135.54347484414853,34.53073274114746],[135.5422955645162,34.53070016143197],[135.54267528249784,34.526153328669935],[135.5421973535387,34.52632691600163],[135.5420855695155,34.52600067689063],[135.54249474124865,34.524897685638216],[135.5416413453147,34.52456106043039],[135.54202939628465,34.52388171365791],[135.54086542046167,34.52372985987542],[135.5406843715446,34.5226428263898],[135.54121319161285,34.52246520989092],[135.54135414439006,34.52211625310132],[135.54170089383777,34.52254719293351],[135.54220927694848,34.522597556822866],[135.5423746237095,34.52169156825118],[135.54246815734436,34.52079939699277],[135.54254469121813,34.5206757223601],[135.54255180584508,34.52060376690974],[135.54316161545174,34.52066084681397],[135.54300744823058,34.52170379877141],[135.54348853208572,34.522477819520404],[135.54418690343067,34.52253409701305],[135.54474549453784,34.52249828740202],[135.54475990095833,34.52283092319359],[135.54623179196793,34.523006142006665],[135.54628170978287,34.52325636185758],[135.54753268208594,34.523064353447175],[135.5487937261851,34.52313493920839],[135.5488341202428,34.523488376772576],[135.55167361856226,34.52337007304938],[135.5529335166005,34.523090000628216],[135.55381858065897,34.52270177156449],[135.5539364324392,34.52283912157773],[135.55420182293736,34.52334847084379],[135.55407997976653,34.523642151241425],[135.55415286521938,34.52411487526909],[135.55426192782386,34.524369531972354],[135.55443827735755,34.52466106125368],[135.55449219627616,34.52489185151187],[135.5547130759906,34.52509916264955],[135.5546199832931,34.526004440622515],[135.55486913590966,34.52646583312057],[135.55474302561547,34.526792883940814],[135.554845448314,34.52679198849447],[135.554931546272,34.526804416202815],[135.55499933908249,34.5268907315144],[135.5550245153345,34.52735905582412],[135.55497643668494,34.52738240465427],[135.55498994736354,34.52790041210211],[135.55477282699601,34.52853125732891],[135.55403044899182,34.52858574308145],[135.55354503794987,34.52861552582465],[135.55313583672284,34.528533457002375],[135.55294576615236,34.52850853372692],[135.55289076833233,34.52860848732679],[135.55285907942493,34.528742051862245]]]},"properties":{"KEY_CODE":"271430030","PREF":"27","CITY":"143","CITY_NAME":"堺市東区","S_NAME":"北野田","SETAI":"4099"}},{"type":"Feature","geometry":{"type":"Polygon","coordinates":[[[135.540767504516,34.522060942305835],[135.54121319161285,34.52246520989092],[135.5406843715446,34.5226428263898],[135.540767504516,34.522060942305835]]]},"properties":{"KEY_CODE":"271430040","PREF":"27","CITY":"143","CITY_NAME":"堺市東区","S_NAME":"草尾","SETAI":"0"}},{"type":"Feature","geometry":{"type":"Polygon","coordinates":[[[135.5348945408091,34.52619637303083],[135.53484548145175,34.52690192406938],[135.53527196872122,34.52713076195739],[135.53432479180847,34.52713997713891],[135.53434410552578,34.52660447879973],[135.53398858850616,34.52594021110943],[135.5339878000039,34.52592119068694],[135.53433488543308,34.52621128752642],[135.53467045927985,34.52619904181858],[135.5348945408091,34.52619637303083]]]},"properties":{"KEY_CODE":"271430040","PREF":"27","CITY":"143","CITY_NAME":"堺市東区","S_NAME":"草尾","SETAI":"0"}},{"type":"Feature","geometry":{"type":"Polygon","coordinates":[[[135.52827764795032,34.52497691156016],[135.5274323774706,34.525434982712106],[135.52741760293043,34.525844561760785],[135.52682503047527,34.52713118628347],[135.52618978711718,34.52639439632777],[135.5270428970179,34.5254241794348],[135.52711738535027,34.52528360224756],[135.52888274146605,34.52213615764434],[135.52999407895786,34.52038482498468],[135.5313960447285,34.51745572710703],[135.53256545750295,34.51458545662425],[135.53350054587582,34.51485934168977],[135.53391307202642,34.514641448604664],[135.53404081251554,34.51471405715866],[135.53416932023623,34.51510896426933],[135.53533803966212,34.514587426511405],[135.5350949281413,34.51432872183032],[135.53536883762126,34.51391815987836],[135.53568551643556,34.5142829327483],[135.53672196153846,34.51340280696327],[135.53758454386974,34.51286558041725],[135.53792140168463,34.51265569999168],[135.53866432688312,34.51218266923691],[135.5400794283106,34.511667652483894],[135.5402919337612,34.51386043526597],[135.5403054614476,34.515510001135134],[135.53777557733,34.516275064044045],[135.5362424841872,34.520315705038946],[135.5372087264325,34.5203447266739],[135.5392866228566,34.52068460447939],[135.5392629773526,34.52089186921587],[135.53814943515698,34.52069185934908],[135.536993899424,34.521294473708544],[135.53692967800507,34.521891359657886],[135.53665565115028,34.52159464343137],[135.53301628969098,34.520956899898415],[135.5328673841099,34.521421047547],[135.53250698792402,34.521363324851364],[135.5322660838267,34.52205743540029],[135.53146671924566,34.52213650151042],[135.5314785009075,34.522571398727074],[135.53057661696033,34.5226230204884],[135.53020049288213,34.52354185043124],[135.53009002723977,34.52236632621553],[135.52964657224445,34.52277947150024],[135.5297029847812,34.523243417480046],[135.52932988557288,34.52329508825247],[135.52951977747472,34.52378095929475],[135.52921039601316,34.52429054690698],[135.5288771190771,34.52425855500997],[135.52842223622926,34.5247261653944],[135.52827764795032,34.52497691156016]]]},"properties":{"KEY_CODE":"271430040","PREF":"27","CITY":"143","CITY_NAME":"堺市東区","S_NAME":"草尾","SETAI":"2475"}},{"type":"Feature","geometry":{"type":"Polygon","coordinates":[[[135.52579089132868,34.52886856213672],[135.5247400088087,34.530923814619335],[135.52462196499218,34.530729382124704],[135.5230251813898,34.53048481796795],[135.5231345774434,34.53035099828451],[135.523255924578,34.53018088141254],[135.5236708851745,34.52968777347685],[135.52370578492406,34.52964903012422],[135.52420995150294,34.52987877478782],[135.52444354872426,34.52955836595116],[135.52524900053731,34.529770119690475],[135.52534601186605,34.52895966654924],[135.52579089132868,34.52886856213672]]]},"properties":{"KEY_CODE":"271430040","PREF":"27","CITY":"143","CITY_NAME":"堺市東区","S_NAME":"草尾","SETAI":"0"}},{"type":"Feature","geometry":{"type":"Polygon","coordinates":[[[135.52351828395544,34.534562866819044],[135.52338163186434,34.53547022201575],[135.5214656711048,34.53652586229622],[135.5207869900745,34.53636416125396],[135.52155547729845,34.5355240863957],[135.52201272468483,34.53559912863991],[135.52270071672672,34.53457334494444],[135.52351828395544,34.534562866819044]]]},"properties":{"KEY_CODE":"271430040","PREF":"27","CITY":"143","CITY_NAME":"堺市東区","S_NAME":"草尾","SETAI":"0"}},{"type":"Feature","geometry":{"type":"Polygon","coordinates":[[[135.52049352289893,34.53632821477157],[135.51996874779167,34.53660084418011],[135.5191074709507,34.53628994083106],[135.5195640307257,34.53555725643678],[135.5202830365673,34.53426283757287],[135.52073948019498,34.533412666059014],[135.5217630166069,34.5320335078329],[135.52273911064168,34.530834883536556],[135.52378981847812,34.53106577505589],[135.52295878309536,34.532416832242774],[135.52087906868852,34.535368450952504],[135.52042119546596,34.53577516774362],[135.52026319707971,34.53625715858111],[135.52049352289893,34.53632821477157]]]},"properties":{"KEY_CODE":"271430040","PREF":"27","CITY":"143","CITY_NAME":"堺市東区","S_NAME":"草尾","SETAI":"0"}},{"type":"Feature","geometry":{"type":"Polygon","coordinates":[[[135.5418014930174,34.5051173385486],[135.5420413255606,34.50577409899647],[135.54203120723454,34.505983806699064],[135.54199298149865,34.50600408873244],[135.54159304015914,34.50613443810356],[135.5416852336253,34.505476527418104],[135.5418014930174,34.5051173385486]]]},"properties":{"KEY_CODE":"271430050","PREF":"27","CITY":"143","CITY_NAME":"堺市東区","S_NAME":"丈六","SETAI":"0"}},{"type":"Feature","geometry":{"type":"Polygon","coordinates":[[[135.54220475764788,34.53305381955584],[135.5409677189386,34.53300241869177],[135.54102349554736,34.53263905453221],[135.53896578116553,34.53261131713843],[135.53890147688642,34.53272094996592],[135.53808237749388,34.53274307529561],[135.53786219977044,34.53271364883468],[135.53782176497674,34.53282351163737],[135.53754062784347,34.53278286684023],[135.53698919540574,34.532156464814456],[135.53712011751475,34.53198144091603],[135.53735265564927,34.53158296640565],[135.53798240435617,34.53131009439317],[135.53842520220218,34.53038234493098],[135.53791122150403,34.530042880060755],[135.5380244503068,34.529209100832844],[135.53746078297831,34.52924598999721],[135.53781428838147,34.52761145431939],[135.5381879608827,34.52755821063229],[135.53812018152945,34.52706323528728],[135.5375947049409,34.52715252956142],[135.5369645275671,34.526907715266226],[135.53778906197437,34.525564302259774],[135.5379946524005,34.525697070545505],[135.53889466356037,34.52458143480804],[135.5391639583575,34.52395362763002],[135.53979895188377,34.5236434407846],[135.53952268970303,34.52335587972675],[135.540732830358,34.52203728784437],[135.540767504516,34.522060942305835],[135.5406843715446,34.5226428263898],[135.54086542046167,34.52372985987542],[135.54202939628465,34.52388171365791],[135.5416413453147,34.52456106043039],[135.54249474124865,34.524897685638216],[135.5420855695155,34.52600067689063],[135.5421973535387,34.52632691600163],[135.54267528249784,34.526153328669935],[135.5422955645162,34.53070016143197],[135.54220719990147,34.53280928673475],[135.54220475764788,34.53305381955584]]]},"properties":{"KEY_CODE":"271430050","PREF":"27","CITY":"143","CITY_NAME":"堺市東区","S_NAME":"丈六","SETAI":"1223"}},{"type":"Feature","geometry":{"type":"Polygon","coordinates":[[[135.53398858850616,34.52594021110943],[135.53434410552578,34.52660447879973],[135.53432479180847,34.52713997713891],[135.53316751615887,34.52692412451247],[135.5326987467161,34.52622772607912],[135.5330744275532,34.52602025686285],[135.53348554417113,34.52590547087728],[135.53398858850616,34.52594021110943]]]},"properties":{"KEY_CODE":"271430050","PREF":"27","CITY":"143","CITY_NAME":"堺市東区","S_NAME":"丈六","SETAI":"0"}},{"type":"Feature","geometry":{"type":"Polygon","coordinates":[[[135.51691708658893,34.54803109198683],[135.51404799859824,34.549742879815064],[135.5135175153239,34.55008616527719],[135.51249486727755,34.5505197487842],[135.5124040069231,34.54985281884958],[135.51031010562465,34.54880993110752],[135.50838827782286,34.548240169340716],[135.50936954529527,34.54732764573083],[135.50915560436945,34.547848830050505],[135.5097925153387,34.547828846118],[135.5112090806961,34.54647688337386],[135.51168295306533,34.54605942942124],[135.51214030178417,34.54522621923202],[135.5127532588314,34.54457237908024],[135.51505380383927,34.54637137254339],[135.51691708658893,34.54803109198683]]]},"properties":{"KEY_CODE":"27143006001","PREF":"27","CITY":"143","CITY_NAME":"堺市東区","S_NAME":"白鷺町一丁","SETAI":"1592"}},{"type":"Feature","geometry":{"type":"Polygon","coordinates":[[[135.51342367547986,34.543520104002525],[135.51421337455074,34.54357467004969],[135.51483342464599,34.544410086043655],[135.5167547150143,34.544763265810694],[135.51757586798118,34.545130091776706],[135.51861194241485,34.54532843747358],[135.5188091584498,34.545173844866135],[135.52070510468445,34.54501594210148],[135.52122386454573,34.545454794868604],[135.51915156715063,34.54670524565784],[135.5186181971959,34.54699500892543],[135.51850915219103,34.547055290855226],[135.51691708658893,34.54803109198683],[135.51505380383927,34.54637137254339],[135.5127532588314,34.54457237908024],[135.51305279918662,34.544043493292605],[135.51339980524799,34.543548604547745],[135.51342367547986,34.543520104002525]]]},"properties":{"KEY_CODE":"27143006002","PREF":"27","CITY":"143","CITY_NAME":"堺市東区","S_NAME":"白鷺町二丁","SETAI":"755"}},{"type":"Feature","geometry":{"type":"Polygon","coordinates":[[[135.5229803785145,34.546823654231105],[135.52256007716085,34.54713276248727],[135.52221842139446,34.54791279578864],[135.52230549008516,34.54880267790877],[135.52206676839364,34.549644805546116],[135.52154066981646,34.550016028565864],[135.5217385749511,34.55070322488621],[135.52042719597281,34.55071681670102],[135.51937818209032,34.550387440176536],[135.51953247083938,34.54956357943946],[135.52045866640032,34.54884811955821],[135.52004312764578,34.54834515665525],[135.51947882585014,34.54804599741848],[135.5192926988027,34.54720177918394],[135.51902936580416,34.5470184653709],[135.5189442314476,34.54700601486842],[135.51883552098542,34.54700798097212],[135.5186181971959,34.54699500892544],[135.51915156715063,34.54670524565784],[135.52122386454573,34.545454794868604],[135.5229803785145,34.546823654231105]]]},"properties":{"KEY_CODE":"27143006003","PREF":"27","CITY":"143","CITY_NAME":"堺市東区","S_NAME":"白鷺町三丁","SETAI":"465"}},{"type":"Feature","geometry":{"type":"Polygon","coordinates":[[[135.51987047733817,34.538719110611765],[135.51942493327252,34.53925730258978],[135.51830629718643,34.539604638342844],[135.51777197121464,34.540067673036916],[135.51661204571343,34.53991939799071],[135.5178322482765,34.538098018653955],[135.518435570896,34.53723040161554],[135.51881355969695,34.53670222932408],[135.5191074709507,34.53628994083106],[135.51996874779167,34.53660084418011],[135.51976959078652,34.53700899987358],[135.52007105035014,34.537195145486706],[135.5203578316314,34.53673436605331],[135.52072888461998,34.53688810155059],[135.51966589038142,34.53751994223904],[135.52003480440513,34.53763155206064],[135.5197534798703,34.5383571828127],[135.51987047733817,34.538719110611765]]]},"properties":{"KEY_CODE":"271430070","PREF":"27","CITY":"143","CITY_NAME":"堺市東区","S_NAME":"関茶屋","SETAI":"222"}},{"type":"Feature","geometry":{"type":"Polygon","coordinates":[[[135.53433488543308,34.52621128752642],[135.5339878000039,34.52592119068694],[135.53348554417113,34.52590547087728],[135.5335266425192,34.525141572295034],[135.53416533406758,34.52506047328723],[135.53419385333632,34.52581674904131],[135.5348616461507,34.525660253797895],[135.5348945408091,34.52619637303083],[135.53467045927985,34.52619904181858],[135.53433488543308,34.52621128752642]]]},"properties":{"KEY_CODE":"271430080","PREF":"27","CITY":"143","CITY_NAME":"堺市東区","S_NAME":"高松","SETAI":"0"}},{"type":"Feature","geometry":{"type":"Polygon","coordinates":[[[135.53754062784347,34.53278286684023],[135.5372720001932,34.53311246260382],[135.5371834951851,34.53447542593895],[135.53536864334822,34.534431080648595],[135.53432646765944,34.53454305281641],[135.53388778818373,34.53320977654186],[135.5341271810478,34.53307432998449],[135.5335101641831,34.53270600905462],[135.5331936330022,34.53230474203634],[135.53305977601593,34.53207306990606],[135.53300914077323,34.531927361916495],[135.53213696646736,34.53080146694833],[135.5327901614764,34.530599566543955],[135.53218664244565,34.52950202448935],[135.53070343236297,34.52886159758673],[135.53055093768188,34.528434608952026],[135.53077545844633,34.528362502079254],[135.53057919173838,34.52733230356496],[135.53072432476716,34.527143537540056],[135.5303683716866,34.52658448523094],[135.53075984983303,34.52592011655328],[135.53151324046533,34.5254623748185],[135.53208181396383,34.52523649074137],[135.53220466309304,34.52546375372672],[135.53261385035063,34.52619119862138],[135.5326987467161,34.52622772607912],[135.53316751615887,34.52692412451247],[135.53432479180847,34.52713997713891],[135.53527196872122,34.52713076195739],[135.5351879631817,34.52810762759251],[135.53592674472407,34.52822763411842],[135.53629278908136,34.527584985622504],[135.53612818439285,34.52682706782606],[135.5365555815519,34.52730749093307],[135.5369645275671,34.526907715266226],[135.5375947049409,34.52715252956142],[135.53812018152945,34.52706323528728],[135.5381879608827,34.52755821063229],[135.53781428838147,34.52761145431939],[135.53746078297831,34.52924598999721],[135.5380244503068,34.529209100832844],[135.53791122150403,34.530042880060755],[135.53842520220218,34.53038234493098],[135.53798240435617,34.53131009439317],[135.53735265564927,34.53158296640565],[135.53712011751475,34.53198144091603],[135.53698919540574,34.532156464814456],[135.53754062784347,34.53278286684023]]]},"properties":{"KEY_CODE":"271430080","PREF":"27","CITY":"143","CITY_NAME":"堺市東区","S_NAME":"高松","SETAI":"1896"}},{"type":"Feature","geometry":{"type":"Polygon","coordinates":[[[135.53391307202642,34.514641448604664],[135.53412762178618,34.5133667454415],[135.53464208096798,34.513031897914175],[135.53447004546425,34.514252108164385],[135.53404081251554,34.51471405715866],[135.53391307202642,34.514641448604664]]]},"properties":{"KEY_CODE":"271430090","PREF":"27","CITY":"143","CITY_NAME":"堺市東区","S_NAME":"中茶屋","SETAI":"0"}},{"type":"Feature","geometry":{"type":"Polygon","coordinates":[[[135.52579089132868,34.52886856213672],[135.52534601186605,34.52895966654924],[135.52524900053731,34.529770119690475],[135.52444354872426,34.52955836595116],[135.52420995150294,34.52987877478782],[135.52370578492406,34.52964903012422],[135.52352747850847,34.52950929969541],[135.52344689296757,34.529448272503],[135.52439557282798,34.52836940297623],[135.52471270754157,34.528294004700975],[135.52597826628255,34.5264855614839],[135.52618978711718,34.52639439632777],[135.52682503047527,34.52713118628347],[135.52741760293043,34.525844561760785],[135.5274323774706,34.525434982712106],[135.52827764795032,34.52497691156016],[135.52842223622926,34.5247261653944],[135.5288771190771,34.52425855500997],[135.52921039601316,34.52429054690698],[135.52951977747472,34.52378095929475],[135.52932988557288,34.52329508825247],[135.5297029847812,34.523243417480046],[135.52964657224445,34.52277947150024],[135.53009002723977,34.52236632621553],[135.53020049288213,34.52354185043124],[135.52984387447398,34.523788121770444],[135.52938499474877,34.52473438138537],[135.52839679537442,34.525875951470724],[135.52815136781862,34.525883456664616],[135.52758560622885,34.527669978568404],[135.5269434979989,34.5276052339569],[135.5265873479199,34.527153086947756],[135.52656257620686,34.52808932109776],[135.52612638479133,34.52805959955419],[135.52579089132868,34.52886856213672]]]},"properties":{"KEY_CODE":"271430090","PREF":"27","CITY":"143","CITY_NAME":"堺市東区","S_NAME":"中茶屋","SETAI":"543"}},{"type":"Feature","geometry":{"type":"Polygon","coordinates":[[[135.52657364234295,34.52971623273551],[135.5268940789645,34.52913174849132],[135.52697502259844,34.52796836491609],[135.5277434576605,34.527853290587124],[135.52777881320355,34.52910826312939],[135.52732171995044,34.53009777637682],[135.52657364234295,34.52971623273551]]]},"properties":{"KEY_CODE":"271430090","PREF":"27","CITY":"143","CITY_NAME":"堺市東区","S_NAME":"中茶屋","SETAI":"0"}},{"type":"Feature","geometry":{"type":"Polygon","coordinates":[[[135.5423746237095,34.52169156825118],[135.54220927694848,34.522597556822866],[135.54170089383777,34.52254719293351],[135.54135414439006,34.52211625310132],[135.54121319161285,34.52246520989092],[135.540767504516,34.522060942305835],[135.540732830358,34.52203728784437],[135.54012924537193,34.52112249052082],[135.5392866228566,34.52068460447939],[135.5372087264325,34.5203447266739],[135.5362424841872,34.520315705038946],[135.53777557733,34.516275064044045],[135.5403054614476,34.515510001135134],[135.5402919337612,34.51386043526597],[135.5400794283106,34.511667652483894],[135.54085875927998,34.51132504428149],[135.54116091459284,34.51209290093123],[135.54219346056865,34.511655728441994],[135.54192279174097,34.511361717663526],[135.5426888079831,34.51068844093542],[135.5428339829926,34.509893949386075],[135.5431554502753,34.50979556079851],[135.54333519219853,34.51094638527083],[135.543435083351,34.51053977464243],[135.54380114073874,34.51051049220488],[135.54412392826234,34.51136222412248],[135.54413718727054,34.512202504692894],[135.54413058122157,34.51250294260153],[135.54391287441766,34.5133605558219],[135.5440987552586,34.51498245439433],[135.54378682639546,34.51596156194443],[135.5447566595418,34.51614407754608],[135.54463143342699,34.51681468697193],[135.54377557152864,34.51812913485651],[135.54399816625238,34.51907121876717],[135.54298660929913,34.51934972841275],[135.54277736721042,34.519826615001506],[135.54258173539054,34.52035046313045],[135.54255180584508,34.52060376690974],[135.54254469121813,34.5206757223601],[135.54246815734436,34.52079939699277],[135.5423746237095,34.52169156825118]]]},"properties":{"KEY_CODE":"271430100","PREF":"27","CITY":"143","CITY_NAME":"堺市東区","S_NAME":"西野","SETAI":"2286"}},{"type":"Feature","geometry":{"type":"Polygon","coordinates":[[[135.52452435560488,34.545561459190125],[135.5234753288183,34.546409328705046],[135.5231575995806,34.54666671834704],[135.52302907264104,34.54677792232478],[135.5229803785145,34.546823654231105],[135.52122386454573,34.545454794868604],[135.52070510468445,34.54501594210148],[135.5188091584498,34.545173844866135],[135.51861194241485,34.54532843747358],[135.51757586798118,34.545130091776706],[135.5167547150143,34.544763265810694],[135.51483342464599,34.544410086043655],[135.51421337455074,34.54357467004969],[135.51342367547986,34.543520104002525],[135.51440773512365,34.54228312884009],[135.5147770788693,34.541639427296104],[135.51501792889604,34.54128385031891],[135.5156957728727,34.541102007487694],[135.51635470204454,34.540428881620215],[135.51661204571343,34.53991939799071],[135.51777197121464,34.540067673036916],[135.51830629718643,34.539604638342844],[135.51942493327252,34.53925730258978],[135.51987047733817,34.538719110611765],[135.52057554033453,34.53890641896973],[135.52228303646334,34.5389345257858],[135.52266250030445,34.53917548020784],[135.52351026686162,34.53877167199453],[135.52383936044063,34.53908497285522],[135.52401955806712,34.53921738420788],[135.5240873380451,34.54038065093151],[135.52375568371622,34.54080126199172],[135.52352020069546,34.54159653186038],[135.52346331408805,34.54201313915346],[135.52327306468277,34.54422909542482],[135.52336735345727,34.54527243309092],[135.5241605162008,34.54523860174137],[135.52417948243016,34.54545109565009],[135.5243317382954,34.545200386880346],[135.5243882313695,34.54520497236194],[135.52451623232932,34.54519307200792],[135.52489270818083,34.545186640402655],[135.52452435560488,34.545561459190125]]]},"properties":{"KEY_CODE":"271430110","PREF":"27","CITY":"143","CITY_NAME":"堺市東区","S_NAME":"野尻町","SETAI":"2114"}},{"type":"Feature","geometry":{"type":"Polygon","coordinates":[[[135.53796879091777,34.539738864530605],[135.53689518943432,34.53995089834797],[135.53690748228323,34.53987487765729],[135.5369739768064,34.539478594261396],[135.53697614836398,34.53891612781469],[135.53747237561808,34.5389044792854],[135.53788965574546,34.53891732322239],[135.53854460801867,34.53901572133546],[135.53863861625257,34.53954122002071],[135.53796879091777,34.539738864530605]]]},"properties":{"KEY_CODE":"27143012000","PREF":"27","CITY":"143","CITY_NAME":"堺市東区","S_NAME":"日置荘北町","SETAI":"66"}},{"type":"Feature","geometry":{"type":"Polygon","coordinates":[[[135.53823994896493,34.54550956942908],[135.53774985923442,34.545697324919395],[135.53702067000373,34.54545313393331],[135.53552777349574,34.545497072000515],[135.53552941972785,34.54572964371491],[135.53476329789072,34.5457301199747],[135.53433130701063,34.54543309142268],[135.53306586016643,34.54542899226164],[135.53319348704466,34.544644159505964],[135.5340724651248,34.5447818814713],[135.534336608134,34.54402784524038],[135.53421498256566,34.54261802664999],[135.53545126710014,34.54254707190437],[135.53809035663565,34.54263719713959],[135.53817275255955,34.5430765835922],[135.53823994896493,34.54550956942908]]]},"properties":{"KEY_CODE":"27143012001","PREF":"27","CITY":"143","CITY_NAME":"堺市東区","S_NAME":"日置荘北町一丁","SETAI":"499"}},{"type":"Feature","geometry":{"type":"Polygon","coordinates":[[[135.541497975312,34.54265604835149],[135.54135605213565,34.54393738587341],[135.54160319923952,34.54440288114805],[135.5410301518205,34.544423980101065],[135.54137333731148,34.54507929787081],[135.54131893938035,34.54574890158588],[135.53918965669092,34.545457500404474],[135.5389759742762,34.545687713745],[135.53823994896493,34.54550956942908],[135.53817275255955,34.5430765835922],[135.53809035663565,34.54263719713959],[135.5403424552476,34.542528040949165],[135.541497975312,34.54265604835149]]]},"properties":{"KEY_CODE":"27143012002","PREF":"27","CITY":"143","CITY_NAME":"堺市東区","S_NAME":"日置荘北町二丁","SETAI":"565"}},{"type":"Feature","geometry":{"type":"Polygon","coordinates":[[[135.54158148545008,34.54169721257582],[135.541497975312,34.54265604835149],[135.5403424552476,34.542528040949165],[135.53809035663565,34.54263719713959],[135.53545126710014,34.54254707190437],[135.53421498256566,34.54261802664999],[135.5344488547129,34.542087006688796],[135.5345595857941,34.54068652217882],[135.5354813172086,34.540335742837684],[135.53689518943432,34.53995089834797],[135.53796879091777,34.539738864530605],[135.5387025022615,34.539578085463404],[135.53872018735453,34.54017682755154],[135.53931920807406,34.54024063909848],[135.53932780248388,34.54065129257157],[135.53977563952623,34.540533804199264],[135.54165852640213,34.540644959742046],[135.54158148545008,34.54169721257582]]]},"properties":{"KEY_CODE":"27143012003","PREF":"27","CITY":"143","CITY_NAME":"堺市東区","S_NAME":"日置荘北町三丁","SETAI":"591"}},{"type":"Feature","geometry":{"type":"Polygon","coordinates":[[[135.53186033177525,34.53370422413877],[135.5316828611247,34.534469716285],[135.53130861374032,34.534466734041104],[135.53160817010607,34.53596345737966],[135.53193163091763,34.53603935340646],[135.53156186779347,34.53688496698047],[135.53215638906792,34.53709431354747],[135.53179061454293,34.53794923943957],[135.5310668530491,34.53775376578832],[135.53066877248224,34.53767279251004],[135.53054774106377,34.53765824203785],[135.5303540486549,34.537631439201874],[135.53141741388842,34.53742139571393],[135.5315592737498,34.53715865978627],[135.53131661804787,34.53693882534991],[135.53099842532274,34.536856327167946],[135.53047714507755,34.53664753753582],[135.53030760380136,34.536237670674865],[135.52993234732838,34.536428371930796],[135.52957738103106,34.53645377301683],[135.5290155408483,34.53700366878419],[135.52742956933147,34.536893598639],[135.52751838246928,34.536637000057254],[135.52658257152825,34.53653548182185],[135.526230782538,34.535697373029016],[135.5265142661415,34.53545927841399],[135.52650407488548,34.53473997392058],[135.5273238189836,34.53288736619689],[135.5276681550527,34.53222380571322],[135.52822294373507,34.53213621452846],[135.5285712648076,34.532615658861346],[135.5288677238486,34.53137618907974],[135.52909925298252,34.53066373270515],[135.52996292227536,34.53077242315519],[135.52996154382788,34.531018229767774],[135.53000646989514,34.531702731980026],[135.53075741059797,34.531768581662575],[135.53149903803353,34.53256464221113],[135.53195015183402,34.53225082858889],[135.53248076182496,34.53233174258167],[135.53242776011666,34.53317490571042],[135.53182397067664,34.53363928657609],[135.53186033177525,34.53370422413877]]]},"properties":{"KEY_CODE":"271430130","PREF":"27","CITY":"143","CITY_NAME":"堺市東区","S_NAME":"日置荘田中町","SETAI":"630"}},{"type":"Feature","geometry":{"type":"Polygon","coordinates":[[[135.5243317382954,34.545200386880346],[135.52417948243016,34.54545109565009],[135.5241605162008,34.54523860174137],[135.52336735345727,34.54527243309092],[135.52327306468277,34.54422909542482],[135.5247849615666,34.543316358304686],[135.5254421612352,34.54308942782436],[135.52924963094085,34.54369981253379],[135.53116005598446,34.54447498240784],[135.53249407632845,34.54438329237124],[135.534336608134,34.54402784524038],[135.5340724651248,34.5447818814713],[135.53319348704466,34.544644159505964],[135.53306586016643,34.54542899226164],[135.52953821934364,34.54529157309818],[135.52766948662747,34.54520537788619],[135.52683791420145,34.54534867486124],[135.52610558066357,34.54510976600051],[135.5255165085728,34.54541119172714],[135.52499397295895,34.54519139931308],[135.52489270818083,34.545186640402655],[135.52451623232932,34.54519307200792],[135.5243882313695,34.54520497236194],[135.5243317382954,34.545200386880346]]]},"properties":{"KEY_CODE":"27143014001","PREF":"27","CITY":"143","CITY_NAME":"堺市東区","S_NAME":"日置荘西町一丁","SETAI":"543"}},{"type":"Feature","geometry":{"type":"Polygon","coordinates":[[[135.534336608134,34.54402784524038],[135.53249407632845,34.54438329237124],[135.53116005598446,34.54447498240784],[135.52924963094085,34.54369981253379],[135.5254421612352,34.54308942782436],[135.5247849615666,34.543316358304686],[135.52770712757905,34.54153383760456],[135.52773631728667,34.541519722985036],[135.52945424806256,34.542003861188405],[135.53143794613817,34.54174761049785],[135.53423050896703,34.54080529009947],[135.5345595857941,34.54068652217882],[135.5344488547129,34.542087006688796],[135.53421498256566,34.54261802664999],[135.534336608134,34.54402784524038]]]},"properties":{"KEY_CODE":"27143014002","PREF":"27","CITY":"143","CITY_NAME":"堺市東区","S_NAME":"日置荘西町二丁","SETAI":"699"}},{"type":"Feature","geometry":{"type":"Polygon","coordinates":[[[135.53423050896703,34.54080529009947],[135.53143794613817,34.54174761049785],[135.52945424806256,34.542003861188405],[135.52773631728667,34.541519722985036],[135.5285947605127,34.54107140587883],[135.53313307892248,34.538323853823655],[135.53400533166996,34.53834267035452],[135.53409492428108,34.538355688429355],[135.5346530008096,34.53857108002914],[135.53479759909473,34.5393387810143],[135.5345595857941,34.5406865221788],[135.53423050896703,34.54080529009947]]]},"properties":{"KEY_CODE":"27143014003","PREF":"27","CITY":"143","CITY_NAME":"堺市東区","S_NAME":"日置荘西町三丁","SETAI":"721"}},{"type":"Feature","geometry":{"type":"Polygon","coordinates":[[[135.52401955806712,34.53921738420788],[135.52652481695188,34.54099440816159],[135.52753581131003,34.54127356029678],[135.52770712757905,34.54153383760456],[135.5247849615666,34.543316358304686],[135.52327306468277,34.54422909542482],[135.52346331408805,34.54201313915346],[135.52352020069546,34.54159653186038],[135.52375568371622,34.54080126199172],[135.5240873380451,34.54038065093151],[135.52401955806712,34.53921738420788]]]},"properties":{"KEY_CODE":"27143014004","PREF":"27","CITY":"143","CITY_NAME":"堺市東区","S_NAME":"日置荘西町四丁","SETAI":"465"}},{"type":"Feature","geometry":{"type":"Polygon","coordinates":[[[135.53141741388842,34.53742139571393],[135.5303540486549,34.537631439201874],[135.53054774106377,34.53765824203785],[135.53066877248224,34.53767279251004],[135.5310668530491,34.53775376578832],[135.53179061454293,34.53794923943957],[135.53313307892248,34.538323853823655],[135.5285947605127,34.54107140587883],[135.52773631728667,34.541519722985036],[135.52770712757905,34.54153383760456],[135.52753581131003,34.54127356029678],[135.5273322469767,34.540234868588065],[135.52728330444214,34.53731647969082],[135.52742956933147,34.536893598639],[135.5290155408483,34.53700366878419],[135.52957738103106,34.53645377301683],[135.52993234732838,34.536428371930796],[135.53030760380136,34.536237670674865],[135.53047714507755,34.53664753753582],[135.53099842532274,34.536856327167946],[135.53131661804787,34.53693882534991],[135.5315592737498,34.53715865978627],[135.53141741388842,34.53742139571393]]]},"properties":{"KEY_CODE":"27143014005","PREF":"27","CITY":"143","CITY_NAME":"堺市東区","S_NAME":"日置荘西町五丁","SETAI":"771"}},{"type":"Feature","geometry":{"type":"Polygon","coordinates":[[[135.52742956933147,34.536893598639],[135.52728330444214,34.53731647969082],[135.5273322469767,34.540234868588065],[135.52753581131003,34.54127356029678],[135.52652481695188,34.54099440816159],[135.52401955806712,34.53921738420788],[135.52383936044063,34.53908497285522],[135.52466858306852,34.53708068879659],[135.5246875492736,34.53528991966954],[135.5252255053923,34.53495505435548],[135.52513510957976,34.534566333956676],[135.5253979341367,34.533760327828965],[135.52496792189092,34.53313081634154],[135.52511826453718,34.53251468448625],[135.5263133335522,34.5327166718686],[135.5273238189836,34.53288736619689],[135.52650407488548,34.53473997392058],[135.5265142661415,34.53545927841399],[135.526230782538,34.535697373029016],[135.52658257152825,34.53653548182185],[135.52751838246928,34.536637000057254],[135.52742956933147,34.536893598639]]]},"properties":{"KEY_CODE":"27143014006","PREF":"27","CITY":"143","CITY_NAME":"堺市東区","S_NAME":"日置荘西町六丁","SETAI":"848"}},{"type":"Feature","geometry":{"type":"Polygon","coordinates":[[[135.52383936044063,34.53908497285522],[135.52351026686162,34.53877167199453],[135.52266250030445,34.53917548020784],[135.52228303646334,34.5389345257858],[135.52057554033453,34.53890641896973],[135.51987047733817,34.538719110611765],[135.5197534798703,34.5383571828127],[135.52003480440513,34.53763155206064],[135.51966589038142,34.53751994223904],[135.52072888461998,34.53688810155059],[135.5203578316314,34.53673436605331],[135.52007105035014,34.537195145486706],[135.51976959078652,34.53700899987358],[135.51996874779167,34.53660084418011],[135.52049352289893,34.53632821477157],[135.5207869900745,34.53636416125396],[135.5214656711048,34.53652586229622],[135.52338163186434,34.53547022201575],[135.52351828395544,34.534562866819044],[135.5233737211929,34.53361384671519],[135.5253979341367,34.533760327828965],[135.52513510957976,34.534566333956676],[135.5252255053923,34.53495505435548],[135.5246875492736,34.53528991966954],[135.52466858306852,34.53708068879659],[135.52383936044063,34.53908497285522]]]},"properties":{"KEY_CODE":"27143014007","PREF":"27","CITY":"143","CITY_NAME":"堺市東区","S_NAME":"日置荘西町七丁","SETAI":"806"}},{"type":"Feature","geometry":{"type":"Polygon","coordinates":[[[135.5288677238486,34.53137618907974],[135.5285712648076,34.532615658861346],[135.52822294373507,34.53213621452846],[135.5276681550527,34.53222380571322],[135.5273238189836,34.53288736619689],[135.5263133335522,34.5327166718686],[135.52649283606527,34.531366032372844],[135.52628271984403,34.53110870043208],[135.52657364234295,34.52971623273551],[135.52732171995044,34.53009777637682],[135.5280054628049,34.53137906292824],[135.5288677238486,34.53137618907974]]]},"properties":{"KEY_CODE":"27143014008","PREF":"27","CITY":"143","CITY_NAME":"堺市東区","S_NAME":"日置荘西町八丁","SETAI":"64"}},{"type":"Feature","geometry":{"type":"Polygon","coordinates":[[[135.53697614836398,34.53891612781469],[135.5369739768064,34.539478594261396],[135.53690748228323,34.53987487765729],[135.53689518943432,34.53995089834797],[135.5354813172086,34.540335742837684],[135.5345595857941,34.5406865221788],[135.53479759909473,34.5393387810143],[135.5346530008096,34.53857108002914],[135.53409492428108,34.538355688429355],[135.53400533166996,34.53834267035452],[135.53313307892248,34.538323853823655],[135.53179061454293,34.53794923943957],[135.53215638906792,34.53709431354747],[135.53156186779347,34.53688496698047],[135.53193163091763,34.53603935340646],[135.53160817010607,34.53596345737966],[135.53130861374032,34.534466734041104],[135.5316828611247,34.534469716285],[135.53186033177525,34.53370422413877],[135.53182397067664,34.53363928657609],[135.53242776011666,34.53317490571042],[135.53248076182496,34.53233174258167],[135.53195015183402,34.53225082858889],[135.53149903803353,34.53256464221113],[135.53075741059797,34.531768581662575],[135.53000646989514,34.531702731980026],[135.52996154382788,34.531018229767774],[135.53068659518638,34.53107862835876],[135.53150422142153,34.5307927052935],[135.53213696646736,34.53080146694833],[135.53300914077323,34.531927361916495],[135.53305977601593,34.53207306990606],[135.5331936330022,34.53230474203634],[135.5335101641831,34.53270600905462],[135.5341271810478,34.53307432998449],[135.53388778818373,34.53320977654186],[135.53432646765944,34.53454305281641],[135.53536864334822,34.534431080648595],[135.5371834951851,34.53447542593895],[135.5372720001932,34.53311246260382],[135.53754062784347,34.53278286684023],[135.53782176497674,34.53282351163737],[135.53786219977044,34.53271364883468],[135.53808237749388,34.53274307529561],[135.53890147688642,34.53272094996592],[135.53896578116553,34.53261131713843],[135.54102349554736,34.53263905453221],[135.5409677189386,34.53300241869177],[135.54220475764788,34.53305381955584],[135.5421239907873,34.53426946559316],[135.5420032755313,34.535716544351246],[135.5419006475189,34.53748922760768],[135.54170397987235,34.53965611861331],[135.54165852640213,34.540644959742046],[135.53977563952623,34.540533804199264],[135.53932780248388,34.54065129257157],[135.53931920807406,34.54024063909848],[135.53872018735453,34.54017682755154],[135.5387025022615,34.539578085463404],[135.53863861625257,34.53954122002071],[135.53854460801867,34.53901572133546],[135.53788965574546,34.53891732322239],[135.53747237561808,34.5389044792854],[135.53697614836398,34.53891612781469]]]},"properties":{"KEY_CODE":"271430150","PREF":"27","CITY":"143","CITY_NAME":"堺市東区","S_NAME":"日置荘原寺町","SETAI":"1800"}},{"type":"Feature","geometry":{"type":"Polygon","coordinates":[[[135.52506134090254,34.55211251125364],[135.52457575455162,34.55234206584046],[135.52398116829536,34.5522635527478],[135.5237124802816,34.55166990240729],[135.52349311245717,34.551288440834256],[135.5234637729859,34.55127579067106],[135.52309724691386,34.55124915126495],[135.52299504893756,34.55122015886768],[135.52292247809456,34.55128044786189],[135.52250315568833,34.551540678079625],[135.5217385749511,34.55070322488621],[135.52154066981646,34.550016028565864],[135.52206676839364,34.549644805546116],[135.52230549008516,34.54880267790877],[135.52221842139446,34.54791279578864],[135.52256007716085,34.54713276248727],[135.5229803785145,34.546823654231105],[135.52302907264104,34.54677792232478],[135.5241579069957,34.54722630007227],[135.52560621031637,34.547352482913354],[135.52554432537067,34.54832954768184],[135.52482007207624,34.5497457934707],[135.5242561224763,34.5518372443379],[135.52506134090254,34.55211251125364]]]},"properties":{"KEY_CODE":"27143016001","PREF":"27","CITY":"143","CITY_NAME":"堺市東区","S_NAME":"引野町一丁","SETAI":"564"}},{"type":"Feature","geometry":{"type":"Polygon","coordinates":[[[135.52792881378357,34.55140278776676],[135.52740618705957,34.551787302317464],[135.5272357999562,34.552392073130264],[135.5259305119302,34.55209911111499],[135.5253472784749,34.55233787117136],[135.52506134090254,34.55211251125364],[135.5242561224763,34.5518372443379],[135.52482007207624,34.5497457934707],[135.52554432537067,34.54832954768184],[135.52560621031637,34.547352482913354],[135.52708464653568,34.54747946929967],[135.52785721639557,34.547523433814284],[135.52784622852738,34.5476381952828],[135.5277143317854,34.549132663823265],[135.5275733462076,34.550992495385906],[135.52792881378357,34.55140278776676]]]},"properties":{"KEY_CODE":"27143016002","PREF":"27","CITY":"143","CITY_NAME":"堺市東区","S_NAME":"引野町二丁","SETAI":"697"}},{"type":"Feature","geometry":{"type":"Polygon","coordinates":[[[135.52953821934364,34.54529157309818],[135.5293044924534,34.547629989711346],[135.52785721639557,34.547523433814284],[135.52708464653568,34.54747946929967],[135.52560621031637,34.547352482913354],[135.5241579069957,34.54722630007227],[135.52302907264104,34.54677792232478],[135.5231575995806,34.54666671834704],[135.5234753288183,34.546409328705046],[135.52452435560488,34.545561459190125],[135.52499397295895,34.54519139931308],[135.5255165085728,34.54541119172714],[135.52610558066357,34.54510976600051],[135.52683791420145,34.54534867486124],[135.52766948662747,34.54520537788619],[135.52953821934364,34.54529157309818]]]},"properties":{"KEY_CODE":"27143016003","PREF":"27","CITY":"143","CITY_NAME":"堺市東区","S_NAME":"引野町三丁","SETAI":"690"}},{"type":"Feature","geometry":{"type":"Polygon","coordinates":[[[135.5309540059259,34.55033059241999],[135.53066779818496,34.55102508015266],[135.53024094299334,34.55141138279017],[135.53000265382877,34.55145329231771],[135.52909433589497,34.55129218295592],[135.52893113487437,34.551468902637055],[135.52826581495935,34.55117039353885],[135.52792881378357,34.55140278776676],[135.5275733462076,34.550992495385906],[135.5277143317854,34.549132663823265],[135.52784622852738,34.5476381952828],[135.52785721639557,34.547523433814284],[135.5293044924534,34.547629989711346],[135.5315031847148,34.547660515020745],[135.5312946323924,34.548033570053725],[135.53117278074768,34.5481249475826],[135.53098128145416,34.548127878528035],[135.53084092980234,34.54826200740548],[135.5311090310189,34.54889142303557],[135.53098509329618,34.54996277672892],[135.5309540059259,34.55033059241999]]]},"properties":{"KEY_CODE":"27143017001","PREF":"27","CITY":"143","CITY_NAME":"堺市東区","S_NAME":"菩提町一丁","SETAI":"536"}},{"type":"Feature","geometry":{"type":"Polygon","coordinates":[[[135.5348406368251,34.55090123720844],[135.532627941845,34.550924098687425],[135.5322024459829,34.55047410905822],[135.53124554472694,34.55037861403396],[135.53108728492288,34.550167841463946],[135.53098509329618,34.54996277672892],[135.5311090310189,34.54889142303557],[135.53084092980234,34.54826200740548],[135.53098128145416,34.548127878528035],[135.53117278074768,34.5481249475826],[135.5312946323924,34.548033570053725],[135.5315031847148,34.547660515020745],[135.53410801147788,34.54764183231592],[135.53459850502625,34.54762974649503],[135.53488544385746,34.5485044713429],[135.53466807580358,34.5492914652053],[135.53466139547186,34.549531926028926],[135.53467335780786,34.549646494076995],[135.53471202470874,34.54987244462246],[135.5347276550294,34.55007746052232],[135.53477283741756,34.5504485258967],[135.5348406368251,34.55090123720844]]]},"properties":{"KEY_CODE":"27143017002","PREF":"27","CITY":"143","CITY_NAME":"堺市東区","S_NAME":"菩提町二丁","SETAI":"361"}},{"type":"Feature","geometry":{"type":"Polygon","coordinates":[[[135.53898677730604,34.54760674143099],[135.53870368082534,34.54822956149077],[135.5394925338821,34.548402971715355],[135.53943554300153,34.54961066365478],[135.53939046003836,34.54988334721013],[135.53790015026533,34.54996099022356],[135.5375420010541,34.550853137976254],[135.53742659930774,34.55094060156867],[135.5370766093924,34.55160260745129],[135.53703347996105,34.551812753967845],[135.5366601285321,34.55232620011899],[135.53499732725706,34.55242301738987],[135.53505756358422,34.55138648979469],[135.5348406368251,34.55090123720844],[135.53477283741756,34.5504485258967],[135.5347276550294,34.55007746052232],[135.53471202470874,34.54987244462246],[135.53467335780786,34.549646494076995],[135.53466139547186,34.549531926028926],[135.53466807580358,34.5492914652053],[135.53488544385746,34.5485044713429],[135.53459850502625,34.54762974649503],[135.53729866424945,34.54768053381469],[135.53898677730604,34.54760674143099]]]},"properties":{"KEY_CODE":"27143017003","PREF":"27","CITY":"143","CITY_NAME":"堺市東区","S_NAME":"菩提町三丁","SETAI":"449"}},{"type":"Feature","geometry":{"type":"Polygon","coordinates":[[[135.53410801147788,34.54764183231592],[135.5315031847148,34.547660515020745],[135.5293044924534,34.547629989711346],[135.52953821934364,34.54529157309818],[135.53306586016643,34.54542899226164],[135.53433130701063,34.54543309142268],[135.53410801147788,34.54764183231592]]]},"properties":{"KEY_CODE":"27143017004","PREF":"27","CITY":"143","CITY_NAME":"堺市東区","S_NAME":"菩提町四丁","SETAI":"628"}},{"type":"Feature","geometry":{"type":"Polygon","coordinates":[[[135.53898677730604,34.54760674143099],[135.53729866424945,34.54768053381469],[135.53459850502625,34.54762974649503],[135.53410801147788,34.54764183231592],[135.53433130701063,34.54543309142268],[135.53476329789072,34.5457301199747],[135.53552941972785,34.54572964371491],[135.53552777349574,34.545497072000515],[135.53702067000373,34.54545313393331],[135.53774985923442,34.545697324919395],[135.53823994896493,34.54550956942908],[135.5382601126942,34.5466383859196],[135.5387661882071,34.54650872385591],[135.53997162067947,34.546547482032224],[135.53989101908888,34.54760760168529],[135.53898677730604,34.54760674143099]]]},"properties":{"KEY_CODE":"27143017005","PREF":"27","CITY":"143","CITY_NAME":"堺市東区","S_NAME":"菩提町五丁","SETAI":"510"}},{"type":"Feature","geometry":{"type":"Polygon","coordinates":[[[135.55381858065897,34.52270177156449],[135.5529335166005,34.523090000628216],[135.55167361856226,34.52337007304938],[135.5488341202428,34.523488376772576],[135.5487937261851,34.52313493920839],[135.54753268208594,34.523064353447175],[135.54628170978287,34.52325636185758],[135.54623179196793,34.523006142006665],[135.54475990095833,34.52283092319359],[135.54474549453784,34.52249828740202],[135.54418690343067,34.52253409701305],[135.54348853208572,34.522477819520404],[135.54300744823058,34.52170379877141],[135.54316161545174,34.52066084681397],[135.54255180584508,34.52060376690974],[135.54258173539054,34.52035046313045],[135.54277736721042,34.519826615001506],[135.54298660929913,34.51934972841275],[135.54399816625238,34.51907121876717],[135.54377557152864,34.51812913485651],[135.54463143342699,34.51681468697193],[135.54575835463484,34.517540107162624],[135.54663212854152,34.51780423412037],[135.5470603273357,34.517934009267655],[135.5475957751043,34.517473395193555],[135.54836621002468,34.517792907491334],[135.54859061230886,34.51753623699781],[135.5493637184413,34.517644174953105],[135.5523541613867,34.51771277919006],[135.5537422323133,34.517683485064246],[135.5547486859335,34.518061010039865],[135.55473509215378,34.518345928002],[135.55351772284095,34.51938106324487],[135.5534382613123,34.52006664091454],[135.55335644858425,34.520265946341375],[135.55350786017806,34.52129227471691],[135.55355555367672,34.521340484075566],[135.55367060640643,34.52149162975989],[135.55370118265898,34.52170289552802],[135.55381858065897,34.52270177156449]]]},"properties":{"KEY_CODE":"271430180","PREF":"27","CITY":"143","CITY_NAME":"堺市東区","S_NAME":"南野田","SETAI":"2608"}},{"type":"Feature","geometry":{"type":"Polygon","coordinates":[[[135.54181882999777,34.55559388950824],[135.54175737927758,34.557831267274224],[135.54181463654186,34.55853819094544],[135.53820608266568,34.55817291429419],[135.5382535045288,34.55802561017242],[135.53840751984714,34.55759951633201],[135.5384605520975,34.55626447806289],[135.5384839883049,34.556012562156475],[135.53852450913058,34.55551096128853],[135.53852027793633,34.555235981097354],[135.53853417500514,34.554900357240655],[135.53891597508346,34.55476205774914],[135.5408873418742,34.55473987502606],[135.54076142873726,34.55574981262152],[135.54181882999777,34.55559388950824]]]},"properties":{"KEY_CODE":"27143019001","PREF":"27","CITY":"143","CITY_NAME":"堺市東区","S_NAME":"八下町一丁","SETAI":"3"}},{"type":"Feature","geometry":{"type":"Polygon","coordinates":[[[135.5444666771495,34.555114538977],[135.54436556121405,34.558787447640874],[135.54181463654186,34.55853819094544],[135.54175737927758,34.557831267274224],[135.54181882999777,34.55559388950824],[135.54187404810432,34.55518728365379],[135.54241486187027,34.555166342618755],[135.54280239060876,34.55479633263406],[135.54449168347475,34.55473500596763],[135.5444666771495,34.555114538977]]]},"properties":{"KEY_CODE":"27143019002","PREF":"27","CITY":"143","CITY_NAME":"堺市東区","S_NAME":"八下町二丁","SETAI":"22"}},{"type":"Feature","geometry":{"type":"Polygon","coordinates":[[[135.54680794174988,34.5551074385751],[135.54681113979157,34.556105465525086],[135.546812639087,34.55660680281215],[135.546811311977,34.55669483733481],[135.54676886377123,34.5567831424307],[135.5467413783813,34.55682811700161],[135.5467087289061,34.55704858841321],[135.5467324271252,34.557774120270956],[135.54672539262046,34.557988346966674],[135.5466709634778,34.558709364473685],[135.5466459065944,34.55904466722843],[135.54436556121405,34.558787447640874],[135.5444666771495,34.555114538977],[135.54520613030672,34.55512644019478],[135.54524685944017,34.55477471586089],[135.54607268037716,34.554722697949124],[135.54679629721895,34.55475016665055],[135.54680794174988,34.5551074385751]]]},"properties":{"KEY_CODE":"27143019003","PREF":"27","CITY":"143","CITY_NAME":"堺市東区","S_NAME":"八下町三丁","SETAI":"43"}}]}