{"type":"FeatureCollection","features":[{"type":"Feature","geometry":{"type":"Polygon","coordinates":[[[135.60501287554126,34.74643341603128],[135.60537275739557,34.74633823382974],[135.60718097782632,34.74653930842996],[135.6077874874139,34.74694961286998],[135.60769065910242,34.7489582436606],[135.60733521442677,34.74974563196585],[135.60677531673224,34.74945266997939],[135.60668950571497,34.74889782818893],[135.60598968290708,34.748280855725355],[135.60549484004753,34.74756171490475],[135.60501287554126,34.74643341603128]]]},"properties":{"KEY_CODE":"272230010","PREF":"27","CITY":"223","CITY_NAME":"門真市","S_NAME":"朝日町","SETAI":"668"}},{"type":"Feature","geometry":{"type":"Polygon","coordinates":[[[135.5818675424776,34.74168940086907],[135.58440768295503,34.74214079432024],[135.58481535412972,34.74220824435392],[135.5861197706413,34.74240789920436],[135.5861768400271,34.74342945676743],[135.58541785843315,34.74376269188854],[135.58447973973358,34.74390628087312],[135.58406983866905,34.74395897463339],[135.5825758243197,34.74416276834247],[135.58201881221012,34.74335233330452],[135.58136650472906,34.74331319348021],[135.5818675424776,34.74168940086907]]]},"properties":{"KEY_CODE":"272230020","PREF":"27","CITY":"223","CITY_NAME":"門真市","S_NAME":"泉町","SETAI":"337"}},{"type":"Feature","geometry":{"type":"Polygon","coordinates":[[[135.592953091207,34.7467039730163],[135.59176332266003,34.747518372353966],[135.59112760512275,34.747809232058906],[135.5893628076102,34.7469440708293],[135.5881846207706,34.74719520156934],[135.58857124030587,34.74277423778993],[135.5920452980792,34.74331804450053],[135.59183198119572,34.74445898948893],[135.5924019923356,34.74612627280334],[135.59290041707737,34.74664736715314],[135.592953091207,34.7467039730163]]]},"properties":{"KEY_CODE":"272230030","PREF":"27","CITY":"223","CITY_NAME":"門真市","S_NAME":"石原町","SETAI":"1933"}},{"type":"Feature","geometry":{"type":"Polygon","coordinates":[[[135.5955687223553,34.72728750422932],[135.59554878954427,34.72787017485554],[135.59582480115458,34.730057219589],[135.5958770454589,34.73054194677197],[135.59589991357353,34.73145478749017],[135.59540218622035,34.7327603096296],[135.59585256981313,34.73412517223878],[135.59366420937505,34.734058048782074],[135.5921370747558,34.727478510117315],[135.5926996918901,34.72744629986976],[135.59364290625385,34.727403521538506],[135.5955687223553,34.72728750422932]]]},"properties":{"KEY_CODE":"272230040","PREF":"27","CITY":"223","CITY_NAME":"門真市","S_NAME":"一番町","SETAI":"451"}},{"type":"Feature","geometry":{"type":"Polygon","coordinates":[[[135.60003915278307,34.73434222051445],[135.60013273979962,34.73494610671887],[135.59962666700773,34.73476823296014],[135.59822212128995,34.73433568816703],[135.5969270058832,34.734140131434955],[135.59585256981313,34.73412517223878],[135.59540218622035,34.7327603096296],[135.59589991357353,34.73145478749017],[135.5958770454589,34.73054194677197],[135.59646284212783,34.730518669378405],[135.59672198196793,34.73081518771693],[135.59687119553928,34.73100724815577],[135.59706034138378,34.73119789066992],[135.59723830709052,34.73130144546646],[135.59790711855769,34.73130365058391],[135.59961336548875,34.731529281686804],[135.60003915278307,34.73434222051445]]]},"properties":{"KEY_CODE":"272230060","PREF":"27","CITY":"223","CITY_NAME":"門真市","S_NAME":"打越町","SETAI":"578"}},{"type":"Feature","geometry":{"type":"Polygon","coordinates":[[[135.61908566331937,34.71897874953561],[135.61880467608404,34.7206603014184],[135.61805606350927,34.72373630818885],[135.61776024901602,34.72501621759395],[135.61766181544328,34.725544414205956],[135.61764737502668,34.725716780971624],[135.61759585387563,34.72575324312922],[135.61695760066596,34.72579265578843],[135.61691479541025,34.725807452634974],[135.61633387853976,34.725807037766465],[135.6162039742698,34.72483230494856],[135.61591843724284,34.72424669984297],[135.6159226493574,34.72394386526556],[135.61551522309568,34.72332111155125],[135.61389772390922,34.72330600843306],[135.61392352280862,34.72229457834025],[135.61229656869372,34.72226252119706],[135.6122707374956,34.721535042232034],[135.61204807305046,34.720580716318516],[135.61296072722936,34.72022216637837],[135.6142659318976,34.72003472448166],[135.61452072961634,34.71996749357741],[135.61610731576945,34.720494514939126],[135.61703655576733,34.720300228049965],[135.61863860726845,34.71914962645797],[135.61908566331937,34.71897874953561]]]},"properties":{"KEY_CODE":"272230070","PREF":"27","CITY":"223","CITY_NAME":"門真市","S_NAME":"江端町","SETAI":"1499"}},{"type":"Feature","geometry":{"type":"Polygon","coordinates":[[[135.60013749840343,34.734976688675275],[135.60379038697366,34.73616731136442],[135.60573641355205,34.736785225035185],[135.60541828378499,34.73862663128829],[135.60369042723858,34.73879358085651],[135.60258885055325,34.738849438912276],[135.60077517293232,34.73894183507606],[135.60074867416247,34.73894357949596],[135.60040677612128,34.73680112902889],[135.6003272806396,34.7362022186094],[135.60013749840343,34.734976688675275]]]},"properties":{"KEY_CODE":"272230080","PREF":"27","CITY":"223","CITY_NAME":"門真市","S_NAME":"大池町","SETAI":"1418"}},{"type":"Feature","geometry":{"type":"Polygon","coordinates":[[[135.60074867416247,34.73894357949596],[135.59829092961058,34.73905481572818],[135.597923541782,34.738987543647106],[135.59777366945568,34.738169366445575],[135.5969438744839,34.73692932943297],[135.59669733860724,34.73647523347294],[135.5960699767419,34.7346022754838],[135.59585256981313,34.73412517223878],[135.5969270058832,34.734140131434955],[135.59822212128995,34.73433568816703],[135.59962666700773,34.73476823296014],[135.60013273979956,34.73494610671889],[135.60013749840343,34.734976688675275],[135.6003272806396,34.7362022186094],[135.60040677612128,34.73680112902889],[135.60074867416247,34.73894357949596]]]},"properties":{"KEY_CODE":"272230090","PREF":"27","CITY":"223","CITY_NAME":"門真市","S_NAME":"大橋町","SETAI":"963"}},{"type":"Feature","geometry":{"type":"Polygon","coordinates":[[[135.59290041707737,34.74664736715314],[135.5924019923356,34.74612627280334],[135.59183198119572,34.74445898948893],[135.5920452980792,34.74331804450053],[135.59254507167793,34.743396901774304],[135.59438159887722,34.74366641499979],[135.59508360814624,34.745623722200214],[135.59382479387492,34.74612509708443],[135.59290041707737,34.74664736715314]]]},"properties":{"KEY_CODE":"272230100","PREF":"27","CITY":"223","CITY_NAME":"門真市","S_NAME":"大倉町","SETAI":"746"}},{"type":"Feature","geometry":{"type":"Polygon","coordinates":[[[135.6053688942977,34.73178706271535],[135.60518792433828,34.732432035579784],[135.60490491954184,34.7325284528214],[135.6043758947926,34.73219064897845],[135.60423329459894,34.7321377871142],[135.60400382883338,34.73199083173583],[135.60241099939032,34.731599981654355],[135.601299009357,34.73174791801979],[135.59961336548875,34.731529281686804],[135.59925036008482,34.729280827043475],[135.60071717060086,34.72927182987496],[135.6035223532587,34.72975749835507],[135.60465171161587,34.72984426743891],[135.60485812044365,34.7298604307937],[135.6051383631532,34.7298854256031],[135.60595596567657,34.72993652304298],[135.60595275848186,34.73019062253852],[135.60593447471476,34.73151252505987],[135.60549448689036,34.731747747008356],[135.6053688942977,34.73178706271535]]]},"properties":{"KEY_CODE":"272230110","PREF":"27","CITY":"223","CITY_NAME":"門真市","S_NAME":"沖町","SETAI":"475"}},{"type":"Feature","geometry":{"type":"Polygon","coordinates":[[[135.5759627746304,34.74064287305495],[135.57557286975128,34.74018217814975],[135.57466876344077,34.74017748028572],[135.57379279607946,34.740816177635814],[135.5729666607645,34.74080385298756],[135.57270221715572,34.740678127038635],[135.57161939785723,34.740078496425085],[135.57140290192103,34.7398879981895],[135.57132554774861,34.73967559296279],[135.5713583154383,34.73952569442606],[135.5711371127452,34.73874343018789],[135.57091309696145,34.73814300537048],[135.5708469640327,34.73783175599236],[135.57083325158243,34.737719865865344],[135.571634250351,34.73772817643097],[135.57336089810917,34.73769450317111],[135.5744108812612,34.7377135217059],[135.57489704028174,34.73766732401991],[135.57552522340322,34.73761823838112],[135.5754124985042,34.73813155934345],[135.57549778959958,34.73868768477846],[135.57555106790437,34.73894705047028],[135.57579315490122,34.73965782096789],[135.57588316275888,34.73974222652541],[135.5759627746304,34.74064287305495]]]},"properties":{"KEY_CODE":"272230120","PREF":"27","CITY":"223","CITY_NAME":"門真市","S_NAME":"大字門真","SETAI":"0"}},{"type":"Feature","geometry":{"type":"Polygon","coordinates":[[[135.5917068148616,34.7399487076754],[135.59355805714517,34.74080453664589],[135.59401699353023,34.74094353981347],[135.59438955925074,34.741045490570905],[135.59432106112652,34.74122626616842],[135.59418888126214,34.7417374247818],[135.59409743802328,34.74242366510556],[135.59410534772087,34.74263906316682],[135.59438159887722,34.74366641499979],[135.59254507167793,34.743396901774304],[135.59194727081626,34.7422036682943],[135.59192279730408,34.74144450114599],[135.5919216638448,34.741171372324025],[135.59199357526276,34.740434641090296],[135.5917068148616,34.7399487076754]]]},"properties":{"KEY_CODE":"272230130","PREF":"27","CITY":"223","CITY_NAME":"門真市","S_NAME":"垣内町","SETAI":"510"}},{"type":"Feature","geometry":{"type":"Polygon","coordinates":[[[135.60843093219344,34.73795669406285],[135.60853858400202,34.73890248614305],[135.60985618316346,34.73942774572355],[135.60953069031655,34.740409901624396],[135.6097593651181,34.741632164186505],[135.60935866282543,34.74243067982726],[135.6084131460143,34.744042312465524],[135.60762936216994,34.744959178977915],[135.60749227155122,34.74559457815411],[135.60487809963993,34.74393328660848],[135.60489542266015,34.742011325024286],[135.60523993148507,34.740135778975],[135.60541828378499,34.73862663128829],[135.60573641355205,34.736785225035185],[135.607988457573,34.737392399920154],[135.60800135166662,34.73748963414758],[135.60807713655822,34.7376018611915],[135.60835188171603,34.737803890392016],[135.60843093219344,34.73795669406285]]]},"properties":{"KEY_CODE":"272230140","PREF":"27","CITY":"223","CITY_NAME":"門真市","S_NAME":"上野口町","SETAI":"1747"}},{"type":"Feature","geometry":{"type":"Polygon","coordinates":[[[135.61226371305264,34.74194383819],[135.61266233870336,34.74392854186103],[135.6126322600984,34.74426777661731],[135.61215086311796,34.74447936700744],[135.61141140990478,34.74523723276247],[135.61115534931946,34.74577520554781],[135.6109793611908,34.74685081273411],[135.6106158896554,34.74698417464209],[135.61060070022162,34.74753009828115],[135.6094434850423,34.7470732539678],[135.6079244027049,34.746648613517074],[135.60782168499367,34.745833268771634],[135.60749227155122,34.74559457815411],[135.60762936216994,34.744959178977915],[135.6084131460143,34.744042312465524],[135.60935866282543,34.74243067982726],[135.61226371305264,34.74194383819]]]},"properties":{"KEY_CODE":"272230150","PREF":"27","CITY":"223","CITY_NAME":"門真市","S_NAME":"上島町","SETAI":"1057"}},{"type":"Feature","geometry":{"type":"Polygon","coordinates":[[[135.60516150257664,34.72818991317191],[135.604241968478,34.72811412038842],[135.60421855347647,34.728086463017476],[135.60396005409316,34.72774922018634],[135.60462243051592,34.7277836008081],[135.60527864335108,34.727895102576596],[135.60526699300277,34.72799120633818],[135.60516150257664,34.72818991317191]]]},"properties":{"KEY_CODE":"272230180","PREF":"27","CITY":"223","CITY_NAME":"門真市","S_NAME":"大字横地","SETAI":"0"}},{"type":"Feature","geometry":{"type":"Polygon","coordinates":[[[135.60465171161587,34.72984426743891],[135.6035223532587,34.72975749835507],[135.60071717060086,34.72927182987496],[135.59925036008482,34.729280827043475],[135.59890096398726,34.72704424473084],[135.59878341155448,34.726043896109644],[135.5986548620533,34.72510464624454],[135.59848616754732,34.72403553186626],[135.59833461822672,34.72311761352935],[135.5989832242362,34.72304213424795],[135.5991848949352,34.72304610960469],[135.59928368117673,34.72306255906952],[135.59966865723916,34.72323721982984],[135.60013004495076,34.72323390006195],[135.60087869285329,34.723228364798736],[135.60188684059003,34.724684550322145],[135.6028015118859,34.72610631821485],[135.60272211281665,34.72635748175378],[135.60273636524417,34.726655758262844],[135.60268895256948,34.726786745147116],[135.6026095927655,34.727185540348664],[135.60335678141521,34.728224131615185],[135.60401981849873,34.72920257941408],[135.60465171161587,34.72984426743891]]]},"properties":{"KEY_CODE":"272230180","PREF":"27","CITY":"223","CITY_NAME":"門真市","S_NAME":"大字横地","SETAI":"61"}},{"type":"Feature","geometry":{"type":"Polygon","coordinates":[[[135.60611512460548,34.728814810834905],[135.60605946651322,34.72916565223989],[135.604962977478,34.729093087523665],[135.60499059077665,34.728793007756884],[135.60503982840055,34.728744711523504],[135.60611512460548,34.728814810834905]]]},"properties":{"KEY_CODE":"272230180","PREF":"27","CITY":"223","CITY_NAME":"門真市","S_NAME":"大字横地","SETAI":"0"}},{"type":"Feature","geometry":{"type":"Polygon","coordinates":[[[135.60389405548273,34.72256797853309],[135.60448668089674,34.72544286881252],[135.6033565488944,34.725630512713586],[135.60336257516428,34.7262336024975],[135.60272211281665,34.72635748175378],[135.6028015118859,34.72610631821485],[135.60188684059003,34.724684550322145],[135.60087869285329,34.723228364798736],[135.60146720447784,34.723134079590004],[135.60389405548273,34.72256797853309]]]},"properties":{"KEY_CODE":"272230181","PREF":"27","CITY":"223","CITY_NAME":"門真市","S_NAME":"北島東町","SETAI":"0"}},{"type":"Feature","geometry":{"type":"Polygon","coordinates":[[[135.604962977478,34.729093087523665],[135.60605946651316,34.729165652239914],[135.60595596567657,34.72993652304298],[135.6051383631532,34.7298854256031],[135.60485812044365,34.7298604307937],[135.60401981849873,34.72920257941408],[135.60335678141521,34.728224131615185],[135.6026095927655,34.727185540348664],[135.60268895256948,34.726786745147116],[135.60273636524417,34.726655758262844],[135.60272211281665,34.72635748175378],[135.60336257516428,34.72623360249749],[135.6033565488944,34.725630512713586],[135.60448668089674,34.72544286881252],[135.60481274389488,34.725747738105845],[135.60482878645126,34.72609448729485],[135.60483576413463,34.72666102418186],[135.60587786538628,34.72688117379218],[135.60648224794815,34.726890027212804],[135.60640874798995,34.727271377036196],[135.60632183979448,34.72773748305925],[135.60622184264858,34.72827355272534],[135.60611512460548,34.728814810834905],[135.60503982840055,34.728744711523504],[135.60499059077665,34.728793007756884],[135.604962977478,34.729093087523665]],[[135.60527864335108,34.727895102576596],[135.60462243051592,34.7277836008081],[135.60396005409316,34.72774922018634],[135.60421855347647,34.728086463017476],[135.604241968478,34.72811412038842],[135.60516150257664,34.72818991317191],[135.60526699300277,34.72799120633818],[135.60527864335108,34.727895102576596]]]},"properties":{"KEY_CODE":"272230182","PREF":"27","CITY":"223","CITY_NAME":"門真市","S_NAME":"大字野口　他","SETAI":"6"}},{"type":"Feature","geometry":{"type":"Polygon","coordinates":[[[135.59556688321908,34.727253128401706],[135.595438571619,34.726842802619366],[135.59528663695673,34.72644916063499],[135.59422959850946,34.72502902658221],[135.59323224036163,34.724172802450674],[135.59279464580652,34.723333648899185],[135.59277477546055,34.72322807965653],[135.59395539096352,34.72320863037105],[135.5971132269287,34.72329712924744],[135.59833461822672,34.72311761352935],[135.59848616754732,34.72403553186626],[135.5986548620533,34.72510464624454],[135.59878341155448,34.726043896109644],[135.59890096398726,34.72704424473084],[135.59556688321908,34.727253128401706]]]},"properties":{"KEY_CODE":"272230190","PREF":"27","CITY":"223","CITY_NAME":"門真市","S_NAME":"北島町","SETAI":"526"}},{"type":"Feature","geometry":{"type":"Polygon","coordinates":[[[135.621687187867,34.73939737601404],[135.62121856239017,34.73927999437649],[135.61992265284135,34.739545994104134],[135.61851463340565,34.74004348297195],[135.61776884618845,34.73752413554976],[135.61899159129024,34.73748640348817],[135.62004286177998,34.73730628067972],[135.6217935481966,34.737341158442966],[135.6223634506984,34.73744588886303],[135.62271906725297,34.73756361964934],[135.621687187867,34.73939737601404]]]},"properties":{"KEY_CODE":"27223020101","PREF":"27","CITY":"223","CITY_NAME":"門真市","S_NAME":"北岸和田一丁目","SETAI":"651"}},{"type":"Feature","geometry":{"type":"Polygon","coordinates":[[[135.61776884618845,34.73752413554976],[135.61719079566024,34.73541802590088],[135.61697811230317,34.734675875569835],[135.61688890114698,34.73434556289144],[135.61667466080524,34.73330323479832],[135.61676614228378,34.73260260600453],[135.61777156696874,34.73273337678266],[135.6185106251717,34.733010223636626],[135.61879645172039,34.73313324088677],[135.61920727499455,34.733290173011724],[135.61937981636143,34.733355364917635],[135.61966772298362,34.73597357008061],[135.62004286177998,34.73730628067972],[135.61899159129024,34.73748640348817],[135.61776884618845,34.73752413554976]]]},"properties":{"KEY_CODE":"27223020102","PREF":"27","CITY":"223","CITY_NAME":"門真市","S_NAME":"北岸和田二丁目","SETAI":"507"}},{"type":"Feature","geometry":{"type":"Polygon","coordinates":[[[135.62156949311643,34.733996602349464],[135.62112705306149,34.73478629653874],[135.62146362289388,34.73521541190475],[135.62230120900784,34.73563354148102],[135.62253519069048,34.736280386317816],[135.6223634506984,34.73744588886303],[135.6217935481966,34.737341158442966],[135.62004286177998,34.73730628067972],[135.61966772298362,34.73597357008061],[135.61937981636143,34.733355364917635],[135.62082943577497,34.73392514466507],[135.62156949311643,34.733996602349464]]]},"properties":{"KEY_CODE":"27223020103","PREF":"27","CITY":"223","CITY_NAME":"門真市","S_NAME":"北岸和田三丁目","SETAI":"370"}},{"type":"Feature","geometry":{"type":"Polygon","coordinates":[[[135.61698395680997,34.73153318213675],[135.62156783624906,34.731724111968184],[135.62137562019728,34.73310605138705],[135.62156949311643,34.733996602349464],[135.62082943577497,34.73392514466507],[135.61937981636143,34.733355364917635],[135.61920727499455,34.733290173011724],[135.61879645172039,34.73313324088677],[135.6185106251717,34.733010223636626],[135.61777156696874,34.73273337678266],[135.61676614228378,34.73260260600453],[135.61698395680997,34.73153318213675]]]},"properties":{"KEY_CODE":"27223020201","PREF":"27","CITY":"223","CITY_NAME":"門真市","S_NAME":"岸和田一丁目","SETAI":"88"}},{"type":"Feature","geometry":{"type":"Polygon","coordinates":[[[135.6209774621292,34.728189666032314],[135.62094084755864,34.72891526073838],[135.62092221680444,34.72970936853248],[135.62156783624906,34.731724111968184],[135.61698395680997,34.73153318213675],[135.61707207741762,34.731061016765445],[135.61768560812706,34.728156304157814],[135.61856137169397,34.72847034203448],[135.619481722836,34.728549418192124],[135.61951286297858,34.7281753924598],[135.6209774621292,34.728189666032314]]]},"properties":{"KEY_CODE":"27223020202","PREF":"27","CITY":"223","CITY_NAME":"門真市","S_NAME":"岸和田二丁目","SETAI":"588"}},{"type":"Feature","geometry":{"type":"Polygon","coordinates":[[[135.6209774621292,34.728189666032314],[135.61951286297858,34.7281753924598],[135.619481722836,34.728549418192124],[135.61856137169397,34.72847034203448],[135.61768560812706,34.728156304157814],[135.6177078738431,34.727115563692784],[135.61764737502668,34.725716780971624],[135.61766181544328,34.725544414205956],[135.61776024901602,34.72501621759395],[135.61805606350927,34.72373630818885],[135.6192771956671,34.72393323826574],[135.62120529143218,34.72418277939745],[135.62298707048342,34.72445930513841],[135.6223148128409,34.72502038482762],[135.62175389343767,34.726008187489086],[135.62171151255075,34.726812223784805],[135.62114698887345,34.727612809616396],[135.62107222579573,34.727873589731416],[135.6209774621292,34.728189666032314]]]},"properties":{"KEY_CODE":"27223020203","PREF":"27","CITY":"223","CITY_NAME":"門真市","S_NAME":"岸和田三丁目","SETAI":"911"}},{"type":"Feature","geometry":{"type":"Polygon","coordinates":[[[135.62184038266946,34.721465170270704],[135.62231861797187,34.72139875527594],[135.62399160612117,34.72152956184521],[135.6242646842645,34.721985238290465],[135.62411576498474,34.722595969733376],[135.62300807589892,34.7244358458544],[135.62298707048342,34.72445930513841],[135.62120529143218,34.72418277939745],[135.62184038266946,34.721465170270704]]]},"properties":{"KEY_CODE":"27223020204","PREF":"27","CITY":"223","CITY_NAME":"門真市","S_NAME":"岸和田四丁目","SETAI":"99"}},{"type":"Feature","geometry":{"type":"Polygon","coordinates":[[[135.61849108444918,34.74055458834494],[135.61873958290172,34.740562266348924],[135.6190381933464,34.74059137056617],[135.61947452539343,34.7406168191095],[135.62112688503967,34.74073154716175],[135.62110126328855,34.740877820473486],[135.6200773290102,34.74299175300484],[135.61990531702418,34.743291247487484],[135.61965700149946,34.74370798073643],[135.61933626264408,34.744139418644686],[135.6190661960534,34.74432070754086],[135.61889292451224,34.7443632689716],[135.61574545054958,34.744133378397876],[135.61620762921476,34.743701830961456],[135.6156778816858,34.74335689009479],[135.61543046710162,34.74243080717332],[135.61548892459726,34.74128439721211],[135.61723386009413,34.74089956018746],[135.61846266780614,34.74072324841234],[135.61849108444918,34.74055458834494]]]},"properties":{"KEY_CODE":"272230210","PREF":"27","CITY":"223","CITY_NAME":"門真市","S_NAME":"北巣本町","SETAI":"572"}},{"type":"Feature","geometry":{"type":"Polygon","coordinates":[[[135.5920148323935,34.721163352065766],[135.59270831834374,34.72199082675537],[135.59277477546055,34.72322807965653],[135.59279464580652,34.723333648899185],[135.5917464654703,34.72375216426326],[135.59045412396554,34.72385291767289],[135.5880123186224,34.72351832827286],[135.58771792375404,34.72116933347039],[135.58700154686832,34.72032484807382],[135.58778883005505,34.720466258505716],[135.58836993994646,34.72089418191112],[135.58897361430948,34.720833618295245],[135.5895930105917,34.72120892602344],[135.59060848814363,34.72119399726234],[135.59112632373657,34.72066652329983],[135.59127086329718,34.72040514759989],[135.5920148323935,34.721163352065766]]]},"properties":{"KEY_CODE":"272230220","PREF":"27","CITY":"223","CITY_NAME":"門真市","S_NAME":"桑才町","SETAI":"502"}},{"type":"Feature","geometry":{"type":"Polygon","coordinates":[[[135.58700154686832,34.72032484807382],[135.58771792375404,34.72116933347039],[135.5880123186224,34.72351832827286],[135.58812637717807,34.724456701434015],[135.58827129231244,34.72553815136332],[135.58852551582103,34.727339060042716],[135.58620903542388,34.727215024678394],[135.58281626867574,34.727052468485894],[135.58328719143066,34.72608214227992],[135.5839304651645,34.72478588790734],[135.58362169771468,34.72353385165584],[135.5838872432593,34.72250041964344],[135.58471605119783,34.72191374560668],[135.58523169993276,34.72186817011592],[135.58660884528587,34.72133757337332],[135.58700154686832,34.72032484807382]]]},"properties":{"KEY_CODE":"272230230","PREF":"27","CITY":"223","CITY_NAME":"門真市","S_NAME":"桑才新町","SETAI":"124"}},{"type":"Feature","geometry":{"type":"Polygon","coordinates":[[[135.58893639502307,34.73882691904705],[135.59012693629262,34.739176725729244],[135.59077642170237,34.73946217020509],[135.5917068148616,34.7399487076754],[135.59199357526276,34.740434641090296],[135.5919216638448,34.741171372324025],[135.59192279730408,34.74144450114599],[135.59194727081626,34.7422036682943],[135.59254507167793,34.743396901774304],[135.5920452980792,34.74331804450053],[135.58857124030587,34.74277423778993],[135.58858289202743,34.742634967365774],[135.58870395192173,34.741171572733144],[135.58874080503975,34.74081011335561],[135.58893639502307,34.73882691904705]]]},"properties":{"KEY_CODE":"272230240","PREF":"27","CITY":"223","CITY_NAME":"門真市","S_NAME":"幸福町","SETAI":"848"}},{"type":"Feature","geometry":{"type":"Polygon","coordinates":[[[135.59366420937505,34.734058048782074],[135.59585256981313,34.73412517223878],[135.5960699767419,34.7346022754838],[135.59669733860724,34.73647523347294],[135.5969438744839,34.73692932943297],[135.5961992945265,34.73730507590116],[135.5943540911334,34.73766280006843],[135.59434723379357,34.737643057124274],[135.5942155855568,34.73721553723878],[135.59403053275395,34.73656979080035],[135.59356677127116,34.73406068158729],[135.59366420937505,34.734058048782074]]]},"properties":{"KEY_CODE":"272230250","PREF":"27","CITY":"223","CITY_NAME":"門真市","S_NAME":"寿町","SETAI":"634"}},{"type":"Feature","geometry":{"type":"Polygon","coordinates":[[[135.58197111138398,34.733694325539496],[135.5819426304828,34.73583753783686],[135.58193489481394,34.736085986361225],[135.58194101373525,34.737752930544225],[135.58194209000453,34.73782716629618],[135.58012185650776,34.73743778163184],[135.57988401633392,34.735711722776976],[135.57981534818342,34.73522059377938],[135.57970654269508,34.73438309268423],[135.57962369699533,34.73372626317718],[135.58042599729177,34.73370578343144],[135.58197111138398,34.733694325539496]]]},"properties":{"KEY_CODE":"272230260","PREF":"27","CITY":"223","CITY_NAME":"門真市","S_NAME":"栄町","SETAI":"1528"}},{"type":"Feature","geometry":{"type":"Polygon","coordinates":[[[135.59961336548875,34.731529281686804],[135.59790711855769,34.73130365058391],[135.59723830709052,34.73130144546646],[135.59706034138378,34.73119789066992],[135.59687119553928,34.73100724815577],[135.59672198196793,34.73081518771693],[135.59646284212783,34.730518669378405],[135.5958770454589,34.73054194677197],[135.59582480115458,34.730057219589],[135.59554878954427,34.72787017485554],[135.5955687223553,34.72728750422932],[135.59556688321908,34.727253128401706],[135.59890096398726,34.72704424473084],[135.59925036008482,34.729280827043475],[135.59961336548875,34.731529281686804]]]},"properties":{"KEY_CODE":"272230270","PREF":"27","CITY":"223","CITY_NAME":"門真市","S_NAME":"五月田町","SETAI":"876"}},{"type":"Feature","geometry":{"type":"Polygon","coordinates":[[[135.58193728772824,34.73947745193795],[135.5818675424776,34.74168940086907],[135.58113005441297,34.74148079480495],[135.57917320450753,34.74127291798249],[135.57829965012652,34.74118031683139],[135.5766562951879,34.7411208199658],[135.5759627746304,34.74064287305495],[135.57588316275888,34.73974222652541],[135.57603823660577,34.7397826283583],[135.57613689707085,34.73917446063945],[135.57746100417748,34.73914792209544],[135.57915342161667,34.73924124285283],[135.58001028534056,34.739416605618075],[135.58193728772824,34.73947745193795]]]},"properties":{"KEY_CODE":"272230280","PREF":"27","CITY":"223","CITY_NAME":"門真市","S_NAME":"小路町","SETAI":"1296"}},{"type":"Feature","geometry":{"type":"Polygon","coordinates":[[[135.58197111138398,34.733694325539496],[135.58601226116585,34.73380881395255],[135.5860595651043,34.73380925596998],[135.5859324967956,34.73842490760008],[135.5859332887633,34.73844575737909],[135.58485346799233,34.73831024919653],[135.5846068705714,34.73828208360424],[135.5844375598537,34.73826488646255],[135.58326273415116,34.73807846745949],[135.58279156434799,34.73796867816639],[135.58257875069842,34.73789047759614],[135.58194101373525,34.737752930544225],[135.58193489481394,34.736085986361225],[135.5819426304828,34.73583753783686],[135.58197111138398,34.733694325539496]]]},"properties":{"KEY_CODE":"272230290","PREF":"27","CITY":"223","CITY_NAME":"門真市","S_NAME":"新橋町","SETAI":"1732"}},{"type":"Feature","geometry":{"type":"Polygon","coordinates":[[[135.59812940994735,34.742176126947584],[135.59941504553427,34.74246108821667],[135.60124431044156,34.742567940833965],[135.60274915974543,34.74280668037183],[135.6026271939609,34.744047810249754],[135.60340538679387,34.74409697782131],[135.60364141494097,34.74411027391797],[135.60343815622147,34.745303675455474],[135.60263123838365,34.74535203735239],[135.60231749592546,34.74534523849797],[135.60157574373304,34.7453263352174],[135.60127537873157,34.745314365041914],[135.59994614074807,34.74524155052462],[135.599394077461,34.7451759264586],[135.59872730777025,34.7448346835482],[135.59842629381583,34.744453938079346],[135.5983095403605,34.744292692618586],[135.5979930644043,34.74351030850963],[135.59812940994735,34.742176126947584]]]},"properties":{"KEY_CODE":"272230300","PREF":"27","CITY":"223","CITY_NAME":"門真市","S_NAME":"常称寺町","SETAI":"1433"}},{"type":"Feature","geometry":{"type":"Polygon","coordinates":[[[135.6129577926918,34.738901932366545],[135.61200254532864,34.74025368326061],[135.61195234535828,34.74062623771057],[135.61226371305264,34.74194383819],[135.60935866282543,34.74243067982726],[135.6097593651181,34.741632164186505],[135.60953069031655,34.740409901624396],[135.60985618316346,34.73942774572355],[135.60853858400202,34.73890248614305],[135.60843093219344,34.73795669406285],[135.60835188171603,34.737803890392016],[135.60807713655822,34.7376018611915],[135.60800135166662,34.73748963414758],[135.607988457573,34.737392399920154],[135.6086509384378,34.73756299439108],[135.6110955201336,34.73826665401131],[135.6129577926918,34.738901932366545]]]},"properties":{"KEY_CODE":"272230310","PREF":"27","CITY":"223","CITY_NAME":"門真市","S_NAME":"下島町","SETAI":"676"}},{"type":"Feature","geometry":{"type":"Polygon","coordinates":[[[135.61574545054958,34.744133378397876],[135.61497474068597,34.74411320060554],[135.6126322600984,34.74426777661731],[135.61266233870336,34.74392854186103],[135.61226371305264,34.74194383819],[135.61548892459726,34.74128439721211],[135.61543046710162,34.74243080717332],[135.6156778816858,34.74335689009479],[135.61620762921476,34.743701830961456],[135.61574545054958,34.744133378397876]]]},"properties":{"KEY_CODE":"272230320","PREF":"27","CITY":"223","CITY_NAME":"門真市","S_NAME":"城垣町","SETAI":"688"}},{"type":"Feature","geometry":{"type":"Polygon","coordinates":[[[135.62184038266946,34.721465170270704],[135.62120529143218,34.72418277939745],[135.6192771956671,34.72393323826574],[135.61805606350927,34.72373630818885],[135.61880467608404,34.7206603014184],[135.61908566331937,34.71897874953561],[135.61976346156104,34.718944519507566],[135.61972871550614,34.71947418456212],[135.62006682111772,34.720075722164125],[135.6210331003003,34.72113897325464],[135.62184038266946,34.721465170270704]]]},"properties":{"KEY_CODE":"272230331","PREF":"27","CITY":"223","CITY_NAME":"門真市","S_NAME":"東江端町","SETAI":"380"}},{"type":"Feature","geometry":{"type":"Polygon","coordinates":[[[135.59403053275395,34.73656979080035],[135.5942155855568,34.73721553723878],[135.59434723379357,34.737643057124274],[135.5943540911334,34.73766280006843],[135.59458841789717,34.73882580033902],[135.5946652028772,34.73929863486928],[135.594669193853,34.73932893320365],[135.59468290287109,34.739483781452556],[135.5946220230625,34.740202661895346],[135.59458902136106,34.740348058527935],[135.59438955925074,34.741045490570905],[135.59401699353023,34.74094353981347],[135.59355805714517,34.74080453664589],[135.5917068148616,34.7399487076754],[135.59077642170237,34.73946217020509],[135.59012693629262,34.739176725729244],[135.58893639502307,34.73882691904705],[135.58904007772514,34.737639688237984],[135.58907504156002,34.73719427107227],[135.58913086817887,34.7365319995127],[135.58975888564538,34.736658910347685],[135.59403053275395,34.73656979080035]]]},"properties":{"KEY_CODE":"272230340","PREF":"27","CITY":"223","CITY_NAME":"門真市","S_NAME":"末広町","SETAI":"1624"}},{"type":"Feature","geometry":{"type":"Polygon","coordinates":[[[135.62168425765805,34.73940398622249],[135.62116527696068,34.74065715173545],[135.62112688503967,34.74073154716175],[135.61947452539343,34.7406168191095],[135.6190381933464,34.74059137056617],[135.61873958290172,34.740562266348924],[135.61851463340565,34.74004348297195],[135.61992265284135,34.739545994104134],[135.62121856239017,34.73927999437649],[135.621687187867,34.73939737601404],[135.62168425765805,34.73940398622249]]]},"properties":{"KEY_CODE":"272230351","PREF":"27","CITY":"223","CITY_NAME":"門真市","S_NAME":"巣本町","SETAI":"155"}},{"type":"Feature","geometry":{"type":"Polygon","coordinates":[[[135.61221324610955,34.72750940858432],[135.60837880138692,34.7273120821233],[135.60832349445855,34.72563088993817],[135.6083204454599,34.72536310715389],[135.6083292201063,34.72211689122703],[135.60832396500635,34.721729369070836],[135.60874468799216,34.72201370546339],[135.61035513889735,34.72162318081675],[135.61204807305046,34.720580716318516],[135.6122707374956,34.721535042232034],[135.61229656869372,34.72226252119706],[135.61248079050748,34.723066145279056],[135.61239921617687,34.725537967908245],[135.61229435707406,34.72667859565521],[135.61221324610955,34.72750940858432]]]},"properties":{"KEY_CODE":"272230360","PREF":"27","CITY":"223","CITY_NAME":"門真市","S_NAME":"千石東町","SETAI":"1254"}},{"type":"Feature","geometry":{"type":"Polygon","coordinates":[[[135.60837880138692,34.7273120821233],[135.60640874798995,34.727271377036196],[135.60648224794815,34.726890027212804],[135.60587786538628,34.72688117379218],[135.60483576413463,34.72666102418186],[135.60482878645126,34.72609448729485],[135.60481274389488,34.725747738105845],[135.60448668089674,34.72544286881252],[135.60389405548273,34.72256797853309],[135.60394579051825,34.722568146410865],[135.60690007599953,34.722133425352],[135.6083292201063,34.72211689122703],[135.6083204454599,34.72536310715389],[135.60832349445855,34.72563088993817],[135.60837880138692,34.7273120821233]]]},"properties":{"KEY_CODE":"272230370","PREF":"27","CITY":"223","CITY_NAME":"門真市","S_NAME":"千石西町","SETAI":"1476"}},{"type":"Feature","geometry":{"type":"Polygon","coordinates":[[[135.5864460213434,34.74730567904642],[135.58576707106533,34.747190599669544],[135.58539688946342,34.7476569481529],[135.58412715128873,34.74647026037995],[135.58289972040032,34.74621816037887],[135.58269457700197,34.7459671529789],[135.58211398329584,34.744931685803955],[135.58099060900406,34.744092261097606],[135.58136650472906,34.74331319348021],[135.58201881221012,34.74335233330452],[135.5825758243197,34.74416276834247],[135.58406983866905,34.74395897463339],[135.58447973973358,34.74390628087312],[135.58541785843315,34.74376269188854],[135.5861768400271,34.74342945676743],[135.5861820666682,34.7435452608007],[135.5864460213434,34.74730567904642]]]},"properties":{"KEY_CODE":"272230380","PREF":"27","CITY":"223","CITY_NAME":"門真市","S_NAME":"月出町","SETAI":"847"}},{"type":"Feature","geometry":{"type":"Polygon","coordinates":[[[135.5818675424776,34.74168940086907],[135.58136650472906,34.74331319348021],[135.58099060900406,34.744092261097606],[135.5801993241915,34.74555996618465],[135.58015583149776,34.745513474799914],[135.5797344837626,34.74533045662285],[135.57920755167274,34.74456490583668],[135.5792256105936,34.74370333571858],[135.57877428948652,34.74306467438575],[135.57834076569318,34.74289668231576],[135.576951092595,34.741712322320154],[135.57634663158885,34.74142878927181],[135.5766562951879,34.7411208199658],[135.57829965012652,34.74118031683139],[135.57917320450753,34.74127291798249],[135.58113005441297,34.74148079480495],[135.5818675424776,34.74168940086907]]]},"properties":{"KEY_CODE":"272230390","PREF":"27","CITY":"223","CITY_NAME":"門真市","S_NAME":"堂山町","SETAI":"659"}},{"type":"Feature","geometry":{"type":"Polygon","coordinates":[[[135.60077517293232,34.73894183507606],[135.6010676489045,34.74026517204448],[135.60111749346825,34.740483947537015],[135.60130880299963,34.74131507510133],[135.60124431044156,34.742567940833965],[135.59941504553427,34.74246108821667],[135.59812940994735,34.742176126947584],[135.5981055588503,34.7421681602513],[135.59817405440117,34.74104067421312],[135.59808206903347,34.740371998465726],[135.597923541782,34.738987543647106],[135.59829092961058,34.73905481572818],[135.60074867416247,34.73894357949596],[135.60077517293232,34.73894183507606]]]},"properties":{"KEY_CODE":"272230400","PREF":"27","CITY":"223","CITY_NAME":"門真市","S_NAME":"常盤町","SETAI":"915"}},{"type":"Feature","geometry":{"type":"Polygon","coordinates":[[[135.58217874424614,34.72823266719473],[135.58203762336888,34.72926383503661],[135.58197111138398,34.733694325539496],[135.58042599729177,34.73370578343144],[135.57939514056764,34.731939945365376],[135.57957616943017,34.7315606724937],[135.5793153962115,34.73069672922952],[135.57998976675373,34.730038706316485],[135.5804076294192,34.72955319507962],[135.58086752311527,34.729114310577366],[135.58217874424614,34.72823266719473]]]},"properties":{"KEY_CODE":"272230410","PREF":"27","CITY":"223","CITY_NAME":"門真市","S_NAME":"殿島町","SETAI":"181"}},{"type":"Feature","geometry":{"type":"Polygon","coordinates":[[[135.58747785725413,34.73861071538681],[135.58838866156557,34.73872224773921],[135.58893639502307,34.73882691904705],[135.58874080503975,34.74081011335561],[135.58870395192173,34.741171572733144],[135.58858289202743,34.742634967365774],[135.58792764928137,34.74267318756468],[135.5861197706413,34.74240789920436],[135.58602530466297,34.74052683423058],[135.58597717811313,34.73956854968198],[135.5859332887633,34.73844575737909],[135.5859324967956,34.73842490760008],[135.58747785725413,34.73861071538681]]]},"properties":{"KEY_CODE":"272230420","PREF":"27","CITY":"223","CITY_NAME":"門真市","S_NAME":"中町","SETAI":"496"}},{"type":"Feature","geometry":{"type":"Polygon","coordinates":[[[135.60541828378499,34.73862663128829],[135.60523993148507,34.740135778975],[135.60489542266015,34.742011325024286],[135.60487809963993,34.74393328660848],[135.60371563417408,34.74319028573471],[135.60274915974543,34.74280668037183],[135.60124431044156,34.742567940833965],[135.60130880299963,34.74131507510133],[135.60111749346825,34.740483947537015],[135.6010676489045,34.74026517204448],[135.60077517293232,34.73894183507606],[135.60258885055325,34.738849438912276],[135.60369042723858,34.73879358085651],[135.60541828378499,34.73862663128829]]]},"properties":{"KEY_CODE":"272230440","PREF":"27","CITY":"223","CITY_NAME":"門真市","S_NAME":"野里町","SETAI":"1854"}},{"type":"Feature","geometry":{"type":"Polygon","coordinates":[[[135.5881846207706,34.74719520156934],[135.58647754539564,34.7473495936577],[135.5864460213434,34.74730567904642],[135.5861820666682,34.7435452608007],[135.5861768400271,34.74342945676743],[135.5861197706413,34.74240789920436],[135.58792764928137,34.74267318756468],[135.58857124030587,34.74277423778993],[135.5881846207706,34.74719520156934]]]},"properties":{"KEY_CODE":"272230450","PREF":"27","CITY":"223","CITY_NAME":"門真市","S_NAME":"浜町","SETAI":"676"}},{"type":"Feature","geometry":{"type":"Polygon","coordinates":[[[135.58990516580602,34.73395745057317],[135.59007373796496,34.73396717271385],[135.59356677127116,34.73406068158729],[135.59403053275395,34.73656979080035],[135.58975888564538,34.736658910347685],[135.58913086817887,34.7365319995127],[135.58931002536812,34.73394080194962],[135.58990516580602,34.73395745057317]]]},"properties":{"KEY_CODE":"272230460","PREF":"27","CITY":"223","CITY_NAME":"門真市","S_NAME":"速見町","SETAI":"518"}},{"type":"Feature","geometry":{"type":"Polygon","coordinates":[[[135.59556688321908,34.727253128401706],[135.5955687223553,34.72728750422932],[135.59364290625385,34.727403521538506],[135.5926996918901,34.72744629986976],[135.5921370747558,34.727478510117315],[135.5913456680856,34.72745036940326],[135.59047246109222,34.72742913315781],[135.58852551582103,34.727339060042716],[135.58827129231244,34.72553815136332],[135.58812637717807,34.724456701434015],[135.5880123186224,34.72351832827286],[135.59045412396554,34.72385291767289],[135.5917464654703,34.72375216426326],[135.59279464580652,34.723333648899185],[135.59323224036163,34.724172802450674],[135.59422959850946,34.72502902658221],[135.59528663695673,34.72644916063499],[135.595438571619,34.726842802619366],[135.59556688321908,34.727253128401706]]]},"properties":{"KEY_CODE":"272230470","PREF":"27","CITY":"223","CITY_NAME":"門真市","S_NAME":"東田町","SETAI":"344"}},{"type":"Feature","geometry":{"type":"Polygon","coordinates":[[[135.59112632373657,34.72066652329983],[135.59060848814363,34.72119399726234],[135.5895930105917,34.72120892602344],[135.58897361430948,34.720833618295245],[135.58836993994646,34.72089418191112],[135.58778883005505,34.720466258505716],[135.58700154686832,34.72032484807382],[135.586350588536,34.72035250522124],[135.586429728647,34.72008950643859],[135.58709437176068,34.72001949464652],[135.58730951650057,34.71939438167112],[135.58697373892792,34.7188409372645],[135.5871645856603,34.71832025293493],[135.5869945519069,34.71753621233017],[135.58715957869876,34.716369037520835],[135.58684768811705,34.71535632214292],[135.58675283735482,34.715039064155825],[135.58675249101262,34.714102481014066],[135.58575394915354,34.71235904371721],[135.58557321923016,34.71147509199522],[135.58616270901345,34.71105087933676],[135.5867152059214,34.710956518892715],[135.5874148286431,34.71080929428521],[135.5877498955365,34.71240228960204],[135.58854441444242,34.71324844577508],[135.5895615350279,34.713805173288485],[135.59066215388683,34.713783378127566],[135.5912316912673,34.71390417472763],[135.59083420223135,34.71462305958443],[135.58981045939026,34.71647446976203],[135.59029879061302,34.7172248551876],[135.59049551157224,34.71748730410311],[135.59090066158979,34.71815662246065],[135.59063807984842,34.71858226645372],[135.5907366682578,34.71943621037601],[135.59127086329718,34.72040514759989],[135.59112632373657,34.72066652329983]]]},"properties":{"KEY_CODE":"272230480","PREF":"27","CITY":"223","CITY_NAME":"門真市","S_NAME":"ひえ島町","SETAI":"376"}},{"type":"Feature","geometry":{"type":"Polygon","coordinates":[[[135.60578025812836,34.73287709225812],[135.60561907890394,34.73417979925327],[135.60569692107964,34.735036473538614],[135.60511368102587,34.735485758840966],[135.6049701100582,34.73590589898601],[135.60379038697366,34.73616731136442],[135.60013749840343,34.734976688675275],[135.60013273979956,34.73494610671889],[135.60003915278307,34.73434222051445],[135.59961336548875,34.731529281686804],[135.601299009357,34.73174791801979],[135.60241099939032,34.731599981654355],[135.60400382883338,34.73199083173583],[135.60423329459894,34.7321377871142],[135.6043758947926,34.73219064897845],[135.60490491954184,34.7325284528214],[135.60518792433828,34.732432035579784],[135.60578025812836,34.73287709225812]]]},"properties":{"KEY_CODE":"272230490","PREF":"27","CITY":"223","CITY_NAME":"門真市","S_NAME":"舟田町","SETAI":"1467"}},{"type":"Feature","geometry":{"type":"Polygon","coordinates":[[[135.59817405440117,34.74104067421312],[135.5981055588503,34.7421681602513],[135.5966350205178,34.74178101824801],[135.59438955925074,34.741045490570905],[135.59458902136106,34.740348058527935],[135.5946220230625,34.740202661895346],[135.59468290287109,34.739483781452556],[135.594669193853,34.73932893320365],[135.5946652028772,34.73929863486928],[135.59458841789717,34.73882580033902],[135.5943540911334,34.73766280006843],[135.5961992945265,34.73730507590116],[135.5969438744839,34.73692932943297],[135.59777366945568,34.738169366445575],[135.597923541782,34.738987543647106],[135.59808206903347,34.740371998465726],[135.59817405440117,34.74104067421312]]]},"properties":{"KEY_CODE":"272230500","PREF":"27","CITY":"223","CITY_NAME":"門真市","S_NAME":"古川町","SETAI":"470"}},{"type":"Feature","geometry":{"type":"Polygon","coordinates":[[[135.58620903542388,34.727215024678394],[135.58852551582103,34.727339060042716],[135.58921604002305,34.73236314974057],[135.58928108957244,34.732855388093064],[135.58931220775312,34.733887564687976],[135.5860595651043,34.73380925596998],[135.58601226116585,34.73380881395255],[135.5861451165147,34.72899597886462],[135.5861711578492,34.7283916418061],[135.58620903542388,34.727215024678394]]]},"properties":{"KEY_CODE":"272230510","PREF":"27","CITY":"223","CITY_NAME":"門真市","S_NAME":"深田町","SETAI":"549"}},{"type":"Feature","geometry":{"type":"Polygon","coordinates":[[[135.57988401633392,34.735711722776976],[135.58012185650776,34.73743778163184],[135.5780964210658,34.73706301458053],[135.57756291142425,34.73704342030584],[135.57746455221692,34.737041108334694],[135.5769454538798,34.737039732048984],[135.57632527640374,34.73703406029449],[135.57609304787766,34.737067060032615],[135.57604255830142,34.73632779609117],[135.5768162515899,34.735421235785886],[135.57689202678296,34.73487341421501],[135.57650805217443,34.73426610607407],[135.5776027406137,34.73342037972253],[135.57827866911063,34.73295872766765],[135.57939514056764,34.731939945365376],[135.58042599729177,34.73370578343144],[135.57962369699533,34.73372626317718],[135.57970654269508,34.73438309268423],[135.57981534818342,34.73522059377938],[135.57988401633392,34.735711722776976]]]},"properties":{"KEY_CODE":"272230520","PREF":"27","CITY":"223","CITY_NAME":"門真市","S_NAME":"本町","SETAI":"1700"}},{"type":"Feature","geometry":{"type":"Polygon","coordinates":[[[135.58194101373525,34.737752930544225],[135.58257875069842,34.73789047759614],[135.58279156434799,34.73796867816639],[135.58326273415116,34.73807846745949],[135.5844375598537,34.73826488646255],[135.5846068705714,34.73828208360424],[135.58485346799233,34.73831024919653],[135.5859332887633,34.73844575737909],[135.58597717811313,34.73956854968198],[135.58602530466297,34.74052683423058],[135.5861197706413,34.74240789920436],[135.58481535412972,34.74220824435392],[135.58440768295503,34.74214079432024],[135.5818675424776,34.74168940086907],[135.58193728772824,34.73947745193795],[135.58194209000453,34.73782716629618],[135.58194101373525,34.737752930544225]]]},"properties":{"KEY_CODE":"272230530","PREF":"27","CITY":"223","CITY_NAME":"門真市","S_NAME":"松葉町","SETAI":"127"}},{"type":"Feature","geometry":{"type":"Polygon","coordinates":[[[135.58601226116585,34.73380881395255],[135.58197111138398,34.733694325539496],[135.58203762336888,34.72926383503661],[135.58217874424614,34.72823266719473],[135.58228266698,34.72813526624725],[135.58281626867574,34.727052468485894],[135.58620903542388,34.727215024678394],[135.5861711578492,34.7283916418061],[135.5861451165147,34.72899597886462],[135.58601226116585,34.73380881395255]]]},"properties":{"KEY_CODE":"272230540","PREF":"27","CITY":"223","CITY_NAME":"門真市","S_NAME":"松生町","SETAI":"31"}},{"type":"Feature","geometry":{"type":"Polygon","coordinates":[[[135.5975905332568,34.745138289713196],[135.59734690393185,34.745496397169426],[135.59581740323588,34.7460256299817],[135.59523234970632,34.74594298168578],[135.59508360814624,34.745623722200214],[135.59438159887722,34.74366641499979],[135.59410534772087,34.74263906316682],[135.59409743802328,34.74242366510556],[135.59418888126214,34.7417374247818],[135.59432106112652,34.74122626616842],[135.59438955925074,34.741045490570905],[135.5966350205178,34.74178101824801],[135.5981055588503,34.7421681602513],[135.59812940994735,34.742176126947584],[135.5979930644043,34.74351030850963],[135.5983095403605,34.744292692618586],[135.59842629381583,34.744453938079346],[135.59872730777025,34.7448346835482],[135.59760779894188,34.74513214888377],[135.5975905332568,34.745138289713196]]]},"properties":{"KEY_CODE":"272230550","PREF":"27","CITY":"223","CITY_NAME":"門真市","S_NAME":"御堂町","SETAI":"1242"}},{"type":"Feature","geometry":{"type":"Polygon","coordinates":[[[135.59833461822672,34.72311761352935],[135.5971132269287,34.72329712924744],[135.59395539096352,34.72320863037105],[135.59277477546055,34.72322807965653],[135.59270831834374,34.72199082675537],[135.5920148323935,34.721163352065766],[135.59326289658742,34.72093242276003],[135.59489875525713,34.720484156328965],[135.59673509838433,34.71979608266089],[135.5971333995561,34.71938863104556],[135.59750892779425,34.71941450583866],[135.59784904669937,34.71965144707104],[135.59799242789987,34.719743998961704],[135.59904992606343,34.72063140126162],[135.60087869285329,34.723228364798736],[135.60013004495076,34.72323390006195],[135.59966865723916,34.72323721982984],[135.59928368117673,34.72306255906952],[135.5991848949352,34.72304610960469],[135.5989832242362,34.72304213424795],[135.59833461822672,34.72311761352935]]]},"properties":{"KEY_CODE":"27223056001","PREF":"27","CITY":"223","CITY_NAME":"門真市","S_NAME":"三ツ島一丁目","SETAI":"611"}},{"type":"Feature","geometry":{"type":"Polygon","coordinates":[[[135.59750892779425,34.71941450583866],[135.5971333995561,34.71938863104556],[135.59673509838433,34.71979608266089],[135.59489875525713,34.720484156328965],[135.59326289658742,34.72093242276003],[135.5920148323935,34.721163352065766],[135.59127086329718,34.72040514759989],[135.5907366682578,34.71943621037601],[135.59063807984842,34.71858226645372],[135.59090066158979,34.71815662246065],[135.59049551157224,34.71748730410311],[135.59029879061302,34.7172248551876],[135.58981045939026,34.71647446976203],[135.59083420223135,34.71462305958443],[135.59125353813693,34.7157454327748],[135.59200077939877,34.716479986183444],[135.59661005683964,34.71874958540833],[135.59750892779425,34.71941450583866]]]},"properties":{"KEY_CODE":"27223056002","PREF":"27","CITY":"223","CITY_NAME":"門真市","S_NAME":"三ツ島二丁目","SETAI":"594"}},{"type":"Feature","geometry":{"type":"Polygon","coordinates":[[[135.59520211086215,34.71381064754337],[135.59784904669937,34.71965144707104],[135.59750892779425,34.71941450583866],[135.59661005683964,34.71874958540833],[135.59200077939877,34.716479986183444],[135.59125353813693,34.7157454327748],[135.59083420223135,34.71462305958443],[135.5912316912673,34.71390417472763],[135.59150133581915,34.71369618129808],[135.59255989974548,34.71358788022538],[135.59271150951508,34.713560638312416],[135.59433530471603,34.71358112133031],[135.59438292857894,34.71384652069121],[135.59520211086215,34.71381064754337]]]},"properties":{"KEY_CODE":"27223056003","PREF":"27","CITY":"223","CITY_NAME":"門真市","S_NAME":"三ツ島三丁目","SETAI":"445"}},{"type":"Feature","geometry":{"type":"Polygon","coordinates":[[[135.60389405548273,34.72256797853309],[135.60146720447784,34.723134079590004],[135.60087869285329,34.723228364798736],[135.59904992606343,34.72063140126162],[135.59799242789987,34.719743998961704],[135.60166040283386,34.71977183038013],[135.60381494648112,34.71984842763349],[135.60394579051825,34.722568146410865],[135.60389405548273,34.72256797853309]]]},"properties":{"KEY_CODE":"27223056004","PREF":"27","CITY":"223","CITY_NAME":"門真市","S_NAME":"三ツ島四丁目","SETAI":"449"}},{"type":"Feature","geometry":{"type":"Polygon","coordinates":[[[135.60381494648112,34.71984842763349],[135.60166040283386,34.71977183038013],[135.59799242789987,34.719743998961704],[135.59784904669937,34.71965144707104],[135.59520211086215,34.71381064754337],[135.59529215888222,34.71383263834437],[135.59827864933172,34.7144656772758],[135.59913675640018,34.71444117281418],[135.5991907142733,34.71474095887634],[135.6009353296718,34.71521067187692],[135.60211733672486,34.715778253488736],[135.60357304848964,34.716779152966566],[135.60381494648112,34.71984842763349]]]},"properties":{"KEY_CODE":"27223056005","PREF":"27","CITY":"223","CITY_NAME":"門真市","S_NAME":"三ツ島五丁目","SETAI":"832"}},{"type":"Feature","geometry":{"type":"Polygon","coordinates":[[[135.6083292201063,34.72211689122703],[135.60690007599953,34.722133425352],[135.60394579051825,34.722568146410865],[135.60381494648112,34.71984842763349],[135.60357304848964,34.716779152966566],[135.60364475002885,34.716884609279994],[135.60660961930253,34.71816856121424],[135.60737878367874,34.718609816028156],[135.60730749846348,34.71937501823822],[135.60831387490498,34.7195471422672],[135.60831891196918,34.719900715858614],[135.60832396500635,34.721729369070836],[135.6083292201063,34.72211689122703]]]},"properties":{"KEY_CODE":"27223056006","PREF":"27","CITY":"223","CITY_NAME":"門真市","S_NAME":"三ツ島六丁目","SETAI":"729"}},{"type":"Feature","geometry":{"type":"Polygon","coordinates":[[[135.60843663854183,34.733861234378004],[135.6086346396836,34.73676610171999],[135.60865837571717,34.73701592119467],[135.6086509384378,34.73756299439108],[135.607988457573,34.737392399920154],[135.60573641355205,34.736785225035185],[135.60379038697366,34.73616731136442],[135.6049701100582,34.73590589898601],[135.60511368102587,34.735485758840966],[135.60569692107964,34.735036473538614],[135.60561907890394,34.73417979925327],[135.60578025812836,34.73287709225812],[135.60589607232112,34.73293000671498],[135.60599725187816,34.732974844854034],[135.60639086774032,34.733184022902414],[135.60645912827496,34.73321762717906],[135.60843663854183,34.733861234378004]]]},"properties":{"KEY_CODE":"272230570","PREF":"27","CITY":"223","CITY_NAME":"門真市","S_NAME":"南野口町","SETAI":"759"}},{"type":"Feature","geometry":{"type":"Polygon","coordinates":[[[135.60749227155122,34.74559457815411],[135.60782168499367,34.745833268771634],[135.6079244027049,34.746648613517074],[135.6077874874139,34.74694961286998],[135.60718097782632,34.74653930842996],[135.60537275739557,34.74633823382974],[135.60501287554126,34.74643341603128],[135.60471717645004,34.7457008301661],[135.6040419735425,34.745270987050624],[135.60343815622147,34.745303675455474],[135.60364141494097,34.74411027391797],[135.60340538679387,34.74409697782131],[135.6026271939609,34.744047810249754],[135.60274915974543,34.74280668037183],[135.60371563417408,34.74319028573471],[135.60487809963993,34.74393328660848],[135.60749227155122,34.74559457815411]]]},"properties":{"KEY_CODE":"272230580","PREF":"27","CITY":"223","CITY_NAME":"門真市","S_NAME":"宮野町","SETAI":"872"}},{"type":"Feature","geometry":{"type":"Polygon","coordinates":[[[135.61849108444918,34.74055458834494],[135.61846266780614,34.74072324841234],[135.61723386009413,34.74089956018746],[135.61548892459726,34.74128439721211],[135.61226371305264,34.74194383819],[135.61195234535828,34.74062623771057],[135.61200254532864,34.74025368326061],[135.6129577926918,34.738901932366545],[135.61562050033166,34.74000834447439],[135.6168380720838,34.74036094023688],[135.61849108444918,34.74055458834494]]]},"properties":{"KEY_CODE":"272230590","PREF":"27","CITY":"223","CITY_NAME":"門真市","S_NAME":"宮前町","SETAI":"428"}},{"type":"Feature","geometry":{"type":"Polygon","coordinates":[[[135.58471879060966,34.74766287103356],[135.58339802310502,34.747528581829684],[135.58158705148932,34.74798355815883],[135.58046467502302,34.74720146141983],[135.57978138800283,34.74733433497447],[135.5800861829777,34.74671645034554],[135.5801993241915,34.74555996618465],[135.58099060900406,34.744092261097606],[135.58211398329584,34.744931685803955],[135.58269457700197,34.7459671529789],[135.58289972040032,34.74621816037887],[135.58412715128873,34.74647026037995],[135.58539688946342,34.7476569481529],[135.58471879060966,34.74766287103356]]]},"properties":{"KEY_CODE":"272230600","PREF":"27","CITY":"223","CITY_NAME":"門真市","S_NAME":"向島町","SETAI":"551"}},{"type":"Feature","geometry":{"type":"Polygon","coordinates":[[[135.58193728772824,34.73947745193795],[135.58001028534056,34.739416605618075],[135.57915342161667,34.73924124285283],[135.57746100417748,34.73914792209544],[135.57613689707085,34.73917446063945],[135.57603823660577,34.7397826283583],[135.57579315490122,34.73965782096789],[135.57555106790437,34.73894705047028],[135.57549778959958,34.73868768477846],[135.5754124985042,34.73813155934345],[135.57552522340322,34.73761823838112],[135.575542861888,34.73755590031847],[135.57560169907683,34.737436656554216],[135.57609304787766,34.737067060032615],[135.57632527640374,34.73703406029449],[135.5769454538798,34.737039732048984],[135.57746455221692,34.737041108334694],[135.57756291142425,34.73704342030584],[135.5780964210658,34.73706301458053],[135.58012185650776,34.73743778163184],[135.58194209000453,34.73782716629618],[135.58193728772824,34.73947745193795]]]},"properties":{"KEY_CODE":"272230610","PREF":"27","CITY":"223","CITY_NAME":"門真市","S_NAME":"元町","SETAI":"1163"}},{"type":"Feature","geometry":{"type":"Polygon","coordinates":[[[135.5860595651043,34.73380925596998],[135.58931220775312,34.733887564687976],[135.58931002536812,34.73394080194962],[135.58913086817887,34.7365319995127],[135.58907504156002,34.73719427107227],[135.58904007772514,34.737639688237984],[135.58893639502307,34.73882691904705],[135.58838866156557,34.73872224773921],[135.58747785725413,34.73861071538681],[135.5859324967956,34.73842490760008],[135.5860595651043,34.73380925596998]]]},"properties":{"KEY_CODE":"272230620","PREF":"27","CITY":"223","CITY_NAME":"門真市","S_NAME":"柳町","SETAI":"572"}},{"type":"Feature","geometry":{"type":"Polygon","coordinates":[[[135.58852551582103,34.727339060042716],[135.59047246109222,34.72742913315781],[135.5913456680856,34.72745036940326],[135.5921370747558,34.727478510117315],[135.59366420937505,34.734058048782074],[135.59356677127116,34.73406068158729],[135.59007373796496,34.73396717271385],[135.58990516580602,34.73395745057317],[135.58931002536812,34.73394080194962],[135.58931220775312,34.733887564687976],[135.58928108957244,34.732855388093064],[135.58921604002305,34.73236314974057],[135.58852551582103,34.727339060042716]]]},"properties":{"KEY_CODE":"272230630","PREF":"27","CITY":"223","CITY_NAME":"門真市","S_NAME":"柳田町","SETAI":"642"}},{"type":"Feature","geometry":{"type":"Polygon","coordinates":[[[135.6177078738431,34.727115563692784],[135.61705228590546,34.72706392727085],[135.61683855276252,34.7270086034503],[135.61635443570287,34.72684425017736],[135.61566993256517,34.72670011175817],[135.61229435707406,34.72667859565521],[135.61239921617687,34.725537967908245],[135.61248079050748,34.723066145279056],[135.61229656869372,34.72226252119706],[135.61392352280862,34.72229457834025],[135.61389772390922,34.72330600843306],[135.61551522309568,34.72332111155125],[135.6159226493574,34.72394386526556],[135.61591843724284,34.72424669984297],[135.6162039742698,34.72483230494856],[135.61633387853976,34.725807037766465],[135.61691479541025,34.725807452634974],[135.61695760066596,34.72579265578843],[135.61759585387563,34.72575324312922],[135.61764737502668,34.725716780971624],[135.6177078738431,34.727115563692784]]]},"properties":{"KEY_CODE":"272230650","PREF":"27","CITY":"223","CITY_NAME":"門真市","S_NAME":"脇田町","SETAI":"1105"}},{"type":"Feature","geometry":{"type":"Polygon","coordinates":[[[135.61229435707406,34.72667859565521],[135.61566993256517,34.72670011175817],[135.61635443570287,34.72684425017736],[135.61683855276252,34.7270086034503],[135.61705228590546,34.72706392727085],[135.6177078738431,34.727115563692784],[135.61768560812706,34.728156304157814],[135.61707207741762,34.731061016765445],[135.61695086342874,34.73021519803947],[135.61577197993398,34.72977342219793],[135.6144924151805,34.7291541156411],[135.613423072937,34.72888282008427],[135.61218671001902,34.72882058357795],[135.61221324610955,34.72750940858432],[135.61229435707406,34.72667859565521]]]},"properties":{"KEY_CODE":"272230660","PREF":"27","CITY":"223","CITY_NAME":"門真市","S_NAME":"下馬伏町","SETAI":"565"}},{"type":"Feature","geometry":{"type":"Polygon","coordinates":[[[135.6084287463332,34.733036055779664],[135.61057814556955,34.735308651522516],[135.6107697550589,34.736723488387796],[135.6110955201336,34.73826665401131],[135.6086509384378,34.73756299439108],[135.60865837571717,34.73701592119467],[135.6086346396836,34.73676610171999],[135.60843663854183,34.733861234378004],[135.6084287463332,34.733036055779664]]]},"properties":{"KEY_CODE":"27223067001","PREF":"27","CITY":"223","CITY_NAME":"門真市","S_NAME":"島頭一丁目","SETAI":"195"}},{"type":"Feature","geometry":{"type":"Polygon","coordinates":[[[135.6084287463332,34.733036055779664],[135.60843663854183,34.733861234378004],[135.60645912827496,34.73321762717906],[135.60639086774032,34.733184022902414],[135.60599725187816,34.732974844854034],[135.60589607232112,34.73293000671498],[135.60578025812836,34.73287709225812],[135.60518792433828,34.732432035579784],[135.6053688942977,34.73178706271535],[135.60549448689036,34.731747747008356],[135.60593447471476,34.73151252505987],[135.60595275848186,34.73019062253852],[135.60842684265288,34.73288800672496],[135.6084287463332,34.733036055779664]]]},"properties":{"KEY_CODE":"27223067002","PREF":"27","CITY":"223","CITY_NAME":"門真市","S_NAME":"島頭二丁目","SETAI":"228"}},{"type":"Feature","geometry":{"type":"Polygon","coordinates":[[[135.60595596567657,34.72993652304298],[135.61096306439535,34.73032811194873],[135.61094993259752,34.73087432174117],[135.61090405520045,34.731299289293204],[135.6106161358885,34.7347650564099],[135.61057814556955,34.735308651522516],[135.6084287463332,34.733036055779664],[135.60842684265288,34.73288800672496],[135.60595275848186,34.73019062253852],[135.60595596567657,34.72993652304298]]]},"properties":{"KEY_CODE":"27223067003","PREF":"27","CITY":"223","CITY_NAME":"門真市","S_NAME":"島頭三丁目","SETAI":"482"}},{"type":"Feature","geometry":{"type":"Polygon","coordinates":[[[135.61218671001902,34.72882058357795],[135.61220098021374,34.73058291959511],[135.61233698791187,34.730952825910634],[135.61094993259752,34.73087432174117],[135.61096306439535,34.73032811194873],[135.60595596567657,34.72993652304298],[135.60605946651322,34.72916565223989],[135.60611512460548,34.728814810834905],[135.60622184264858,34.72827355272534],[135.60632183979448,34.72773748305925],[135.60640874798995,34.727271377036196],[135.60837880138692,34.7273120821233],[135.61221324610955,34.72750940858432],[135.61218671001902,34.72882058357795]]]},"properties":{"KEY_CODE":"27223067004","PREF":"27","CITY":"223","CITY_NAME":"門真市","S_NAME":"島頭四丁目","SETAI":"587"}},{"type":"Feature","geometry":{"type":"Polygon","coordinates":[[[135.61057814556955,34.735308651522516],[135.61195252977396,34.736711619227364],[135.6136118493352,34.738164211578614],[135.61562050033166,34.74000834447439],[135.6129577926918,34.738901932366545],[135.6110955201336,34.73826665401131],[135.6107697550589,34.736723488387796],[135.61057814556955,34.735308651522516]]]},"properties":{"KEY_CODE":"27223068001","PREF":"27","CITY":"223","CITY_NAME":"門真市","S_NAME":"四宮一丁目","SETAI":"68"}},{"type":"Feature","geometry":{"type":"Polygon","coordinates":[[[135.61873958290172,34.740562266348924],[135.61849108444918,34.74055458834494],[135.6168380720838,34.74036094023688],[135.61562050033166,34.74000834447439],[135.6136118493352,34.738164211578614],[135.61552841094158,34.736306412740944],[135.61608810175696,34.73524609551652],[135.61719079566024,34.73541802590088],[135.61776884618845,34.73752413554976],[135.61851463340565,34.74004348297195],[135.61873958290172,34.740562266348924]]]},"properties":{"KEY_CODE":"27223068002","PREF":"27","CITY":"223","CITY_NAME":"門真市","S_NAME":"四宮二丁目","SETAI":"260"}},{"type":"Feature","geometry":{"type":"Polygon","coordinates":[[[135.6106161358885,34.7347650564099],[135.61367964712878,34.73486381225609],[135.61501104214202,34.73490041519353],[135.61608810175696,34.73524609551652],[135.61552841094158,34.736306412740944],[135.6136118493352,34.738164211578614],[135.61195252977396,34.736711619227364],[135.61057814556955,34.735308651522516],[135.6106161358885,34.7347650564099]]]},"properties":{"KEY_CODE":"27223068003","PREF":"27","CITY":"223","CITY_NAME":"門真市","S_NAME":"四宮三丁目","SETAI":"252"}},{"type":"Feature","geometry":{"type":"Polygon","coordinates":[[[135.61390888627022,34.73143222051239],[135.61367964712878,34.73486381225609],[135.6106161358885,34.7347650564099],[135.61090405520045,34.731299289293204],[135.61390888627022,34.73143222051239]]]},"properties":{"KEY_CODE":"27223068004","PREF":"27","CITY":"223","CITY_NAME":"門真市","S_NAME":"四宮四丁目","SETAI":"26"}},{"type":"Feature","geometry":{"type":"Polygon","coordinates":[[[135.61676614228378,34.73260260600453],[135.61667466080524,34.73330323479832],[135.61688890114698,34.73434556289144],[135.61697811230317,34.734675875569835],[135.61719079566024,34.73541802590088],[135.61608810175696,34.73524609551652],[135.61501104214202,34.73490041519353],[135.61367964712878,34.73486381225609],[135.61390888627022,34.73143222051239],[135.61698395680997,34.73153318213675],[135.61676614228378,34.73260260600453]]]},"properties":{"KEY_CODE":"27223068005","PREF":"27","CITY":"223","CITY_NAME":"門真市","S_NAME":"四宮五丁目","SETAI":"361"}},{"type":"Feature","geometry":{"type":"Polygon","coordinates":[[[135.61218671001902,34.72882058357795],[135.613423072937,34.72888282008427],[135.6144924151805,34.7291541156411],[135.61577197993398,34.72977342219793],[135.61695086342874,34.73021519803947],[135.61707207741762,34.731061016765445],[135.61698395680997,34.73153318213675],[135.61390888627022,34.73143222051239],[135.61090405520045,34.731299289293204],[135.61094993259752,34.73087432174117],[135.61233698791187,34.730952825910634],[135.61220098021374,34.73058291959511],[135.61218671001902,34.72882058357795]]]},"properties":{"KEY_CODE":"27223068006","PREF":"27","CITY":"223","CITY_NAME":"門真市","S_NAME":"四宮六丁目","SETAI":"164"}}]}