{"type":"FeatureCollection","features":[{"type":"Feature","geometry":{"type":"Polygon","coordinates":[[[130.9369620547613,31.541122421501967],[130.9362770944174,31.542326342139177],[130.93542573654503,31.542163952747963],[130.93565310016544,31.543164144486436],[130.93450368158275,31.54313702443089],[130.93459827157434,31.543891779173556],[130.93387894341342,31.545007300246617],[130.93312572712875,31.5453866998226],[130.93340611323285,31.54595510534559],[130.93312097701104,31.547252532807818],[130.9325294999271,31.547413148758757],[130.9324773711992,31.5481874151945],[130.9311719203065,31.54829561638067],[130.93115871428003,31.54912106435684],[130.9297222667563,31.549664947755907],[130.92880489262643,31.548813442769326],[130.92823730278735,31.549187006641553],[130.92829955213827,31.5502088228149],[130.92753846331468,31.550316324327152],[130.92697399544835,31.551067732087695],[130.9258736093791,31.55122406398516],[130.9255792200864,31.552460589508588],[130.92611162488527,31.553154739341792],[130.92573609242865,31.553310806727193],[130.92440395407434,31.551795210936334],[130.92239868234594,31.55173700653159],[130.92056129403446,31.551048906325004],[130.91940958706147,31.549888256694413],[130.918860958402,31.548566347556314],[130.91750543926125,31.54668452847546],[130.91715536165788,31.545855738530026],[130.91657286331935,31.543139412440322],[130.91647731765698,31.542425521293],[130.9166891017714,31.538650056606095],[130.91689419042615,31.537864206860267],[130.92010669351947,31.53502766114316],[130.92053209157893,31.53432088850984],[130.92055266581167,31.53311341699486],[130.9198442937976,31.532864927727328],[130.92048725581643,31.531441527310964],[130.92072972383593,31.529319563640748],[130.9202780167492,31.52861885366897],[130.9199073807334,31.526937188298668],[130.91992430254393,31.525408538900095],[130.91919486133733,31.52385079761541],[130.91890409091462,31.522608175327466],[130.91768829865532,31.521824936567125],[130.9175888025174,31.520967879483248],[130.91941949351641,31.519215210817723],[130.92006454334418,31.51785114529163],[130.91944488919486,31.515657877046944],[130.91934081220782,31.514938362594396],[130.91935427840534,31.51488932774464],[130.92027288349797,31.51396556186443],[130.92232394573713,31.51221115824871],[130.92402216457862,31.511399186001853],[130.92258151500977,31.510571883199635],[130.9218763898746,31.509325338908376],[130.92167175686185,31.508947236557088],[130.9208015122263,31.508044027802946],[130.91950656227135,31.50627973910322],[130.917752182272,31.50519075168699],[130.91639044620786,31.503487550629384],[130.9158209299231,31.502677942904377],[130.9151062920545,31.50224043164127],[130.91472323329347,31.502159980708164],[130.9079984938083,31.502057828612486],[130.90608524998754,31.50187898648212],[130.90252628667076,31.502334874818864],[130.9015388365661,31.501006964621116],[130.90157424160654,31.500632116939087],[130.90026600471637,31.499279001515056],[130.90073427250317,31.497824826371858],[130.90033629554117,31.496317540490786],[130.90067997118845,31.494080950641333],[130.90039914735834,31.49214376107499],[130.90087560366248,31.49118692723978],[130.9007890775966,31.490277284386284],[130.90027959105404,31.489434532086722],[130.9008940649361,31.488929353419557],[130.90103109677648,31.4888313725946],[130.90116456008008,31.488496481631277],[130.9014840103472,31.487308111847653],[130.90156610778476,31.486884957353855],[130.90102183681523,31.485508316280082],[130.90100809598925,31.484586601047788],[130.9025127706901,31.484385680578274],[130.90301497480485,31.48371677797947],[130.90310580988532,31.483458940978277],[130.9033931806938,31.482366507130596],[130.90546142330658,31.481810837121568],[130.90659076199728,31.481089405081622],[130.90811371406105,31.48043068663542],[130.90929388793373,31.478367166738533],[130.90975946393982,31.476400632099846],[130.91027949254206,31.47540615576384],[130.90959556525,31.47400365055263],[130.91151010547773,31.47383464509105],[130.91214410607677,31.472774712730356],[130.91298474380784,31.472622256166474],[130.91535789788597,31.471095346094753],[130.91542399376567,31.470602265163567],[130.91471566015494,31.469714868926452],[130.9150027163887,31.468884385588034],[130.91609354693398,31.467946350519146],[130.92040343679506,31.46802348610405],[130.92120407307914,31.468503474748147],[130.92241754539896,31.468436737434377],[130.92353586228458,31.469121816896973],[130.92418374755508,31.468616797043683],[130.92597557361694,31.468047329012258],[130.92700169247442,31.468237059258225],[130.928547652633,31.467418941256778],[130.9296631095455,31.467578398553545],[130.9311747972013,31.467459425610517],[130.93263220638693,31.46780832057385],[130.93360976192997,31.46760376827267],[130.93351565708676,31.470248559419428],[130.93471898448888,31.470638160531113],[130.93537834495945,31.471388838458278],[130.93742619939243,31.47151095824159],[130.9385935898855,31.470806023924006],[130.93991481073866,31.47041290294945],[130.94112942398596,31.47045365774452],[130.9416613021495,31.47006619539844],[130.94145287343338,31.47193969322826],[130.94093386726186,31.474739829219192],[130.9400638959739,31.48051602446368],[130.94116720706458,31.48143402882402],[130.94093145838966,31.48225146631839],[130.9412450510722,31.484286400017936],[130.94236586697642,31.485202709157168],[130.94385457497262,31.485670586981975],[130.94401800264137,31.486560649045725],[130.9446600885414,31.487234308731814],[130.9459849054734,31.486311231826335],[130.94785532989778,31.485802148100824],[130.9484879771975,31.48500685689895],[130.94944443235974,31.4828526989667],[130.9509720283269,31.481389627203427],[130.9508062342909,31.480656434410477],[130.9511387712338,31.479746017716558],[130.9510672414408,31.47847873430917],[130.9513536869308,31.477532469243],[130.95117249041357,31.47650525147104],[130.95009397409825,31.475708649306974],[130.95003121873089,31.47427530554527],[130.95130793564255,31.472711730531564],[130.95080120620494,31.472111415708593],[130.95002508966456,31.471504503253517],[130.9503824402587,31.471006725373105],[130.9509165018939,31.470384008991356],[130.9508279120437,31.469700000710276],[130.95253012334865,31.469129183779568],[130.9532891869186,31.468416475471948],[130.95397211500224,31.46787144917177],[130.95472187964543,31.46774813404259],[130.9550780542543,31.4676675114873],[130.9552556012658,31.467486613219396],[130.9555859663254,31.467001908062215],[130.9556488867319,31.466073708796607],[130.95589105445,31.465581922784637],[130.95656191880136,31.464530485389915],[130.9566641877811,31.46418353149971],[130.9567422703207,31.4634278460216],[130.95756677848462,31.46329129384657],[130.95835594742627,31.463199119077302],[130.95890977263147,31.463097414118632],[130.96030038298824,31.463299433448185],[130.96070684662135,31.463476445524954],[130.9611883338823,31.464016256695686],[130.96106352783764,31.464123047806122],[130.96110939779047,31.464342645168813],[130.96164774819874,31.464601723144213],[130.96089660862404,31.46518073863725],[130.96078396463315,31.465511203309145],[130.9607750798436,31.466488329006186],[130.96264410797457,31.46844683830061],[130.96357176618935,31.47401218021663],[130.96275395205856,31.475556893789907],[130.96276178364752,31.47791125329717],[130.96313855530286,31.480325791901706],[130.9649388198715,31.4822330832636],[130.966060339059,31.4844541679942],[130.96618302964663,31.48529273482074],[130.96690302329247,31.486504087776403],[130.96672687848846,31.487639788718205],[130.96775766499331,31.492070185918774],[130.96845137852904,31.493300268789486],[130.96870120410875,31.495011501008744],[130.96856916319084,31.49569962357765],[130.9711282005061,31.496292643987026],[130.97113889488392,31.497197139555723],[130.96974880455494,31.50237171953075],[130.96885219960848,31.50311599003242],[130.96630850144876,31.50307011383095],[130.96487595031581,31.502464225455302],[130.96250356396587,31.501703691882668],[130.9615300248808,31.50060863415083],[130.95930052592556,31.50160860327338],[130.95683542658776,31.502092873605797],[130.95641316681537,31.50304060957365],[130.9581462344539,31.503622086848736],[130.9591261652304,31.50336674989823],[130.9602352305283,31.504222564494615],[130.96061486381365,31.505337922232734],[130.96202290593374,31.505968399207756],[130.96336083430964,31.506151225791026],[130.96590513151077,31.50577223842029],[130.96654654125783,31.506140983295964],[130.96778946974072,31.507920229507132],[130.96770552300794,31.50930050820068],[130.9691375603709,31.51081285960423],[130.97042065113956,31.5109261049052],[130.97173036532874,31.510166690070594],[130.97247301593362,31.510117980750916],[130.97515259233148,31.50941115334076],[130.97552102254545,31.509556962602645],[130.9757378598762,31.51037075919371],[130.97573775033396,31.51081455693692],[130.9760451663562,31.51155184653692],[130.97582511055802,31.51298086384963],[130.97627726933308,31.514902742137163],[130.97589048564816,31.515188467088414],[130.97348220601683,31.515601667614145],[130.97200548053323,31.516187997197747],[130.97176355093956,31.516973919632996],[130.97200932054207,31.518109766826264],[130.9725407841212,31.519151683129873],[130.97172274718292,31.521287731904472],[130.97250455412177,31.522904988585502],[130.97305823264492,31.523145980558816],[130.9745789331261,31.522837854540683],[130.97550160187865,31.523763285152885],[130.9771450394301,31.524771589172488],[130.9722494984912,31.52726127672685],[130.97057518168037,31.529448538067445],[130.97231979202212,31.531064340485266],[130.97238543042462,31.532030865631615],[130.97207491127176,31.534236510866407],[130.97268997820794,31.535229522437614],[130.97337517632323,31.536899432318872],[130.97413526370076,31.538091879148055],[130.97423430408978,31.539397066633462],[130.97390668989445,31.53937529442282],[130.97274224527382,31.539845615143385],[130.97167357433577,31.540225316514135],[130.97141145962846,31.54027697549193],[130.9710813666871,31.540106367165986],[130.96997245645693,31.54017951741316],[130.9698940916535,31.540111003797396],[130.9698658811581,31.53992947555871],[130.96981268157433,31.539790784411338],[130.96971000276335,31.539706481075886],[130.96937747813882,31.539577018860367],[130.96919656065188,31.539464789547313],[130.9690357360904,31.539397804571262],[130.968645584509,31.539375294158376],[130.96835709218126,31.53922033177603],[130.96788170638823,31.5389590557984],[130.967784993047,31.53890970246299],[130.96760700957623,31.53816595071019],[130.96853140473004,31.53469644531799],[130.96846076826367,31.534042218936325],[130.97026659507173,31.533826508521788],[130.97066886482247,31.532762858053655],[130.96987213509172,31.53081962129161],[130.96957712840148,31.531812268454154],[130.96925427229402,31.53105495380784],[130.96811030845723,31.531596807675214],[130.9679312079029,31.532610906748612],[130.96721896306437,31.532295299425094],[130.96599035496342,31.532702380782567],[130.9655418578232,31.531539695461056],[130.96490765800118,31.531000578001635],[130.9630505823996,31.529993879256697],[130.96074949576118,31.53027414579109],[130.96041592879396,31.530863416832627],[130.9596957873631,31.53092574326107],[130.95865015216526,31.53249241640963],[130.95747131599916,31.53375109364263],[130.95674666625325,31.532738077998626],[130.9560414441012,31.532998965048982],[130.95660347170505,31.534009670859383],[130.95630718199172,31.534842198133326],[130.95483046302004,31.534485781758203],[130.95363324143784,31.535012269658772],[130.9538847899081,31.535986504868106],[130.95265655948003,31.535622833087565],[130.95249081693905,31.534789563167056],[130.95184814401364,31.534444718247844],[130.95120045058997,31.534967601665546],[130.95033641679132,31.535030099847887],[130.94946711548764,31.53421597647306],[130.94915574362255,31.53577739981532],[130.948555427718,31.535518104014436],[130.9477197779373,31.536046809726408],[130.9482408181769,31.536681948538117],[130.94807435279264,31.53726182115432],[130.94733740753023,31.537455000324698],[130.9471400201674,31.53799074413518],[130.9463319018921,31.53842121651194],[130.94578931628772,31.53939947642751],[130.9445553519059,31.539003302883163],[130.94416335139738,31.539158288301675],[130.94462459235638,31.54016054700091],[130.94424048059668,31.54051664901591],[130.9427974875189,31.540885915324775],[130.94246752438002,31.54076793504548],[130.94217667367926,31.540393050243978],[130.94208389523573,31.540313376680285],[130.94179280561957,31.540332965455406],[130.94154740548453,31.540613445405846],[130.94123217219945,31.540755634437744],[130.9408173666166,31.54071230263589],[130.9406088635377,31.540600156137163],[130.94052642675308,31.54049032776053],[130.9400855154744,31.540039539472914],[130.93980349109293,31.540216129096546],[130.9394288076539,31.540142371769893],[130.93926610536397,31.540112692883795],[130.93881921814707,31.540055668195446],[130.93849377529236,31.540047608734298],[130.93842472849988,31.540481369507685],[130.93840249853832,31.541190961659275],[130.93816854308656,31.541446072807236],[130.9375246634949,31.541216015713378],[130.93719355313732,31.54109308798871],[130.9369620547613,31.541122421501967]],[[130.9492966935626,31.53096834552537],[130.95061654871822,31.531003998219212],[130.95008429680396,31.529825137108567],[130.9510270723133,31.529776488728505],[130.9511994261946,31.52940477569415],[130.95000265192303,31.529186809117792],[130.94712069600328,31.52996069887235],[130.94585814274006,31.53010741857913],[130.94569361139565,31.531103470035774],[130.94625081584203,31.531552737299],[130.94589807284697,31.531952410313163],[130.94668036834167,31.533050499334454],[130.94760737017657,31.531942596175305],[130.9492966935626,31.53096834552537]],[[130.94305493304324,31.52260377648741],[130.94180028659676,31.523360834779613],[130.94119707552676,31.524493492638424],[130.94059843199113,31.52485793429177],[130.9385682865756,31.52681404435115],[130.93805522081598,31.52789049869406],[130.93821780587731,31.529970459031176],[130.9397512224699,31.52931179864024],[130.94097763295238,31.527983121768436],[130.94106009989338,31.527204658486266],[130.94065117574365,31.525717216688186],[130.94150000408996,31.525089775581908],[130.94242294249642,31.52390131676823],[130.94305493304324,31.52260377648741]],[[130.96313396552594,31.51779668221822],[130.96521690850864,31.517708560999132],[130.96673023983826,31.516635956011736],[130.96534224367508,31.514977164140735],[130.95921762119187,31.516003804251103],[130.9590724269127,31.516287595308604],[130.9609522746977,31.51864281868157],[130.96138747777886,31.51873161504942],[130.96313396552594,31.51779668221822]],[[130.93904116257133,31.513948150383534],[130.9387385177822,31.513001513799374],[130.93932297734676,31.511097125884252],[130.9390741082646,31.509996910481117],[130.93711584004043,31.50821502840185],[130.9377420849248,31.506626217493835],[130.93748146100612,31.505711599124815],[130.93577732718956,31.504275248618562],[130.93255832158962,31.50424562980484],[130.93180733494395,31.504077509523466],[130.9316291404293,31.505307300391443],[130.9301423997737,31.50638260210597],[130.92955050397856,31.50862036529823],[130.92753788733975,31.507926391517035],[130.92717268293475,31.509555322414954],[130.92767386974026,31.51002082497856],[130.9295667332386,31.5087460835635],[130.9301265349985,31.50883025430488],[130.93173738070507,31.51027469367955],[130.93280574990746,31.510343066533984],[130.93319695498758,31.511297650558173],[130.9348443087754,31.514027775706634],[130.93683208057487,31.513757363804782],[130.9367850095731,31.514364185732642],[130.93798333952898,31.51549095873058],[130.9391102434667,31.515309712930375],[130.93904116257133,31.513948150383534]],[[130.94565714347235,31.509889706272745],[130.9447808724448,31.51029365521183],[130.94453858855232,31.51162674937272],[130.94506801165048,31.5111975672451],[130.94565714347235,31.509889706272745]],[[130.93287231877898,31.513326580568222],[130.93132286995885,31.5129645260406],[130.93064372182567,31.511208445881152],[130.92977743267843,31.510640435134757],[130.9302064787232,31.511412265561788],[130.93016808089752,31.51292343293541],[130.93169232518295,31.51374463674625],[130.9332095356175,31.51406227589744],[130.93287231877898,31.513326580568222]],[[130.927820608601,31.513621381673417],[130.92432036803876,31.51177438160293],[130.9240269821703,31.512182335212692],[130.9248682831365,31.51291610610421],[130.9252597191072,31.514081127234526],[130.92637179431625,31.51477460349125],[130.927820608601,31.513621381673417]]]},"properties":{"KEY_CODE":"464680010","PREF":"46","CITY":"468","CITY_NAME":"大崎町","S_NAME":"大字野方","SETAI":"931"}},{"type":"Feature","geometry":{"type":"Polygon","coordinates":[[[130.9508279120437,31.469700000710276],[130.9509165018939,31.470384008991356],[130.9503824402587,31.471006725373105],[130.95002508966456,31.471504503253517],[130.95080120620494,31.472111415708593],[130.95130793564255,31.472711730531564],[130.95003121873089,31.47427530554527],[130.95009397409825,31.475708649306974],[130.95117249041357,31.47650525147104],[130.9513536869308,31.477532469243],[130.9510672414408,31.47847873430917],[130.9511387712338,31.479746017716558],[130.9508062342909,31.480656434410477],[130.9509720283269,31.481389627203427],[130.94944443235974,31.4828526989667],[130.9484879771975,31.48500685689895],[130.94785532989778,31.485802148100824],[130.9459849054734,31.486311231826335],[130.9446600885414,31.487234308731814],[130.94401800264137,31.486560649045725],[130.94385457497262,31.485670586981975],[130.94236586697642,31.485202709157168],[130.9412450510722,31.484286400017936],[130.94093145838966,31.48225146631839],[130.94116720706458,31.48143402882402],[130.9400638959739,31.48051602446368],[130.94093386726186,31.474739829219192],[130.94145287343338,31.47193969322826],[130.9416613021495,31.47006619539844],[130.94112942398596,31.47045365774452],[130.93991481073866,31.47041290294945],[130.9385935898855,31.470806023924006],[130.93742619939243,31.47151095824159],[130.93537834495945,31.471388838458278],[130.93471898448888,31.470638160531113],[130.93351565708676,31.470248559419428],[130.93360976192997,31.46760376827267],[130.93943955266903,31.466521936300506],[130.94205461531192,31.465688272720413],[130.94502184951446,31.464524773932222],[130.94572512884878,31.462937832986857],[130.94578682988663,31.46167490786336],[130.9475652037387,31.457870469052],[130.94810217365753,31.456390419582263],[130.94828342910967,31.455036074635224],[130.94939685161634,31.452261190211477],[130.95100434754792,31.45039569527292],[130.9513728564753,31.448789433574667],[130.95360081277175,31.444662520539175],[130.95442495218424,31.44287214232717],[130.9545884022031,31.44206367420024],[130.9579974266383,31.443261694248697],[130.95722626651093,31.444814911952534],[130.95785107557842,31.44506217990348],[130.95925907006028,31.445057721900945],[130.96013470465266,31.443438577657783],[130.96031072279604,31.44222438362314],[130.96097492888092,31.443230303636696],[130.96192934235683,31.446995991528116],[130.96490239325593,31.45395819355587],[130.9660347922982,31.453927109261883],[130.9691984317177,31.454212714590017],[130.9687567981551,31.45492277842552],[130.96961863729598,31.4547227421604],[130.9718975721938,31.45571074546737],[130.97222762437016,31.45621481914724],[130.9715025271366,31.456932712317435],[130.97205987529952,31.457509285299626],[130.97234991287465,31.457301755960934],[130.973080293467,31.45656680253712],[130.97346283594112,31.45629361408218],[130.97458137627078,31.4557972024778],[130.9755831798316,31.45555867067586],[130.97614972621975,31.456514200157393],[130.9765608430109,31.457470117965542],[130.97645248474214,31.457832021571416],[130.97715588989757,31.458880874143006],[130.9789856284339,31.458352288098602],[130.97861742239715,31.458825485135712],[130.98082401559586,31.460959517845726],[130.9814143682543,31.46202636435973],[130.98177497496835,31.462019658079885],[130.98243912078087,31.464161717459955],[130.98094576657735,31.464530026123704],[130.97873673143746,31.463976744380172],[130.97750237712097,31.464785206580412],[130.97640451912085,31.464280999151796],[130.9751745377426,31.465059280597135],[130.97470209220083,31.466117898720704],[130.97471257898508,31.467804775757035],[130.97331147875667,31.467834488548167],[130.9730453153532,31.46926550315097],[130.9720987663104,31.46934237890265],[130.970941015415,31.470547535243867],[130.9682241650456,31.471161756939733],[130.9671478757481,31.471657990067456],[130.96631499383457,31.473077418151558],[130.96357176618935,31.47401218021663],[130.96264410797457,31.46844683830061],[130.9607750798436,31.466488329006186],[130.96078396463315,31.465511203309145],[130.96089660862404,31.46518073863725],[130.96164774819874,31.464601723144213],[130.96110939779047,31.464342645168813],[130.96106352783764,31.464123047806122],[130.9611883338823,31.464016256695686],[130.96070684662135,31.463476445524954],[130.96030038298824,31.463299433448185],[130.95890977263147,31.463097414118632],[130.95835594742627,31.463199119077302],[130.95756677848462,31.46329129384657],[130.9567422703207,31.4634278460216],[130.9566641877811,31.46418353149971],[130.95656191880136,31.464530485389915],[130.95589105445,31.465581922784637],[130.9556488867319,31.466073708796607],[130.9555859663254,31.467001908062215],[130.9552556012658,31.467486613219396],[130.9550780542543,31.4676675114873],[130.95472187964543,31.46774813404259],[130.95397211500224,31.46787144917177],[130.9532891869186,31.468416475471948],[130.95253012334865,31.469129183779568],[130.9508279120437,31.469700000710276]]]},"properties":{"KEY_CODE":"464680020","PREF":"46","CITY":"468","CITY_NAME":"大崎町","S_NAME":"大字持留","SETAI":"204"}},{"type":"Feature","geometry":{"type":"Polygon","coordinates":[[[130.99197413659323,31.454717799879965],[130.9910683151369,31.455363926036593],[130.9836741972445,31.459547079959183],[130.9819582964418,31.461373775471046],[130.98177497496835,31.462019658079885],[130.9814143682543,31.46202636435973],[130.98082401559586,31.460959517845726],[130.97861742239715,31.458825485135712],[130.9789856284339,31.458352288098602],[130.97715588989757,31.458880874143006],[130.97645248474214,31.457832021571416],[130.9765608430109,31.457470117965542],[130.97614972621975,31.456514200157393],[130.9755831798316,31.45555867067586],[130.9758331294312,31.45549938889616],[130.97662708801033,31.455206404264278],[130.9776935446159,31.454347325722924],[130.97853855540083,31.453346134102745],[130.97989047509458,31.451243072780777],[130.9811308655339,31.449623808003885],[130.98200233194845,31.44849717868882],[130.98417923108738,31.446996559341258],[130.98511806059872,31.446127407312844],[130.98612361918416,31.444670821976544],[130.9872661885707,31.44517716812564],[130.98753808249208,31.446207008290298],[130.98842406075875,31.44653208735526],[130.98985126562837,31.447593593568353],[130.99206820206905,31.44935940153826],[130.99049286599194,31.450727073426698],[130.9889071381417,31.452004799211657],[130.99197413659323,31.454717799879965]]]},"properties":{"KEY_CODE":"464680030","PREF":"46","CITY":"468","CITY_NAME":"大崎町","S_NAME":"大字岡別府","SETAI":"102"}},{"type":"Feature","geometry":{"type":"Polygon","coordinates":[[[131.0172614624432,31.425985655817854],[131.01584677911026,31.427140897153155],[131.01466596228667,31.429061091054404],[131.01343568144256,31.428023646960202],[131.01265204434137,31.428876077324688],[131.01322316650308,31.42974023431727],[131.011642680741,31.429927514627735],[131.0105705585507,31.43098881405285],[131.00948703972313,31.43254407701274],[131.0088202315158,31.431988269557856],[131.00794203296803,31.432697625514905],[131.0063013482592,31.43489553673107],[131.00460783997966,31.436195116685486],[131.0035271462212,31.437941001932757],[131.0034432581854,31.438541515403525],[131.00218530676224,31.440114740607463],[130.99768538321862,31.444181492729566],[130.99355126872769,31.448003114246678],[130.99206820206905,31.44935940153826],[130.98985126562837,31.447593593568353],[130.98842406075875,31.44653208735526],[130.98753808249208,31.446207008290298],[130.9872661885707,31.44517716812564],[130.98612361918416,31.444670821976544],[130.98749422203744,31.44195207787472],[130.9876625908547,31.440613793613135],[130.98731610986138,31.438133617826207],[130.98786594976326,31.436923057154445],[130.9898245780155,31.434032122513447],[130.99089657864036,31.432268847874344],[130.9916300826787,31.430387580827595],[130.99237005287557,31.42903424743768],[130.9940824196919,31.426418314136153],[130.99439949334445,31.426206928319626],[130.9990649988419,31.42455619609881],[131.00927206240718,31.42126737718224],[131.01169558360866,31.423661297745625],[131.01304271081347,31.423951668877248],[131.0176681837965,31.425689368098723],[131.0172614624432,31.425985655817854]]]},"properties":{"KEY_CODE":"464680040","PREF":"46","CITY":"468","CITY_NAME":"大崎町","S_NAME":"大字仮宿","SETAI":"1017"}},{"type":"Feature","geometry":{"type":"Polygon","coordinates":[[[130.9776935446159,31.454347325722924],[130.9766270880103,31.455206404264278],[130.9758331294312,31.45549938889616],[130.97515640040143,31.45562693405845],[130.97458137627078,31.4557972024778],[130.97346283594112,31.45629361408218],[130.973080293467,31.45656680253712],[130.97234991287465,31.457301755960934],[130.97205987529952,31.457509285299626],[130.9715025271366,31.456932712317435],[130.97222762437016,31.45621481914724],[130.9718975721938,31.45571074546737],[130.96961863729598,31.4547227421604],[130.9687567981551,31.45492277842552],[130.9691984317177,31.454212714590017],[130.9660347922982,31.453927109261883],[130.96490239325593,31.45395819355587],[130.96192934235683,31.446995991528116],[130.96097492888092,31.443230303636696],[130.96031072279604,31.44222438362314],[130.96013470465266,31.443438577657783],[130.95925907006028,31.445057721900945],[130.95785107557842,31.44506217990348],[130.95722626651093,31.444814911952534],[130.9579974266383,31.443261694248697],[130.9545884022031,31.44206367420024],[130.95481017224523,31.441066238697005],[130.95666548012727,31.437483735354306],[130.95745345443444,31.43670199453148],[130.9577219427292,31.436439253773475],[130.95854097318778,31.43572812347874],[130.95945103678494,31.43569109886319],[130.9595794727163,31.43491291706417],[130.95990512369798,31.43312446274879],[130.96005284756976,31.43243563838047],[130.96012894916072,31.4316086755584],[130.96027911253194,31.42951715615576],[130.96042987955232,31.42858043707352],[130.96074571624334,31.427099184892725],[130.96082728655887,31.42648896491539],[130.96101276619214,31.42506783971756],[130.9614209874125,31.423690762090672],[130.96171878162747,31.422670913788853],[130.96142000949214,31.421299084449316],[130.9615134556269,31.419096838513102],[130.9620437038824,31.417370523961992],[130.96355198720406,31.415169975535836],[130.96449056853635,31.413410504769296],[130.96507210776278,31.41122245756107],[130.965184986639,31.409954451951304],[130.9679067187578,31.40828747092452],[130.96936837292373,31.407868840707852],[130.97083546336293,31.407173245175652],[130.9721730193258,31.406772026008465],[130.97416138353643,31.405555732731525],[130.9752616471883,31.40509438742228],[130.97649131931607,31.404140187505888],[130.9791434368432,31.40202543687986],[130.97995544946127,31.40158710941957],[130.9806072792687,31.400330577772163],[130.98204996099588,31.399007362183475],[130.98305951400656,31.398845292305307],[130.98400099338704,31.397199923961832],[130.9847569640822,31.396847389670796],[130.98584127787052,31.396875589469015],[130.9860410868976,31.396785554569643],[130.98672453747122,31.39711925990674],[130.99448488330114,31.39824703517993],[131.0033232417252,31.399306695019902],[131.0052397056856,31.39896180812034],[131.0055162959109,31.398384230801863],[131.00735591605562,31.39800393912829],[131.0093485022213,31.3967912229556],[131.010911841198,31.396871167484875],[131.01331153354673,31.396295331292063],[131.02085043816965,31.394851343178996],[131.02262599179778,31.39857049359473],[131.02184559980364,31.39890620142491],[131.02082148310865,31.399355963345194],[131.02046665212578,31.399425218900454],[131.02005539141902,31.399612167876654],[131.01795070537213,31.40073998389308],[131.0167169302903,31.401556465184978],[131.0150637324726,31.402213856242454],[131.01391857326098,31.402642853882494],[131.0127249959529,31.402912724013003],[131.0107572501597,31.40397133881042],[131.00929748992536,31.404158165923633],[131.00907973094115,31.404144363381867],[131.0082213297572,31.404400484743476],[131.01106436334516,31.410769115061807],[131.01093276278888,31.412499572566293],[131.01108467802786,31.41469128746403],[131.00994297276503,31.41934427117172],[131.00844391199735,31.42043984569128],[131.00927206240718,31.42126737718224],[130.9990649988419,31.42455619609881],[130.99439949334445,31.426206928319626],[130.9940824196919,31.426418314136153],[130.99237005287557,31.42903424743768],[130.9916300826787,31.430387580827595],[130.99089657864036,31.432268847874344],[130.9898245780155,31.434032122513447],[130.98786594976326,31.436923057154445],[130.98731610986138,31.438133617826207],[130.9876625908547,31.440613793613135],[130.98749422203744,31.44195207787472],[130.98612361918416,31.444670821976544],[130.98511806059872,31.446127407312844],[130.98417923108738,31.446996559341258],[130.98200233194845,31.44849717868882],[130.9811308655339,31.449623808003885],[130.97989047509458,31.451243072780777],[130.97853855540083,31.453346134102745],[130.9776935446159,31.454347325722924]]]},"properties":{"KEY_CODE":"464680050","PREF":"46","CITY":"468","CITY_NAME":"大崎町","S_NAME":"大字永吉","SETAI":"1074"}},{"type":"Feature","geometry":{"type":"Polygon","coordinates":[[[131.0322094320799,31.414598646474193],[131.03161306638518,31.41464559378355],[131.0304164184979,31.414069880274347],[131.02947403885887,31.41447178766565],[131.0293613108651,31.41497045758264],[131.03047345173192,31.41601073616462],[131.03082951079878,31.417617631174302],[131.03002830673933,31.418382709342456],[131.02867951550746,31.418779925918056],[131.0274378686388,31.418881837343758],[131.0255865223499,31.41841757401869],[131.0233464849716,31.421031872462393],[131.02254973650656,31.422292243070473],[131.0220432910328,31.423819887379143],[131.02068350943114,31.426346724156616],[131.01980298490912,31.42767894169577],[131.01857273482167,31.426598705074678],[131.0175623703872,31.426515813675252],[131.0172614624432,31.425985655817854],[131.0176681837965,31.425689368098723],[131.01304271081347,31.423951668877248],[131.01169558360866,31.423661297745625],[131.00927206240718,31.42126737718224],[131.00844391199735,31.42043984569128],[131.00994297276503,31.41934427117172],[131.01108467802786,31.41469128746403],[131.01093276278888,31.412499572566293],[131.01106436334516,31.410769115061807],[131.0082213297572,31.404400484743476],[131.00907973094115,31.404144363381867],[131.00929748992536,31.404158165923633],[131.0107572501597,31.40397133881042],[131.01272499595288,31.402912724013003],[131.01391857326098,31.402642853882494],[131.0150637324726,31.402213856242454],[131.0167169302903,31.401556465184978],[131.01795070537213,31.40073998389308],[131.02005539141902,31.399612167876654],[131.02046665212578,31.399425218900454],[131.02082148310865,31.399355963345194],[131.02184559980364,31.39890620142491],[131.02262599179778,31.39857049359473],[131.0235249146614,31.400187343854135],[131.024684404712,31.402903194047347],[131.0257064560826,31.404571443454973],[131.02706431230564,31.406066675715493],[131.0284982054315,31.409016801903316],[131.0298713130109,31.410796554676875],[131.03054258369167,31.412068093255716],[131.0322094320799,31.414598646474193]]]},"properties":{"KEY_CODE":"464680060","PREF":"46","CITY":"468","CITY_NAME":"大崎町","S_NAME":"大字永吉","SETAI":"424"}},{"type":"Feature","geometry":{"type":"Polygon","coordinates":[[[131.02017991181793,31.446960641437204],[131.01894275963645,31.449280867006326],[131.01744039247558,31.44860753532344],[131.01728951549674,31.448467464448044],[131.0169814332831,31.447917857686374],[131.0168934121537,31.447766927435445],[131.01610140014608,31.447476129010344],[131.01569275297396,31.44685113010746],[131.01436011398226,31.44583273119734],[131.0136869216131,31.445275820337297],[131.01329632411512,31.445829587039167],[131.01245520997492,31.44692655239289],[131.0119472555761,31.447297251094284],[131.0117025086007,31.445514022453867],[131.01085183765224,31.444815050881452],[131.0094980550373,31.442866869123815],[131.00782483512359,31.442037688219756],[131.0034432581854,31.438541515403525],[131.0035271462212,31.437941001932757],[131.00460783997966,31.436195116685486],[131.0063013482592,31.43489553673107],[131.00794203296803,31.432697625514905],[131.0088202315158,31.431988269557856],[131.00948703972313,31.43254407701274],[131.0105705585507,31.43098881405285],[131.011642680741,31.429927514627735],[131.01322316650308,31.42974023431727],[131.01265204434137,31.428876077324688],[131.01343568144256,31.428023646960202],[131.01466596228667,31.429061091054404],[131.01584677911026,31.427140897153155],[131.0172614624432,31.425985655817854],[131.0175623703872,31.426515813675252],[131.01857273482167,31.426598705074678],[131.01980298490912,31.42767894169577],[131.0167273701015,31.431130765185955],[131.01622810395594,31.435726642849005],[131.01628908366476,31.436590132079647],[131.01694623666006,31.436640090025417],[131.0179330274685,31.437565621564076],[131.01891355679064,31.43807623938269],[131.01947217829527,31.438810426587306],[131.02057176880896,31.439245757653996],[131.02086917334952,31.438442536121983],[131.02142743389987,31.43719547696498],[131.0213892496421,31.43706512004384],[131.020450413403,31.43659665469551],[131.0202907898264,31.43638950631663],[131.02114542889322,31.434657462933774],[131.0216552588682,31.43491853465369],[131.02327338806177,31.435629557853815],[131.02656556432808,31.437155510159577],[131.02679089677773,31.43725045247379],[131.02897011948903,31.433975824689405],[131.02949442870465,31.434130591088515],[131.03012165100796,31.43354078071872],[131.03068849222157,31.432258434428128],[131.03045336936128,31.431375261633878],[131.03379382633977,31.433734072955914],[131.0346799499575,31.433091178547695],[131.03635404244457,31.43268270288872],[131.04075563679243,31.429388414297744],[131.0426609779702,31.427879630384393],[131.0452038717293,31.43070250647237],[131.04631424962636,31.43177348711461],[131.04452382494244,31.43311245099671],[131.0435125007319,31.43301499661101],[131.0419031561162,31.433758973549246],[131.04235338403248,31.43469335895904],[131.04174406433378,31.435604279841584],[131.03965323150058,31.43695411869664],[131.03915495097226,31.436920591738627],[131.03699176556285,31.437798136330596],[131.03718197170292,31.438006098994688],[131.03518926948365,31.439046621477974],[131.035595964599,31.439631101165798],[131.0345535968817,31.439878724780822],[131.0337424750476,31.440667602752274],[131.0329084445105,31.44024529634424],[131.03192017771144,31.442614494937683],[131.0252515617259,31.44037722422207],[131.0247615389357,31.44147983875408],[131.02636991300307,31.441987871719242],[131.02488827964103,31.445238924552957],[131.02328883376154,31.444692394917634],[131.02178182525768,31.44749933537492],[131.02017991181793,31.446960641437204]]]},"properties":{"KEY_CODE":"464680070","PREF":"46","CITY":"468","CITY_NAME":"大崎町","S_NAME":"大字神領","SETAI":"500"}},{"type":"Feature","geometry":{"type":"Polygon","coordinates":[[[131.02114542889322,31.434657462933774],[131.0202907898264,31.43638950631663],[131.020450413403,31.43659665469551],[131.0213892496421,31.43706512004384],[131.02142743389987,31.43719547696498],[131.02086917334952,31.438442536121983],[131.02057176880896,31.439245757653996],[131.01947217829527,31.438810426587306],[131.01891355679064,31.43807623938269],[131.0179330274685,31.437565621564076],[131.01694623666006,31.436640090025417],[131.01628908366476,31.436590132079647],[131.01622810395594,31.435726642849005],[131.0167273701015,31.431130765185955],[131.01980298490912,31.42767894169577],[131.02068350943114,31.426346724156616],[131.0220432910328,31.423819887379143],[131.02254973650656,31.422292243070473],[131.0233464849716,31.421031872462393],[131.0255865223499,31.41841757401869],[131.0274378686388,31.418881837343758],[131.02867951550746,31.418779925918056],[131.03002830673933,31.418382709342456],[131.03082951079878,31.417617631174302],[131.03047345173192,31.41601073616462],[131.0293613108651,31.41497045758264],[131.02947403885887,31.41447178766565],[131.0304164184979,31.414069880274347],[131.03161306638518,31.41464559378355],[131.0322094320799,31.414598646474193],[131.03490599269006,31.418344042319877],[131.03771300264032,31.421639599252686],[131.04019976429788,31.424975902754852],[131.04232051592734,31.4271831009691],[131.0426609779702,31.427879630384393],[131.04075563679243,31.429388414297744],[131.03635404244457,31.43268270288872],[131.0346799499575,31.433091178547695],[131.03379382633977,31.433734072955914],[131.03045336936128,31.431375261633878],[131.03068849222157,31.432258434428128],[131.03012165100796,31.43354078071872],[131.02949442870465,31.434130591088515],[131.02897011948903,31.433975824689405],[131.02679089677773,31.43725045247379],[131.02656556432808,31.437155510159577],[131.02327338806177,31.435629557853815],[131.0216552588682,31.43491853465369],[131.02114542889322,31.434657462933774]]]},"properties":{"KEY_CODE":"464680080","PREF":"46","CITY":"468","CITY_NAME":"大崎町","S_NAME":"大字神領","SETAI":"257"}},{"type":"Feature","geometry":{"type":"Polygon","coordinates":[[[131.02178182525768,31.44749933537492],[131.02345959084212,31.44811056938274],[131.0211681447046,31.452209295220808],[131.01498500203311,31.463716447964455],[131.0136467236897,31.46593096305473],[131.01365302715,31.466097971014246],[131.01642366763693,31.467869207902165],[131.01673276939354,31.468532267366058],[131.0165170231375,31.46936888392375],[131.01464252571301,31.47058932036301],[131.01253944917053,31.46871228471989],[131.01146738268602,31.468222069741767],[131.00941234194661,31.465641565291744],[131.00917824539005,31.46412314297854],[131.00859020221412,31.462556541602005],[131.0079604277076,31.461639087459154],[131.00827075793194,31.460688458060392],[131.00792150223432,31.45910139912818],[131.00640244403033,31.458562107443036],[131.00444471900232,31.45873087189671],[131.002710844357,31.4562698678333],[131.00257358158638,31.45411790723286],[131.00299734582075,31.453269465877934],[131.00136501160588,31.45316982550764],[131.00016626942954,31.45390621011641],[131.00016231338796,31.455380411552373],[130.99904256390835,31.45739790883442],[130.99832880659403,31.45744242971851],[130.9947506310852,31.45575329870563],[130.9926033039407,31.454282631228146],[130.99197413659323,31.454717799879965],[130.9889071381417,31.452004799211657],[130.99049286599194,31.450727073426698],[130.9920682020691,31.44935940153827],[130.99355126872769,31.448003114246678],[130.99768538321862,31.444181492729566],[131.00218530676224,31.440114740607463],[131.0034432581854,31.438541515403525],[131.00782483512359,31.442037688219756],[131.0094980550373,31.442866869123815],[131.01085183765224,31.444815050881452],[131.0117025086007,31.445514022453867],[131.0119472555761,31.447297251094284],[131.01245520997492,31.44692655239289],[131.01329632411512,31.445829587039167],[131.0136869216131,31.445275820337297],[131.01436011398226,31.44583273119734],[131.01569275297396,31.44685113010746],[131.01610140014608,31.447476129010344],[131.0168934121537,31.447766927435445],[131.0169814332831,31.447917857686374],[131.01728951549674,31.448467464448044],[131.01744039247558,31.44860753532344],[131.01894275963647,31.449280867006326],[131.02017991181793,31.446960641437204],[131.02178182525768,31.44749933537492]]]},"properties":{"KEY_CODE":"464680090","PREF":"46","CITY":"468","CITY_NAME":"大崎町","S_NAME":"大字井俣","SETAI":"348"}},{"type":"Feature","geometry":{"type":"Polygon","coordinates":[[[130.9866606634796,31.467311523456964],[130.98798801697038,31.467583403055222],[130.98862222713416,31.468234598446173],[130.99017649937733,31.468141172503877],[130.99176854085846,31.468447003695612],[130.99212572985365,31.467342793398572],[130.99118491636315,31.466252852722363],[130.99036701108548,31.464612277654627],[130.99162401364825,31.46524744724167],[130.99232131267465,31.465225938643442],[130.9930101578749,31.465707993141983],[130.99248921955856,31.466204334949605],[130.99283358075255,31.467017424117916],[130.99304540924834,31.469774444374217],[130.99486841993482,31.47164870664795],[130.99469197923983,31.471853613960402],[130.9935956202845,31.470835581645236],[130.9930327037715,31.470835542128093],[130.99247598623393,31.472189873038044],[130.99150557519917,31.472258148922656],[130.99085427618976,31.473718449056168],[130.99115033676466,31.474849750586863],[130.99069655368928,31.475504348416653],[130.99077206076453,31.47653669489313],[130.99156601017236,31.477209437645854],[130.99260995796564,31.477657262723472],[130.99435971715175,31.477939805802393],[130.99477402324376,31.479584519387515],[130.99367900785506,31.479738214208606],[130.9914986029546,31.479180528340535],[130.9903726459179,31.479417906814774],[130.98620088018177,31.478967753897624],[130.98578928046138,31.47821229897357],[130.984600477211,31.477446028109796],[130.98512200669813,31.47404337800973],[130.98656733065877,31.47286365920117],[130.98680500503988,31.47068216706187],[130.9858053245854,31.47002725843296],[130.98499456572205,31.470074083777295],[130.9839550419243,31.469165607257157],[130.9850811290969,31.46765492428209],[130.9866606634796,31.467311523456964]]]},"properties":{"KEY_CODE":"464680090","PREF":"46","CITY":"468","CITY_NAME":"大崎町","S_NAME":"大字井俣","SETAI":"0"}},{"type":"Feature","geometry":{"type":"Polygon","coordinates":[[[131.04972890065085,31.459164943961756],[131.04861467351407,31.459769983828973],[131.04632242094922,31.45886222307526],[131.0454753091659,31.45900092104005],[131.04551000415802,31.45998421011751],[131.04637376181043,31.46040966769101],[131.0446995395027,31.461679653638484],[131.04292692056165,31.46200736214756],[131.04196889156984,31.46242836629056],[131.0412100024031,31.462351376400104],[131.040666482202,31.460804085566192],[131.03954100869626,31.460515941561972],[131.03900260631323,31.46175477508656],[131.03635690953496,31.461133176219477],[131.03208156382058,31.460601142641675],[131.03209943344055,31.461424193457216],[131.0315572652956,31.462971643555445],[131.0302147370962,31.464860200374893],[131.0294038598018,31.46482486934823],[131.0292102219301,31.46562387112267],[131.02792415391144,31.46544629195535],[131.02635236552106,31.467273127994154],[131.02493216801946,31.46933161226957],[131.02384851595357,31.470361621609406],[131.0232163715658,31.470210793852516],[131.02113001226544,31.471336091718126],[131.02017305673627,31.472179455960415],[131.02026833517465,31.472943026890132],[131.01930718100456,31.47268695206099],[131.017222559192,31.473029995490414],[131.01616037969487,31.472972347606138],[131.01528639078856,31.472380386019452],[131.0157381367083,31.471884946967254],[131.01464252571301,31.47058932036301],[131.0165170231375,31.46936888392375],[131.01673276939354,31.468532267366058],[131.01642366763693,31.467869207902165],[131.01365302715,31.466097971014246],[131.0136467236897,31.46593096305473],[131.01498500203311,31.463716447964455],[131.0211681447046,31.452209295220808],[131.02345959084212,31.44811056938274],[131.02178182525768,31.44749933537492],[131.02328883376154,31.444692394917634],[131.02488827964103,31.445238924552957],[131.02636991300307,31.441987871719242],[131.0247615389357,31.44147983875408],[131.0252515617259,31.44037722422207],[131.03192017771144,31.442614494937683],[131.0329084445105,31.44024529634424],[131.0337424750476,31.440667602752274],[131.0345535968817,31.439878724780822],[131.035595964599,31.439631101165798],[131.03518926948365,31.439046621477974],[131.03718197170292,31.438006098994688],[131.03699176556285,31.437798136330596],[131.03915495097226,31.436920591738627],[131.03965323150058,31.43695411869664],[131.04174406433378,31.435604279841584],[131.04235338403248,31.43469335895904],[131.0419031561162,31.433758973549246],[131.0435125007319,31.43301499661101],[131.04452382494244,31.43311245099671],[131.04631424962636,31.43177348711461],[131.0491856498298,31.435157653531377],[131.0505434744724,31.436235833815157],[131.05216041058688,31.437792087090866],[131.05336572673662,31.439164997149998],[131.0549982118557,31.440619595880122],[131.0601853337838,31.444830499780664],[131.06106891154408,31.44568316112566],[131.06043385364924,31.446117816131142],[131.05609955806582,31.449269948832526],[131.05566874767445,31.44828501205445],[131.05357125739553,31.446014904556314],[131.05227399316843,31.445030032793248],[131.05247833063152,31.44478909115461],[131.05099331502092,31.44385755234746],[131.04917062987158,31.444858060560406],[131.04877413947452,31.445656325005118],[131.0500871200197,31.447140413750727],[131.05087060330237,31.447243548699404],[131.0516995495716,31.446885382338685],[131.05037502519107,31.44841251131544],[131.0509972668238,31.44915724013438],[131.05165454297813,31.449333282380532],[131.0509723176981,31.451410783455923],[131.0504157284087,31.451401141116243],[131.04908608455216,31.452616514391824],[131.0499511684898,31.452647040018082],[131.05181381464206,31.45316774624281],[131.0537561026193,31.45303262621483],[131.0541113383399,31.454898737291824],[131.05454551270213,31.45487614285029],[131.05442717451567,31.456314722436097],[131.05363717059427,31.45637368732672],[131.05367826279306,31.45686722561946],[131.05257972040863,31.456871912649962],[131.05242689783213,31.45500289109679],[131.05187661766902,31.45461033071523],[131.04994583301595,31.454956398130587],[131.04881421184902,31.454044002776623],[131.04803550665,31.453802456533555],[131.0470646581602,31.454508760782545],[131.0464742031729,31.45538967646168],[131.0468138043224,31.455562903582646],[131.04572851758587,31.456785197293396],[131.04723741670298,31.457339513936997],[131.0474364192376,31.45704587400683],[131.04646987244826,31.456573671167686],[131.04678957361668,31.456092686053136],[131.0478377580963,31.456615169321445],[131.0488087127286,31.456098978214836],[131.05029285440958,31.456857475092804],[131.05153085353123,31.45819896516537],[131.04972890065085,31.459164943961756]],[[131.0458111465308,31.455929835582904],[131.0459648278706,31.456111586157533],[131.04603785814018,31.455885923544002],[131.0458111465308,31.455929835582904]],[[131.04671626421418,31.453013853956282],[131.04588155226512,31.45219420023783],[131.04541492614968,31.453297456188018],[131.045374996868,31.45341839161706],[131.04537605585566,31.45342825661957],[131.04538869088887,31.4534444601134],[131.0453907912274,31.4534454453589],[131.0454086814914,31.45344994892702],[131.04572746203098,31.45342545435163],[131.0458788416862,31.453375650723537],[131.04625667422874,31.453401870513602],[131.0463450049168,31.453305298371482],[131.04663972752314,31.453073919087174],[131.04671626421418,31.453013853956282]],[[131.04866003350827,31.447804485949113],[131.04845979855187,31.448225673599236],[131.0487315545905,31.448599467674143],[131.04936514063462,31.448419250043774],[131.04905463282842,31.448147790474128],[131.04906098711075,31.447909609441552],[131.04866003350827,31.447804485949113]]]},"properties":{"KEY_CODE":"464680100","PREF":"46","CITY":"468","CITY_NAME":"大崎町","S_NAME":"大字神領","SETAI":"1049"}}]}