{"type":"FeatureCollection","features":[{"type":"Feature","geometry":{"type":"Polygon","coordinates":[[[130.9867795354972,30.62340212191294],[130.98445987529337,30.6243958296289],[130.9821762807869,30.6251067470751],[130.9821822724403,30.62603929027688],[130.98169042175982,30.627083391370768],[130.97986062935684,30.628803279687652],[130.97944854951612,30.63033225311311],[130.97964943163322,30.631758997813602],[130.97943058576263,30.633521420215093],[130.97986785855403,30.63395872237135],[130.97872396979653,30.634318526596516],[130.97910208244375,30.634991210044873],[130.97909729481913,30.63685120649927],[130.97946012642944,30.637775603939264],[130.98004167941673,30.638123834957614],[130.98031528790588,30.638910367246144],[130.97942968409396,30.640267983986906],[130.97968267492016,30.641635643087962],[130.98034596942463,30.64200136573559],[130.97996974430114,30.642484336399782],[130.98000864015629,30.643630815212997],[130.97882009929455,30.64420836917232],[130.9774462707699,30.64519209119556],[130.97695918180546,30.645144645614277],[130.97528870509268,30.64363915275631],[130.97471494353337,30.643440447066904],[130.97388579192705,30.642419680172416],[130.97188382877584,30.64159300581893],[130.97182277146248,30.641147456824026],[130.97064227460328,30.64094941424731],[130.96959827202065,30.639754470401662],[130.9680104129689,30.639527399355785],[130.9660590990471,30.63958520230303],[130.96456731942303,30.638887344008996],[130.96314226653735,30.6388511037121],[130.9616275496322,30.639090376647655],[130.95891169637798,30.639037176373748],[130.95658967572055,30.63859405205474],[130.95445077596327,30.638579164268123],[130.95342143541535,30.63775054191352],[130.95163720967042,30.637003079966156],[130.951413726668,30.636599584250792],[130.9494746594045,30.63533190699142],[130.9484105500896,30.635126230697853],[130.94946777889245,30.63434072591644],[130.950104007082,30.632655198119732],[130.95029677309344,30.631125096564944],[130.95017854584762,30.629822645620365],[130.9504660458018,30.628647219283177],[130.9496342408392,30.628624214453335],[130.95018254373818,30.628192443164597],[130.95019696434593,30.62656324836386],[130.94963743308926,30.62536406305772],[130.94916490840416,30.623400038807237],[130.949990047607,30.62333002014514],[130.94961558963655,30.6213389189154],[130.95011842696945,30.621211029764655],[130.9496404867561,30.619634002953276],[130.94975070381307,30.618319502599],[130.9494790395572,30.617236854427468],[130.95003082411253,30.617220170533262],[130.94982594542097,30.616076094271655],[130.95018958361018,30.614807932651786],[130.95030412318633,30.61318868818781],[130.95276726083637,30.613119769735285],[130.9540376146649,30.613795439342606],[130.95527492623228,30.614038352524467],[130.95656489931326,30.613959895503047],[130.95762007474534,30.61444459879076],[130.9588182079367,30.61451972828502],[130.9639552892695,30.610592703805885],[130.96246707142666,30.610357684981402],[130.96035818489767,30.607319387013032],[130.9607445625619,30.60556151150639],[130.96116470238232,30.604643028347883],[130.96202754524552,30.604538757899636],[130.96462113116695,30.605131518531866],[130.96528311233777,30.605866872241844],[130.9668834069344,30.60632561967372],[130.9682736966413,30.607672198407993],[130.96987406149,30.608044980589025],[130.9703485453329,30.608493834608478],[130.97146346655066,30.608198149794653],[130.9724014499189,30.608990817068086],[130.9731299420919,30.60902918314949],[130.97335089562426,30.6083513712402],[130.9740046207037,30.608067489033992],[130.97500900058688,30.608277761626606],[130.97557179738448,30.608764804169994],[130.97563774298828,30.609815028842064],[130.9765867684767,30.610741326422175],[130.97713835965735,30.611973049490974],[130.97823076592806,30.61351038290345],[130.97957721321905,30.614513101217906],[130.9805283388838,30.61627330958086],[130.98171226199014,30.61613746136194],[130.98278018627863,30.61645269163561],[130.98310293351227,30.617132982693303],[130.9843774615028,30.617394380352653],[130.98465969166193,30.618703913487302],[130.98550861432662,30.61952465245318],[130.9858360530301,30.62074534189582],[130.98695250565703,30.621425147787534],[130.98791781156055,30.62244715647718],[130.98787045083773,30.623030411168653],[130.9867795354972,30.62340212191294]]]},"properties":{"KEY_CODE":"465010010","PREF":"46","CITY":"501","CITY_NAME":"中種子町","S_NAME":"牧川","SETAI":"69"}},{"type":"Feature","geometry":{"type":"Polygon","coordinates":[[[131.00736536626937,30.604922967145917],[131.00694447869884,30.605763061355024],[131.00637545310178,30.605903191757356],[131.0054759721338,30.60673935191879],[131.00466541241857,30.606833812576564],[131.00427103716106,30.60645635275604],[131.00316343958505,30.606594223699812],[131.0024250331705,30.607370878655196],[131.0017705349749,30.607516062527015],[131.00104050204274,30.608256343071233],[130.99849801869777,30.60822022820728],[130.99679463370282,30.607936851949802],[130.99516662904009,30.609243386246487],[130.993656049537,30.610702141862195],[130.99143943463454,30.611612516458322],[130.9899232518221,30.611267884128548],[130.98918907802508,30.613288784163206],[130.9881005936043,30.613833024086468],[130.986894131079,30.61404825789679],[130.98553245962142,30.614715072707654],[130.9850371059226,30.61605039058809],[130.98397954644975,30.61696474136105],[130.9843774615028,30.617394380352653],[130.98310293351227,30.617132982693303],[130.98278018627863,30.61645269163561],[130.98171226199014,30.61613746136194],[130.9805283388838,30.61627330958086],[130.97957721321905,30.614513101217906],[130.97823076592806,30.61351038290345],[130.97713835965735,30.611973049490974],[130.9765867684767,30.610741326422175],[130.97563774298828,30.609815028842064],[130.97557179738448,30.608764804169994],[130.97500900058688,30.608277761626606],[130.9740046207037,30.608067489033992],[130.97335089562426,30.6083513712402],[130.9731299420919,30.60902918314949],[130.9724014499189,30.608990817068086],[130.97146346655066,30.608198149794653],[130.9703485453329,30.608493834608478],[130.96987406149,30.608044980589025],[130.9682736966413,30.607672198407993],[130.9668834069344,30.60632561967372],[130.96528311233777,30.605866872241844],[130.96462113116695,30.605131518531866],[130.96202754524552,30.604538757899636],[130.96116470238232,30.604643028347883],[130.9607445625619,30.60556151150639],[130.96035818489767,30.607319387013032],[130.96246707142666,30.610357684981402],[130.9639552892695,30.610592703805885],[130.9588182079367,30.61451972828502],[130.95762007474534,30.61444459879076],[130.95656489931326,30.613959895503047],[130.95527492623228,30.614038352524467],[130.9540376146649,30.613795439342606],[130.95276726083637,30.613119769735285],[130.95030412318633,30.61318868818781],[130.94993830611136,30.61265995424245],[130.95000357591877,30.611502455556213],[130.9492499112293,30.61072462720502],[130.9496444281066,30.61020494733677],[130.949315259264,30.609702867292764],[130.95015589034142,30.609429451520118],[130.94947725314293,30.608799490198155],[130.94928342741676,30.606518797414466],[130.94862678005506,30.605770606332783],[130.94877855198297,30.60474592096594],[130.94956321621513,30.604002059107977],[130.94791698775668,30.603036090263643],[130.94787664071413,30.60243159458007],[130.94637083686465,30.59901182370035],[130.9465414632296,30.59896398863582],[130.94840504174863,30.603076895263968],[130.94991569662733,30.60404460574888],[130.9497327176484,30.60294935478816],[130.95026402981892,30.602022192812225],[130.9508417756585,30.602048592129872],[130.95127133127886,30.60020933909615],[130.9512795165915,30.598457420504964],[130.95077212545516,30.597525319472627],[130.95103850194388,30.596633229268896],[130.95317023109808,30.594095499632804],[130.95315908677824,30.593423407109395],[130.9516252376797,30.586971539981253],[130.9509714525426,30.584884807078616],[130.94900659987582,30.579663169468354],[130.94656426349692,30.574764645032698],[130.94566059809358,30.57240685028093],[130.9432519358109,30.567564115168636],[130.9414274769625,30.5641475600886],[130.9399969910458,30.561062708677287],[130.93905333877763,30.55976402991431],[130.93733997518842,30.55588402070607],[130.9354282745554,30.552674019202847],[130.93572594508748,30.551769502715334],[130.93793740202653,30.55073679898965],[130.93925637683307,30.549980761479166],[130.94055053243932,30.54937636812565],[130.94179137771852,30.549425139273904],[130.9413775415147,30.552133330670237],[130.94145811545314,30.552182703371763],[130.94259617136422,30.55195768175515],[130.94282365830188,30.55214215704142],[130.9434374776642,30.552370217765514],[130.9440899274781,30.552474812638824],[130.94448714194965,30.552513325591036],[130.94541021449675,30.552492858891796],[130.94591484665665,30.552362261961125],[130.94665158422296,30.551871467070516],[130.94783198049325,30.551842914559916],[130.94810019916576,30.551873757952322],[130.94929907443952,30.55183366287002],[130.95002770659332,30.551963080834877],[130.95058699987084,30.55212259104421],[130.95073729127287,30.55203863990757],[130.95124387354346,30.552059987113594],[130.9514572996595,30.551979443371078],[130.95229149188128,30.55168319408237],[130.95345144339908,30.551601039718488],[130.95388521572954,30.551468703456926],[130.95404596218683,30.551441700162744],[130.95449605014036,30.55137561928485],[130.9541272301955,30.55170306874849],[130.9539414263924,30.552482782125114],[130.95359644311574,30.552634323142488],[130.95532029166594,30.55376742733419],[130.9556817118652,30.55542778192969],[130.95616632196518,30.55593428348676],[130.9562019905308,30.556781181415218],[130.9569194839833,30.557934202981933],[130.95767374773135,30.558106437249062],[130.95831131546814,30.557732268269252],[130.9590034355112,30.557417881416956],[130.95977789953733,30.556834003651463],[130.9611515028442,30.55650883657096],[130.96202205364514,30.556907465575616],[130.96250204244328,30.556932707617662],[130.96276153474574,30.557415434555363],[130.96385406260805,30.557323863309687],[130.96486378605135,30.55681332527607],[130.9646730826961,30.55617133674626],[130.9670027223203,30.554207862558926],[130.96835349751706,30.554039074872286],[130.9680437874395,30.553424973850195],[130.968675417081,30.552164707650835],[130.96961117314413,30.552747382453383],[130.96990104860538,30.5516677309861],[130.97079465108035,30.551877980701214],[130.97209212937878,30.552956326653934],[130.9714916738729,30.554022106427578],[130.97036060873074,30.556927592890908],[130.97113005972167,30.55871713883687],[130.97184651542543,30.5592580394552],[130.97254665158812,30.560324846943747],[130.9719434086952,30.560572531736508],[130.97258386668142,30.561698811863224],[130.9723064686454,30.56234152662044],[130.97264926638067,30.56404723448553],[130.97472145127244,30.563744393228646],[130.9752473101577,30.566392602911776],[130.97613436448455,30.56760957726553],[130.9766722815968,30.570171795009816],[130.97792588994622,30.57223713487473],[130.97753463064038,30.574258987610342],[130.9781961798382,30.576777522750962],[130.97823272112396,30.5788096126043],[130.97769103301084,30.58077335012984],[130.9772523669079,30.5796971709668],[130.97655523451027,30.578890730251775],[130.97599567901446,30.579356336789825],[130.97457678410132,30.579341632649577],[130.97386318576804,30.579091682709276],[130.9726063831059,30.579722592312375],[130.97126224956907,30.57964247370274],[130.97098543752102,30.58017720357772],[130.9710398013369,30.58152507075581],[130.97020297741653,30.583039039385408],[130.96836032856152,30.582663589831387],[130.96737285465838,30.582939084874116],[130.96883969687008,30.58361068585242],[130.97085989099583,30.585397459492565],[130.97161872268077,30.586279043847338],[130.97291870966907,30.58727623035114],[130.9763321160977,30.589148068441155],[130.97718716055726,30.58917622271817],[130.97949368252918,30.590076751061588],[130.97996886480774,30.59075282461204],[130.98052359790643,30.590827808658297],[130.98165407437182,30.590225394462088],[130.9828395630638,30.5908976943879],[130.98304793984008,30.59184587179528],[130.9847204725842,30.59230352855246],[130.98547419814778,30.59356753325804],[130.9861091960944,30.593948330417096],[130.98696500986784,30.593699242264474],[130.9869846961488,30.59457572446609],[130.98614720377597,30.59498917163098],[130.98528079991632,30.596159257782762],[130.9860138024076,30.59692560488126],[130.98648989552316,30.598514524659745],[130.98721695160629,30.598976959642492],[130.9876608780246,30.598421937750427],[130.98800264782278,30.599179475909168],[130.98911206132365,30.600616789674426],[130.99031762947413,30.600793402402747],[130.99079141380042,30.601255219492646],[130.99236283063203,30.601862321540583],[130.99300463499725,30.601727627126216],[130.99507046357118,30.599869013101788],[130.99549000263937,30.60022582400394],[130.99720191415196,30.600070040654025],[130.9987491569096,30.599373501762514],[131.00006706691593,30.59936618571305],[131.00080678568938,30.599726463147306],[131.00228839372573,30.599338551419248],[131.0021226001507,30.598809133328714],[131.00416344536035,30.598607813027925],[131.00491317948934,30.599120861404312],[131.00480058444288,30.59960800027833],[131.00546053314403,30.600154314227915],[131.00653094826782,30.5993291292427],[131.00752729174755,30.600080083247484],[131.00841241853783,30.59973103261558],[131.00863757791325,30.59899129248439],[131.00975913401305,30.60000439780675],[131.01178280789787,30.601284106093793],[131.0103586396102,30.602241297951966],[131.00855690047945,30.602866404288005],[131.00736536626937,30.604922967145917]]]},"properties":{"KEY_CODE":"465010020","PREF":"46","CITY":"501","CITY_NAME":"中種子町","S_NAME":"納官","SETAI":"338"}},{"type":"Feature","geometry":{"type":"Polygon","coordinates":[[[131.01178280789787,30.601284106093793],[131.00975913401305,30.60000439780675],[131.00863757791325,30.59899129248439],[131.00841241853783,30.59973103261558],[131.00752729174755,30.600080083247484],[131.00653094826782,30.5993291292427],[131.00546053314403,30.600154314227915],[131.00480058444288,30.59960800027833],[131.00491317948934,30.599120861404312],[131.00416344536035,30.598607813027925],[131.0021226001507,30.598809133328714],[131.00228839372573,30.599338551419248],[131.00080678568938,30.599726463147306],[131.00006706691593,30.59936618571305],[130.9987491569096,30.599373501762514],[130.99720191415196,30.600070040654025],[130.99549000263937,30.60022582400394],[130.99507046357118,30.599869013101788],[130.99300463499725,30.601727627126216],[130.99236283063203,30.601862321540583],[130.99079141380042,30.601255219492646],[130.99031762947413,30.600793402402747],[130.98911206132365,30.600616789674426],[130.98800264782278,30.599179475909168],[130.9876608780246,30.598421937750427],[130.98721695160629,30.598976959642492],[130.98648989552316,30.598514524659745],[130.9860138024076,30.59692560488126],[130.98528079991632,30.596159257782762],[130.98614720377597,30.59498917163098],[130.9869846961488,30.59457572446609],[130.98696500986784,30.593699242264474],[130.9861091960944,30.593948330417096],[130.98547419814778,30.59356753325804],[130.9847204725842,30.59230352855246],[130.98304793984008,30.59184587179528],[130.9828395630638,30.5908976943879],[130.98165407437182,30.590225394462088],[130.98052359790643,30.590827808658297],[130.97996886480774,30.59075282461204],[130.97949368252918,30.590076751061588],[130.97718716055726,30.58917622271817],[130.9763321160977,30.589148068441155],[130.97291870966907,30.58727623035114],[130.97161872268077,30.586279043847338],[130.97085989099583,30.585397459492565],[130.96883969687008,30.58361068585242],[130.96737285465838,30.582939084874116],[130.96836032856152,30.582663589831387],[130.97020297741653,30.583039039385408],[130.9710398013369,30.58152507075581],[130.97098543752102,30.58017720357772],[130.97126224956907,30.57964247370274],[130.9726063831059,30.579722592312375],[130.97386318576804,30.579091682709276],[130.97457678410132,30.579341632649577],[130.97599567901446,30.579356336789825],[130.97655523451027,30.578890730251775],[130.9772523669079,30.5796971709668],[130.97769103301084,30.58077335012984],[130.97823272112396,30.5788096126043],[130.9781961798382,30.576777522750962],[130.97753463064038,30.574258987610342],[130.97792588994622,30.57223713487473],[130.9766722815968,30.570171795009816],[130.97613436448455,30.56760957726553],[130.9752473101577,30.566392602911776],[130.97472145127244,30.563744393228646],[130.97264926638067,30.56404723448553],[130.9723064686454,30.56234152662044],[130.97258386668142,30.561698811863224],[130.9719434086952,30.560572531736508],[130.97254665158812,30.560324846943747],[130.97184651542543,30.5592580394552],[130.97113005972167,30.55871713883687],[130.97036060873074,30.556927592890908],[130.9714916738729,30.554022106427578],[130.97209212937878,30.552956326653934],[130.973064965105,30.551541644957624],[130.9734040350567,30.550591968628332],[130.97234013653113,30.5491415529305],[130.97654243401036,30.547494761461],[130.97825370406318,30.54661245287629],[130.98179208122474,30.546145150137075],[130.98296364086272,30.546641242094854],[130.98393822970783,30.544828121732195],[130.98516713623172,30.54516463476679],[130.98780632594918,30.54633045654966],[130.98846624346842,30.54563533507446],[130.98751251727003,30.54423465688272],[130.98974369835767,30.544487533152076],[130.9916073663464,30.544055562787655],[130.99146094846188,30.54358531360609],[130.9928389181114,30.543376831830304],[130.99325516933013,30.54363369522886],[130.9971857268013,30.542602457087],[130.99713673060336,30.542811636059554],[130.9989386444863,30.54641743583963],[130.9993430176288,30.547489301330785],[131.00059166256233,30.548407823489708],[131.0032234743422,30.54969339897088],[131.00375297414962,30.550091184595797],[131.00569378164124,30.550629626828744],[131.00765853172086,30.550254345640894],[131.00766168303943,30.55068556537433],[131.0124258952307,30.548601496184876],[131.01328677280202,30.54810976599572],[131.01386219525293,30.548788856346622],[131.01482950476722,30.549269720343265],[131.01547386339996,30.550907032941495],[131.01679044965405,30.551883740282133],[131.01856361614077,30.552936499533644],[131.0203461208968,30.553554235467796],[131.0226985117706,30.5526968699278],[131.0220139482817,30.55396616550214],[131.02252887830767,30.554023881538253],[131.0224602470578,30.554836661910276],[131.02305854035527,30.554745507461345],[131.0235320769882,30.556210556615138],[131.02420555656602,30.556698440937005],[131.0257285475696,30.55704915641077],[131.02736470465737,30.555535790611422],[131.02744268609243,30.554752043806783],[131.0281547219216,30.55517844310866],[131.028060131594,30.556203232686936],[131.0286637662565,30.55659666598474],[131.0288350232943,30.55776376936311],[131.02950530715322,30.557882033029557],[131.02954097923666,30.55872806055285],[131.02828808035756,30.558962878559946],[131.02743352572546,30.559810212553895],[131.02718680828585,30.561164311768767],[131.02792929809706,30.56228196541666],[131.02898194916514,30.5615076033255],[131.02872068393606,30.562969116562396],[131.02809530506178,30.563298524485337],[131.02875955931557,30.564134835734155],[131.02954040728434,30.56432947444407],[131.0307923307728,30.564111842140356],[131.03099883448542,30.564450941179903],[131.03430171759993,30.565696789509754],[131.03495044147766,30.56665486078815],[131.03422063950083,30.566434868211037],[131.0339476454906,30.56687077980414],[131.03330843112568,30.56628990710176],[131.0321629920161,30.567102101730196],[131.03268557986033,30.568121389060316],[131.0319248934788,30.569253746293956],[131.03201784185066,30.56981755803013],[131.03290308672769,30.570328744863758],[131.0342342011061,30.56978459992989],[131.0340136118374,30.571133343736467],[131.03457253394512,30.571556077774574],[131.03383968213305,30.571694400626217],[131.03357470556378,30.57112978804753],[131.0330962749326,30.571401389804162],[131.0328140223238,30.572322479397194],[131.03263242065117,30.571631545181305],[131.03207799451943,30.57231447801046],[131.0323930574685,30.573047950212853],[131.03182179208167,30.57321582522305],[131.03272162484726,30.573610013128523],[131.03343546194967,30.572605654028404],[131.0339572280517,30.57421498591623],[131.03446411147692,30.5748689042644],[131.03385223550177,30.575216378610985],[131.03369619461375,30.576333086919163],[131.03403300182578,30.576508918798204],[131.03352873026753,30.577600623405765],[131.03426535267022,30.579400189445142],[131.03359818542086,30.57972625004372],[131.03264988902632,30.58134664810408],[131.03260949514896,30.582248786142433],[131.03338634926132,30.58256152288315],[131.03222282090246,30.582754070313314],[131.03190604184584,30.58337661363555],[131.03188248500905,30.584867667287362],[131.0328865639914,30.587406347435728],[131.03210336925125,30.58778909050474],[131.03101652765648,30.587685882177478],[131.03032299394474,30.588100732414198],[131.02897287436866,30.587804456590497],[131.0287168303306,30.588663496980733],[131.02793597913163,30.589390994098355],[131.02775930078232,30.590644131138394],[131.02638683339785,30.591750631207205],[131.02413542613178,30.5932699994316],[131.02311099465672,30.595766512927412],[131.02074832793912,30.59785360086546],[131.019568143721,30.59813089689846],[131.01783695409836,30.599131353613775],[131.01661321556517,30.59958453781016],[131.0143606242256,30.600024009531992],[131.01235934259486,30.600780566839024],[131.01178280789787,30.601284106093793]]]},"properties":{"KEY_CODE":"465010030","PREF":"46","CITY":"501","CITY_NAME":"中種子町","S_NAME":"増田","SETAI":"341"}},{"type":"Feature","geometry":{"type":"Polygon","coordinates":[[[130.9611515028442,30.55650883657096],[130.95977789953733,30.556834003651463],[130.9590034355112,30.557417881416956],[130.95831131546814,30.557732268269252],[130.95767374773135,30.558106437249062],[130.9569194839833,30.557934202981933],[130.9562019905308,30.556781181415218],[130.95616632196518,30.55593428348676],[130.9556817118652,30.55542778192969],[130.95532029166594,30.55376742733419],[130.95359644311574,30.552634323142488],[130.9539414263924,30.552482782125114],[130.9541272301955,30.55170306874849],[130.95449605014036,30.55137561928485],[130.95404596218683,30.551441700162744],[130.95388521572954,30.551468703456926],[130.95345144339908,30.551601039718488],[130.95229149188128,30.55168319408237],[130.9514572996595,30.551979443371078],[130.95124387354346,30.552059987113594],[130.95073729127287,30.55203863990757],[130.95058699987084,30.55212259104421],[130.95002770659332,30.551963080834877],[130.94929907443952,30.55183366287002],[130.94810019916576,30.551873757952322],[130.94783198049325,30.551842914559916],[130.94665158422296,30.551871467070516],[130.94591484665665,30.552362261961125],[130.94541021449675,30.552492858891796],[130.94448714194965,30.552513325591036],[130.9440899274781,30.552474812638824],[130.9434374776642,30.552370217765514],[130.94282365830188,30.55214215704142],[130.94259617136422,30.55195768175515],[130.94145811545314,30.552182703371763],[130.9413775415147,30.552133330670237],[130.94179137771852,30.549425139273918],[130.94055053243932,30.54937636812565],[130.93925637683307,30.549980761479166],[130.93793740202653,30.55073679898965],[130.93706590657757,30.55090862887851],[130.93560095012896,30.551641168418634],[130.93547220542715,30.55244146179294],[130.93470976208164,30.551634517624944],[130.93379159683823,30.549929027074516],[130.93182380240995,30.54685625932606],[130.93065500311485,30.54453549095346],[130.93003021732142,30.54376722964503],[130.92856681955664,30.541102653279392],[130.92626958266098,30.537300635274754],[130.92413054310614,30.534010340267795],[130.92344790254165,30.532770373556996],[130.9214026091239,30.529761419120916],[130.9210491918178,30.528683170831876],[130.9190345171157,30.525389198608636],[130.9184030590622,30.52414218818831],[130.91590793600034,30.51996659087164],[130.91470473306043,30.518465454509823],[130.9172227082613,30.51711875106531],[130.91785049458377,30.51723418123736],[130.9186763786559,30.51659055085982],[130.91883571588897,30.515876292590438],[130.920911580065,30.51440322549999],[130.92375563204652,30.513399967052894],[130.92561392114837,30.5116991730643],[130.92565543527704,30.510811743931892],[130.92495571282782,30.509729645320462],[130.92575199453128,30.5091237215441],[130.92605907521582,30.50784966532302],[130.9266109267096,30.506670189930308],[130.9279035387092,30.506254828128792],[130.9301362626534,30.506854849809233],[130.93065427698417,30.50843552128425],[130.93047899251133,30.50937954209892],[130.93117203325951,30.51038887497029],[130.93164459871045,30.509050338188512],[130.93262643322214,30.508887917540395],[130.935140224704,30.509707890092635],[130.936650975308,30.508605530900716],[130.93804097688803,30.50833726616746],[130.93861666624332,30.50862001627459],[130.94060035356128,30.50886254510759],[130.94277946654967,30.508398101333217],[130.94399953976577,30.50748524981059],[130.94514310922517,30.509506477200457],[130.9465335991866,30.511403193640483],[130.9494501810534,30.515184518510026],[130.95043435255292,30.516496354434615],[130.95100142136496,30.51806878821322],[130.95138653551388,30.519211800027108],[130.95170560685207,30.520616396669293],[130.9528107565205,30.51958235254747],[130.9537695838138,30.51889160512087],[130.95452720142995,30.51847437436042],[130.9563172705543,30.518204095789834],[130.9560349148827,30.517070437207916],[130.95680868823789,30.5107539390821],[130.95691327596833,30.510321241445606],[130.957368851154,30.50972346193907],[130.95833971483773,30.509040997538275],[130.95885952933398,30.50877589038754],[130.95980588320938,30.50821857504762],[130.9603236322562,30.507574570581248],[130.96017302712508,30.506678324902307],[130.9606305803351,30.506528493313404],[130.96204309739028,30.506375009405666],[130.96262957128747,30.505952319259293],[130.96385543780042,30.506014140007643],[130.9647390742906,30.506648979448666],[130.96592949824353,30.50649538969977],[130.96675540052735,30.507126535651558],[130.96831820709485,30.505153559510372],[130.9686028668425,30.5039741093191],[130.96799074969857,30.502555645863055],[130.96736334077744,30.50047129309741],[130.96631385254764,30.499752131681362],[130.9675195399738,30.499783464726825],[130.97044254826352,30.50063727164294],[130.97237437945984,30.499936320298847],[130.97269216365558,30.49938637810509],[130.973573822,30.498954397935606],[130.97391430825445,30.498322983855743],[130.9748737763997,30.497739342153608],[130.97523384046298,30.49663656729265],[130.97671703954157,30.496436982835235],[130.9770771236985,30.497742598256426],[130.97699648954614,30.49922658064933],[130.9787204005657,30.500174131731697],[130.97880244773776,30.501149288285774],[130.97975147169885,30.50140374077692],[130.98005339084136,30.502233748773946],[130.97925123173283,30.502065872256075],[130.9788583271933,30.50259890271596],[130.97955932182072,30.503614764396556],[130.97854512701315,30.505087020400037],[130.97860830219992,30.50653776034687],[130.9789643460096,30.507610224670877],[130.97984891175224,30.50756809332709],[130.98032170291765,30.508484676819798],[130.98110722934675,30.508732891849284],[130.9809840551085,30.509711676898746],[130.98168518091146,30.51004021987027],[130.98059508177334,30.5111524733519],[130.98036137341913,30.512475736606604],[130.98121873491,30.51312089868962],[130.98106132593458,30.513455504675505],[130.97955968567317,30.51426631094758],[130.97988866897927,30.515398533133485],[130.98187192222466,30.518315544762732],[130.9831407746127,30.51975350407563],[130.98399182134233,30.52116207130746],[130.98676204475987,30.524286331809456],[130.98887600423748,30.526819012794512],[130.98956264676337,30.52746410660022],[130.9925980385939,30.529411016681802],[130.9935494814454,30.52940573674041],[130.99496461000666,30.530080744185813],[130.9953115973402,30.530561433509433],[130.99622536024228,30.533270698744243],[130.99563105975358,30.537225653778705],[130.99603425196452,30.539384312751217],[130.9973608641318,30.541769686422164],[130.9971857268013,30.542602457087],[130.99325516933013,30.54363369522886],[130.9928389181114,30.543376831830304],[130.99146094846188,30.54358531360609],[130.9916073663464,30.544055562787655],[130.98974369835767,30.544487533152076],[130.98751251727003,30.54423465688272],[130.98846624346842,30.54563533507446],[130.98780632594918,30.54633045654966],[130.98516713623172,30.54516463476679],[130.98393822970783,30.544828121732195],[130.98296364086272,30.546641242094854],[130.98179208122474,30.546145150137075],[130.97825370406318,30.54661245287629],[130.97654243401036,30.547494761461],[130.97234013653113,30.5491415529305],[130.9734040350567,30.550591968628332],[130.973064965105,30.551541644957624],[130.97209212937878,30.552956326653934],[130.97079465108035,30.551877980701214],[130.96990104860538,30.5516677309861],[130.96961117314413,30.552747382453383],[130.968675417081,30.552164707650835],[130.9680437874395,30.553424973850195],[130.96835349751706,30.554039074872286],[130.9670027223203,30.554207862558926],[130.9646730826961,30.55617133674626],[130.96486378605135,30.55681332527607],[130.96385406260805,30.557323863309687],[130.96276153474574,30.557415434555363],[130.96250204244328,30.556932707617662],[130.96202205364514,30.556907465575616],[130.9611515028442,30.55650883657096]]]},"properties":{"KEY_CODE":"465010040","PREF":"46","CITY":"501","CITY_NAME":"中種子町","S_NAME":"野間","SETAI":"2010"}},{"type":"Feature","geometry":{"type":"Polygon","coordinates":[[[130.95680868823789,30.5107539390821],[130.9560349148827,30.517070437207916],[130.9563172705543,30.518204095789834],[130.95452720142995,30.51847437436042],[130.9537695838138,30.51889160512087],[130.9528107565205,30.51958235254747],[130.95170560685207,30.520616396669293],[130.95138653551388,30.519211800027108],[130.95100142136496,30.51806878821322],[130.95043435255292,30.516496354434615],[130.9494501810534,30.515184518510026],[130.9465335991866,30.511403193640483],[130.94514310922517,30.509506477200457],[130.94399953976577,30.50748524981059],[130.94277946654967,30.508398101333217],[130.94060035356128,30.50886254510759],[130.93861666624332,30.50862001627459],[130.93804097688803,30.50833726616746],[130.936650975308,30.508605530900716],[130.935140224704,30.509707890092635],[130.93262643322214,30.508887917540395],[130.93164459871045,30.509050338188512],[130.93117203325951,30.51038887497029],[130.93047899251133,30.50937954209892],[130.93065427698417,30.50843552128425],[130.9301362626534,30.506854849809233],[130.9279035387092,30.506254828128792],[130.9266109267096,30.506670189930308],[130.92572881854633,30.504011827309494],[130.9242971614828,30.50256619349516],[130.92400235786943,30.501341400093665],[130.92612466672188,30.50206320704182],[130.92676172844267,30.503152033439747],[130.92875512848966,30.50380466013525],[130.9298450439146,30.502652246025356],[130.9307976886085,30.502618655894207],[130.93102724228225,30.500962542937582],[130.9321551181921,30.49965563328728],[130.93098956183178,30.498806736577578],[130.93063333666012,30.49809640626622],[130.93048201987372,30.497068471115536],[130.9303162596967,30.496280436437235],[130.92996338416722,30.495744329420802],[130.92933351713762,30.494941371426858],[130.9306357817585,30.49423445335556],[130.93123639446802,30.49374620497216],[130.9315836849364,30.49351465090886],[130.93271223883139,30.492970575966048],[130.932648927309,30.492482820492356],[130.9333181152725,30.492326705387896],[130.93378702684606,30.49174675778139],[130.93405496050505,30.49125212679926],[130.93487912217495,30.49158436988901],[130.93537428552548,30.491875843273167],[130.93632874833287,30.49204547380553],[130.93728333887074,30.49202705804113],[130.9376593194879,30.49212140290217],[130.9388739453335,30.492560372419803],[130.9389423166688,30.49305827267749],[130.93898679009789,30.493147943894485],[130.93945826054204,30.49356907227148],[130.9399441195057,30.49385798531143],[130.94045864070895,30.494031604712532],[130.94074909659102,30.494378498409343],[130.9416655622986,30.49568503879441],[130.94226109108146,30.495899844355893],[130.9432194121249,30.495103864268916],[130.9441564373485,30.494053853238874],[130.9452078715096,30.492888581322553],[130.94538978852822,30.49316691189692],[130.94549935669363,30.493995511861545],[130.94606134562005,30.493982500877735],[130.9464372907822,30.493992525641875],[130.9469642826725,30.494177401507937],[130.94707275643847,30.494254691634755],[130.9470869114281,30.49435280444592],[130.94743152833723,30.494468250004548],[130.94808678464247,30.494750717342704],[130.94829569152307,30.494723738435802],[130.94947732777746,30.49463287243595],[130.9495635142789,30.49461035336676],[130.9496654938206,30.494490578901324],[130.94961906574179,30.494359751445607],[130.94979744267093,30.4941920825279],[130.9503535970027,30.49422415705328],[130.95165434579755,30.494292318751864],[130.95099731657237,30.493576564345755],[130.95050558125126,30.492713992978974],[130.95039525381048,30.492494055334884],[130.95016679575548,30.492128038611696],[130.95025605520846,30.491916636633892],[130.95078555017582,30.491052489041696],[130.95089029908905,30.490854624721123],[130.95106855461725,30.490905156284725],[130.95137470360476,30.49094530653431],[130.95172750234988,30.490734004894378],[130.95189827488494,30.490277648772732],[130.95194092397045,30.490240733489408],[130.95220059143884,30.49023406615312],[130.95230915485675,30.490143612805888],[130.95251655386582,30.490061371642234],[130.95267162146456,30.489964168442594],[130.95288501171188,30.48951797625822],[130.95294703747305,30.489494318518513],[130.95316408906282,30.489450984399433],[130.95324943380683,30.48929652629164],[130.95360990875386,30.48920926580112],[130.95379001111854,30.48941907731862],[130.95389860010224,30.48927505770244],[130.95449573585464,30.488684380119086],[130.95493960820554,30.4884480135537],[130.9549360648589,30.487796787416535],[130.95491292488424,30.487581959453106],[130.9551184364642,30.48736072894724],[130.9563107561949,30.48645619952188],[130.95619136540432,30.48615084224595],[130.95613746980402,30.48604848692913],[130.95569755093382,30.485807856996132],[130.95546212513494,30.485412806839356],[130.95497119970946,30.485234177675895],[130.95458834357123,30.485305363531385],[130.95420338248596,30.485099987118343],[130.95379281941038,30.485031048040184],[130.95359134464312,30.48482630122297],[130.9523821396256,30.484168413921832],[130.95223721565264,30.484051644578173],[130.95220453317438,30.48398340794715],[130.95235272907522,30.483803883492023],[130.95282677522223,30.48359882753865],[130.95216568012032,30.482786088295022],[130.9517707995234,30.48266640279913],[130.9508622450714,30.483008014076],[130.9501023336243,30.48237508773148],[130.94992486956096,30.481913234215753],[130.95018170287773,30.481690904130264],[130.95068557780667,30.481101049211823],[130.95100705129533,30.48002791405406],[130.95147132302895,30.479609166170324],[130.95161945794123,30.47955791500944],[130.9517287140174,30.4783606493087],[130.9514623503937,30.477958809971874],[130.95116225818697,30.47805510823304],[130.95105380768717,30.47809030474141],[130.9509454787239,30.477914062467825],[130.95104737668595,30.477453445950246],[130.95095598784036,30.47728904986735],[130.9523306843345,30.475917486962608],[130.95267835626572,30.475223535449175],[130.9529868872153,30.47484813732318],[130.95352091146168,30.474133674849035],[130.9541531358882,30.473522148715194],[130.955063734576,30.473876860528126],[130.95605297560854,30.47424230568667],[130.95734128104783,30.474727100058303],[130.95890958133472,30.47515587449519],[130.96049501059832,30.475190227366017],[130.96077490619265,30.474610690951764],[130.963512333453,30.475505755034735],[130.96458287798595,30.47558245943704],[130.9640031006559,30.47719261214829],[130.96325071521645,30.478079873155938],[130.96349988634282,30.479965406750956],[130.9638141202555,30.48073231074207],[130.96511843021054,30.482712862401897],[130.96585040827003,30.483406861638745],[130.9659881337454,30.48283037914749],[130.96754179007027,30.483969454644168],[130.96865789585505,30.48537255815161],[130.96943827199158,30.484872913589978],[130.96953543416507,30.486938823385287],[130.96989768451013,30.487638061430733],[130.9705663690913,30.48782936072885],[130.9704307245257,30.488475477758293],[130.9719282739633,30.489628578709183],[130.9720971107278,30.48937799399292],[130.9729812787237,30.490065499873044],[130.9720591044871,30.490885385789717],[130.97337050637776,30.49120593148438],[130.97457552043753,30.491961154707738],[130.97528391688627,30.491847686737575],[130.97511471618284,30.493318122666928],[130.97674675637998,30.494509254610996],[130.97659440855583,30.49539613078535],[130.97762037013385,30.495976223368512],[130.97671703954157,30.496436982835235],[130.97523384046298,30.49663656729265],[130.9748737763997,30.497739342153608],[130.97391430825445,30.498322983855743],[130.973573822,30.498954397935606],[130.97269216365558,30.49938637810509],[130.97237437945984,30.499936320298847],[130.97044254826352,30.50063727164294],[130.9675195399738,30.499783464726825],[130.96631385254764,30.499752131681362],[130.96736334077744,30.50047129309741],[130.96799074969857,30.502555645863055],[130.9686028668425,30.5039741093191],[130.96831820709485,30.505153559510372],[130.96675540052735,30.507126535651558],[130.96592949824353,30.50649538969977],[130.9647390742906,30.506648979448666],[130.96385543780042,30.506014140007643],[130.96262957128747,30.505952319259293],[130.96204309739028,30.506375009405666],[130.9606305803351,30.506528493313404],[130.96017302712508,30.506678324902307],[130.9603236322562,30.507574570581248],[130.95980588320938,30.50821857504762],[130.95885952933398,30.50877589038754],[130.95833971483773,30.509040997538275],[130.957368851154,30.50972346193907],[130.95691327596833,30.510321241445606],[130.95680868823789,30.5107539390821]]]},"properties":{"KEY_CODE":"465010050","PREF":"46","CITY":"501","CITY_NAME":"中種子町","S_NAME":"油久","SETAI":"251"}},{"type":"Feature","geometry":{"type":"Polygon","coordinates":[[[130.9266109267096,30.506670189930308],[130.92605907521582,30.50784966532302],[130.92575199453128,30.5091237215441],[130.92495571282782,30.509729645320462],[130.92565543527704,30.510811743931892],[130.92561392114837,30.5116991730643],[130.92375563204652,30.513399967052894],[130.920911580065,30.51440322549999],[130.91883571588897,30.515876292590438],[130.9186763786559,30.51659055085982],[130.91785049458377,30.51723418123736],[130.9172227082613,30.51711875106531],[130.91470473306043,30.518465454509823],[130.91394619957464,30.517282322682828],[130.91149587886628,30.514618534278195],[130.91084978715733,30.5135913547192],[130.909414604155,30.51077288825423],[130.90759402878052,30.50794451891077],[130.9071306488843,30.50662143255662],[130.90660409367442,30.505990677190407],[130.90728449828703,30.50509949376533],[130.9067811477545,30.504145118120903],[130.90725344994087,30.50282723414365],[130.9091047510156,30.50156082970409],[130.90975398392948,30.500713300978987],[130.90991113459467,30.498957357061283],[130.90977034964203,30.497418833090517],[130.9103594451224,30.497155672929154],[130.91147078835337,30.497362844441213],[130.912483291958,30.497140013120678],[130.9135251415962,30.497384329361598],[130.91458473266454,30.496296603313798],[130.91447960711594,30.49548292404786],[130.91362790171138,30.493545512248314],[130.91352971045754,30.49240534288885],[130.913997032014,30.491428806508235],[130.9147518937553,30.490724525961976],[130.91464033761443,30.489721644423263],[130.91493546684885,30.488922594429113],[130.91574221954428,30.48934152884865],[130.91680124499874,30.488775022406067],[130.91564397870764,30.488235472097443],[130.91553010813917,30.487592887198126],[130.91627003730216,30.486391549419118],[130.9159210068448,30.48580405862191],[130.91734598170854,30.48550224095927],[130.91789482341883,30.484743666884558],[130.91829692631057,30.4852071405847],[130.91879024530414,30.484336036870722],[130.91818089818605,30.483498029861924],[130.9202000732823,30.482858548803378],[130.92128530178113,30.48316401627399],[130.92079677726375,30.482076594873185],[130.92038473598384,30.480364191482803],[130.92177413803523,30.4800318555565],[130.9225095189287,30.47950484378512],[130.92318326210497,30.47764962647876],[130.9243753757179,30.476944692806082],[130.924760358953,30.478545138853278],[130.92552232591618,30.479099860931928],[130.92567978696937,30.480132364180516],[130.92579038010135,30.480514438775238],[130.9259243377622,30.48089737225854],[130.92694594612885,30.483659988524796],[130.92710222911828,30.484115388150933],[130.93031149758824,30.48312625006062],[130.9303762886011,30.482528043557515],[130.9367006409556,30.482916512753622],[130.93802344021844,30.483409126984988],[130.93838787338595,30.4822415855905],[130.93889463480838,30.481560992085573],[130.94010341890936,30.48100901107991],[130.93971785251853,30.480410870348475],[130.9404390406037,30.47960520338344],[130.9412392725537,30.47963941478439],[130.94146083312228,30.47910979023792],[130.94261288609846,30.47835506128525],[130.94288350615304,30.477388757919158],[130.944152565521,30.476758398446364],[130.9453160552151,30.4770380232654],[130.9452961454773,30.478033478901143],[130.94579810669006,30.478518886188358],[130.9464646455606,30.478377089113426],[130.94748801240272,30.479171978692378],[130.9479519736182,30.478586629358954],[130.94894705144307,30.478194046237466],[130.94956075421788,30.477520790085062],[130.9509559878404,30.47728904986735],[130.95104737668595,30.477453445950246],[130.9509454787239,30.477914062467825],[130.95105380768717,30.47809030474141],[130.95116225818697,30.47805510823304],[130.9514623503937,30.477958809971874],[130.9517287140174,30.4783606493087],[130.95161945794123,30.47955791500944],[130.95147132302895,30.479609166170324],[130.95100705129533,30.48002791405406],[130.95068557780667,30.481101049211823],[130.95018170287773,30.481690904130264],[130.94992486956096,30.481913234215753],[130.9501023336243,30.48237508773148],[130.9508622450714,30.483008014076],[130.9517707995234,30.48266640279913],[130.95216568012032,30.482786088295022],[130.95282677522223,30.48359882753865],[130.95235272907522,30.483803883492023],[130.95220453317438,30.48398340794715],[130.95223721565264,30.484051644578173],[130.9523821396256,30.484168413921832],[130.95359134464312,30.48482630122297],[130.95379281941038,30.485031048040184],[130.95420338248596,30.485099987118343],[130.95458834357123,30.485305363531385],[130.95497119970946,30.485234177675895],[130.95546212513494,30.485412806839356],[130.95569755093382,30.485807856996132],[130.95613746980402,30.48604848692913],[130.95619136540432,30.48615084224595],[130.9563107561949,30.48645619952188],[130.9551184364642,30.48736072894724],[130.95491292488424,30.487581959453106],[130.9549360648589,30.487796787416535],[130.95493960820554,30.4884480135537],[130.95449573585464,30.488684380119086],[130.95389860010224,30.48927505770244],[130.95379001111854,30.48941907731862],[130.95360990875386,30.48920926580112],[130.95324943380683,30.48929652629164],[130.95316408906282,30.489450984399433],[130.95294703747305,30.489494318518513],[130.95288501171188,30.48951797625822],[130.95267162146456,30.489964168442594],[130.95251655386582,30.490061371642234],[130.95230915485675,30.490143612805888],[130.95220059143884,30.49023406615312],[130.95194092397045,30.490240733489408],[130.95189827488494,30.490277648772732],[130.95172750234988,30.490734004894378],[130.95137470360476,30.49094530653431],[130.95106855461725,30.490905156284725],[130.95089029908905,30.490854624721123],[130.95078555017582,30.491052489041696],[130.95025605520846,30.491916636633892],[130.95016679575548,30.492128038611696],[130.95039525381048,30.492494055334884],[130.95050558125126,30.492713992978974],[130.95099731657237,30.493576564345755],[130.95165434579755,30.494292318751864],[130.9503535970027,30.49422415705328],[130.94979744267093,30.4941920825279],[130.94961906574179,30.494359751445607],[130.9496654938206,30.494490578901324],[130.9495635142789,30.49461035336676],[130.94947732777746,30.49463287243595],[130.94829569152307,30.494723738435802],[130.94808678464247,30.494750717342704],[130.94743152833723,30.494468250004548],[130.9470869114281,30.49435280444592],[130.94707275643847,30.494254691634755],[130.9469642826725,30.494177401507937],[130.9464372907822,30.493992525641875],[130.94606134562005,30.493982500877735],[130.94549935669363,30.493995511861545],[130.94538978852822,30.49316691189692],[130.9452078715096,30.492888581322553],[130.9441564373485,30.494053853238874],[130.9432194121249,30.495103864268916],[130.94226109108146,30.495899844355893],[130.9416655622986,30.49568503879441],[130.94074909659102,30.494378498409343],[130.94045864070895,30.494031604712532],[130.9399441195057,30.49385798531143],[130.93945826054204,30.49356907227148],[130.93898679009789,30.493147943894485],[130.9389423166688,30.49305827267749],[130.9388739453335,30.492560372419803],[130.9376593194879,30.49212140290217],[130.93728333887074,30.49202705804113],[130.93632874833287,30.49204547380553],[130.93537428552548,30.491875843273167],[130.93487912217495,30.49158436988901],[130.93405496050505,30.49125212679926],[130.93378702684606,30.49174675778139],[130.9333181152725,30.492326705387896],[130.932648927309,30.492482820492356],[130.93271223883144,30.492970575966048],[130.9315836849364,30.49351465090886],[130.93123639446802,30.49374620497216],[130.9306357817585,30.49423445335556],[130.92933351713762,30.494941371426858],[130.92996338416722,30.495744329420802],[130.9303162596967,30.496280436437235],[130.93048201987372,30.497068471115536],[130.93063333666012,30.49809640626622],[130.93098956183178,30.498806736577578],[130.9321551181921,30.49965563328728],[130.93102724228225,30.500962542937582],[130.9307976886085,30.502618655894207],[130.9298450439146,30.502652246025356],[130.92875512848966,30.50380466013525],[130.92676172844267,30.503152033439747],[130.92612466672188,30.50206320704182],[130.92400235786943,30.501341400093665],[130.9242971614828,30.50256619349516],[130.92572881854633,30.504011827309494],[130.9266109267096,30.506670189930308]]]},"properties":{"KEY_CODE":"465010060","PREF":"46","CITY":"501","CITY_NAME":"中種子町","S_NAME":"田島","SETAI":"166"}},{"type":"Feature","geometry":{"type":"Polygon","coordinates":[[[130.92567978696937,30.480132364180516],[130.92552232591618,30.479099860931928],[130.924760358953,30.478545138853278],[130.9243753757179,30.476944692806082],[130.92318326210497,30.47764962647876],[130.9225095189287,30.47950484378512],[130.92177413803523,30.4800318555565],[130.92038473598384,30.480364191482803],[130.92079677726375,30.482076594873185],[130.92128530178113,30.48316401627399],[130.9202000732823,30.482858548803378],[130.91818089818605,30.483498029861924],[130.91879024530414,30.484336036870722],[130.91829692631057,30.4852071405847],[130.91789482341883,30.484743666884558],[130.91734598170854,30.48550224095927],[130.9159210068448,30.48580405862191],[130.91627003730216,30.486391549419118],[130.91553010813917,30.487592887198126],[130.91564397870764,30.488235472097443],[130.91680124499874,30.488775022406067],[130.91574221954428,30.48934152884865],[130.91493546684885,30.488922594429113],[130.91464033761443,30.489721644423263],[130.9147518937553,30.490724525961976],[130.913997032014,30.491428806508235],[130.91352971045754,30.49240534288885],[130.91362790171138,30.493545512248314],[130.91447960711594,30.49548292404786],[130.91458473266454,30.496296603313798],[130.9135251415962,30.497384329361598],[130.912483291958,30.497140013120678],[130.91147078835337,30.497362844441213],[130.9103594451224,30.497155672929154],[130.90977034964203,30.497418833090517],[130.90991113459467,30.498957357061283],[130.90975398392948,30.500713300978987],[130.9091047510156,30.50156082970409],[130.90725344994087,30.50282723414365],[130.9067811477545,30.504145118120903],[130.90728449828703,30.50509949376533],[130.90660409367442,30.505990677190407],[130.9062576906741,30.505408514942836],[130.9029901542036,30.501667538691944],[130.9005642117991,30.498285131625718],[130.8987528442938,30.496068908315685],[130.89786699319228,30.49544570220658],[130.8967047044891,30.49422232815217],[130.89598194850802,30.49403876013142],[130.8954312076711,30.494691514515765],[130.89532238018973,30.4941879090513],[130.89413583256734,30.494221302932896],[130.8932540715912,30.49370632518048],[130.89346433155558,30.49291881241225],[130.89218255771925,30.49242237528293],[130.89101083687032,30.49316394368388],[130.89104189661475,30.492422231642596],[130.88977290972443,30.49168586557894],[130.89125573956957,30.491243416930025],[130.89072718906033,30.49069715391332],[130.8902025578985,30.49127773791731],[130.88923314327815,30.4909385764842],[130.88807433108644,30.491329135857193],[130.8871390642212,30.489418271772227],[130.88633354008962,30.489684523921085],[130.8865819067633,30.488419199000457],[130.88615725889758,30.4881273061821],[130.88494510697484,30.48871795764201],[130.8842943331053,30.488500003530202],[130.88369944254256,30.487725581548023],[130.88258460808032,30.487946427731206],[130.8828679951895,30.48705074044754],[130.88233389416473,30.485138521356884],[130.881742365265,30.48504070870878],[130.88289609990807,30.4845013294167],[130.88361326692973,30.48320288315859],[130.88253144215645,30.482025419682685],[130.8812861516274,30.48166424587296],[130.88242069729995,30.48116573069646],[130.8828037620563,30.479300593515273],[130.88442612871037,30.478371161503475],[130.88557416594983,30.478413081024925],[130.88626623986767,30.477448110020735],[130.88704496178622,30.477213402352696],[130.8871359780081,30.476202213303964],[130.88665608537121,30.474986677108184],[130.88758564924848,30.47375295330275],[130.889023457746,30.47311566725688],[130.89042713971727,30.472101680205025],[130.8907710864895,30.471389832463334],[130.8911114775942,30.471784825821207],[130.8923921695264,30.471562644180405],[130.89240650216522,30.4711000149691],[130.893504940738,30.471162693600636],[130.89547949424755,30.47030053108273],[130.89580158109337,30.4705959772719],[130.8975031610838,30.470862673503692],[130.8981672616702,30.47006141892721],[130.8992571609444,30.46947364666123],[130.89930369913804,30.469014989239753],[130.90091996008357,30.468158672047462],[130.90120683030946,30.467421661122874],[130.90244028551368,30.46672797275798],[130.90269935879098,30.465531677450826],[130.90217718523803,30.4649623350375],[130.9028039665535,30.463405181677345],[130.90319972661882,30.46324028347134],[130.9037483648734,30.462156983780098],[130.90360331740933,30.46001113286089],[130.90368454557566,30.458537852909025],[130.90432765407417,30.45626969771709],[130.90631102170994,30.45142887641232],[130.91236814217885,30.4471066233516],[130.91426366674497,30.447838703944],[130.91516512477557,30.44789063741653],[130.91553653150748,30.447077254827875],[130.91702197657193,30.445917574716],[130.9185364428875,30.44551655780527],[130.9188518973016,30.445179863968352],[130.92307363678225,30.443840608881747],[130.92508313953218,30.444997189633607],[130.92621103969307,30.44514222335026],[130.9275315471485,30.444949896930773],[130.92891301267468,30.44573390391129],[130.92997360715535,30.446777365726753],[130.93162919600795,30.447297900942313],[130.9328831957003,30.447430261102678],[130.9344796358978,30.448324843205057],[130.93483039792454,30.448655733171314],[130.93563740530203,30.44879120570657],[130.93593580538825,30.448823784734728],[130.93615972689736,30.44867983708347],[130.93653714182884,30.44812971352477],[130.9374277566273,30.447190513554627],[130.93784053805345,30.446868764888535],[130.93864529167686,30.44650943507743],[130.94004239939008,30.44611176969544],[130.94103277468153,30.44578522031093],[130.94191692440756,30.44567344048111],[130.94179823608738,30.446990825761613],[130.94263490432937,30.44743046587503],[130.94323029605567,30.448195611736615],[130.94463771306107,30.44955091959289],[130.94504512175632,30.450401111954847],[130.94624770044715,30.451396287959824],[130.94708038004444,30.451551434008366],[130.94789095463355,30.45133272996067],[130.94860510452054,30.45068235020723],[130.94985473289688,30.449761823284025],[130.95046457725675,30.449472255001837],[130.95068022409964,30.449420750284474],[130.95207446983218,30.449134594295238],[130.95258784268898,30.44846494127605],[130.95289288317971,30.448078539888336],[130.9578777809762,30.44886302347449],[130.9589295428045,30.449549599110785],[130.95947942499708,30.45028392343837],[130.95973181396545,30.451224514680185],[130.9606721303594,30.451801365454088],[130.96189148277884,30.45186631331356],[130.96307365888592,30.45194392557375],[130.9640996504283,30.452367967564374],[130.9627839051727,30.453760564670002],[130.96142587893797,30.454109166591046],[130.96024821301063,30.453950066949318],[130.9587647268768,30.453031328573474],[130.95978273428165,30.45395808540732],[130.96267111760534,30.454545408521486],[130.96156467186754,30.455857708016158],[130.96030033785755,30.45620097334345],[130.95787917218615,30.456221005047396],[130.95680418288765,30.45686820342477],[130.95526017858126,30.458308558909213],[130.95592781873128,30.458070578090332],[130.95773115456572,30.456529378982914],[130.9589205282186,30.456225878981407],[130.96049701857913,30.456504105380684],[130.95932385860115,30.457825377705092],[130.95908483033585,30.459059563718117],[130.95932066114352,30.46032266801137],[130.96039916169272,30.46121532081278],[130.95995325545954,30.46163383208788],[130.96101903801366,30.4630567642855],[130.9630597060957,30.46426007249609],[130.96676828419993,30.464050802894693],[130.96758560300543,30.46457877826989],[130.9673487319167,30.46303321599349],[130.96522214100514,30.46312031581306],[130.96560359544623,30.462348121263926],[130.96626185898788,30.462092993209588],[130.9677322479415,30.462277425871626],[130.96864425559986,30.46300118672096],[130.9683167738559,30.464326364535957],[130.96907680454734,30.46490844415954],[130.96871298969893,30.46590692182257],[130.9687272305196,30.466850801189597],[130.96935163721722,30.46815625534496],[130.96971515849378,30.4680083352683],[130.97051582123586,30.46864003133896],[130.9695388231077,30.46894399107321],[130.96950519660692,30.469796514964607],[130.9676623014898,30.471199735933833],[130.96759746256308,30.471889856293775],[130.96475722202754,30.474600868663362],[130.96458287798595,30.47558245943704],[130.963512333453,30.475505755034735],[130.96077490619265,30.474610690951764],[130.96049501059832,30.475190227366017],[130.95890958133472,30.47515587449519],[130.95734128104783,30.474727100058303],[130.95605297560854,30.47424230568667],[130.955063734576,30.473876860528126],[130.95415313588828,30.473522148715194],[130.95352091146168,30.474133674849035],[130.9529868872153,30.47484813732318],[130.95267835626572,30.475223535449175],[130.9523306843345,30.475917486962608],[130.9509559878404,30.47728904986735],[130.94956075421788,30.477520790085062],[130.94894705144307,30.478194046237466],[130.9479519736182,30.478586629358954],[130.94748801240272,30.479171978692378],[130.9464646455606,30.478377089113426],[130.94579810669006,30.478518886188358],[130.9452961454773,30.478033478901143],[130.9453160552151,30.4770380232654],[130.944152565521,30.476758398446364],[130.94288350615304,30.477388757919158],[130.94261288609846,30.47835506128525],[130.94146083312228,30.47910979023792],[130.9412392725537,30.47963941478439],[130.9404390406037,30.47960520338344],[130.93971785251853,30.480410870348475],[130.94010341890936,30.48100901107991],[130.93889463480838,30.481560992085573],[130.93838787338595,30.4822415855905],[130.93802344021844,30.483409126984988],[130.9367006409556,30.482916512753622],[130.9303762886011,30.482528043557515],[130.93031149758824,30.48312625006062],[130.92710222911828,30.484115388150933],[130.92694594612885,30.483659988524796],[130.9259243377622,30.48089737225854],[130.92579038010135,30.480514438775238],[130.92567978696937,30.480132364180516]]]},"properties":{"KEY_CODE":"465010070","PREF":"46","CITY":"501","CITY_NAME":"中種子町","S_NAME":"坂井","SETAI":"421"}}]}