{"type":"FeatureCollection","features":[{"type":"Feature","geometry":{"type":"Polygon","coordinates":[[[130.9692350029336,30.413471394501343],[130.9687559442757,30.414202034727474],[130.96849295064928,30.416206498638953],[130.96814605060064,30.41699412187557],[130.96840919528782,30.417608522573715],[130.96821210429255,30.418634417695518],[130.96905718749608,30.419136200855345],[130.96925556856218,30.42045428248357],[130.96975812918055,30.421167983031182],[130.9673524564122,30.421083602653724],[130.9668540938374,30.420328169265847],[130.966318020926,30.42025499638517],[130.96713694661895,30.421155717068064],[130.96837557462533,30.421562885040743],[130.967967077975,30.42282949159249],[130.9684902957189,30.424034044397953],[130.9694217965625,30.424662998704044],[130.9668699781539,30.425456223843366],[130.96921865455246,30.425100502767425],[130.97118540153326,30.424271000380216],[130.97122899154164,30.424711387991668],[130.9705062265263,30.425657368185554],[130.9713199558951,30.426822512161284],[130.97197479072724,30.426767414038945],[130.97271475047037,30.42752542254368],[130.97250838371383,30.428350022872788],[130.97330858336818,30.429621434106693],[130.97457316733409,30.430656394564167],[130.97521963794586,30.4307360330092],[130.97536211469307,30.431299924190515],[130.9766206477149,30.431698823378323],[130.97708795247473,30.432226686556167],[130.97815192913905,30.432184593422228],[130.97802996449036,30.43285584773657],[130.97730518904365,30.433646811380168],[130.9774673932931,30.43448671122341],[130.976990447904,30.435018062272782],[130.97694027712754,30.43581845278519],[130.97815205964577,30.436041397358498],[130.9790287899622,30.435485019810695],[130.97892762978395,30.436248187073765],[130.9783308138405,30.43733604428956],[130.97900441399412,30.437334468463728],[130.97923425877298,30.438286285946],[130.97662820373523,30.43873859365564],[130.97590548934568,30.439334726887967],[130.97560427654875,30.440447142369162],[130.97400299070125,30.440448509547842],[130.97226500042453,30.441345772779272],[130.97220851844511,30.442121614713894],[130.97353582579686,30.442757088209124],[130.97494355622027,30.442545373566638],[130.9751234893199,30.443184250408105],[130.97423110618016,30.4434826261759],[130.9735637733959,30.443272170182063],[130.97287731554016,30.444261856937402],[130.97351969589909,30.444373637828917],[130.97438888141969,30.445061434477758],[130.9748418390624,30.444945938735085],[130.97427287744165,30.446473285132356],[130.97457565177763,30.447198737190604],[130.97357388585954,30.44754134631508],[130.97394999405387,30.44681688201856],[130.9734126934732,30.446910648825444],[130.97302189930474,30.44796608690026],[130.9715964372751,30.44791613563543],[130.97109475106814,30.447310721982298],[130.97124228782394,30.448276066139268],[130.96940812153457,30.449690021142203],[130.9686664495471,30.45047752545513],[130.96732722364834,30.45082985489201],[130.96668561957404,30.451281604777044],[130.96449963990284,30.45204246110362],[130.9640996504283,30.452367967564374],[130.96307365888592,30.45194392557375],[130.96189148277884,30.45186631331356],[130.9606721303594,30.451801365454088],[130.95973181396545,30.451224514680185],[130.95947942499708,30.45028392343837],[130.9589295428045,30.449549599110785],[130.9578777809762,30.44886302347449],[130.95289288317971,30.448078539888336],[130.95258784268898,30.44846494127605],[130.95207446983218,30.449134594295238],[130.95068022409964,30.449420750284474],[130.95046457725675,30.449472255001837],[130.94985473289688,30.449761823284025],[130.94860510452054,30.45068235020723],[130.94789095463355,30.45133272996067],[130.94708038004444,30.451551434008366],[130.94624770044715,30.451396287959824],[130.94504512175632,30.450401111954847],[130.94463771306107,30.44955091959289],[130.94323029605567,30.448195611736615],[130.94263490432937,30.44743046587503],[130.94179823608738,30.446990825761613],[130.94191692440756,30.44567344048111],[130.94103277468153,30.44578522031093],[130.94004239939008,30.44611176969544],[130.93864529167686,30.44650943507743],[130.93784053805345,30.446868764888535],[130.9374277566273,30.447190513554627],[130.93653714182884,30.44812971352477],[130.93615972689736,30.44867983708347],[130.93593580538825,30.448823784734728],[130.93563740530203,30.44879120570657],[130.93483039792454,30.448655733171314],[130.9344796358978,30.448324843205057],[130.9328831957003,30.447430261102678],[130.93162919600795,30.447297900942313],[130.92997360715535,30.446777365726753],[130.92891301267468,30.44573390391129],[130.9275315471485,30.444949896930773],[130.92621103969307,30.44514222335026],[130.92507028887965,30.443427981257138],[130.9249723186219,30.442436387587254],[130.92606218126767,30.44180525405729],[130.92557714106917,30.44129580106615],[130.9251532204934,30.439817403898573],[130.92369207967954,30.438477354841016],[130.92250555612864,30.438663248645014],[130.92261476650674,30.43675975432239],[130.92303524835282,30.435375207113484],[130.9235256263624,30.433985626424793],[130.92517736771052,30.430626096988554],[130.92591684490932,30.42947572358822],[130.92684259800703,30.426770352976618],[130.9268102939649,30.424540866996175],[130.92919397293377,30.422039297112825],[130.92914012954103,30.420767496310827],[130.93071871758883,30.41879912083908],[130.93122827665883,30.41923159228362],[130.93129373634306,30.420052597020263],[130.93177542608083,30.42018874750901],[130.9325502312517,30.41856921666733],[130.93396350264862,30.417240964253427],[130.93455830198263,30.41704082543644],[130.93630062442617,30.418633200622498],[130.9376897503129,30.419048337265508],[130.93813201095907,30.41971841796765],[130.93921223303556,30.41957939858871],[130.94049861962478,30.418479375491955],[130.94098936128032,30.417557985506175],[130.94211116984204,30.41721850719551],[130.9436300414229,30.415580069570396],[130.94382991311903,30.416764545146094],[130.94428706119746,30.417372026824452],[130.94612676078407,30.41790737932755],[130.94763567420705,30.418011495912],[130.94930126966932,30.418892666080037],[130.9500554827452,30.418501657373138],[130.95049762289514,30.41773188464049],[130.95154392943803,30.41807231298105],[130.95260436533488,30.41786804849086],[130.95404486342318,30.418418366539587],[130.95435161625232,30.419568760160107],[130.95480213632604,30.419774457154897],[130.95653120353538,30.41832004412925],[130.95857901057957,30.41770418086982],[130.95906411088305,30.41791241193647],[130.95954168137328,30.41730529314943],[130.95855403458577,30.416094061891588],[130.95954150120002,30.41546484460281],[130.960301462767,30.413010318373196],[130.96104545838733,30.41313151205267],[130.96291933250208,30.412141964770658],[130.96501813648658,30.411945812903934],[130.9675114811403,30.41371226338147],[130.96752351313424,30.413244823862172],[130.9692350029336,30.413471394501343]]]},"properties":{"KEY_CODE":"465020010","PREF":"46","CITY":"502","CITY_NAME":"南種子町","S_NAME":"平山","SETAI":"196"}},{"type":"Feature","geometry":{"type":"Polygon","coordinates":[[[130.9692350029336,30.413471394501343],[130.96752351313424,30.413244823862172],[130.9675114811403,30.41371226338147],[130.96501813648658,30.411945812903934],[130.96291933250208,30.412141964770658],[130.96104545838733,30.41313151205267],[130.960301462767,30.413010318373196],[130.95954150120002,30.41546484460281],[130.95855403458577,30.416094061891588],[130.95954168137328,30.41730529314943],[130.95906411088305,30.41791241193647],[130.95857901057957,30.41770418086982],[130.95653120353538,30.41832004412925],[130.95480213632604,30.419774457154897],[130.95435161625232,30.419568760160107],[130.95404486342318,30.418418366539587],[130.95260436533488,30.41786804849086],[130.95154392943803,30.41807231298105],[130.95049762289514,30.41773188464049],[130.9500554827452,30.418501657373138],[130.94930126966932,30.418892666080037],[130.94763567420705,30.418011495912],[130.94612676078407,30.41790737932755],[130.94428706119746,30.417372026824452],[130.94382991311903,30.416764545146094],[130.9436300414229,30.415580069570396],[130.94211116984204,30.41721850719551],[130.94098936128032,30.417557985506175],[130.94049861962478,30.418479375491955],[130.93921223303556,30.41957939858871],[130.93813201095907,30.41971841796765],[130.9376897503129,30.419048337265508],[130.93630062442617,30.418633200622498],[130.93455830198263,30.41704082543644],[130.93396350264862,30.417240964253427],[130.9325502312517,30.41856921666733],[130.93177542608083,30.42018874750901],[130.93129373634306,30.420052597020263],[130.93122827665883,30.41923159228362],[130.93071871758883,30.41879912083908],[130.93051250937995,30.416736435518015],[130.92804038895895,30.41650415333822],[130.92678116096653,30.415840623351198],[130.92640701427678,30.416066228279323],[130.92535928525956,30.415445096852462],[130.9257451146105,30.4147842073367],[130.9255687159854,30.413359814950724],[130.92485854383315,30.413415217461598],[130.92456057230467,30.41287148790977],[130.92314657399257,30.412152012035023],[130.92193023928306,30.412226545368878],[130.92088395083144,30.410580310950646],[130.920929552506,30.409552726799244],[130.9197817239971,30.40898985541481],[130.91959547530587,30.408204863061187],[130.92010887377586,30.407919314273002],[130.9196238994607,30.407108761796007],[130.91999137406967,30.406021048965137],[130.9211186587167,30.40580720390168],[130.92132083929638,30.405116333305035],[130.9205611148201,30.40412292843803],[130.92086847396465,30.403674295631852],[130.92091547322727,30.40226865632052],[130.9198774694474,30.399897041379177],[130.91943815866762,30.399308957549614],[130.9193564441862,30.39842705165316],[130.9186377849971,30.39771587356613],[130.9186938495282,30.396452894592677],[130.9196743328427,30.396358217610235],[130.92035126120837,30.39766140284503],[130.92112990381645,30.397884319036056],[130.92223309508046,30.3990008417806],[130.92357086661312,30.399017431138304],[130.92522837740822,30.400241673069065],[130.9253480700896,30.3995349602379],[130.92631978215337,30.398979284822293],[130.92813853396922,30.399095622805444],[130.92751245084762,30.39706598059514],[130.92686285875575,30.395842343384974],[130.92805109053072,30.39366262096023],[130.92752556446825,30.391966564160025],[130.92847541968453,30.389913850170707],[130.92939718352952,30.38861581928454],[130.93023140295372,30.38797292245391],[130.92883005904122,30.38740831577675],[130.92898653453946,30.38643915380801],[130.92723203468,30.38646609394813],[130.92565580405176,30.3869656108654],[130.92589905512588,30.386253053826845],[130.92657806820233,30.385809978060244],[130.92640103482313,30.385212486939242],[130.92711173016627,30.384289313879513],[130.9264292743076,30.382446857747468],[130.92669067037508,30.381967457880172],[130.92598114616382,30.381387708352396],[130.92571028822397,30.380617909697218],[130.92592531344343,30.3793372648567],[130.92543098500036,30.379102142409046],[130.92448499384884,30.377428968483983],[130.92495605641884,30.37630832861826],[130.92566529869438,30.375652143520878],[130.92713812920908,30.375587004834582],[130.92729059967252,30.37511966736483],[130.926599446848,30.374741508409343],[130.92723277496884,30.37387552487634],[130.92588422853052,30.374198409753742],[130.92373737042172,30.374146145152114],[130.9237449503274,30.37330095481547],[130.9257777438328,30.37331424956891],[130.9262175136967,30.372382190277722],[130.9259500022639,30.371802130706207],[130.92673488538995,30.372025007619463],[130.9275799473713,30.371737639800962],[130.9293178795666,30.372637916031753],[130.93298459747277,30.37393808929858],[130.93374588016127,30.374441986291902],[130.94028357117,30.375589731350424],[130.9445340393383,30.375602035908884],[130.94498465425457,30.373552961072946],[130.94543402749338,30.373747109691053],[130.94590063551098,30.37476502906766],[130.9477254260367,30.375195979259956],[130.9492351248687,30.375280596707743],[130.95123833179252,30.374740938424342],[130.9509182893525,30.373891961650475],[130.95169996032803,30.373330115359366],[130.95234911226405,30.373531648012502],[130.9528331771087,30.373013945703903],[130.95332881881066,30.374412437810296],[130.95585757954632,30.37350866337978],[130.9572386341385,30.372679170396566],[130.95879683726784,30.37113252518947],[130.9602968173105,30.37197734470101],[130.96609429831753,30.374433788518957],[130.96617312984836,30.375151856657222],[130.96496351072963,30.376879938678215],[130.96383274820482,30.379104488326863],[130.96358881894685,30.3803502095218],[130.96283122476672,30.380623147300476],[130.96353452586337,30.380865256322203],[130.9632072299414,30.382421339634895],[130.96319828850494,30.384107487922893],[130.96367844013918,30.385709781803296],[130.9636204632185,30.387676455138543],[130.96410407308937,30.388328998057656],[130.96477948002516,30.3908200653183],[130.96535680985593,30.391380437704566],[130.9651700842781,30.392542495351027],[130.9680142387962,30.395290447763397],[130.97094419456755,30.397140698369913],[130.9760542624317,30.400062981210787],[130.9786706532831,30.399985991340753],[130.97894458306553,30.399044121461074],[130.98007587832723,30.398845859602634],[130.98049866378375,30.397655916533147],[130.9808753819392,30.397717445723153],[130.98119609470328,30.39686410614718],[130.98199084952674,30.398498020803125],[130.98161707129293,30.399304553772147],[130.9807708944,30.399667808621363],[130.98030965782414,30.40057638070469],[130.97999131860658,30.400027688672164],[130.97901294681103,30.400432633395937],[130.97901146702046,30.402309150491202],[130.9796930687031,30.40269439474116],[130.97938076527498,30.403035469326202],[130.97812243307743,30.403286987172205],[130.97656208169144,30.404266373806827],[130.97530447633468,30.405569752339403],[130.9745415614606,30.405644576313577],[130.97378656713423,30.407108474216017],[130.97278209704095,30.407433024275086],[130.9722531862945,30.40799225015757],[130.97163236846586,30.40952496053325],[130.97050607781443,30.40981506915367],[130.97087423032104,30.41077344781542],[130.97019438053164,30.411279342202754],[130.97044904354766,30.412353849059176],[130.9692350029336,30.413471394501343]]]},"properties":{"KEY_CODE":"465020020","PREF":"46","CITY":"502","CITY_NAME":"南種子町","S_NAME":"茎永","SETAI":"201"}},{"type":"Feature","geometry":{"type":"Polygon","coordinates":[[[130.95889759541896,30.368996192601806],[130.9587361182513,30.369512047881386],[130.9571737844145,30.368629412570385],[130.9583338484909,30.3686162670837],[130.95763606401206,30.367832870606506],[130.958014952651,30.367404482986995],[130.96008735822326,30.367568382795163],[130.96113427310803,30.3668300984385],[130.96057485697918,30.36869451582813],[130.96004750585183,30.368365067015773],[130.95950726304514,30.369037831242807],[130.95889759541896,30.368996192601806]]]},"properties":{"KEY_CODE":"465020020","PREF":"46","CITY":"502","CITY_NAME":"南種子町","S_NAME":"茎永","SETAI":"0"}},{"type":"Feature","geometry":{"type":"Polygon","coordinates":[[[130.91959547530587,30.408204863061187],[130.91894578368647,30.40711651040805],[130.91729671058653,30.4067021558387],[130.91591732616686,30.407007143916097],[130.91268235321857,30.407251099328132],[130.91269403285952,30.409487036553898],[130.91232645407905,30.410590794558317],[130.91138613808118,30.41168231454387],[130.91114699745842,30.41261164941026],[130.90955242294788,30.412649999027344],[130.90881986791288,30.412053774242214],[130.9067583096296,30.411710878783214],[130.9060433765921,30.411861182796784],[130.90406249231694,30.41275481338685],[130.90420507945046,30.411314300496116],[130.90320736478765,30.411647344415847],[130.90387957548174,30.410887226947015],[130.90298217956683,30.410301280516997],[130.9026370892866,30.409394076437476],[130.90339270815838,30.407612903756227],[130.90210758417888,30.407569076849658],[130.90219924256724,30.40656240539161],[130.90344829471368,30.40560284353356],[130.90443671508365,30.405760614454596],[130.90553397049473,30.404155035057013],[130.90488014369058,30.403065489402245],[130.90526767563102,30.402708863985595],[130.90406539100857,30.40228650078702],[130.90393966620633,30.40033354044838],[130.90317118149355,30.39862988006343],[130.90171929489483,30.396661534040764],[130.89984988941504,30.39621719396265],[130.89943555894337,30.395913523853046],[130.8994744952545,30.394054856788173],[130.90090205609266,30.393031467814083],[130.9010918106894,30.392385453942595],[130.90205197831594,30.391559316468655],[130.90262448483176,30.391858867837193],[130.90330138633928,30.39068038879444],[130.90436955912168,30.390257178142246],[130.90494593673176,30.389464562746223],[130.90630935752992,30.38851069748167],[130.90669730930176,30.387275885197894],[130.90672128384728,30.385990349218947],[130.90643219293293,30.385315507738166],[130.90647023420064,30.384175170941827],[130.90601064515263,30.383574068263105],[130.90594053528315,30.382645375021035],[130.90638341509145,30.381382414310973],[130.9046354835722,30.381009289347134],[130.90277718327454,30.38156949203378],[130.90136123287357,30.380112875752282],[130.8992331223272,30.380635891865996],[130.89824384697383,30.37967095965067],[130.89787530417829,30.37892358716332],[130.89799949254228,30.377906525561674],[130.8986487089709,30.376861682662085],[130.89884238931555,30.37516356109736],[130.89798880015837,30.374308966189936],[130.89707424665403,30.372917546201013],[130.89606850407614,30.372194753613265],[130.89583756735098,30.371466092937105],[130.8963711344549,30.370213959046794],[130.8976242191234,30.369838309782804],[130.8983552477851,30.370146453824304],[130.90051739501928,30.365954014678724],[130.9028512913504,30.363607668266607],[130.90263294732327,30.36269014157349],[130.9064563420494,30.364709218826597],[130.9093037615707,30.36588203620847],[130.91071797870916,30.366639117052934],[130.91257445262232,30.367328537179002],[130.9170635347362,30.368812105323943],[130.92211416141438,30.370827839272046],[130.92535437790247,30.3717975621264],[130.9259500022639,30.371802130706207],[130.9262175136967,30.372382190277722],[130.9257777438328,30.37331424956891],[130.9237449503274,30.37330095481547],[130.92373737042172,30.374146145152114],[130.92588422853052,30.374198409753742],[130.92723277496884,30.37387552487634],[130.926599446848,30.374741508409343],[130.92729059967252,30.37511966736483],[130.92713812920908,30.375587004834582],[130.92566529869438,30.375652143520878],[130.92495605641884,30.37630832861826],[130.92448499384884,30.377428968483983],[130.92543098500036,30.379102142409046],[130.92592531344343,30.3793372648567],[130.92571028822397,30.380617909697218],[130.92598114616382,30.381387708352396],[130.92669067037508,30.381967457880172],[130.9264292743076,30.382446857747468],[130.92711173016627,30.384289313879513],[130.92640103482313,30.385212486939242],[130.92657806820233,30.385809978060244],[130.92589905512588,30.386253053826845],[130.92565580405176,30.3869656108654],[130.92723203468,30.38646609394813],[130.92898653453946,30.38643915380801],[130.92883005904122,30.38740831577675],[130.93023140295372,30.38797292245391],[130.92939718352952,30.38861581928454],[130.92847541968453,30.389913850170707],[130.92752556446825,30.391966564160025],[130.92805109053072,30.39366262096023],[130.92686285875575,30.395842343384974],[130.92751245084762,30.39706598059514],[130.92813853396922,30.399095622805444],[130.92631978215337,30.398979284822293],[130.9253480700896,30.3995349602379],[130.92522837740822,30.400241673069065],[130.92357086661312,30.399017431138304],[130.92223309508046,30.3990008417806],[130.92112990381645,30.397884319036056],[130.92035126120837,30.39766140284503],[130.9196743328427,30.396358217610235],[130.9186938495282,30.396452894592677],[130.9186377849971,30.39771587356613],[130.9193564441862,30.39842705165316],[130.91943815866762,30.399308957549614],[130.9198774694474,30.399897041379177],[130.92091547322727,30.40226865632052],[130.92086847396465,30.403674295631852],[130.9205611148201,30.40412292843803],[130.92132083929638,30.405116333305035],[130.9211186587167,30.40580720390168],[130.91999137406967,30.406021048965137],[130.9196238994607,30.407108761796007],[130.92010887377586,30.407919314273002],[130.91959547530587,30.408204863061187]]]},"properties":{"KEY_CODE":"465020030","PREF":"46","CITY":"502","CITY_NAME":"南種子町","S_NAME":"下中","SETAI":"80"}},{"type":"Feature","geometry":{"type":"Polygon","coordinates":[[[130.88603828765278,30.41029332958453],[130.88571659843402,30.410092882626365],[130.88494995832738,30.411362533882574],[130.88405590070968,30.41126588734545],[130.88357758091067,30.41041039900024],[130.88225189146786,30.408995098510452],[130.88187407142044,30.408898903642235],[130.88158091797297,30.407420533479794],[130.88212122032627,30.406562015488138],[130.88183593110162,30.406178346578315],[130.88190210451972,30.404844080937814],[130.8826639571804,30.403714271113017],[130.88189098664628,30.402642846861372],[130.88131984973737,30.4023547716662],[130.8795458210683,30.40207742936896],[130.87929690039482,30.40114038496752],[130.87812738538418,30.401245299006153],[130.87745404390307,30.40161200733555],[130.87605266239038,30.401874277593897],[130.8760740891481,30.39772220377016],[130.87528781204074,30.396956609391825],[130.8751733388581,30.396262416584907],[130.87378684725633,30.396142113701426],[130.8729966518684,30.395765550472113],[130.87054583639585,30.395249781799922],[130.8699567549225,30.395392696725757],[130.86855436235876,30.395133063259475],[130.8674876508663,30.393758203793166],[130.8663099976013,30.39368822216079],[130.86601954233296,30.39320049037136],[130.865034847174,30.39275743456248],[130.86404288875983,30.390685158821665],[130.86331913389532,30.390316222677725],[130.8636686264945,30.38969044627709],[130.8632098433429,30.38738697929683],[130.86326677086993,30.386135603781995],[130.86276905004988,30.38489379777647],[130.86341776744413,30.384579571336523],[130.86171632169342,30.383202029780087],[130.8611911378023,30.38227227264309],[130.8603492045544,30.38164270215363],[130.8600678753793,30.380466801991396],[130.85855828087028,30.37890448120856],[130.85887880331614,30.378870713781758],[130.85894511483227,30.37691399167476],[130.85847181816382,30.37611875414091],[130.85852750701582,30.375033429202233],[130.85777373927525,30.373223827064876],[130.8574387206264,30.371800903963404],[130.85702362411826,30.37107056653282],[130.85738738723737,30.37062694028149],[130.8573065435031,30.369704981623464],[130.85770909902234,30.368338683467282],[130.85896408039144,30.36743705736889],[130.85850666786894,30.366479455025235],[130.85916772496384,30.36618950988175],[130.85946565686234,30.364477744391195],[130.8600430304759,30.363772722825455],[130.86026501432144,30.36277807216015],[130.8599536313903,30.3622795924619],[130.86085872637105,30.361543620720443],[130.86019956229487,30.36125677914892],[130.86107369537095,30.359624832669756],[130.86099047421808,30.358896832811926],[130.861621153771,30.35871171435096],[130.8620823282056,30.357750576202115],[130.86435849966756,30.356235379795795],[130.86522463690565,30.355031070884696],[130.866170358492,30.354179517186655],[130.86770131894755,30.353620050014484],[130.8685257769664,30.351641535655528],[130.86957833193608,30.350196348321813],[130.8695203031333,30.34847603050779],[130.8700521838404,30.346657907772965],[130.87211011742602,30.344698629851777],[130.8732199932115,30.34466982472593],[130.87424819715324,30.34505422446693],[130.87554103139155,30.345930531640096],[130.87633877362407,30.345980058757952],[130.87648610689436,30.34544709277168],[130.87767872882762,30.344970080270645],[130.8767655009201,30.344944696419308],[130.8775508864518,30.344061339139746],[130.8791065316442,30.344385017431787],[130.88089745852182,30.34370272598936],[130.88196755661184,30.343865233412348],[130.8826607391404,30.343495980047077],[130.88404724589165,30.343488193766557],[130.88432533074393,30.344934679061637],[130.8850984269068,30.346476038864],[130.8852187000448,30.347681339628593],[130.8857401577255,30.348291864987193],[130.8871840874999,30.350865050346986],[130.88820726030616,30.353022878250652],[130.88942473738982,30.354501731124614],[130.8913151278166,30.35612886330594],[130.89594916570064,30.359387671320007],[130.89904341345542,30.36102297046523],[130.89934980700468,30.36150754243937],[130.90137739672514,30.36254570382558],[130.90263294732327,30.36269014157349],[130.9028512913504,30.363607668266607],[130.90051739501928,30.365954014678724],[130.8983552477851,30.370146453824304],[130.8976242191234,30.369838309782804],[130.8963711344549,30.370213959046794],[130.89583756735098,30.371466092937105],[130.89606850407614,30.372194753613265],[130.89707424665403,30.372917546201013],[130.89798880015837,30.374308966189936],[130.89884238931555,30.37516356109736],[130.8986487089709,30.376861682662085],[130.89799949254228,30.377906525561674],[130.89787530417829,30.37892358716332],[130.89824384697383,30.37967095965067],[130.8992331223272,30.380635891865996],[130.90136123287357,30.380112875752282],[130.90277718327454,30.38156949203378],[130.9046354835722,30.381009289347134],[130.90638341509145,30.381382414310973],[130.90594053528315,30.382645375021035],[130.90601064515263,30.383574068263105],[130.90647023420064,30.384175170941827],[130.90643219293293,30.385315507738166],[130.90672128384728,30.385990349218947],[130.90669730930176,30.387275885197894],[130.90630935752992,30.38851069748167],[130.90494593673176,30.389464562746223],[130.90436955912168,30.390257178142246],[130.90330138633928,30.39068038879444],[130.90262448483176,30.391858867837193],[130.90205197831594,30.391559316468655],[130.9010918106894,30.392385453942595],[130.90090205609266,30.393031467814083],[130.8994744952545,30.394054856788173],[130.89943555894337,30.395913523853046],[130.89992416702611,30.397470954810256],[130.9001035569966,30.398770185775838],[130.90064763840383,30.399696435329783],[130.90034893897328,30.40079315761316],[130.8991926568401,30.402882135379706],[130.8968494702271,30.404394197279665],[130.89599148908252,30.40570951779736],[130.89601497178472,30.40712449697217],[130.8955452768015,30.408872027141346],[130.8929920963848,30.40947973291667],[130.89122245201364,30.41021096567864],[130.89096127478552,30.409998741547422],[130.88890550694654,30.410423536180527],[130.8879211414888,30.410282853950367],[130.88793724444818,30.410784402813455],[130.88659461379106,30.410211780766637],[130.88603828765278,30.41029332958453]]]},"properties":{"KEY_CODE":"465020040","PREF":"46","CITY":"502","CITY_NAME":"南種子町","S_NAME":"西之","SETAI":"352"}},{"type":"Feature","geometry":{"type":"Polygon","coordinates":[[[130.8756967563228,30.439177914915202],[130.87432859788606,30.43958622175761],[130.87290905746116,30.43946784177006],[130.87005955532553,30.4397974237661],[130.8690848946747,30.440202697785043],[130.8667918485472,30.439854469616325],[130.8659903968702,30.439141524724338],[130.86373758500477,30.440377668531188],[130.86227180724288,30.44156132142654],[130.8613761062111,30.442018212361056],[130.8597567952729,30.44395552700407],[130.85935444188127,30.444723888247164],[130.85791398238288,30.444359506431457],[130.85797079456106,30.445081843933323],[130.85682079420414,30.445277653906253],[130.85616449957112,30.44425582586388],[130.85540420228264,30.444428651615812],[130.85487071304098,30.44386817156325],[130.85492185926344,30.441917632457262],[130.85390258965043,30.441269496585402],[130.85362385274638,30.441077199573723],[130.85394250943338,30.439654709618093],[130.85478647008608,30.439231640618946],[130.85610345694263,30.43787452480208],[130.85570707235487,30.437680974299823],[130.85511158228587,30.438356923598082],[130.85545557575097,30.437375943479594],[130.85637802007642,30.43737047192178],[130.8570218296511,30.436398840511927],[130.85784632718796,30.434311294522892],[130.85856584041704,30.433515375017258],[130.85840773530597,30.432711457896346],[130.85895830479564,30.432103110695426],[130.85871996901196,30.43063519285433],[130.859995567036,30.428977481131163],[130.859917892919,30.427108062255414],[130.8616374639164,30.425938180110812],[130.86222191207622,30.424169480132417],[130.86286142046768,30.423192460208323],[130.86315251402868,30.421258526363243],[130.8636063118076,30.419821782238795],[130.86435724693646,30.419527676152043],[130.86395007082206,30.418909289999338],[130.86528368307813,30.418031930116225],[130.8654544679653,30.417230895080515],[130.8648748524738,30.41785474701845],[130.86464055508125,30.416434484132754],[130.86548925741744,30.414676190409935],[130.86526718115977,30.41121457221936],[130.86561419295802,30.410174650738952],[130.8660953570888,30.409961449358622],[130.86613988015276,30.407879246770857],[130.86586496616653,30.407231117538718],[130.86607646774962,30.40631848223866],[130.86570960538157,30.40593300657075],[130.86596230838964,30.404589924583618],[130.86555082993772,30.403360620938216],[130.86607286766258,30.402914596866758],[130.86595294890319,30.400832510336706],[130.8660823167371,30.39910420195098],[130.86579944558625,30.398208823403188],[130.86490076491484,30.397110957269028],[130.864170927219,30.39510463805676],[130.86469304578594,30.394574043790406],[130.865034847174,30.39275743456248],[130.86601954233296,30.39320049037136],[130.8663099976013,30.39368822216079],[130.8674876508663,30.393758203793166],[130.86855436235876,30.395133063259475],[130.8699567549225,30.395392696725757],[130.87054583639585,30.395249781799922],[130.8729966518684,30.395765550472113],[130.87378684725633,30.396142113701426],[130.8751733388581,30.396262416584907],[130.87528781204074,30.396956609391825],[130.8760740891481,30.39772220377016],[130.87605266239038,30.401874277593897],[130.87745404390307,30.40161200733555],[130.87812738538418,30.401245299006153],[130.87929690039482,30.40114038496752],[130.8795458210683,30.40207742936896],[130.88131984973737,30.4023547716662],[130.88189098664628,30.402642846861372],[130.8826639571804,30.403714271113017],[130.88190210451972,30.404844080937814],[130.88183593110162,30.406178346578315],[130.88212122032627,30.406562015488138],[130.88158091797297,30.407420533479794],[130.88187407142044,30.408898903642235],[130.88225189146786,30.408995098510452],[130.88357758091067,30.41041039900024],[130.88405590070968,30.41126588734545],[130.88494995832738,30.411362533882574],[130.88571659843402,30.410092882626365],[130.88603828765278,30.41029332958453],[130.88595886970737,30.41158529785799],[130.88780717565302,30.412150754932743],[130.8879074932069,30.413245249653485],[130.8873141621605,30.413517911192603],[130.88826162615862,30.41539123791736],[130.88888642262003,30.415376273422535],[130.88899658728076,30.414579666446304],[130.89122435285483,30.415654267427588],[130.89133778168974,30.417091304764526],[130.89026027454946,30.417796031857446],[130.88944126804498,30.41879022117494],[130.88605862105186,30.420813129710716],[130.88481148368942,30.422118996359394],[130.88354292291962,30.422495073359624],[130.88204242042335,30.422318085025164],[130.88166980191758,30.42267775682665],[130.88056721441845,30.424971563571855],[130.8808456085449,30.42560218828942],[130.88081620365907,30.426859516470046],[130.88120904409905,30.426933456384898],[130.88086356143566,30.429052883620162],[130.87956044015823,30.429886159791415],[130.8789307877299,30.431251186131195],[130.87806686050467,30.43203805632056],[130.87731954912508,30.43199055323182],[130.87707184310344,30.432885126437142],[130.87787275740234,30.43320614219066],[130.87658781401288,30.434817495692354],[130.8756084040179,30.435484140355474],[130.87542608130667,30.436455453471005],[130.874445471635,30.438030146137255],[130.8744752862937,30.438798120473667],[130.8756967563228,30.439177914915202]]]},"properties":{"KEY_CODE":"465020050","PREF":"46","CITY":"502","CITY_NAME":"南種子町","S_NAME":"西海","SETAI":"108"}},{"type":"Feature","geometry":{"type":"Polygon","coordinates":[[[130.90368454557566,30.458537852909025],[130.90360331740933,30.46001113286089],[130.9037483648734,30.462156983780098],[130.90319972661882,30.46324028347134],[130.9028039665535,30.463405181677345],[130.90217718523803,30.4649623350375],[130.90269935879098,30.465531677450826],[130.90244028551368,30.46672797275798],[130.90120683030946,30.467421661122874],[130.90091996008357,30.468158672047462],[130.89930369913804,30.469014989239753],[130.8992571609444,30.46947364666123],[130.8981672616702,30.47006141892721],[130.8975031610838,30.470862673503692],[130.89580158109337,30.4705959772719],[130.89547949424755,30.47030053108273],[130.893504940738,30.471162693600636],[130.89240650216522,30.4711000149691],[130.8923921695264,30.471562644180405],[130.8911114775942,30.471784825821207],[130.8907710864895,30.471389832463334],[130.89042713971727,30.472101680205025],[130.889023457746,30.47311566725688],[130.88758564924848,30.47375295330275],[130.88665608537121,30.474986677108184],[130.8871359780081,30.476202213303964],[130.88704496178622,30.477213402352696],[130.88626623986767,30.477448110020735],[130.88557416594983,30.478413081024925],[130.88442612871037,30.478371161503475],[130.8828037620563,30.479300593515273],[130.88242069729995,30.48116573069646],[130.8812861516274,30.48166424587296],[130.8798380503457,30.481064080344495],[130.87938453899292,30.479740865573955],[130.8782857284137,30.479708244691544],[130.87760515303572,30.479235088766305],[130.87802900222636,30.478463023918447],[130.87715688221118,30.477916379786038],[130.87686498617015,30.476494351831516],[130.8760030431077,30.47534608421687],[130.8758063104067,30.473639966211493],[130.87482909388507,30.47225955819362],[130.87447149222183,30.470947413095242],[130.87456009812993,30.46928752553358],[130.8742969899306,30.468204675783998],[130.87296531507732,30.466369165027558],[130.87043831542633,30.464431533191682],[130.8678978828139,30.464004113711155],[130.8681773514483,30.463729239927755],[130.867475339443,30.462300580462912],[130.8678775377012,30.463652251947728],[130.86521574743338,30.46438928389387],[130.86401564927135,30.46319718911855],[130.86301842481615,30.463629175281632],[130.8640425757146,30.464777959677107],[130.86411793519315,30.465989462600913],[130.86339730494186,30.464495641665565],[130.8601515987719,30.466417432798842],[130.86071536331372,30.467611698252163],[130.85946063288856,30.46604596151222],[130.85860501380154,30.466469045618183],[130.85927865903662,30.46657605978554],[130.8557520914931,30.468176331902526],[130.85416890186073,30.468310734609066],[130.85116223584458,30.46832819022608],[130.85013370823276,30.468061721270562],[130.84914848867896,30.46740568191734],[130.84888394085726,30.466754984172614],[130.84903490448,30.465447048718232],[130.84834300905345,30.465037460405146],[130.8486148530934,30.464348481805427],[130.84923417166434,30.464549644744796],[130.84936903489134,30.463550956799324],[130.85003408378293,30.463135890006566],[130.85080980489224,30.46185742331937],[130.85030428055597,30.46080782007245],[130.85157004482704,30.460476317015214],[130.8513049792806,30.46016393015479],[130.85034319589386,30.460560620167772],[130.84987383371953,30.46037598799905],[130.85165468112288,30.45893656402477],[130.85183450260317,30.457791889567943],[130.8522741363234,30.4569894773046],[130.85213004860097,30.455196580683737],[130.852395705374,30.454436540939408],[130.85222016900275,30.45346653642196],[130.85241635858293,30.452505976881312],[130.85312016787577,30.45188231613556],[130.8525690556618,30.45138382760885],[130.85253782699456,30.450011691606548],[130.85168791447853,30.449496511469768],[130.85173222040692,30.44912386420623],[130.84986486555195,30.44804734290292],[130.85082673328267,30.44819109250629],[130.85078305727086,30.447481733581704],[130.8521363323986,30.44700964258184],[130.8527382287614,30.444225522168793],[130.85388346098185,30.444275575932313],[130.8534017814995,30.4419627405094],[130.85390258965043,30.441269496585402],[130.85492185926344,30.441917632457262],[130.85487071304098,30.44386817156325],[130.85540420228264,30.444428651615812],[130.85616449957112,30.44425582586388],[130.85682079420414,30.445277653906253],[130.85797079456106,30.445081843933323],[130.85791398238288,30.444359506431457],[130.85935444188127,30.444723888247164],[130.8597567952729,30.44395552700407],[130.8613761062111,30.442018212361056],[130.86227180724288,30.44156132142654],[130.86373758500477,30.440377668531188],[130.8659903968702,30.439141524724338],[130.8667918485472,30.439854469616325],[130.8690848946747,30.440202697785043],[130.87005955532553,30.4397974237661],[130.87290905746116,30.43946784177006],[130.87432859788606,30.43958622175761],[130.8756967563228,30.439177914915202],[130.87695079165056,30.440511174265616],[130.8791447020767,30.4399668820784],[130.87978094701265,30.44022148252045],[130.8805955514923,30.439744103317437],[130.88178530954775,30.440077857400695],[130.8828357410762,30.439196409687924],[130.88555293951777,30.438145882138226],[130.88665702915816,30.437518192767428],[130.88790430091044,30.436499879053116],[130.8880416469887,30.438666542958792],[130.88839452758728,30.43897949988467],[130.88951586782997,30.44097477113986],[130.8936419662979,30.44382371485685],[130.89396804231276,30.445539188865823],[130.8951234370908,30.447762259755976],[130.895294037526,30.448564186722763],[130.89505631276404,30.450629341502275],[130.89348172365143,30.453387718961647],[130.89626650838943,30.454456047927312],[130.8975357724175,30.455112583960695],[130.89813020912877,30.455922201463572],[130.89867100098706,30.457424181330108],[130.89934847654084,30.457296176659106],[130.9008216099521,30.457863756954417],[130.90167812038615,30.45859321912728],[130.9019536868013,30.45820381711762],[130.9029715730701,30.45896807640885],[130.90368454557566,30.458537852909025]]]},"properties":{"KEY_CODE":"465020060","PREF":"46","CITY":"502","CITY_NAME":"南種子町","S_NAME":"島間","SETAI":"276"}},{"type":"Feature","geometry":{"type":"Polygon","coordinates":[[[130.92621103969307,30.44514222335026],[130.92508313953218,30.444997189633607],[130.92307363678225,30.443840608881747],[130.9188518973016,30.445179863968352],[130.9185364428875,30.44551655780527],[130.91702197657193,30.445917574716],[130.91553653150748,30.447077254827875],[130.91516512477557,30.44789063741653],[130.91426366674497,30.447838703944],[130.91236814217885,30.4471066233516],[130.90631102170994,30.45142887641232],[130.90432765407417,30.45626969771709],[130.90368454557566,30.458537852909025],[130.9029715730701,30.45896807640885],[130.9019536868013,30.45820381711762],[130.90167812038615,30.45859321912728],[130.9008216099521,30.457863756954417],[130.89934847654084,30.457296176659106],[130.89867100098706,30.457424181330108],[130.89813020912877,30.455922201463572],[130.8975357724175,30.455112583960695],[130.89626650838943,30.454456047927312],[130.89348172365143,30.453387718961647],[130.89505631276404,30.450629341502275],[130.895294037526,30.448564186722763],[130.8951234370908,30.447762259755976],[130.89396804231276,30.445539188865823],[130.8936419662979,30.44382371485685],[130.88951586782997,30.44097477113986],[130.88839452758728,30.43897949988467],[130.8880416469887,30.438666542958792],[130.88790430091044,30.436499879053116],[130.8882444084177,30.435971861758407],[130.8892314536762,30.436434225092395],[130.890142901879,30.435552325268116],[130.89155136116733,30.43522284123503],[130.89168575427527,30.434678569224022],[130.8928627090527,30.435099623890128],[130.89239983117582,30.43551055430882],[130.89299153352172,30.436483673765256],[130.89670536516147,30.438174316693935],[130.89751228372654,30.43796663033149],[130.89636288397634,30.4365166281903],[130.8963311549674,30.435715106292385],[130.89778077780676,30.43453165402387],[130.8972742895008,30.433841107029806],[130.89741996509784,30.432868883636587],[130.8967973938445,30.432169220199594],[130.89803479493762,30.431278789373614],[130.89882675843214,30.4316800353499],[130.89972414919754,30.430621860330803],[130.8999043042821,30.43170739563388],[130.90088177211652,30.431980220416786],[130.901696791802,30.43177590330506],[130.90205180259903,30.431218540940687],[130.90364149629545,30.432390019472514],[130.90343464565092,30.433496681941108],[130.90427297331,30.43443273689251],[130.90481913994446,30.434189572423282],[130.90445978523525,30.435029706385038],[130.90525150217556,30.435727497206816],[130.9061167766059,30.434811059114015],[130.90737389622237,30.43433723826636],[130.90729442555494,30.43351368598337],[130.9080287846817,30.43424750540889],[130.9109152937926,30.436193445060876],[130.91096514365168,30.435328825533354],[130.91262792175607,30.435102205841403],[130.9142399815895,30.435258662223788],[130.9145650334923,30.43483177270886],[130.91563905997066,30.435705618085205],[130.91606328312488,30.437103115424218],[130.9170457321597,30.43736934721958],[130.918800554631,30.436905892837004],[130.92010867711724,30.435755647513492],[130.92086720644667,30.43554807297859],[130.921493540791,30.435829547466966],[130.92303524835282,30.435375207113484],[130.92261476650674,30.43675975432239],[130.92250555612864,30.438663248645014],[130.92369207967954,30.438477354841016],[130.9251532204934,30.439817403898573],[130.92557714106917,30.44129580106615],[130.92606218126767,30.44180525405729],[130.9249723186219,30.442436387587254],[130.92507028887965,30.443427981257138],[130.92621103969307,30.44514222335026]]]},"properties":{"KEY_CODE":"465020070","PREF":"46","CITY":"502","CITY_NAME":"南種子町","S_NAME":"長谷","SETAI":"163"}},{"type":"Feature","geometry":{"type":"Polygon","coordinates":[[[130.88790430091044,30.436499879053116],[130.88665702915816,30.437518192767428],[130.88555293951777,30.438145882138226],[130.8828357410762,30.439196409687924],[130.88178530954775,30.440077857400695],[130.8805955514923,30.439744103317437],[130.87978094701265,30.44022148252045],[130.8791447020767,30.4399668820784],[130.87695079165056,30.440511174265616],[130.8756967563228,30.439177914915202],[130.8744752862937,30.438798120473667],[130.874445471635,30.438030146137255],[130.87542608130667,30.436455453471005],[130.8756084040179,30.435484140355474],[130.87658781401288,30.434817495692354],[130.87787275740234,30.43320614219066],[130.87707184310344,30.432885126437142],[130.87731954912508,30.43199055323182],[130.87806686050467,30.43203805632056],[130.8789307877299,30.431251186131195],[130.87956044015823,30.429886159791415],[130.88086356143566,30.429052883620162],[130.88120904409905,30.426933456384898],[130.88081620365907,30.426859516470046],[130.8808456085449,30.42560218828942],[130.88056721441845,30.424971563571855],[130.88166980191758,30.42267775682665],[130.88204242042335,30.422318085025164],[130.88354292291962,30.422495073359624],[130.88481148368942,30.422118996359394],[130.88605862105186,30.420813129710716],[130.88944126804498,30.41879022117494],[130.89026027454946,30.417796031857446],[130.89133778168974,30.417091304764526],[130.89122435285483,30.415654267427588],[130.88899658728076,30.414579666446304],[130.88888642262003,30.415376273422535],[130.88826162615862,30.41539123791736],[130.8873141621605,30.413517911192603],[130.8879074932069,30.413245249653485],[130.88780717565302,30.412150754932743],[130.88595886970737,30.41158529785799],[130.88603828765278,30.41029332958453],[130.88659461379106,30.410211780766637],[130.88793724444818,30.410784402813455],[130.8879211414888,30.410282853950367],[130.88890550694654,30.410423536180527],[130.89096127478552,30.409998741547422],[130.89122245201364,30.41021096567864],[130.8929920963848,30.40947973291667],[130.8955452768015,30.408872027141346],[130.89601497178472,30.40712449697217],[130.89599148908252,30.40570951779736],[130.8968494702271,30.404394197279665],[130.8991926568401,30.402882135379706],[130.90034893897328,30.40079315761316],[130.90064763840383,30.399696435329783],[130.9001035569966,30.398770185775838],[130.89992416702611,30.397470954810256],[130.89943555894337,30.395913523853046],[130.89984988941504,30.39621719396265],[130.90171929489483,30.396661534040764],[130.90317118149355,30.39862988006343],[130.90393966620633,30.40033354044838],[130.90406539100857,30.40228650078702],[130.90526767563102,30.402708863985595],[130.90488014369058,30.403065489402245],[130.90553397049473,30.404155035057013],[130.90443671508365,30.405760614454596],[130.90344829471368,30.40560284353356],[130.90219924256724,30.40656240539161],[130.90210758417888,30.407569076849658],[130.90339270815838,30.407612903756227],[130.9026370892866,30.409394076437476],[130.90298217956683,30.410301280516997],[130.90387957548174,30.410887226947015],[130.90320736478765,30.411647344415847],[130.90420507945046,30.411314300496116],[130.90406249231694,30.41275481338685],[130.9060433765921,30.411861182796784],[130.9067583096296,30.411710878783214],[130.90881986791288,30.412053774242214],[130.90955242294788,30.412649999027344],[130.91114699745842,30.41261164941026],[130.91138613808118,30.41168231454387],[130.91232645407905,30.410590794558317],[130.91269403285952,30.409487036553898],[130.91268235321857,30.407251099328132],[130.91591732616686,30.407007143916097],[130.91729671058653,30.4067021558387],[130.91894578368647,30.40711651040805],[130.91959547530587,30.408204863061187],[130.9197817239971,30.40898985541481],[130.920929552506,30.409552726799244],[130.92088395083144,30.410580310950646],[130.92193023928306,30.412226545368878],[130.92314657399257,30.412152012035023],[130.92456057230467,30.41287148790977],[130.92485854383315,30.413415217461598],[130.9255687159854,30.413359814950724],[130.9257451146105,30.4147842073367],[130.92535928525956,30.415445096852462],[130.92640701427678,30.416066228279323],[130.92678116096653,30.415840623351198],[130.92804038895895,30.41650415333822],[130.93051250937995,30.416736435518015],[130.93071871758883,30.41879912083908],[130.92914012954103,30.420767496310827],[130.92919397293377,30.422039297112825],[130.9268102939649,30.424540866996175],[130.92684259800703,30.426770352976618],[130.92591684490932,30.42947572358822],[130.92517736771052,30.430626096988554],[130.9235256263624,30.433985626424793],[130.92303524835282,30.435375207113484],[130.921493540791,30.435829547466966],[130.92086720644667,30.43554807297859],[130.92010867711724,30.435755647513492],[130.918800554631,30.436905892837004],[130.9170457321597,30.43736934721958],[130.91606328312488,30.437103115424218],[130.91563905997066,30.435705618085205],[130.9145650334923,30.43483177270886],[130.9142399815895,30.435258662223788],[130.91262792175607,30.435102205841403],[130.91096514365168,30.435328825533354],[130.9109152937926,30.436193445060876],[130.9080287846817,30.43424750540889],[130.90729442555494,30.43351368598337],[130.90737389622237,30.43433723826636],[130.9061167766059,30.434811059114015],[130.90525150217556,30.435727497206816],[130.90445978523525,30.435029706385038],[130.90481913994446,30.434189572423282],[130.90427297331,30.43443273689251],[130.90343464565092,30.433496681941108],[130.90364149629545,30.432390019472514],[130.90205180259903,30.431218540940687],[130.901696791802,30.43177590330506],[130.90088177211652,30.431980220416786],[130.8999043042821,30.43170739563388],[130.89972414919754,30.430621860330803],[130.89882675843214,30.4316800353499],[130.89803479493762,30.431278789373614],[130.8967973938445,30.432169220199594],[130.89741996509784,30.432868883636587],[130.8972742895008,30.433841107029806],[130.89778077780676,30.43453165402387],[130.8963311549674,30.435715106292385],[130.89636288397634,30.4365166281903],[130.89751228372654,30.43796663033149],[130.89670536516147,30.438174316693935],[130.89299153352172,30.436483673765256],[130.89239983117582,30.43551055430882],[130.8928627090527,30.435099623890128],[130.89168575427527,30.434678569224022],[130.89155136116733,30.43522284123503],[130.890142901879,30.435552325268116],[130.8892314536762,30.436434225092395],[130.8882444084177,30.435971861758407],[130.88790430091044,30.436499879053116]]]},"properties":{"KEY_CODE":"465020080","PREF":"46","CITY":"502","CITY_NAME":"南種子町","S_NAME":"上中","SETAI":"1297"}}]}