{"type":"FeatureCollection","features":[{"type":"Feature","geometry":{"type":"Polygon","coordinates":[[[131.2360601648684,33.2617496928166],[131.23315155607688,33.261753976760005],[131.23205439155058,33.26116587288759],[131.23020141437883,33.26052238870217],[131.22904476525434,33.260674220541276],[131.22782120435227,33.26029277818881],[131.22668786690716,33.25915585921213],[131.22486258963045,33.25889247656747],[131.2233018695066,33.257971376336265],[131.22136988260388,33.25759800809021],[131.22010467839908,33.25689998492547],[131.218101952484,33.25548150664915],[131.21752665567334,33.255264813451014],[131.21225293613108,33.25208981884256],[131.21330892955956,33.25075335635608],[131.21567854300173,33.24900881313811],[131.2165050529791,33.24681852395555],[131.2172885002923,33.24592399123979],[131.21788503994128,33.244217776015454],[131.2187660968752,33.24375024416252],[131.219105604234,33.24177265502562],[131.22062816218434,33.24082738983087],[131.2215334268723,33.23965530535402],[131.2224508613818,33.23933540258505],[131.22310322962673,33.23982036623953],[131.22355194075695,33.24080488802927],[131.2241024535633,33.241021899274216],[131.2250196698944,33.24058425222859],[131.22556677890046,33.240983372860434],[131.22646438274026,33.24250651641201],[131.22703699197868,33.24422981323363],[131.22699750685516,33.24794099367478],[131.22799380976957,33.2516260655741],[131.230364835873,33.254285930707475],[131.2313598875801,33.25626021937381],[131.23472734823028,33.25843962683056],[131.23578578246008,33.260367163193436],[131.2360601648684,33.2617496928166]]]},"properties":{"KEY_CODE":"444610010","PREF":"44","CITY":"461","CITY_NAME":"九重町","S_NAME":"大字右田","SETAI":"0"}},{"type":"Feature","geometry":{"type":"Polygon","coordinates":[[[131.2047379671551,33.2441409721281],[131.20266968892108,33.24523164787393],[131.19989958026585,33.24619087380375],[131.19816950157735,33.24736315766471],[131.19413291019393,33.249210907050255],[131.19313331353408,33.24933896605806],[131.1922671670548,33.25010525741444],[131.19077570345547,33.25003595334233],[131.18885410674912,33.250731036919454],[131.18786877845895,33.25023249535194],[131.1875660327108,33.24945485907114],[131.18667763239634,33.250466992567816],[131.18517094528084,33.251081507674556],[131.18351935084618,33.2541332658395],[131.18117892709665,33.255052667777605],[131.17784092049197,33.25591042497512],[131.1755620771889,33.256229790966444],[131.17584974083258,33.256915334764535],[131.1689066185584,33.25873580002736],[131.16819815856533,33.25652893221196],[131.16814728563796,33.25501200198101],[131.1678297436858,33.2533450209379],[131.16829233802432,33.2494645458284],[131.1683319754051,33.24743555115349],[131.17009838181164,33.244384479393716],[131.17043838722464,33.24358259714768],[131.17135987137206,33.240207816760886],[131.172531305839,33.23859585208781],[131.17440629450817,33.237753323490786],[131.17671810763227,33.23699199279238],[131.1775696997923,33.23588885051471],[131.17977369407296,33.23442094869997],[131.1800320696365,33.233139929940684],[131.18061573859035,33.231823238173035],[131.18148259114147,33.2311132086295],[131.18434030682158,33.23147938322501],[131.1856381832696,33.2316184550599],[131.18638614920644,33.229514056088014],[131.1867393547562,33.22909177437053],[131.18848272394817,33.22942473915292],[131.18929117071417,33.22932246031106],[131.19133860674592,33.22975323586038],[131.19275729022817,33.228986060005155],[131.19391841949087,33.22757066350259],[131.1943056520898,33.22583108586212],[131.19515477248538,33.225479775572964],[131.19598295107116,33.225889620531795],[131.1973776711383,33.2270316900181],[131.1980411264642,33.227012660375145],[131.19979045569895,33.22613587040457],[131.20102677493026,33.225791380970904],[131.20739826967474,33.225286274025265],[131.209071238362,33.22566350322544],[131.21037043560693,33.225238574324216],[131.21119807245012,33.22564868950311],[131.21165413713086,33.22842720618602],[131.21200966512308,33.22941599239802],[131.2128669304391,33.22988224152792],[131.21463834569877,33.230000648996764],[131.21647214980354,33.23156250559294],[131.21563834228965,33.2322982827282],[131.21524455599445,33.233380518500006],[131.21505562944364,33.235223001807704],[131.2138028709887,33.23702663806567],[131.21181710819027,33.238044297425034],[131.2089177113328,33.240533975059314],[131.20727693603544,33.24258217579352],[131.2063189426302,33.24341925900992],[131.2047379671551,33.2441409721281]]]},"properties":{"KEY_CODE":"444610010","PREF":"44","CITY":"461","CITY_NAME":"九重町","S_NAME":"大字右田","SETAI":"629"}},{"type":"Feature","geometry":{"type":"Polygon","coordinates":[[[131.21220428472768,33.252062848040524],[131.21051643688293,33.25240915052653],[131.2089382462931,33.252966045662106],[131.20807890815524,33.2529674864436],[131.20586272507603,33.25242202209937],[131.20433951589098,33.25321775853152],[131.20216126752425,33.25338403962897],[131.20050122202167,33.25446502898656],[131.19789128115744,33.254637914614875],[131.19699302973532,33.255072107205635],[131.1953434607665,33.25528742106363],[131.19427610366114,33.256249996487675],[131.19289493180875,33.256444676353986],[131.19206974168296,33.257379348985594],[131.19060000217576,33.258016085762776],[131.18918174777457,33.25823830680241],[131.18895799495732,33.25931838723298],[131.18473229261676,33.25933451384054],[131.18433137866205,33.2604607578453],[131.1836504046043,33.26109152027717],[131.18394054338583,33.26269514780006],[131.18282882962134,33.262716902892286],[131.18152991207376,33.26068804263059],[131.1806606095223,33.26107493565443],[131.17998369549895,33.25994699556195],[131.17897658744488,33.260358749216394],[131.1808155968457,33.2634789429975],[131.17958075644754,33.263577461142404],[131.17758591368315,33.263294258812586],[131.17562905999054,33.26377034234994],[131.1753224210888,33.26448590063753],[131.1754063523279,33.26637124564649],[131.17467835680847,33.26738866492536],[131.17258049591393,33.26859602130124],[131.17239127526767,33.267213523768945],[131.17183829543984,33.26578414548253],[131.17020422963975,33.26287338843985],[131.1696271723057,33.26042030540986],[131.1689066185584,33.25873580002736],[131.17584974083258,33.256915334764535],[131.1755620771889,33.256229790966444],[131.17784092049197,33.25591042497512],[131.18117892709665,33.255052667777605],[131.18351935084618,33.2541332658395],[131.18517094528084,33.251081507674556],[131.18667763239634,33.250466992567816],[131.1875660327108,33.24945485907114],[131.18786877845895,33.25023249535194],[131.18885410674912,33.250731036919454],[131.19077570345547,33.25003595334233],[131.1922671670548,33.25010525741444],[131.19313331353408,33.24933896605806],[131.19413291019393,33.249210907050255],[131.19816950157735,33.24736315766471],[131.19989958026585,33.24619087380375],[131.20266968892108,33.24523164787393],[131.2047379671551,33.2441409721281],[131.20519093427305,33.244699137270075],[131.20779884345737,33.24695003239861],[131.2097891037435,33.249289099018135],[131.2102199088422,33.250262480957076],[131.21093382684344,33.25077677047193],[131.21102552553006,33.25140582010972],[131.21220428472768,33.252062848040524]]]},"properties":{"KEY_CODE":"444610020","PREF":"44","CITY":"461","CITY_NAME":"九重町","S_NAME":"大字恵良","SETAI":"153"}},{"type":"Feature","geometry":{"type":"Polygon","coordinates":[[[131.24938986276777,33.298720187803994],[131.2485210659735,33.29918092757163],[131.24775785930115,33.2990537442353],[131.24803362224623,33.30325289415033],[131.24791977257212,33.304541495804294],[131.2470820407014,33.304742031806086],[131.2451967937581,33.303932685470436],[131.24254181947967,33.30187765839659],[131.23998308507146,33.301971231134885],[131.23902819233882,33.30162935545089],[131.2368446918482,33.3014895652736],[131.23382124466832,33.29927132698288],[131.2322449875329,33.29796299705294],[131.2299746862198,33.297718860148706],[131.22869709142827,33.29822894368463],[131.2251994330053,33.29826849413385],[131.22349528216256,33.29845343722277],[131.2216826093864,33.29892960062513],[131.21961069321088,33.29845082941456],[131.21701858151712,33.298508777881565],[131.21431314063284,33.297767199139024],[131.21328052427603,33.296808854441856],[131.21232281670265,33.296449854195686],[131.2122737119008,33.29561002940501],[131.21097325326917,33.294465489641716],[131.21002011772467,33.294425971106335],[131.20954571362515,33.29372922079301],[131.2085231980616,33.29301281514873],[131.2086260036726,33.2920198353199],[131.2073952791343,33.28991768779096],[131.20649535500957,33.28973330597789],[131.20728154996456,33.289216067769026],[131.20712373333865,33.2878568087197],[131.20578323073065,33.28610036723111],[131.2055702914444,33.283869777681645],[131.20505697863783,33.283335750846156],[131.2041174358721,33.28387216050133],[131.20192110851255,33.28213415167366],[131.19961669780034,33.282501257682405],[131.19797763074305,33.28351069777688],[131.19530715063567,33.2832337183665],[131.1932953857332,33.28251121377543],[131.19125860695598,33.28201749271039],[131.19032251833653,33.281445821858306],[131.18830280949575,33.280963934317384],[131.18694642955677,33.27952186897002],[131.1863542410915,33.275840932030896],[131.18578725662297,33.2746788305978],[131.1865651555712,33.273595756698796],[131.1843409818763,33.27337923885831],[131.18244568740997,33.272914375583305],[131.1780790253442,33.270934061854426],[131.17635657940372,33.27099009240425],[131.17474233822168,33.27172093288757],[131.17360639396156,33.271590280619876],[131.17287610382533,33.272426616730954],[131.1713213520151,33.27347834280565],[131.17025643967983,33.272784903033845],[131.171615504607,33.2708875989996],[131.17243600466654,33.269326070768834],[131.17258049591393,33.26859602130124],[131.17467835680847,33.26738866492536],[131.1754063523279,33.26637124564649],[131.1753224210888,33.26448590063753],[131.17562905999054,33.26377034234994],[131.17758591368315,33.263294258812586],[131.17958075644754,33.263577461142404],[131.1808155968457,33.2634789429975],[131.17897658744488,33.260358749216394],[131.17998369549895,33.25994699556195],[131.1806606095223,33.26107493565443],[131.18152991207376,33.26068804263059],[131.18282882962134,33.262716902892286],[131.18394054338583,33.26269514780006],[131.1836504046043,33.26109152027717],[131.18433137866205,33.2604607578453],[131.18473229261676,33.25933451384054],[131.18895799495732,33.25931838723298],[131.18918174777457,33.25823830680241],[131.19060000217576,33.258016085762776],[131.19206974168296,33.257379348985594],[131.19289493180875,33.256444676353986],[131.19427610366114,33.256249996487675],[131.1953434607665,33.25528742106363],[131.19699302973532,33.255072107205635],[131.19789128115744,33.254637914614875],[131.20050122202167,33.25446502898656],[131.20216126752425,33.25338403962897],[131.20433951589098,33.25321775853152],[131.20586272507603,33.25242202209937],[131.20807890815524,33.2529674864436],[131.2089382462931,33.252966045662106],[131.21051643688293,33.25240915052653],[131.21220428472768,33.252062848040524],[131.21225293613108,33.25208981884256],[131.21752665567334,33.255264813451014],[131.218101952484,33.25548150664915],[131.22010467839908,33.25689998492547],[131.22136988260388,33.25759800809021],[131.2233018695066,33.257971376336265],[131.22486258963045,33.25889247656747],[131.22668786690716,33.25915585921213],[131.22782120435227,33.26029277818881],[131.22904476525434,33.260674220541276],[131.23020141437883,33.26052238870217],[131.23205439155058,33.26116587288759],[131.23315155607688,33.261753976760005],[131.2360601648684,33.2617496928166],[131.24386685445882,33.261859349281664],[131.2458260253956,33.261698232661324],[131.24550884733637,33.26244805243288],[131.24562274180352,33.26382596990028],[131.24628212010035,33.26538317070371],[131.24688245894248,33.26747232551226],[131.247750650086,33.26887647853803],[131.25028005181895,33.27048239166115],[131.25106397944552,33.2719869404932],[131.2510865748759,33.27361979253233],[131.25325960856276,33.27512017898753],[131.25391622869827,33.275958707600566],[131.2575862890483,33.27593694049528],[131.25749591665584,33.276923223187765],[131.25755409139208,33.27725239516531],[131.25880225143317,33.27944270702852],[131.2592655772404,33.279908088382754],[131.26030534731245,33.2807186897622],[131.26035111517496,33.28094390148408],[131.2603608328019,33.28142340006836],[131.26013136300045,33.28209482169262],[131.26008189360064,33.28222851223446],[131.26008862462785,33.282498663121935],[131.2599776379057,33.28269031881601],[131.2597694827474,33.282945965685926],[131.2597029236127,33.28332194284863],[131.2595821605475,33.28341990584398],[131.25954022520725,33.283691162605024],[131.25936406812667,33.283933780873596],[131.2592747806108,33.284246999567564],[131.25916347591797,33.28473872668808],[131.25900092051506,33.28516574591103],[131.25878499946978,33.28560784868997],[131.25804991947822,33.28630025266602],[131.25780601001736,33.28651011022784],[131.25747913058333,33.28675802232228],[131.25730841903456,33.28683015935191],[131.25684172792822,33.287170081629284],[131.25668221929982,33.28742461950874],[131.25661387695115,33.28759624661353],[131.2564711702838,33.287910575304835],[131.2563696237404,33.288094211552476],[131.25627964140205,33.28818013120931],[131.25619228848666,33.28834181195635],[131.25612124567783,33.288407757050116],[131.25606352802586,33.28855641332434],[131.25591484850125,33.28886577079649],[131.25602604815245,33.289377200846886],[131.25599493689913,33.289770659874975],[131.25563429131023,33.290920624753824],[131.25557654526895,33.291132279497745],[131.255362156303,33.29134682747606],[131.25502503405772,33.29160806720357],[131.25495840786522,33.29204291690379],[131.25481833854587,33.29249088007456],[131.254696591569,33.29279148163527],[131.2545097620534,33.292966362426135],[131.2544044730762,33.293069553304406],[131.2542606948723,33.29341169366701],[131.25419296559016,33.29355198771588],[131.25391089106375,33.29377283413196],[131.25409381874152,33.294900850358474],[131.25401664465286,33.29530042717593],[131.25388768352585,33.29545796445581],[131.2537447506618,33.29548972843405],[131.25341465938757,33.29557048300886],[131.25327196486984,33.29568516343207],[131.25241515747234,33.296155927705044],[131.2514366635991,33.296362386032925],[131.2513449862593,33.29645410013653],[131.251202677797,33.29670604301513],[131.25081503773723,33.2969127442016],[131.2500594552796,33.297662117743904],[131.24992716781904,33.29784827638024],[131.24956988989996,33.298551087245876],[131.24938986276777,33.298720187803994]]]},"properties":{"KEY_CODE":"444610030","PREF":"44","CITY":"461","CITY_NAME":"九重町","S_NAME":"大字松木","SETAI":"398"}},{"type":"Feature","geometry":{"type":"Polygon","coordinates":[[[131.25966189278563,33.27310310284344],[131.2586028730031,33.27343968808849],[131.2575887647801,33.27410475764952],[131.25743664594137,33.274318934862514],[131.25730952721716,33.275178506394276],[131.2575862890483,33.27593694049528],[131.25391622869827,33.275958707600566],[131.25325960856276,33.27512017898753],[131.2510865748759,33.27361979253233],[131.25106397944552,33.2719869404932],[131.25028005181895,33.27048239166115],[131.247750650086,33.26887647853803],[131.24688245894248,33.26747232551226],[131.24628212010035,33.26538317070371],[131.24562274180352,33.26382596990028],[131.24550884733637,33.26244805243288],[131.2458260253956,33.261698232661324],[131.24386685445882,33.261859349281664],[131.2360601648684,33.2617496928166],[131.23578578246008,33.260367163193436],[131.23472734823028,33.25843962683056],[131.2313598875801,33.25626021937381],[131.230364835873,33.254285930707475],[131.22799380976957,33.2516260655741],[131.22699750685516,33.24794099367478],[131.22703699197868,33.24422981323363],[131.22646438274026,33.24250651641201],[131.22556677890046,33.240983372860434],[131.2250196698944,33.24058425222859],[131.2241024535633,33.241021899274216],[131.22355194075695,33.24080488802927],[131.22310322962673,33.23982036623953],[131.2224508613818,33.23933540258505],[131.2215334268723,33.23965530535402],[131.22062816218434,33.24082738983087],[131.219105604234,33.24177265502562],[131.2187660968752,33.24375024416252],[131.21788503994128,33.244217776015454],[131.2172885002923,33.24592399123979],[131.2165050529791,33.24681852395555],[131.21567854300173,33.24900881313811],[131.21330892955956,33.25075335635608],[131.21225293613108,33.25208981884256],[131.21220428472768,33.252062848040524],[131.21102552553006,33.25140582010972],[131.21093382684344,33.25077677047193],[131.2102199088422,33.250262480957076],[131.2097891037435,33.249289099018135],[131.20779884345737,33.24695003239861],[131.20519093427305,33.244699137270075],[131.2047379671551,33.2441409721281],[131.2063189426302,33.24341925900992],[131.20727693603544,33.24258217579352],[131.2089177113328,33.240533975059314],[131.21181710819027,33.238044297425034],[131.2138028709887,33.23702663806567],[131.21505562944364,33.235223001807704],[131.21524455599445,33.233380518500006],[131.21563834228965,33.2322982827282],[131.21647214980354,33.23156250559294],[131.21463834569877,33.230000648996764],[131.2128669304391,33.22988224152792],[131.21200966512308,33.22941599239802],[131.21165413713086,33.22842720618602],[131.21119807245012,33.22564868950311],[131.21037043560693,33.225238574324216],[131.209071238362,33.22566350322544],[131.20739826967474,33.225286274025265],[131.20102677493026,33.225791380970904],[131.19979045569895,33.22613587040457],[131.1980411264642,33.227012660375145],[131.1973776711383,33.2270316900181],[131.19598295107116,33.225889620531795],[131.19515477248538,33.225479775572964],[131.1943056520898,33.22583108586212],[131.19348468191427,33.22494426403736],[131.1945490688686,33.223895532656336],[131.1982429288288,33.22401809009813],[131.19932065748534,33.22367945250395],[131.2003403495559,33.22301200946118],[131.20246899368254,33.22107128105965],[131.20403416715865,33.22106873162534],[131.20723855263518,33.21946758126549],[131.20935628354204,33.218899709705276],[131.21030394963327,33.21795356352103],[131.2107119457633,33.21715158041031],[131.21244691284105,33.21674178524437],[131.21335366135943,33.21626906720274],[131.21394688380536,33.21646254284022],[131.2152433513564,33.21624168412251],[131.21660034124776,33.215218637163225],[131.21996563492073,33.21439850998125],[131.221480195162,33.21376975199943],[131.22251209635226,33.21399572686584],[131.2238418307272,33.213723035536276],[131.2250819539356,33.214182026782396],[131.22712089877206,33.213793210521054],[131.2269375553195,33.21318810059601],[131.22893382178245,33.212357754491755],[131.2301531219005,33.21270908572315],[131.23169107866784,33.21258504680981],[131.23255273194692,33.21284239034527],[131.23410185066274,33.21246265765406],[131.23460407582624,33.21270738349064],[131.23595626255053,33.21252386413153],[131.23583820440967,33.2128242590884],[131.23839249651513,33.212992422759584],[131.24045174481168,33.211670768067656],[131.24098680639761,33.211534885815894],[131.2415402737139,33.21032986979669],[131.24219730096723,33.210507160336086],[131.24358868480104,33.20973337217389],[131.24436826417283,33.20884714411499],[131.2445523959144,33.207937765721304],[131.2452196908551,33.207184323375934],[131.24545487383463,33.20606736583767],[131.24448814126455,33.203797671176815],[131.24473815206795,33.20344267439591],[131.24692564659483,33.20303600983927],[131.2477802878775,33.20349008258037],[131.24859472239982,33.20215064553908],[131.24918913441127,33.20170211528826],[131.25076669430678,33.19960757871055],[131.25216141996418,33.19868054109418],[131.2533799650176,33.199130602051035],[131.2547694776268,33.19928268429264],[131.25715896721488,33.19874690733627],[131.25869884360492,33.197934365567136],[131.25906156349592,33.19738011969206],[131.25992240921923,33.197144975477386],[131.26162176800213,33.19700918405169],[131.26294230361785,33.19661225741865],[131.26382972304017,33.19602039895479],[131.26536740655604,33.195434777722205],[131.26612114335114,33.194644854635264],[131.26669336654794,33.193850225107305],[131.2696378414764,33.191468759436596],[131.27110046162557,33.1910994002626],[131.2716095593547,33.191433969865585],[131.27178702947413,33.19209475122419],[131.2720285522974,33.192935955923716],[131.27254924025567,33.19309248651196],[131.2744508571967,33.19287215457626],[131.27622070183165,33.19210534823661],[131.27788284211397,33.19076150871736],[131.2784802753589,33.19033295335298],[131.27971221642528,33.189724979703534],[131.28091782331273,33.18939421820899],[131.2818619276769,33.189559914064375],[131.2828078241661,33.19028507122325],[131.28291030733914,33.19111129886426],[131.28281783164357,33.192444024822386],[131.28351759205364,33.1927958958677],[131.28393628306858,33.19320691273705],[131.28413060846873,33.193440431570366],[131.28479754277166,33.19392206931007],[131.28531862331624,33.195118603375974],[131.28514340577024,33.196108217476244],[131.28433163656143,33.197595179308195],[131.28426576311097,33.19780384139974],[131.28437554164208,33.19807823869884],[131.28469057351313,33.198219929976574],[131.28631685225187,33.19794155153342],[131.2871429110945,33.1980540751522],[131.2875971753114,33.19823103282085],[131.2879368375501,33.1985099639826],[131.28796757095657,33.198657395109635],[131.28643718551015,33.20143530702221],[131.28540585999218,33.2033169285087],[131.28608796477,33.2037908730668],[131.2869151072831,33.20411708069085],[131.28476472567073,33.20807133071711],[131.28371384317663,33.209788110785674],[131.28289004077374,33.211691495344155],[131.28186727866978,33.21489976679076],[131.28134100110933,33.215597681083636],[131.28070122550136,33.21556126276598],[131.2797420839648,33.21613897523637],[131.27782326230397,33.21808451980587],[131.2773726061669,33.218971579490365],[131.27643793286654,33.21970573428458],[131.27539561333327,33.22155337578786],[131.27409278208992,33.22269979188646],[131.27340872546137,33.22388019482709],[131.27378849305273,33.22527532234405],[131.27308146088274,33.22584233937395],[131.2734072969319,33.226311164837604],[131.2720456626368,33.22790198715396],[131.27218548268223,33.228431791687996],[131.27085111536354,33.22913899481743],[131.27025795292212,33.23061199603503],[131.26916737680165,33.23150292544851],[131.26943229612164,33.231699258542825],[131.2731669947374,33.23304924522837],[131.27495995296218,33.23393386175292],[131.27614942731557,33.23488795646448],[131.27730388350608,33.235218610584134],[131.2802551550434,33.23665339857738],[131.28218444609706,33.23785317412116],[131.28301891021698,33.23860103434922],[131.28505657566413,33.240952218926196],[131.28655643943083,33.24380324219785],[131.28625465293337,33.244296188457604],[131.28895848172652,33.247099572503075],[131.29016030727385,33.24715229373316],[131.29230439137058,33.24779096295978],[131.2938439238242,33.24910757269575],[131.2949991286614,33.24962870145636],[131.2946408094914,33.25012726133153],[131.29244431620265,33.25333362538649],[131.2913610990785,33.256169528590945],[131.29087494258312,33.25686929216292],[131.28979582989678,33.25741326085269],[131.28882493886547,33.25877531020178],[131.28909041968882,33.25928907419461],[131.2882608233545,33.25978029522303],[131.2881171636356,33.26151196722993],[131.28717420351978,33.26235893262634],[131.28483914215076,33.262192909568384],[131.2823602518769,33.2621902057922],[131.27825647996468,33.262003746714164],[131.27720428377197,33.2621324339569],[131.27639264615303,33.26289780921484],[131.27483094623406,33.26314673914818],[131.270735774551,33.263158991450275],[131.27091430867353,33.26336609395644],[131.27131995012962,33.263704527449],[131.2716342832461,33.264160776646975],[131.27244632058103,33.26473643640025],[131.2728419931759,33.264992197910374],[131.27324092515877,33.2656970656322],[131.27367834842386,33.26619685542965],[131.27386569666953,33.26654384556856],[131.27395622363127,33.26678086580829],[131.27384333208,33.26787071964491],[131.27328749170493,33.26838280867612],[131.27327614674113,33.268808541339176],[131.27294205487902,33.26930881452029],[131.27265727443208,33.27002101361091],[131.27316137789822,33.27212543482534],[131.27263971231454,33.27333391817939],[131.27251569085257,33.27364523390073],[131.27213528723072,33.27412629330704],[131.2706857472973,33.274664102771546],[131.26951445551074,33.27460831484443],[131.26925013720953,33.27445333829354],[131.26810197925258,33.27363733656333],[131.26727267947652,33.27339804819048],[131.26586243577523,33.27315414987615],[131.26516892655943,33.2726559951751],[131.2646827009059,33.272587039351436],[131.264525133228,33.27252904516123],[131.26387460968738,33.27169054511995],[131.26304860185763,33.27177200608938],[131.26245698852182,33.272064892775184],[131.2615277391664,33.272459562261275],[131.26101438877953,33.272612279774435],[131.26083426045506,33.27275263732811],[131.2603323865899,33.2728722884164],[131.25966189278563,33.27310310284344]]]},"properties":{"KEY_CODE":"444610040","PREF":"44","CITY":"461","CITY_NAME":"九重町","S_NAME":"大字野上","SETAI":"362"}},{"type":"Feature","geometry":{"type":"Polygon","coordinates":[[[131.1943056520898,33.22583108586212],[131.19391841949087,33.22757066350259],[131.19275729022817,33.228986060005155],[131.19133860674592,33.22975323586038],[131.18929117071417,33.22932246031106],[131.18848272394817,33.22942473915292],[131.1867393547562,33.22909177437053],[131.18638614920644,33.229514056088014],[131.1856381832696,33.2316184550599],[131.18434030682158,33.23147938322501],[131.18460286922615,33.230882565496515],[131.1873320121053,33.22699002085848],[131.18832842348198,33.22623933718645],[131.19006217297073,33.22595983440987],[131.191148391658,33.22644677739745],[131.19218370171507,33.22577742392185],[131.19147686965937,33.22374672794399],[131.1922978531796,33.222556503700815],[131.19364404035403,33.222301993066615],[131.19465431217085,33.22130285183544],[131.19411269245643,33.21950805084675],[131.19402167694517,33.21774103282969],[131.19424390663517,33.21747195771045],[131.1969103769257,33.2162910328165],[131.19774964302152,33.214669136614006],[131.19761608088513,33.213411168388866],[131.19861392582632,33.20999889100674],[131.20128559649183,33.21015840059055],[131.20222432207672,33.21058993359754],[131.203517565933,33.21008815974897],[131.2033838445755,33.20790375649624],[131.2043015793735,33.206378281111704],[131.20603678947765,33.20570367817444],[131.20716592391233,33.20425002170506],[131.20822138925664,33.20378749546569],[131.2085466843767,33.20310685982343],[131.20784936208733,33.20140916129859],[131.20820626643183,33.200139980956564],[131.20927381272986,33.199222179957694],[131.2091678832844,33.19769840030164],[131.2105858352965,33.19559468458694],[131.21142262745215,33.193464155572926],[131.21027489754914,33.19254728170267],[131.20998962000183,33.19196481436622],[131.2104955404521,33.19092578210243],[131.21224466226505,33.19070629855124],[131.21334963177412,33.1903129998971],[131.21349975189636,33.18959100870048],[131.21233011165347,33.18915996791399],[131.21211553974976,33.187753113777376],[131.21258870185807,33.186551384702454],[131.2142070693606,33.18555739461901],[131.21429579157032,33.18475663170033],[131.21385080677322,33.183527924215475],[131.21479936653745,33.18251804478268],[131.21552941231948,33.18227626543731],[131.21714560794382,33.18073147766051],[131.218098853154,33.18029897306564],[131.21960820460126,33.18132694478781],[131.2220861338546,33.18163569222695],[131.22302224485048,33.183137538299604],[131.22397299019138,33.18398044455067],[131.22462512893065,33.185330284823884],[131.22545901923,33.185919246405604],[131.2270073832741,33.18607535297077],[131.22726315909853,33.18707089697757],[131.22777502961767,33.187531868711694],[131.22910323360668,33.187527604665796],[131.23085127708225,33.188065670227175],[131.23234423494156,33.18913725682502],[131.23471447629538,33.18973505754172],[131.23550820488683,33.1896207795557],[131.23680324350454,33.190380744846024],[131.23669118258977,33.19060650557056],[131.2382108646,33.19132465490782],[131.2387381311411,33.1912258947959],[131.23906167756334,33.19116856148743],[131.2393553386825,33.19128140558977],[131.23968217361787,33.1911928887241],[131.23989816351073,33.191266181409105],[131.2401916663128,33.191313822612166],[131.24031181436948,33.19148228485716],[131.2406223384931,33.191595093910585],[131.2410005434746,33.19179284004869],[131.24112242698013,33.19198255664705],[131.24146667038036,33.19209246091334],[131.24230642659242,33.19275852762741],[131.24256696554698,33.19308692102235],[131.2425758557351,33.19324992583386],[131.24271489476507,33.19353601925047],[131.24306898974763,33.19355516177907],[131.24337622126114,33.19368498291775],[131.24378892130676,33.19429170666983],[131.24398231360334,33.1944238285784],[131.24540837523497,33.19508851063901],[131.24919398856278,33.19771446667879],[131.24952244699583,33.196832671217464],[131.25050808772994,33.19569448709233],[131.251005760818,33.19613735540675],[131.2519121685775,33.19622164857571],[131.25329990099152,33.19655008741494],[131.25507222649586,33.19651164545147],[131.2562587927525,33.196839794788666],[131.25793145877685,33.196874486095254],[131.25956584238898,33.19710406579009],[131.25992240921923,33.197144975477386],[131.25906156349592,33.19738011969206],[131.25869884360492,33.197934365567136],[131.25715896721488,33.19874690733627],[131.2547694776268,33.19928268429264],[131.2533799650176,33.199130602051035],[131.25216141996418,33.19868054109418],[131.25076669430678,33.19960757871055],[131.24918913441127,33.20170211528826],[131.24859472239982,33.20215064553908],[131.2477802878775,33.20349008258037],[131.24692564659483,33.20303600983927],[131.24473815206795,33.20344267439591],[131.24448814126455,33.203797671176815],[131.24545487383463,33.20606736583767],[131.2452196908551,33.207184323375934],[131.2445523959144,33.207937765721304],[131.24436826417283,33.20884714411499],[131.24358868480104,33.20973337217389],[131.24219730096723,33.210507160336086],[131.2415402737139,33.21032986979669],[131.24098680639761,33.211534885815894],[131.24045174481168,33.211670768067656],[131.23839249651513,33.212992422759584],[131.23583820440967,33.2128242590884],[131.23595626255053,33.21252386413153],[131.23460407582624,33.21270738349064],[131.23410185066274,33.21246265765406],[131.23255273194692,33.21284239034527],[131.23169107866784,33.21258504680981],[131.2301531219005,33.21270908572315],[131.22893382178245,33.212357754491755],[131.2269375553195,33.21318810059601],[131.22712089877206,33.213793210521054],[131.2250819539356,33.214182026782396],[131.2238418307272,33.213723035536276],[131.22251209635226,33.21399572686584],[131.221480195162,33.21376975199943],[131.21996563492073,33.21439850998125],[131.21660034124776,33.215218637163225],[131.2152433513564,33.21624168412251],[131.21394688380536,33.21646254284022],[131.21335366135943,33.21626906720274],[131.21244691284105,33.21674178524437],[131.2107119457633,33.21715158041031],[131.21030394963327,33.21795356352103],[131.20935628354204,33.218899709705276],[131.20723855263518,33.21946758126549],[131.20403416715865,33.22106873162534],[131.20246899368254,33.22107128105965],[131.2003403495559,33.22301200946118],[131.19932065748534,33.22367945250395],[131.1982429288288,33.22401809009813],[131.1945490688686,33.223895532656336],[131.19348468191427,33.22494426403736],[131.1943056520898,33.22583108586212]]]},"properties":{"KEY_CODE":"444610050","PREF":"44","CITY":"461","CITY_NAME":"九重町","S_NAME":"大字後野上","SETAI":"119"}},{"type":"Feature","geometry":{"type":"Polygon","coordinates":[[[131.20467003971336,33.1591563240638],[131.2033193649501,33.15922365351894],[131.20202868534156,33.15964246968679],[131.20051598282012,33.159361881699645],[131.1999298668842,33.16003509016626],[131.19859036252555,33.159803364874605],[131.18945849692787,33.159609173122504],[131.18818908030872,33.15890888529862],[131.18519607118054,33.15915534079555],[131.18366873013477,33.154710702818235],[131.18270381118018,33.150884585979504],[131.17552299925092,33.14922864990614],[131.17405483918589,33.149310014151915],[131.1732325758071,33.14893806638807],[131.1729086522909,33.147549447353796],[131.17135656537866,33.144684147730814],[131.16962555470187,33.143142649203305],[131.16874235525344,33.14295333753245],[131.16920283880697,33.14422271203111],[131.166474288218,33.14318568490593],[131.16492608282414,33.142408334303184],[131.16477493127516,33.14025082573361],[131.16437445636043,33.14005000260227],[131.1631034583126,33.1377008366896],[131.16310098661103,33.13703107323494],[131.16690975113954,33.128741063113175],[131.16907597922133,33.12832548250217],[131.1704543849374,33.12694151373713],[131.17049106855964,33.126111136289076],[131.16897019347854,33.12316370447848],[131.16788226098902,33.12149460779073],[131.16624626630795,33.119875789241945],[131.16460673717037,33.11947145257781],[131.16387209390817,33.11898865229362],[131.1635373529294,33.11796273916936],[131.16374965803865,33.116448659663874],[131.16488298448215,33.11588927042628],[131.16680944601242,33.11428206235608],[131.1670947454874,33.11289405913552],[131.1675685160585,33.112288541662565],[131.16670560669883,33.11196444816807],[131.16630216655432,33.11133881533709],[131.16684484471514,33.10918862268525],[131.16903520433397,33.107591415162034],[131.1714768629575,33.107279792819966],[131.17338943767695,33.10460630668798],[131.1730251867511,33.10243490933219],[131.17289334524318,33.09987600383654],[131.1740415868673,33.09871288727189],[131.17477544484413,33.09700882338227],[131.17414380849448,33.09608543827151],[131.17367540920685,33.09323309434334],[131.17291281045615,33.09131204489463],[131.1732457296093,33.09086368189438],[131.17250311225598,33.090030654423146],[131.1726478270704,33.088813712220876],[131.17360366920175,33.08685530439418],[131.17369900040364,33.085783802491854],[131.17475987039407,33.08367306401899],[131.17493498038985,33.08276858041288],[131.17622316520024,33.081138873558885],[131.177300620033,33.08048721493819],[131.17837300438737,33.07925054215321],[131.1799055199023,33.07869013645683],[131.18210961942404,33.07757169330643],[131.18302725707815,33.076879171101474],[131.18414433589834,33.07659566111109],[131.18490708704326,33.07457894570846],[131.18541959495877,33.07411227814038],[131.18716303758382,33.073863578025595],[131.18744525692003,33.074198332353376],[131.1895383026032,33.07360124866346],[131.18987624715768,33.07389988309565],[131.18968430974812,33.075249614786614],[131.1912536252457,33.07553873194898],[131.19277048822732,33.07683010785337],[131.193124536905,33.0780236887263],[131.19424017180341,33.07821140313537],[131.19522621065522,33.07934750904101],[131.1955946002655,33.08069162675147],[131.19700889809377,33.08169553497314],[131.19804289912048,33.08327320579313],[131.1987561238645,33.08388867983533],[131.19906212724277,33.08512345163342],[131.19882337752057,33.08580707541566],[131.20017336447955,33.087115148885],[131.2001035329182,33.08801301770674],[131.2010767635234,33.08856551903335],[131.20174403462482,33.08851028228469],[131.2031758500169,33.08925365829993],[131.20309518952234,33.08972452921276],[131.2038840778818,33.0903356223805],[131.20574010165785,33.0902992580624],[131.20861889596142,33.08918842334321],[131.20892089921307,33.08926468182957],[131.20889008719328,33.08998561746946],[131.20911193196557,33.09069467872285],[131.21024314910494,33.09229377423189],[131.21126658114568,33.09324753834206],[131.21162288439166,33.09461785331438],[131.2117463282119,33.09544211179857],[131.21067119369727,33.0951275704218],[131.20957802015596,33.0952060990471],[131.20837737978468,33.09640645863331],[131.2077014857943,33.0979702316883],[131.20733253276234,33.09930020948807],[131.20717820920933,33.09987247920003],[131.2071356983861,33.10117634931169],[131.2071060667609,33.1014895669096],[131.20733314998117,33.10281535182192],[131.2072128950394,33.10334601711869],[131.2069032498574,33.104055958368725],[131.2070665551718,33.104388549180015],[131.20711142641306,33.104671747965874],[131.2072101949743,33.10474025452398],[131.20737400411215,33.10501179813981],[131.20719416367797,33.10630142967562],[131.20723370784913,33.112461452687064],[131.20796892562646,33.1128036011928],[131.20911425867385,33.11402635457881],[131.20970896156172,33.1153015446677],[131.20948185793134,33.11699585526539],[131.2104941081543,33.120809093451115],[131.20990220393,33.120460227273234],[131.20995113411954,33.12250380930896],[131.2103651839651,33.123541950439275],[131.20972105099503,33.12594609034249],[131.20965049403722,33.12915638394052],[131.20308607437607,33.13736918976643],[131.2031389978783,33.1377660264187],[131.20185840187673,33.13787249586373],[131.20079634553545,33.13867749942392],[131.20086373592244,33.13946173273709],[131.20034258021997,33.140864633247595],[131.20118905886935,33.14227384386993],[131.2013272522253,33.143375116222124],[131.2005342289189,33.144291740376474],[131.20083961791406,33.145396563714385],[131.19900504000537,33.14630910708766],[131.19863171824565,33.147035158936376],[131.19982332025975,33.14839308243737],[131.2004387790241,33.15161493862683],[131.20039974104444,33.15229490022098],[131.19839820018166,33.153382401068455],[131.19735080519777,33.15479122311695],[131.19781360441814,33.15559572654696],[131.20004584060288,33.15554668158968],[131.19967646272383,33.15702662073163],[131.19997786747737,33.157407864799346],[131.2017076507221,33.15795017947125],[131.20310162182517,33.1578928950703],[131.20467003971336,33.1591563240638]]]},"properties":{"KEY_CODE":"444610070","PREF":"44","CITY":"461","CITY_NAME":"九重町","S_NAME":"大字湯坪","SETAI":"216"}},{"type":"Feature","geometry":{"type":"Polygon","coordinates":[[[131.29145486755434,33.19788091983218],[131.28946505309025,33.19941439830962],[131.287651409142,33.2017514430455],[131.2869151072831,33.20411708069085],[131.28608796477,33.2037908730668],[131.28540585999218,33.2033169285087],[131.28643718551015,33.20143530702221],[131.28796757095657,33.198657395109635],[131.2879368375501,33.1985099639826],[131.2875971753114,33.19823103282085],[131.2871429110945,33.1980540751522],[131.28631685225187,33.19794155153342],[131.28469057351313,33.198219929976574],[131.28437554164208,33.19807823869884],[131.28426576311097,33.19780384139974],[131.28433163656143,33.197595179308195],[131.28514340577024,33.19610821747626],[131.28531862331624,33.195118603375974],[131.28479754277166,33.19392206931007],[131.28413060846873,33.193440431570366],[131.28393628306858,33.19320691273705],[131.28351759205364,33.1927958958677],[131.28281783164357,33.192444024822386],[131.28291030733914,33.19111129886426],[131.2828078241661,33.19028507122325],[131.2818619276769,33.189559914064375],[131.28091782331273,33.18939421820899],[131.27971221642528,33.189724979703534],[131.2784802753589,33.19033295335298],[131.27788284211397,33.19076150871736],[131.27622070183165,33.19210534823661],[131.2744508571967,33.19287215457626],[131.27254924025567,33.19309248651196],[131.2720285522974,33.192935955923716],[131.27178702947413,33.19209475122419],[131.2716095593547,33.191433969865585],[131.27110046162557,33.1910994002626],[131.2696378414764,33.191468759436596],[131.26669336654794,33.193850225107305],[131.26612114335114,33.194644854635264],[131.26536740655604,33.195434777722205],[131.26382972304017,33.19602039895479],[131.26294230361785,33.19661225741865],[131.26162176800213,33.19700918405169],[131.25992240921923,33.197144975477386],[131.25956584238898,33.19710406579009],[131.25793145877685,33.196874486095254],[131.2562587927525,33.196839794788666],[131.25507222649586,33.19651164545147],[131.25329990099152,33.19655008741494],[131.2519121685775,33.19622164857571],[131.251005760818,33.19613735540675],[131.25050808772994,33.19569448709233],[131.24952244699583,33.196832671217464],[131.24919398856278,33.19771446667879],[131.24540837523497,33.19508851063901],[131.24398231360334,33.1944238285784],[131.24378892130676,33.19429170666983],[131.24337622126114,33.19368498291775],[131.24306898974763,33.19355516177907],[131.24271489476507,33.19353601925047],[131.2425758557351,33.19324992583386],[131.24256696554698,33.19308692102235],[131.24230642659242,33.19275852762741],[131.24146667038036,33.19209246091334],[131.24112242698013,33.19198255664705],[131.2410005434746,33.19179284004869],[131.2406223384931,33.191595093910585],[131.24031181436948,33.19148228485716],[131.2401916663128,33.191313822612166],[131.23989816351073,33.191266181409105],[131.23968217361787,33.1911928887241],[131.2393553386825,33.19128140558977],[131.23906167756334,33.19116856148743],[131.2387381311411,33.1912258947959],[131.2382108646,33.19132465490782],[131.23669118258977,33.19060650557056],[131.23680324350454,33.190380744846024],[131.23550820488683,33.1896207795557],[131.23471447629538,33.18973505754172],[131.23234423494156,33.18913725682502],[131.23085127708225,33.188065670227175],[131.22910323360668,33.187527604665796],[131.22777502961767,33.187531868711694],[131.22726315909853,33.18707089697757],[131.2270073832741,33.18607535297077],[131.22545901923,33.185919246405604],[131.22462512893065,33.185330284823884],[131.22397299019138,33.18398044455067],[131.22302224485048,33.183137538299604],[131.2220861338546,33.18163569222695],[131.21960820460126,33.18132694478781],[131.218098853154,33.18029897306564],[131.21714560794382,33.18073147766051],[131.21552941231948,33.18227626543731],[131.2150050030249,33.18121764099124],[131.21404622678872,33.18064158970673],[131.21403675665158,33.17975045017475],[131.21466685249396,33.17891044515807],[131.2157393153457,33.17817108387843],[131.2152271879447,33.17644193351824],[131.2128668727941,33.17496179012911],[131.21337570839174,33.1738546710299],[131.21304632180616,33.17362170010291],[131.2107598675975,33.17319695218563],[131.20986723144566,33.17271909517948],[131.21034648742662,33.171455335695775],[131.210151455179,33.17087180637094],[131.2084855928193,33.1702031457247],[131.20798176270193,33.17035762637952],[131.2070146847872,33.169655013962114],[131.20684336189805,33.16887135644622],[131.20726990830883,33.16858856109253],[131.20950443580992,33.16814225749642],[131.21060219257552,33.16825638826928],[131.21136779802688,33.1679222075007],[131.2109481452092,33.167127735998484],[131.21106543984783,33.1662662841381],[131.21237392454316,33.1657330322289],[131.2122399703552,33.1648878782934],[131.21317471662437,33.164368452440996],[131.21421741336238,33.16434024671764],[131.21382785280232,33.1630067824054],[131.21213705296236,33.16258172337884],[131.21180318962337,33.16219128775269],[131.2116582583697,33.16069361330152],[131.21022576203845,33.16056397132472],[131.20786344398917,33.159988058710375],[131.207055603595,33.15922620683023],[131.20512148813742,33.159359669893554],[131.20467003971336,33.1591563240638],[131.20310162182517,33.1578928950703],[131.2017076507221,33.15795017947125],[131.19997786747737,33.157407864799346],[131.19967646272383,33.15702662073163],[131.20004584060288,33.15554668158968],[131.19781360441814,33.15559572654696],[131.19735080519777,33.15479122311695],[131.19839820018166,33.153382401068455],[131.20039974104444,33.15229490022098],[131.2004387790241,33.15161493862683],[131.19982332025975,33.14839308243737],[131.19863171824565,33.147035158936376],[131.19900504000537,33.14630910708766],[131.20083961791406,33.145396563714385],[131.2005342289189,33.144291740376474],[131.2013272522253,33.143375116222124],[131.20118905886935,33.14227384386993],[131.20034258021997,33.140864633247595],[131.20086373592244,33.13946173273709],[131.20079634553545,33.13867749942392],[131.20185840187673,33.13787249586373],[131.2031389978783,33.1377660264187],[131.20308607437607,33.13736918976643],[131.20965049403722,33.12915638394052],[131.20972105099503,33.12594609034249],[131.2103651839651,33.123541950439275],[131.20995113411954,33.12250380930896],[131.20990220393,33.120460227273234],[131.2104941081543,33.120809093451115],[131.20948185793134,33.11699585526539],[131.20970896156172,33.1153015446677],[131.20911425867385,33.11402635457881],[131.20796892562646,33.1128036011928],[131.20723370784913,33.112461452687064],[131.20719416367797,33.10630142967562],[131.20737400411215,33.10501179813981],[131.2072101949743,33.10474025452398],[131.20711142641306,33.104671747965874],[131.2070665551718,33.104388549180015],[131.2069032498574,33.104055958368725],[131.2072128950394,33.10334601711869],[131.20733314998117,33.10281535182192],[131.2071060667609,33.1014895669096],[131.2071356983861,33.10117634931169],[131.20717820920933,33.09987247920003],[131.20733253276234,33.09930020948807],[131.2077014857943,33.0979702316883],[131.20837737978468,33.09640645863331],[131.20957802015596,33.0952060990471],[131.21067119369727,33.0951275704218],[131.2117463282119,33.09544211179857],[131.21162288439166,33.09461785331438],[131.2112665811457,33.09324753834206],[131.21024314910494,33.09229377423189],[131.20911193196557,33.09069467872285],[131.20889008719328,33.08998561746946],[131.2090128955019,33.08929190779372],[131.20970025534297,33.08935324413685],[131.21057100341977,33.08967288083762],[131.21144267773528,33.090344271258076],[131.21184983975257,33.09031104560398],[131.21214223420606,33.090284128868724],[131.2132194137332,33.089965157606514],[131.2141382699827,33.08964036345543],[131.21442079793806,33.089540266897046],[131.21490598085734,33.08928328259116],[131.21504348449778,33.08917936714938],[131.215265720195,33.08912612455546],[131.21585381743031,33.08895638026047],[131.21686938844613,33.08865375508883],[131.21759647321358,33.088495946731676],[131.21806276348764,33.08842601298791],[131.21819814778863,33.088450170142124],[131.2185067446325,33.08863461639166],[131.218973199518,33.088631759960705],[131.21905288584492,33.0886031571745],[131.21940660638708,33.088462269483585],[131.21953951160398,33.088447804143954],[131.22069825904953,33.08840102010668],[131.22094717362947,33.0883843196573],[131.22193097912242,33.08844355006055],[131.22219227285873,33.08855082169266],[131.22244027089383,33.08866218590466],[131.22266499478698,33.08864349275657],[131.22295968231674,33.08857587502241],[131.22316242663837,33.08846980394382],[131.22411301138212,33.08781350644959],[131.22445093366179,33.087633997889284],[131.22482748843782,33.087385728014816],[131.22594444529128,33.086468617991926],[131.2264401953982,33.08580791660661],[131.22666463691039,33.085674741571296],[131.22684187998962,33.08577902060876],[131.2272448406702,33.08624094824015],[131.22752467078652,33.0865276556811],[131.22774962615895,33.08688028949174],[131.22846393554047,33.08730104066976],[131.22885426386463,33.08753126643167],[131.22893035212138,33.08765854062971],[131.2291601265463,33.08865090239683],[131.22932487230833,33.08889480474712],[131.23104338910105,33.089549938129274],[131.2323883344535,33.08974917049234],[131.23559421470387,33.08954138867096],[131.23670576574912,33.08978349978756],[131.23713608613315,33.09020739981381],[131.2374888781035,33.090898725549714],[131.23810859406876,33.091886517124166],[131.23816288780594,33.09219698730813],[131.23803515252627,33.09258546183721],[131.23775896705902,33.092936491945906],[131.23763827820412,33.09344156037493],[131.2382522290473,33.09374231358177],[131.23866513835767,33.094031393657275],[131.23887879458874,33.094451270262496],[131.2394355822808,33.094848754135754],[131.2397766265087,33.09512105069602],[131.24005291973543,33.09533308207412],[131.24044074626156,33.09589997162665],[131.2405472715603,33.095991546263136],[131.24083475880784,33.09609485558686],[131.24154325744462,33.09630363400024],[131.24170727313864,33.09641441781227],[131.2419205652217,33.0966917890931],[131.24194949883434,33.09677385324227],[131.24215804570218,33.09740871663629],[131.2423474096037,33.09786245568952],[131.24313656650668,33.09969907049062],[131.24303523360405,33.09992149329359],[131.24331462851742,33.100208380090294],[131.2433266634899,33.10092574377311],[131.24344041276066,33.101551125262986],[131.24371404594382,33.10183318581944],[131.24582779388797,33.102787937845704],[131.24634070626178,33.10337387446823],[131.24651359942834,33.1035764288111],[131.24666057454576,33.103752465288565],[131.24648468195514,33.1040185247592],[131.2464391726673,33.104178036991044],[131.24645387385326,33.10430120406167],[131.24674068410613,33.105689560002425],[131.24689570712798,33.10617477706866],[131.24711440452248,33.106321686491874],[131.2475699141074,33.10640290090723],[131.24818690637275,33.10659160216306],[131.24853816497225,33.106781756572836],[131.24956136430305,33.107473732570035],[131.25215164436386,33.109654647522234],[131.25369350783174,33.11131711012849],[131.2532390773162,33.114692616109934],[131.25337394032385,33.11850933114625],[131.25309747100204,33.12100829576826],[131.25321863962657,33.1218755490641],[131.25551039988932,33.12252141373885],[131.25693783359714,33.123363845109516],[131.25655329391066,33.12420038040887],[131.25764240363173,33.12684497454002],[131.25722610501424,33.12809391136923],[131.2574499177802,33.13005583016602],[131.25788230713187,33.13099838245582],[131.25667793928034,33.13400338208851],[131.2569490960625,33.134904061540006],[131.25801952999973,33.134680952462226],[131.25870511756636,33.13586462715561],[131.25970813330972,33.13675878943452],[131.26157260739595,33.137636241100985],[131.2618370341541,33.13820485764274],[131.2627346384295,33.13846418379264],[131.26307071594022,33.13932573697291],[131.26659135019412,33.14147386469532],[131.268786597234,33.14298692605899],[131.27171414605937,33.14370745883215],[131.27195577860218,33.144500868758726],[131.27381664962826,33.14568871590509],[131.27489311661472,33.14871143825365],[131.27772926556273,33.15061414791969],[131.28159991333885,33.15239925957925],[131.2824482650858,33.1529282452312],[131.28427051242858,33.15456881010786],[131.28577900740095,33.15559553021839],[131.28893087182678,33.157001022796315],[131.29411581786806,33.15895542731678],[131.29529903342956,33.15931090800393],[131.29807154954912,33.15977658107608],[131.300627612221,33.160678314899094],[131.30324159293318,33.1600936917657],[131.30518006164385,33.158904052554945],[131.30606242836367,33.15910541886501],[131.30805745135683,33.160244544288275],[131.30971875894343,33.16152697972197],[131.31332361067305,33.163036478406404],[131.3147901506328,33.16400171796084],[131.31534348045983,33.16564111663915],[131.3162149298333,33.16681551545111],[131.31691375170243,33.16713939812989],[131.3170529107166,33.16810805801184],[131.31890475581642,33.1697358268104],[131.320998004833,33.17013183531739],[131.32347031558004,33.17225922656337],[131.32500289100182,33.17301886385514],[131.32320474215095,33.17401203941859],[131.3200416267408,33.176613069634094],[131.3180831360806,33.1776729021163],[131.31672754378056,33.176995479327104],[131.31600143278337,33.17566570695838],[131.31518643555552,33.175600245062434],[131.31292195329547,33.17374212725464],[131.31217978237854,33.17366126387836],[131.310874516545,33.172968386625705],[131.3085270389237,33.17203129269846],[131.307036593101,33.172396679468505],[131.30664477649384,33.174352275166115],[131.30564903445307,33.17503729488316],[131.3030425760045,33.17528297579101],[131.30043656342906,33.17702313851838],[131.29852473753346,33.17854581443245],[131.2953766403683,33.18002819726016],[131.29632073931032,33.18058296509014],[131.29806266505895,33.1811946417105],[131.3005350960597,33.18125927370391],[131.30110946174523,33.18144224157443],[131.30393229025668,33.18032136473756],[131.30463048782238,33.179896010127194],[131.30676804035878,33.17953267261435],[131.30624382525284,33.179114856720844],[131.30732113995518,33.17901756564143],[131.31082517650924,33.17947178093664],[131.3121951420164,33.180232036149754],[131.312383946746,33.18129958177606],[131.30901003504061,33.183076080188556],[131.30698656395967,33.1833557113796],[131.30652636667133,33.18381185893193],[131.30727371093147,33.18472138030323],[131.3084296883089,33.18549526235665],[131.30882412009456,33.18722098727291],[131.30822171961717,33.18825657035134],[131.30644692668494,33.18972303336026],[131.30551006420137,33.1901978835858],[131.30374053967378,33.19151587103244],[131.3014939614562,33.19271624428529],[131.3001916479804,33.19303361016304],[131.2983966423339,33.19381722413684],[131.2967243450812,33.19521650018884],[131.29497138692622,33.196272046851945],[131.29322596244614,33.19607084840177],[131.29060394846945,33.19504788061232],[131.29027365463088,33.1965923328785],[131.290470336805,33.197338969281404],[131.29145486755434,33.19788091983218]]]},"properties":{"KEY_CODE":"444610080","PREF":"44","CITY":"461","CITY_NAME":"九重町","S_NAME":"大字田野","SETAI":"503"}},{"type":"Feature","geometry":{"type":"Polygon","coordinates":[[[131.13689851884098,33.20027036660354],[131.13458553623303,33.19969975474087],[131.13339766346937,33.19999543269362],[131.13221554544535,33.200618705376726],[131.1318895699145,33.201123712616244],[131.13056478105946,33.201494767542435],[131.1294960350578,33.20219978773946],[131.1279965105787,33.20200878756563],[131.12678501647758,33.202395179799694],[131.12490373424984,33.20242810860703],[131.12414837117126,33.20303314188848],[131.12347908647072,33.20302495906922],[131.12199971314084,33.20215214376381],[131.11993571357795,33.20150124221676],[131.11828237902168,33.20174620364939],[131.1162646135314,33.19885408077824],[131.11487392151852,33.19342264280422],[131.11284109039104,33.188340565401035],[131.1116421210687,33.18702112792085],[131.11090928321232,33.183441337830345],[131.1157101717487,33.180011488914836],[131.1163300686679,33.17893103630802],[131.1171152693866,33.17846540407562],[131.1166222294972,33.17754621444035],[131.1171754339906,33.17643995752716],[131.1167901429346,33.17478790460977],[131.11687665645564,33.17390444017984],[131.11745603570444,33.173432011180466],[131.1192545424057,33.17103466918617],[131.11982885229173,33.169097472778994],[131.12065731504444,33.1680828911551],[131.12165295943697,33.16752960354962],[131.12304464327488,33.167836580595356],[131.12611979034153,33.16726689914636],[131.12698400375476,33.16737968447547],[131.12945516647108,33.1669006909815],[131.13074292915206,33.166347217664686],[131.13281380491972,33.16465695299758],[131.133926673711,33.16153933843867],[131.13391588864425,33.16033902847132],[131.13446297595686,33.16012065160225],[131.13636237726715,33.160279418542444],[131.1380487719894,33.15960918187854],[131.14122689680457,33.157757685400064],[131.14399457112978,33.157123927644285],[131.14488948932959,33.15609290590293],[131.14562170578844,33.156131791981515],[131.1472874188428,33.155342136026455],[131.1479780762227,33.15478655432471],[131.14899646130783,33.1519930290583],[131.1460005734567,33.15105549866877],[131.14514743020268,33.15096506854393],[131.14606576029271,33.150143739479915],[131.14758050655155,33.149993544152316],[131.148820572036,33.14900572010882],[131.15000085492,33.14775664306592],[131.15196523336954,33.147213039519336],[131.15460211307507,33.144725327882476],[131.1558380420817,33.14323969324848],[131.15689047024935,33.14253515845928],[131.1574249679877,33.141668131546304],[131.1612120916615,33.14068029005812],[131.16223145648132,33.139993527328315],[131.16310098661103,33.13703107323494],[131.1631034583126,33.1377008366896],[131.16437445636043,33.14005000260227],[131.16259114808685,33.14315293792393],[131.16114106437914,33.14527632703263],[131.1595157862707,33.14706343432873],[131.15692594324202,33.150497227794745],[131.15668280602648,33.152243320306795],[131.15693705981963,33.15276717502591],[131.15957141760651,33.15518870335296],[131.16004498401333,33.15607403717399],[131.16008971795537,33.158295512206735],[131.15923622987165,33.1598685915885],[131.1593160003086,33.1611403178811],[131.15822680472994,33.16274797930028],[131.15872920737476,33.1640089977796],[131.15908069483177,33.16601089753299],[131.15882220046225,33.166818935813104],[131.15997043311398,33.168857859900974],[131.16073869666354,33.171527605386736],[131.1620194323089,33.17490436832575],[131.1610730725098,33.17605564111178],[131.16148800683672,33.177279282040544],[131.16177428102156,33.180633073708776],[131.1629826624624,33.183711925542006],[131.16192116176362,33.18444508133615],[131.16288441337147,33.1849734158247],[131.16326038429185,33.18575581662275],[131.16235089572436,33.18791117834884],[131.160153566848,33.18921307582313],[131.15860800054148,33.18959413389769],[131.15850768281453,33.19105826792498],[131.1596854657514,33.19201033697976],[131.15962624016305,33.193517223518015],[131.16010072243063,33.19438462258713],[131.1612238495728,33.19482177313466],[131.16320102000657,33.194738175724375],[131.1662395065267,33.19635351903057],[131.1664471423909,33.196733548420085],[131.16589162241502,33.19826411286478],[131.1645969076573,33.1966230088919],[131.16295094368598,33.196996221819134],[131.1592023163242,33.19646922611837],[131.15632799012295,33.19667453666904],[131.15420633092972,33.19722842961623],[131.15298555603215,33.19786688206863],[131.15028520239625,33.198316310474745],[131.14897877793567,33.198763987085826],[131.14810163231277,33.199434177108195],[131.14584581687436,33.200331124341574],[131.14463897111943,33.2003192585404],[131.14344450116562,33.19981377005597],[131.14147566364397,33.199495057833026],[131.13904182118912,33.20006004572991],[131.13689851884098,33.20027036660354]]]},"properties":{"KEY_CODE":"444610090","PREF":"44","CITY":"461","CITY_NAME":"九重町","S_NAME":"大字菅原","SETAI":"206"}},{"type":"Feature","geometry":{"type":"Polygon","coordinates":[[[131.18434030682158,33.23147938322501],[131.18148259114147,33.2311132086295],[131.18066097689166,33.22866528361322],[131.1809522465637,33.22733082909416],[131.17962566383045,33.22676966250678],[131.1788403692638,33.226082103644956],[131.17593893643962,33.2219281531033],[131.17465681905392,33.21902761984167],[131.17508531774934,33.2177387008894],[131.17454189685535,33.21750985301647],[131.1721831036894,33.218025295419274],[131.17043617842862,33.217885690332956],[131.169379246579,33.21807362909812],[131.16792333480979,33.21712042271077],[131.16744965480873,33.21636783065805],[131.16748376226295,33.21346049124716],[131.16712066585418,33.21281857133692],[131.16417937341467,33.2100750076073],[131.16290091080336,33.20922204875051],[131.1626539067191,33.20855700169969],[131.16279591164852,33.20584547191919],[131.16143143363738,33.205560176601],[131.16020127714927,33.20592168967343],[131.1587513493078,33.205586571116974],[131.15791514580985,33.204771741567455],[131.15701375883273,33.20475853698899],[131.15626000453597,33.20521549053648],[131.15595397768215,33.2059385859835],[131.15613247206957,33.20804096411664],[131.15481166667482,33.2078901123565],[131.15465540712813,33.20821612614064],[131.15317829979188,33.20836354731615],[131.14820329189638,33.209653744280416],[131.14685630639647,33.210795211831446],[131.14604258821862,33.21207816505813],[131.14498431554608,33.21443918919407],[131.14425301020555,33.21476153275458],[131.14348414500304,33.211655429185754],[131.1423614331151,33.208872546996126],[131.14143512922712,33.20713348575079],[131.1377114748593,33.20128179112387],[131.13689851884098,33.20027036660354],[131.13904182118912,33.20006004572991],[131.14147566364397,33.199495057833026],[131.14344450116562,33.19981377005597],[131.14463897111943,33.2003192585404],[131.14584581687436,33.200331124341574],[131.14810163231277,33.199434177108195],[131.14897877793567,33.198763987085826],[131.15028520239625,33.198316310474745],[131.15298555603215,33.19786688206863],[131.15420633092972,33.19722842961623],[131.15632799012295,33.19667453666904],[131.1592023163242,33.19646922611837],[131.16295094368598,33.196996221819134],[131.1645969076573,33.1966230088919],[131.16589162241502,33.19826411286478],[131.1664471423909,33.196733548420085],[131.1662395065267,33.19635351903057],[131.16320102000657,33.194738175724375],[131.1612238495728,33.19482177313466],[131.16010072243063,33.19438462258713],[131.15962624016305,33.193517223518015],[131.1596854657514,33.19201033697976],[131.15850768281453,33.19105826792498],[131.15860800054148,33.18959413389769],[131.160153566848,33.18921307582313],[131.16235089572436,33.18791117834884],[131.16326038429185,33.18575581662275],[131.16288441337147,33.1849734158247],[131.16192116176362,33.18444508133615],[131.1629826624624,33.183711925542006],[131.16177428102156,33.180633073708776],[131.16148800683672,33.177279282040544],[131.1610730725098,33.17605564111178],[131.1620194323089,33.17490436832575],[131.16073869666354,33.171527605386736],[131.15997043311398,33.168857859900974],[131.15882220046225,33.166818935813104],[131.15908069483177,33.16601089753299],[131.15872920737476,33.1640089977796],[131.15822680472994,33.16274797930028],[131.1593160003086,33.1611403178811],[131.15923622987165,33.1598685915885],[131.16008971795537,33.158295512206735],[131.16004498401333,33.15607403717399],[131.15957141760651,33.15518870335296],[131.15693705981963,33.15276717502591],[131.15668280602648,33.152243320306795],[131.15692594324202,33.150497227794745],[131.1595157862707,33.14706343432873],[131.16114106437914,33.14527632703263],[131.16259114808685,33.14315293792393],[131.16437445636043,33.14005000260227],[131.16477493127516,33.14025082573361],[131.16492608282414,33.142408334303184],[131.166474288218,33.14318568490593],[131.16920283880697,33.14422271203111],[131.16874235525344,33.14295333753245],[131.16962555470187,33.143142649203305],[131.17135656537866,33.144684147730814],[131.1729086522909,33.147549447353796],[131.1732325758071,33.14893806638807],[131.17405483918589,33.149310014151915],[131.17552299925092,33.14922864990614],[131.18270381118018,33.150884585979504],[131.18366873013477,33.154710702818235],[131.18519607118054,33.15915534079555],[131.18818908030872,33.15890888529862],[131.18945849692787,33.159609173122504],[131.19859036252555,33.159803364874605],[131.1999298668842,33.16003509016626],[131.20051598282012,33.159361881699645],[131.20202868534156,33.15964246968679],[131.2033193649501,33.15922365351894],[131.20467003971336,33.1591563240638],[131.20512148813742,33.159359669893554],[131.207055603595,33.15922620683023],[131.20786344398917,33.159988058710375],[131.21022576203845,33.16056397132472],[131.2116582583697,33.16069361330152],[131.21180318962337,33.16219128775269],[131.21213705296236,33.16258172337884],[131.21382785280232,33.1630067824054],[131.21421741336238,33.16434024671764],[131.21317471662437,33.164368452440996],[131.2122399703552,33.1648878782934],[131.21237392454316,33.1657330322289],[131.21106543984783,33.1662662841381],[131.2109481452092,33.167127735998484],[131.21136779802688,33.1679222075007],[131.21060219257552,33.16825638826928],[131.20950443580992,33.16814225749642],[131.20726990830883,33.16858856109253],[131.20684336189805,33.16887135644622],[131.2070146847872,33.169655013962114],[131.20798176270193,33.17035762637952],[131.2084855928193,33.1702031457247],[131.210151455179,33.17087180637094],[131.21034648742662,33.171455335695775],[131.20986723144566,33.17271909517948],[131.2107598675975,33.17319695218563],[131.21304632180616,33.17362170010291],[131.21337570839174,33.1738546710299],[131.2128668727941,33.17496179012911],[131.2152271879447,33.17644193351824],[131.2157393153457,33.17817108387843],[131.21466685249396,33.17891044515807],[131.21403675665158,33.17975045017475],[131.21404622678872,33.18064158970673],[131.2150050030249,33.18121764099124],[131.21552941231948,33.18227626543731],[131.21479936653745,33.18251804478268],[131.21385080677322,33.183527924215475],[131.21429579157032,33.18475663170033],[131.2142070693606,33.18555739461901],[131.21258870185807,33.186551384702454],[131.21211553974976,33.187753113777376],[131.21233011165347,33.18915996791399],[131.21349975189636,33.18959100870048],[131.21334963177412,33.1903129998971],[131.21224466226505,33.19070629855124],[131.2104955404521,33.19092578210243],[131.20998962000183,33.19196481436622],[131.21027489754914,33.19254728170267],[131.21142262745215,33.193464155572926],[131.2105858352965,33.19559468458694],[131.2091678832844,33.19769840030164],[131.20927381272986,33.199222179957694],[131.20820626643183,33.200139980956564],[131.20784936208733,33.20140916129859],[131.2085466843767,33.20310685982343],[131.20822138925664,33.20378749546569],[131.20716592391233,33.20425002170506],[131.20603678947765,33.20570367817444],[131.2043015793735,33.206378281111704],[131.2033838445755,33.20790375649624],[131.203517565933,33.21008815974897],[131.20222432207672,33.21058993359754],[131.20128559649183,33.21015840059055],[131.19861392582632,33.20999889100674],[131.19761608088513,33.213411168388866],[131.19774964302152,33.214669136614006],[131.1969103769257,33.2162910328165],[131.19424390663517,33.21747195771045],[131.19402167694517,33.21774103282969],[131.19411269245643,33.21950805084675],[131.19465431217085,33.22130285183544],[131.19364404035403,33.222301993066615],[131.1922978531796,33.222556503700815],[131.19147686965937,33.22374672794399],[131.19218370171507,33.22577742392185],[131.191148391658,33.22644677739745],[131.19006217297073,33.22595983440987],[131.18832842348198,33.22623933718645],[131.1873320121053,33.22699002085848],[131.18460286922615,33.230882565496515],[131.18434030682158,33.23147938322501]]]},"properties":{"KEY_CODE":"444610100","PREF":"44","CITY":"461","CITY_NAME":"九重町","S_NAME":"大字町田","SETAI":"406"}},{"type":"Feature","geometry":{"type":"Polygon","coordinates":[[[131.172531305839,33.23859585208781],[131.17177376141936,33.237925640121446],[131.17259628388376,33.23694686582917],[131.17375187552793,33.236192297494576],[131.17505653033277,33.23588767928978],[131.17165957806355,33.233064826907665],[131.1688009955885,33.23156675161547],[131.15998804022504,33.23900994265597],[131.157653087815,33.241590637774884],[131.15481838421329,33.2459238285954],[131.14984002375041,33.25073041221628],[131.14751609268114,33.24967304938134],[131.14648635678975,33.24832466265139],[131.14514959331757,33.247699343300326],[131.14418058732824,33.245632000421814],[131.14383615136353,33.24362571154786],[131.1445441850914,33.24213233502873],[131.14451301193623,33.239263590490324],[131.14409779759526,33.2375045144157],[131.1433915180793,33.23636539438512],[131.1417617109675,33.235630867633326],[131.1384426122725,33.23288567811673],[131.13690465360077,33.23175262907823],[131.13488314289435,33.22999406934466],[131.1340683871216,33.229499718305206],[131.1319687166676,33.22833133621918],[131.13140733791687,33.22780252250893],[131.13092558060063,33.22630839274741],[131.13111176467794,33.22550177602278],[131.13068615690392,33.224747412067536],[131.12847566154673,33.22261563810534],[131.12639534246836,33.219330586037515],[131.12438444901161,33.21536679026469],[131.12317891904013,33.21154231231923],[131.12281665277735,33.2100111381419],[131.12252836109866,33.20730420978656],[131.12216532958615,33.206641167038306],[131.12049730656258,33.20496837768341],[131.11828237902168,33.20174620364939],[131.11993571357795,33.20150124221676],[131.12199971314084,33.20215214376381],[131.12347908647072,33.20302495906922],[131.12414837117126,33.20303314188848],[131.12490373424984,33.20242810860703],[131.12678501647758,33.202395179799694],[131.1279965105787,33.20200878756563],[131.1294960350578,33.20219978773946],[131.13056478105946,33.201494767542435],[131.1318895699145,33.201123712616244],[131.13221554544535,33.200618705376726],[131.13339766346937,33.19999543269362],[131.13458553623303,33.19969975474087],[131.13689851884098,33.20027036660354],[131.1377114748593,33.20128179112387],[131.14143512922712,33.20713348575079],[131.1423614331151,33.208872546996126],[131.14348414500304,33.211655429185754],[131.14425301020555,33.21476153275458],[131.14498431554608,33.21443918919407],[131.14604258821862,33.21207816505813],[131.14685630639647,33.210795211831446],[131.14820329189638,33.209653744280416],[131.15317829979188,33.20836354731615],[131.15465540712813,33.20821612614064],[131.15481166667482,33.2078901123565],[131.15613247206957,33.20804096411664],[131.15595397768215,33.2059385859835],[131.15626000453597,33.20521549053648],[131.15701375883273,33.20475853698899],[131.15791514580985,33.204771741567455],[131.1587513493078,33.205586571116974],[131.16020127714927,33.20592168967343],[131.16143143363738,33.205560176601],[131.16279591164852,33.20584547191919],[131.1626539067191,33.20855700169969],[131.16290091080336,33.20922204875051],[131.16417937341467,33.2100750076073],[131.16712066585418,33.21281857133692],[131.16748376226295,33.21346049124716],[131.16744965480873,33.21636783065805],[131.16792333480979,33.21712042271077],[131.169379246579,33.21807362909812],[131.17043617842862,33.217885690332956],[131.1721831036894,33.218025295419274],[131.17454189685535,33.21750985301647],[131.17508531774934,33.2177387008894],[131.17465681905392,33.21902761984167],[131.17593893643962,33.2219281531033],[131.1788403692638,33.226082103644956],[131.17962566383045,33.22676966250678],[131.1809522465637,33.22733082909416],[131.18066097689166,33.22866528361322],[131.18148259114147,33.2311132086295],[131.18061573859035,33.231823238173035],[131.1800320696365,33.233139929940684],[131.17977369407296,33.23442094869997],[131.1775696997923,33.23588885051471],[131.17671810763227,33.23699199279238],[131.17440629450817,33.237753323490786],[131.172531305839,33.23859585208781]]]},"properties":{"KEY_CODE":"444610110","PREF":"44","CITY":"461","CITY_NAME":"九重町","S_NAME":"大字引治","SETAI":"232"}},{"type":"Feature","geometry":{"type":"Polygon","coordinates":[[[131.16814728563796,33.25501200198101],[131.16426973143228,33.255145797875215],[131.16291824188494,33.25524596030868],[131.1606253378784,33.255064886331795],[131.15864437975105,33.25439835359973],[131.15630819098715,33.25298652820161],[131.15353510627764,33.25372035060555],[131.15154738468277,33.253059452772845],[131.15010453054518,33.25186689790034],[131.14984002375041,33.25073041221628],[131.15481838421329,33.2459238285954],[131.157653087815,33.241590637774884],[131.15998804022504,33.23900994265597],[131.1688009955885,33.23156675161547],[131.17165957806355,33.233064826907665],[131.17505653033277,33.23588767928978],[131.17375187552793,33.236192297494576],[131.17259628388376,33.23694686582917],[131.17177376141936,33.237925640121446],[131.172531305839,33.23859585208781],[131.17135987137206,33.240207816760886],[131.17043838722464,33.24358259714768],[131.17009838181164,33.244384479393716],[131.1683319754051,33.24743555115349],[131.16829233802432,33.2494645458284],[131.1678297436858,33.2533450209379],[131.16814728563796,33.25501200198101]]]},"properties":{"KEY_CODE":"444610120","PREF":"44","CITY":"461","CITY_NAME":"九重町","S_NAME":"大字粟野","SETAI":"105"}}]}