{"type":"FeatureCollection","features":[{"type":"Feature","geometry":{"type":"Polygon","coordinates":[[[141.9484652986968,39.98945503158375],[141.94773605350258,39.989973637817265],[141.94780373682858,39.991042097681785],[141.94671036544088,39.99365559076679],[141.94543421026617,39.99374260615909],[141.94485260829384,39.99470471223196],[141.9453426674253,39.99539083083749],[141.94508967260975,39.99826912472078],[141.9445046950765,39.99852332467781],[141.94377817459187,39.99762600958789],[141.94364221328644,39.99819564069878],[141.94145492627894,39.99915419081541],[141.94117745792525,39.99879927495033],[141.9397298328359,39.99922021702156],[141.94083174053128,40.00109841164027],[141.94015095748858,40.00216411674254],[141.93957550448295,40.00192372867149],[141.93788568379316,40.00345569537944],[141.93680152429883,40.00304000939049],[141.93691940208473,40.00410438655363],[141.93756442663914,40.00452245669704],[141.9376437571947,40.00573761255166],[141.9366683237752,40.0066953230094],[141.93648205679216,40.00938561611475],[141.9357814682222,40.009008601531846],[141.93523209450993,40.00973257190459],[141.9341149694728,40.00953154087221],[141.93292834834156,40.010474120203725],[141.93084474341538,40.01033807767646],[141.9297054409627,40.00837999279919],[141.92817138956113,40.00883944796773],[141.92877975907163,40.00982083446853],[141.92749254422813,40.00923676118464],[141.92674755409678,40.009967945288544],[141.92495400783278,40.009214794542096],[141.92539371118446,40.008802640185195],[141.92444766141395,40.00786765205429],[141.92319380250115,40.00753540587717],[141.92128205867155,40.008252315164626],[141.91972027713257,40.00785536457288],[141.9172202392355,40.00789229582628],[141.91441678891135,40.00844629446059],[141.91277040096276,40.00914076448699],[141.9114038520327,40.01094224909919],[141.9100587557734,40.010248626969485],[141.90945088252698,40.0106217565876],[141.90768051211094,40.008944002288885],[141.905065106505,40.010516509637256],[141.90470126621145,40.01159168765335],[141.90354664347774,40.01288672586836],[141.90329009297668,40.01483185403422],[141.90109562351574,40.014345923600516],[141.90003808877648,40.015259945269264],[141.89918957157278,40.016662900951],[141.9005728146256,40.01845061461462],[141.90123174607498,40.018714744656755],[141.90005896043996,40.01983067974268],[141.8992323506647,40.019630231118605],[141.89819997524117,40.020362973361784],[141.89705742437272,40.02237028417482],[141.89778238510664,40.022965278513844],[141.89730653148658,40.024076588016385],[141.89589328776867,40.024430028504995],[141.89546826846222,40.024974339674394],[141.89631011984625,40.025398037336274],[141.89522975125254,40.025611509601795],[141.89435143305977,40.02691474663989],[141.8921682950546,40.02862441124493],[141.89195336784354,40.02821567052071],[141.8902586440272,40.029084097792904],[141.89043074189559,40.030062459725634],[141.88848581716033,40.03096827497701],[141.8870796302167,40.031334153539525],[141.88695239634973,40.03296192976771],[141.88487225362798,40.033547380480044],[141.88481151724736,40.03477645412463],[141.88525673928325,40.03576855264541],[141.8845988035203,40.03664188032399],[141.88414448474597,40.036278534638754],[141.8827332523089,40.03793054985689],[141.88333366164574,40.03879965236853],[141.88310509948786,40.03955918750538],[141.88219250530312,40.04003310618853],[141.88163217265054,40.04124777526149],[141.88262338914438,40.04123699091109],[141.88224669906046,40.04181232801805],[141.88133122691121,40.04164048721193],[141.88190054358702,40.04262426410699],[141.88072752247342,40.04415611071288],[141.88012428371468,40.04363557892644],[141.87892286606677,40.04446334214877],[141.8798716677802,40.04542928524671],[141.87822914518267,40.045768365292496],[141.87839338684105,40.04708635332948],[141.87668654274466,40.04812760764691],[141.87624575286065,40.04896019097495],[141.87489657719007,40.048559840458346],[141.87406513206096,40.04890867276229],[141.8726214718045,40.04830288963635],[141.87058997919846,40.04858050837518],[141.86999982174316,40.050237614371326],[141.86946330569626,40.050717070591624],[141.87006732328726,40.05151955330673],[141.8688185191878,40.05086154165609],[141.8679548862096,40.05156818287212],[141.8691822401679,40.05227863245342],[141.86938563383046,40.05324772552951],[141.86856130550453,40.053376690850286],[141.86688780631968,40.052845850403074],[141.86599123428016,40.05191986375214],[141.86465202569872,40.05171294583943],[141.86397283733515,40.051046197997955],[141.86334222653468,40.051822780861684],[141.85965981532522,40.053383020457005],[141.85824509238233,40.053538756225535],[141.85748001983734,40.05410393209144],[141.85642538390078,40.05419071229768],[141.855616962997,40.054920180854324],[141.856456353432,40.055244208410485],[141.85494489455132,40.05574931128577],[141.85424484545806,40.05479203985188],[141.85344951557255,40.05433297560102],[141.8531329748574,40.05425351673515],[141.85270482380153,40.05387345932639],[141.851962185811,40.053354515076755],[141.85178046096607,40.053141349040956],[141.85138245537735,40.05218984121651],[141.85094653324822,40.05188295850722],[141.8507111226746,40.05166111869309],[141.85007149093306,40.051465681760824],[141.84872975049646,40.05046761278495],[141.84800671364997,40.04906198958078],[141.84779380615385,40.048547513759914],[141.84764485191482,40.047529836306154],[141.8471405694892,40.04722809340396],[141.84436246225732,40.046064334849],[141.84412740660517,40.045659710365456],[141.84407642836757,40.04543168130819],[141.84385187573903,40.04513662805796],[141.84360779006974,40.043717663042095],[141.8424526332037,40.04305145777381],[141.8419935766534,40.04258480414105],[141.84047062991593,40.04139172448127],[141.83938670035585,40.04057132874039],[141.83941458059337,40.039790481806385],[141.84153628301627,40.03834394688745],[141.84239370682627,40.03825176372542],[141.84333656494275,40.037807857751886],[141.84224132726888,40.036734235780834],[141.84129019382877,40.035380222459345],[141.84131713563238,40.03345113782],[141.8407333639994,40.031442231950365],[141.8393814505768,40.03016482314199],[141.83882756280718,40.02932317610456],[141.83832488164919,40.02916213535989],[141.83844704108913,40.028854593776195],[141.8387498214498,40.0285552238903],[141.83928074969916,40.02805442235804],[141.83900379840748,40.02752657108224],[141.83866752784292,40.027047875760175],[141.83850074155026,40.026903378019256],[141.83843373291555,40.02644181339528],[141.83837280591007,40.02616991235304],[141.83822823016436,40.02581118305083],[141.83776184141806,40.0255330709537],[141.83735732363803,40.0255852173975],[141.8372242086453,40.02557664460746],[141.83714722090434,40.02529515436984],[141.83703681581267,40.025106384209295],[141.83689092927045,40.02508819245468],[141.83658010168628,40.025056827349054],[141.83653452499397,40.02496965802541],[141.8365609742144,40.024395392042784],[141.83597219146174,40.02397724697614],[141.83582970056068,40.023759569454306],[141.8361952316135,40.023639654172904],[141.83624986415887,40.0232645994002],[141.83601690885368,40.022707167309875],[141.83540706595167,40.022143264867545],[141.8352027493053,40.02202828456713],[141.83533450413555,40.021944443859894],[141.83579290311616,40.021842013207085],[141.8357338323472,40.02132096889966],[141.83393541970028,40.01991843650276],[141.83238277729527,40.01938489297069],[141.82925630362075,40.01888177166956],[141.82782535045737,40.01838659165339],[141.82640228843246,40.01944753866771],[141.82281936237845,40.017598035649065],[141.8223723544708,40.017917707549515],[141.82044640839064,40.01751536962017],[141.81926293213687,40.01762594424484],[141.8159992175892,40.01555668494724],[141.81577633686675,40.014935745226346],[141.81269109893657,40.012946484565376],[141.81263723419787,40.01241193466763],[141.8116552367383,40.011195768489095],[141.80746649970624,40.009331627018305],[141.80533029914372,40.008908112234245],[141.80421663646695,40.00815070712951],[141.80186642783363,40.00754303373766],[141.80144853797034,40.0068378649448],[141.80004312626014,40.005734329262836],[141.7991387644591,40.00534107243352],[141.7982272308123,40.004976905255106],[141.7968743928403,40.00438404890573],[141.79569024276086,40.002895247920385],[141.7954632946403,40.00179350819044],[141.7950405107871,40.00126844097782],[141.7950501278185,39.99980460123857],[141.79432797091212,39.99893931406126],[141.79490502880404,39.997006063632845],[141.79367889986813,39.99627855568449],[141.79346628805254,39.99511859781607],[141.79387019354945,39.99376764611625],[141.79672008800333,39.99234988218784],[141.7985966506864,39.99100406890748],[141.7991594227751,39.98914060735145],[141.80127503773602,39.98761849543225],[141.80045756337242,39.98641712640478],[141.7999056455947,39.98476046553693],[141.79974306708507,39.982339601568825],[141.80111130676863,39.97977235878637],[141.79949714100587,39.97828139726462],[141.7990885251296,39.977026904006856],[141.80031661482207,39.97757937117753],[141.80261779852074,39.97735339414097],[141.80476824217322,39.97625786453029],[141.80727322811512,39.97547879315145],[141.80868684978267,39.9753971087171],[141.81125707087176,39.975783153135474],[141.81298754666375,39.97560781536154],[141.81499350588385,39.974993859635624],[141.81834763229074,39.975353418596406],[141.82111755744566,39.97505453214898],[141.82254643460345,39.97405502010543],[141.82416170837317,39.973437913586494],[141.82618886505608,39.973028408636935],[141.82665788829678,39.97215392590182],[141.8274602072108,39.971862640801994],[141.8289751098739,39.97204784606766],[141.82790995325428,39.972755089958696],[141.8278295610319,39.973384920931124],[141.8288283218289,39.97351423254337],[141.82943449441535,39.97282816932099],[141.83064688831695,39.973007334409004],[141.83226840690702,39.97167043427282],[141.83282881259908,39.97245849066674],[141.8346446889311,39.97254621982287],[141.8353787769385,39.97218652103892],[141.835963084991,39.97116018694261],[141.83757677896048,39.971206545681866],[141.83851690066228,39.97268075511837],[141.84102275579937,39.97359408267372],[141.84164712586153,39.97567429917971],[141.843975397727,39.97555060199064],[141.8454708550999,39.97592537590215],[141.84440677656607,39.978614231773726],[141.84604649032957,39.97754422956627],[141.84641565198234,39.97542962623077],[141.84567880103296,39.974474308769516],[141.84766035806172,39.97200764116881],[141.84892004767642,39.97210974837941],[141.84973315374538,39.97377778633128],[141.85103312765384,39.97466209933132],[141.85237425268934,39.974744600985616],[141.85410688204934,39.975879651062186],[141.85556412925152,39.976074226980124],[141.85624160533598,39.97657740181686],[141.8578983300267,39.976996482356675],[141.85842407813658,39.97609295951159],[141.859740995814,39.976461575387134],[141.8612372289623,39.97735031114989],[141.86296460405666,39.977573825828124],[141.86397222542658,39.978567446946506],[141.86575101306647,39.978400728802995],[141.86776007429182,39.97915281557739],[141.8694262670605,39.97911276622633],[141.87121075142463,39.979684509763715],[141.8716021852593,39.97954271498955],[141.87189948843357,39.97921317849416],[141.87173597562582,39.97847861818855],[141.8708270233657,39.97771965542708],[141.87084347561972,39.97748937362057],[141.8716372533216,39.97656941332681],[141.87175035982838,39.976138825313896],[141.87160481865106,39.97410347120708],[141.8718210848736,39.973902085839676],[141.8723794466511,39.97324504322413],[141.87239954596322,39.972266806597055],[141.87273122570772,39.97178823106728],[141.87299578034762,39.97147901997263],[141.8732432888211,39.97070968955959],[141.8733749145247,39.97018687622239],[141.87411264910796,39.96985423396457],[141.87475069203524,39.96919646228818],[141.87452378788927,39.96804017689707],[141.8737609219924,39.966716116632924],[141.87418107216718,39.9661523588322],[141.87443495649646,39.96580487864172],[141.87477962042658,39.9648659225848],[141.87456518563155,39.96420430700258],[141.87593782886046,39.9628552908599],[141.8760403481084,39.962549441573046],[141.8763826819246,39.961790765847425],[141.87698957733105,39.9617124289385],[141.87838894394815,39.96196063584374],[141.87908947295253,39.96208005923062],[141.88008287535945,39.9621143316722],[141.88080409071173,39.962115028688814],[141.88121069685283,39.96358896268472],[141.88256931196372,39.963919041340475],[141.8829471124178,39.9641246486571],[141.88277142363557,39.96549573216597],[141.88346017522474,39.96606631936097],[141.88428923590376,39.96602429640787],[141.88475844604028,39.96591651332885],[141.88593180475215,39.967855519020446],[141.88683870903506,39.968502915121],[141.8879384015456,39.96856191855669],[141.88883597091535,39.96787222641538],[141.88970444057804,39.9674847271638],[141.89013660409495,39.96642831245201],[141.89144659397115,39.96703748000068],[141.8927018364831,39.967008757601626],[141.89398032334506,39.96848087835824],[141.8947264421856,39.970320195669935],[141.89645372458324,39.971805444913485],[141.89801964222085,39.97228279251926],[141.90032356611476,39.97406462065143],[141.90256831520517,39.97528187492538],[141.90523005259539,39.97626661055631],[141.908192934086,39.97571722884876],[141.91464449455398,39.97645063711448],[141.91613846072545,39.97687829059492],[141.91778742393294,39.97597463764797],[141.91902624473104,39.97594296760271],[141.9201888692827,39.97521947756949],[141.92128726509657,39.97398408517568],[141.92214095832966,39.97385195285685],[141.92390758420066,39.97448211357315],[141.9254250263165,39.97550839690638],[141.9271151922967,39.97535015575966],[141.9279940467209,39.976503979180954],[141.92779214983602,39.977370476268725],[141.92929607954335,39.978705961948165],[141.93059877791438,39.978501742957036],[141.93134395627496,39.97918133182119],[141.9315168601951,39.98016555016032],[141.93121486780214,39.98244704359904],[141.93302842012267,39.9840520014766],[141.93371386034968,39.985450410954826],[141.93655149125763,39.98679501660406],[141.93877778061469,39.987327090081976],[141.94240288816016,39.98768550358656],[141.94448664133697,39.98746150119672],[141.9462830056596,39.988012001533015],[141.9484652986968,39.98945503158375]]]},"properties":{"KEY_CODE":"034850010","PREF":"03","CITY":"485","CITY_NAME":"普代村","S_NAME":"第二一地割","SETAI":"1027"}}]}