{"type":"FeatureCollection","features":[{"type":"Feature","geometry":{"type":"Polygon","coordinates":[[[141.95379793902515,39.47386270112539],[141.95090110877845,39.474551421089316],[141.9505361151544,39.47478758160046],[141.95040536061154,39.474136023871104],[141.95156961359027,39.4739421245052],[141.95138506729197,39.4731579252513],[141.94984789238077,39.47318233290352],[141.95031191609505,39.47253295122968],[141.95035368008251,39.47235158867055],[141.94995707136937,39.47222415977151],[141.95175728344645,39.47151399910903],[141.9517485549332,39.47057666550562],[141.95156477398905,39.47044214670263],[141.95175401633156,39.47025860305437],[141.95230545059,39.47013115699608],[141.95261463736725,39.46994961082327],[141.95260478380004,39.46992013835586],[141.95395592472065,39.4691003086197],[141.95491685715209,39.47320579958379],[141.95476690113483,39.47357257694983],[141.9541489114399,39.47378012720076],[141.95379793902515,39.47386270112539]]]},"properties":{"KEY_CODE":"034820010","PREF":"03","CITY":"482","CITY_NAME":"山田町","S_NAME":"北浜町","SETAI":"36"}},{"type":"Feature","geometry":{"type":"Polygon","coordinates":[[[141.94995707136937,39.47222415977151],[141.94940527144013,39.469983798630565],[141.9486125683053,39.468919760265486],[141.949090824948,39.46886762102102],[141.94963617228913,39.46879694355395],[141.95003452593068,39.46855055005872],[141.9501865789669,39.46846505461925],[141.95063943667273,39.46810657250278],[141.95191574243879,39.46904019034415],[141.95192097590103,39.469174794583296],[141.95191775801797,39.46926181426011],[141.95188949913413,39.46936922462861],[141.95189166725362,39.46945630082594],[141.95197474242954,39.469555598812384],[141.95260478380004,39.46992013835586],[141.95261463736725,39.46994961082327],[141.95230545059,39.47013115699608],[141.95175401633156,39.47025860305437],[141.95156477398905,39.47044214670263],[141.9517485549332,39.47057666550562],[141.95175728344645,39.47151399910903],[141.94995707136937,39.47222415977151]]]},"properties":{"KEY_CODE":"034820020","PREF":"03","CITY":"482","CITY_NAME":"山田町","S_NAME":"後楽町","SETAI":"52"}},{"type":"Feature","geometry":{"type":"Polygon","coordinates":[[[141.95395592472065,39.4691003086197],[141.95260478380004,39.46992013835586],[141.95197474242954,39.469555598812384],[141.95189166725362,39.46945630082594],[141.95188949913413,39.46936922462861],[141.95191775801797,39.46926181426011],[141.95192097590103,39.469174794583296],[141.95191574243879,39.46904019034415],[141.95063943667273,39.46810657250278],[141.95162498744978,39.46774964178144],[141.95136159265195,39.46713750334087],[141.95069449451918,39.46598288258512],[141.95038176774523,39.46565461282286],[141.9503778927579,39.46565243056847],[141.95020879889978,39.46554783384114],[141.95029709713125,39.46512648939729],[141.95261782010343,39.465772668362014],[141.95303790506966,39.46586289247357],[141.95451676512326,39.46602770046762],[141.95355244289294,39.466618172679894],[141.95395592472065,39.4691003086197]]]},"properties":{"KEY_CODE":"034820030","PREF":"03","CITY":"482","CITY_NAME":"山田町","S_NAME":"中央町","SETAI":"10"}},{"type":"Feature","geometry":{"type":"Polygon","coordinates":[[[141.9486125683053,39.468919760265486],[141.94754306842032,39.46803059727478],[141.94714691819954,39.466767819306924],[141.94775684785085,39.46585617794303],[141.94909548767396,39.4650092533863],[141.949445355552,39.464738496588474],[141.9495090597585,39.46477127410395],[141.95029709713125,39.46512648939729],[141.95020879889978,39.46554783384114],[141.9503778927579,39.46565243056847],[141.95038176774523,39.46565461282286],[141.95069449451918,39.46598288258512],[141.95136159265195,39.46713750334087],[141.95162498744978,39.46774964178144],[141.95063943667273,39.46810657250278],[141.9501865789669,39.46846505461925],[141.95003452593068,39.46855055005872],[141.94963617228913,39.46879694355395],[141.949090824948,39.46886762102102],[141.9486125683053,39.468919760265486]]]},"properties":{"KEY_CODE":"034820040","PREF":"03","CITY":"482","CITY_NAME":"山田町","S_NAME":"八幡町","SETAI":"100"}},{"type":"Feature","geometry":{"type":"Polygon","coordinates":[[[141.95265113413515,39.46271754732062],[141.95236307043686,39.46296491834059],[141.9554502464546,39.46409766840048],[141.95451676512326,39.46602770046762],[141.95303790506966,39.46586289247357],[141.95261782010343,39.465772668362014],[141.95029709713125,39.46512648939729],[141.9495090597585,39.46477127410395],[141.94948328399343,39.46475801165516],[141.94954425155618,39.46471475070013],[141.9505555364227,39.463747865988005],[141.951943414742,39.4629249994814],[141.95264376797394,39.46250119316758],[141.95301872423224,39.46228718154416],[141.95284263959294,39.462570478415834],[141.95265113413515,39.46271754732062]]]},"properties":{"KEY_CODE":"034820050","PREF":"03","CITY":"482","CITY_NAME":"山田町","S_NAME":"川向町","SETAI":"148"}},{"type":"Feature","geometry":{"type":"Polygon","coordinates":[[[141.951943414742,39.4629249994814],[141.9505555364227,39.463747865988005],[141.94954425155618,39.46471475070013],[141.94790298307706,39.46371949199206],[141.94976542837372,39.46214691178003],[141.95045956833897,39.46154968920473],[141.95098990628088,39.46202839805313],[141.9511414159209,39.462131107055015],[141.95301872423224,39.46228718154416],[141.95264376797394,39.46250119316758],[141.951943414742,39.4629249994814]]]},"properties":{"KEY_CODE":"03482006001","PREF":"03","CITY":"482","CITY_NAME":"山田町","S_NAME":"長崎一丁目","SETAI":"39"}},{"type":"Feature","geometry":{"type":"Polygon","coordinates":[[[141.94976542837372,39.46214691178003],[141.94790298307706,39.46371949199206],[141.94389610566907,39.461313170256155],[141.94453433737908,39.46077972048624],[141.94467960331812,39.46057584065237],[141.94527585994265,39.460377156313356],[141.94588086923397,39.46096643865817],[141.94680524425434,39.46034347056343],[141.94735760167444,39.46106244639003],[141.94976542837372,39.46214691178003]]]},"properties":{"KEY_CODE":"03482006002","PREF":"03","CITY":"482","CITY_NAME":"山田町","S_NAME":"長崎二丁目","SETAI":"227"}},{"type":"Feature","geometry":{"type":"Polygon","coordinates":[[[141.949445355552,39.464738496588474],[141.94909548767396,39.4650092533863],[141.94775684785085,39.46585617794303],[141.94714691819954,39.466767819306924],[141.94599798239548,39.4655145403061],[141.94675901525986,39.464732996375375],[141.94759915077702,39.46399959599468],[141.94790298307706,39.46371949199206],[141.94954425155618,39.46471475070013],[141.94948328399343,39.46475801165516],[141.949445355552,39.464738496588474]]]},"properties":{"KEY_CODE":"03482006003","PREF":"03","CITY":"482","CITY_NAME":"山田町","S_NAME":"長崎三丁目","SETAI":"78"}},{"type":"Feature","geometry":{"type":"Polygon","coordinates":[[[141.94599798239548,39.4655145403061],[141.94551587262407,39.46467538793614],[141.9454782444868,39.46456456042826],[141.94557610178828,39.46427379923782],[141.9457072581111,39.46395872255838],[141.9457291886492,39.463865165367025],[141.94452126497052,39.46237003559643],[141.9437771345295,39.46196025012637],[141.94389610566907,39.461313170256155],[141.94790298307706,39.46371949199206],[141.94759915077702,39.46399959599468],[141.94675901525986,39.464732996375375],[141.94599798239548,39.4655145403061]]]},"properties":{"KEY_CODE":"03482006004","PREF":"03","CITY":"482","CITY_NAME":"山田町","S_NAME":"長崎四丁目","SETAI":"109"}},{"type":"Feature","geometry":{"type":"Polygon","coordinates":[[[141.94940527144013,39.469983798630565],[141.94848789383184,39.47037960901857],[141.94556594607394,39.47008165042038],[141.94482826348258,39.46975207318434],[141.94489844168857,39.46888023325553],[141.94266045775078,39.466244271423335],[141.94072707374826,39.46704736587298],[141.9387972635375,39.46660642593381],[141.93878303290882,39.465003512608355],[141.93931636273874,39.463391635022276],[141.93790650226302,39.46093287394261],[141.9377620517488,39.45921241356101],[141.9368840653771,39.45732688823697],[141.93741642056338,39.4556494824035],[141.9392301069486,39.45512971161974],[141.9406449901779,39.45554084117976],[141.94178924546998,39.456509092847014],[141.94258065673864,39.45785802831775],[141.94528560439176,39.45931406938063],[141.94576597767303,39.45810542725889],[141.94802278894167,39.45742811109486],[141.94869564064214,39.45674155764799],[141.95108252496712,39.457089090678],[141.95149263390627,39.45606998728052],[141.9527184846453,39.45683967766117],[141.95202632669827,39.45757058525275],[141.95238267142435,39.45862404402787],[141.95497223243814,39.45997892991285],[141.95448014969284,39.4608026812135],[141.95321986416144,39.46041847650918],[141.95264290269802,39.46116763645022],[141.9524532088504,39.4610336156907],[141.9522371854484,39.46098326218791],[141.95188787476158,39.46093636520909],[141.95126453900093,39.46004850841585],[141.95099473181935,39.460670745838414],[141.9516240436455,39.46118662966352],[141.95170891601924,39.46128340904264],[141.95154799094675,39.461486579682976],[141.95148965836856,39.46176026301379],[141.9513898651713,39.461864178654565],[141.9512760469947,39.46201398765847],[141.9511414159209,39.462131107055015],[141.95098990628088,39.46202839805313],[141.95045956833897,39.46154968920473],[141.94976542837372,39.46214691178003],[141.94735760167444,39.46106244639003],[141.94680524425434,39.46034347056343],[141.94588086923397,39.46096643865817],[141.94527585994265,39.460377156313356],[141.94467960331812,39.46057584065237],[141.94453433737908,39.46077972048624],[141.94389610566907,39.461313170256155],[141.9437771345295,39.46196025012637],[141.94452126497052,39.46237003559643],[141.9457291886492,39.463865165367025],[141.9457072581111,39.46395872255838],[141.94557610178828,39.46427379923782],[141.9454782444868,39.46456456042826],[141.94551587262407,39.46467538793614],[141.94599798239548,39.4655145403061],[141.94714691819954,39.466767819306924],[141.94754306842032,39.46803059727478],[141.9486125683053,39.468919760265486],[141.94940527144013,39.469983798630565]]]},"properties":{"KEY_CODE":"034820070","PREF":"03","CITY":"482","CITY_NAME":"山田町","S_NAME":"飯岡","SETAI":"601"}},{"type":"Feature","geometry":{"type":"Polygon","coordinates":[[[141.96154652670984,39.45871061821855],[141.96188977168046,39.45953056372825],[141.95908328241535,39.46023517250555],[141.95891038288653,39.45981528499608],[141.95727187062838,39.4602427628777],[141.95692491358926,39.46099282644261],[141.95904342533734,39.46157947847539],[141.95787204980968,39.464457927817946],[141.95775266509108,39.464193358101205],[141.95879879040896,39.46175570061491],[141.95688153106275,39.461112173741796],[141.9554502464546,39.46409766840048],[141.95236307043686,39.46296491834059],[141.95265113413515,39.46271754732062],[141.95284263959294,39.462570478415834],[141.95301872423224,39.46228718154416],[141.9511414159209,39.462131107055015],[141.9512760469947,39.46201398765847],[141.9513898651713,39.461864178654565],[141.95148965836856,39.46176026301379],[141.95154799094675,39.461486579682976],[141.95170891601924,39.46128340904264],[141.9516240436455,39.46118662966352],[141.95099473181935,39.460670745838414],[141.95126453900093,39.46004850841585],[141.95188787476158,39.46093636520909],[141.9522371854484,39.46098326218791],[141.9524532088504,39.4610336156907],[141.95264290269802,39.46116763645022],[141.95321986416144,39.46041847650918],[141.95448014969284,39.4608026812135],[141.95497223243814,39.45997892991285],[141.9554554945016,39.45917425180082],[141.9559814970936,39.45854378597687],[141.95606185444427,39.45849990856724],[141.9579325828297,39.45913386910187],[141.96004677213946,39.45873508761723],[141.96154652670984,39.45871061821855]]]},"properties":{"KEY_CODE":"034820080","PREF":"03","CITY":"482","CITY_NAME":"山田町","S_NAME":"境田町","SETAI":"52"}},{"type":"Feature","geometry":{"type":"Polygon","coordinates":[[[141.94533770198257,39.496293363705185],[141.94447294243622,39.49524567899616],[141.94351620919124,39.49317804821481],[141.94226252136284,39.49242735484127],[141.94166054975355,39.49028003223266],[141.93760803966373,39.48775992414147],[141.93602949270118,39.48765748251901],[141.9330230597732,39.48911112964639],[141.93055061906492,39.49084841036603],[141.92736794264778,39.492211259673084],[141.92587888778985,39.49234324484074],[141.9226788566034,39.49356439582732],[141.9193821754295,39.49526308376878],[141.9154088620817,39.49692821428966],[141.91139419978973,39.49787066450078],[141.90995820076574,39.4970118533075],[141.90782664145758,39.49526802791904],[141.90679562167279,39.494010865324285],[141.9057913966932,39.49126630780916],[141.90555552734824,39.48973237001596],[141.9058310219544,39.487581368564975],[141.90368067693367,39.48586561114569],[141.90300488114835,39.484496653508316],[141.90307394231905,39.48281292092951],[141.9025429949872,39.481761059706464],[141.90016876995716,39.48004727210785],[141.8962737955084,39.476310871135986],[141.89447770336383,39.47429435802189],[141.89213412602035,39.47337798177224],[141.88905277257447,39.47293365867576],[141.88491214443349,39.4717009984571],[141.88265667624364,39.470325252015655],[141.8793455640112,39.46929839671829],[141.875800909462,39.468647966373524],[141.8713075080464,39.4669586150773],[141.86611659842188,39.46462358834661],[141.86381592323062,39.46387972810167],[141.85992164524632,39.46224754006877],[141.85613441825782,39.46165495651171],[141.85380133383745,39.46108730747988],[141.851315977264,39.46085162362629],[141.84604015973886,39.460565720492966],[141.84264456325138,39.45981897472731],[141.84030918665175,39.45889667312804],[141.84054465463677,39.45561246323872],[141.8429042737091,39.45319655067419],[141.84309179503686,39.45115819665249],[141.844324562757,39.450343301113115],[141.84656699267623,39.449888189339376],[141.84907315288774,39.44806319823428],[141.8510893917129,39.4487123193639],[141.853449352979,39.44905371152028],[141.8565447371756,39.449963871644904],[141.85925253382308,39.45039976167385],[141.86540848114151,39.4505985285089],[141.8696022576708,39.450049833318765],[141.87199112658288,39.44912312994679],[141.87579839798215,39.450627563713624],[141.88118426049076,39.454166203252875],[141.8831413482964,39.4544356677868],[141.8854365357487,39.45405814403042],[141.8872782642602,39.45328311960096],[141.88975047819952,39.45273783806615],[141.89444781053626,39.4529254217704],[141.8987473544776,39.45368859942618],[141.90192203133955,39.45503926301619],[141.90468268192916,39.45664751429484],[141.9072520403923,39.457944944121586],[141.90950557440536,39.458859534566166],[141.91126382203905,39.45931968634063],[141.91342618853105,39.459471420133944],[141.9160412895652,39.45933699218125],[141.91946967321798,39.45861374688019],[141.92482093982193,39.45692119784154],[141.92574928260836,39.45552809798965],[141.92610756226355,39.453644699359685],[141.92663460362152,39.452713590245416],[141.92889618636787,39.45201521787095],[141.93146509137537,39.4516068153134],[141.9336181170722,39.45149514179568],[141.9379033809362,39.45187028429266],[141.94198048542532,39.45324057628912],[141.94472067596772,39.454555747619374],[141.94869564064214,39.45674155764799],[141.94802278894167,39.45742811109486],[141.94576597767303,39.45810542725889],[141.94528560439176,39.45931406938063],[141.94258065673864,39.45785802831775],[141.94178924546998,39.456509092847014],[141.9406449901779,39.45554084117976],[141.9392301069486,39.45512971161974],[141.93741642056338,39.4556494824035],[141.9368840653771,39.45732688823697],[141.9377620517488,39.45921241356101],[141.93790650226302,39.46093287394261],[141.93931636273874,39.463391635022276],[141.93878303290882,39.465003512608355],[141.9387972635375,39.46660642593381],[141.94072707374826,39.46704736587298],[141.94266045775078,39.466244271423335],[141.94489844168857,39.46888023325553],[141.94482826348258,39.46975207318434],[141.94556594607394,39.47008165042038],[141.94848789383184,39.47037960901857],[141.94940527144013,39.469983798630565],[141.94995707136937,39.47222415977151],[141.95035368008251,39.47235158867055],[141.95031191609505,39.47253295122968],[141.94984789238077,39.47318233290352],[141.95138506729197,39.4731579252513],[141.95156961359027,39.4739421245052],[141.95040536061154,39.474136023871104],[141.9505361151544,39.47478758160046],[141.95090110877845,39.474551421089316],[141.95379793902515,39.47386270112539],[141.9541489114399,39.47378012720076],[141.95476690113483,39.47357257694983],[141.95581243955067,39.475195016038846],[141.9578623812516,39.47604806598289],[141.9604858154088,39.47584521892678],[141.96158562804644,39.47629572913272],[141.95901845751197,39.48004781481856],[141.9586207760247,39.48153066421121],[141.95884438246787,39.48335573041159],[141.95988640780854,39.48447245933988],[141.95853327082415,39.486861483960794],[141.95757053383787,39.48809980591322],[141.95720470156982,39.48977667471731],[141.95733017127623,39.49272448594632],[141.95678809656948,39.494068300352765],[141.95461796007598,39.49465596110907],[141.95161427070056,39.49454156026944],[141.9501754912803,39.49482896434707],[141.94533770198257,39.496293363705185]]]},"properties":{"KEY_CODE":"034820090","PREF":"03","CITY":"482","CITY_NAME":"山田町","S_NAME":"山田","SETAI":"494"}},{"type":"Feature","geometry":{"type":"Polygon","coordinates":[[[141.99482680344727,39.452597113638014],[141.994870839648,39.452035488891276],[141.9925705234442,39.45106495410714],[141.99157464811955,39.45014977475426],[141.98933608867839,39.45059005338392],[141.9888327849199,39.448188226961314],[141.9878142762321,39.44870457823529],[141.9866101737271,39.4484706266018],[141.98659068205214,39.44700978809785],[141.98529411633552,39.44559765766137],[141.9845636675812,39.445406734105916],[141.98321854990914,39.4436599449829],[141.9826188906211,39.442165225305764],[141.981357263432,39.44138861727532],[141.97975789869082,39.43998929953638],[141.9803078336343,39.439737072679144],[141.98010254848225,39.43869241631818],[141.9794762717744,39.439109328347044],[141.97806217563445,39.43909174995006],[141.9742382576315,39.439610411620976],[141.97302473825576,39.44035015360181],[141.97247033899995,39.44125994654303],[141.9728037699179,39.44311133644346],[141.9718123059972,39.44479380637926],[141.97248460326156,39.44526729127106],[141.97197593943613,39.446134334945675],[141.97132107765097,39.448652042837615],[141.97017953128685,39.44954057594259],[141.9693821398429,39.44722142700711],[141.9663265282657,39.44129548401959],[141.96491654914402,39.44043633596075],[141.96409396249285,39.43889803161943],[141.96376688279153,39.43697580547447],[141.96418809702615,39.43597410791724],[141.96401897453237,39.434663861683525],[141.96342419921186,39.433682002536784],[141.9633145668434,39.431677824368414],[141.9628236017759,39.43035075493978],[141.962611819636,39.426003147175756],[141.95963670071882,39.41971609658752],[141.9588358279975,39.418634623474155],[141.95656081865528,39.41687947848021],[141.9502268390855,39.41317410869751],[141.94577837021288,39.41088352867805],[141.94306833147346,39.41008968101485],[141.93852362389504,39.409628503485],[141.93694323481725,39.40876069690961],[141.93523304247447,39.40716028126574],[141.93180861541742,39.4058324459759],[141.93135851762548,39.405088062156906],[141.93252319112304,39.4030607171072],[141.93392249751344,39.40209062852873],[141.93532712304517,39.40201222795056],[141.9379833051034,39.403018122716624],[141.93967475061993,39.40297325693487],[141.941045204084,39.403502359968584],[141.9422285358663,39.40299642865093],[141.94507437360397,39.40257854201627],[141.94719612145096,39.40180538386466],[141.94974993823146,39.40035533517374],[141.95239664118375,39.39980770915872],[141.95300515241868,39.399313670201614],[141.95417179615202,39.40038968498552],[141.95546862381943,39.40023846448326],[141.95648607436024,39.40055558782978],[141.95588954014158,39.40201518734288],[141.95717085074546,39.40205959482417],[141.95653347590937,39.40335928165543],[141.95756764506004,39.4034834832508],[141.95737643874637,39.404662598940845],[141.95768858802856,39.405802716208306],[141.95934796741335,39.405599246763956],[141.95877850535942,39.406001105188956],[141.96070506048287,39.40659135811244],[141.96105843054465,39.4077634367579],[141.9632288320961,39.41000508163548],[141.96284894921064,39.410569050588315],[141.96318467068065,39.41186923442018],[141.9639032901023,39.4127233627434],[141.96512790373154,39.4130519397568],[141.96542381003644,39.41361024698073],[141.96665077807702,39.414009932870236],[141.96871131487717,39.41682726171336],[141.96912835138318,39.41633405767621],[141.97038647060276,39.418577320229716],[141.97286258673182,39.41972494452646],[141.9725215207536,39.42096056099797],[141.97281741992254,39.42222504349093],[141.97428382328425,39.42233854780897],[141.97382670989165,39.42585877500216],[141.97441055850007,39.426833090238716],[141.97752950437516,39.42706541759261],[141.97813489047797,39.427362125282684],[141.98024024344417,39.42705581085446],[141.98236475572043,39.426072771006666],[141.98241911452436,39.425284054238226],[141.97962015107242,39.42444155580584],[141.97958416344323,39.42373571608479],[141.98211964848116,39.42428363847569],[141.9836286938649,39.424310499706934],[141.98490354170718,39.42522295329068],[141.98749544361465,39.42574032477001],[141.98953665580288,39.425790636481594],[141.98904468640356,39.425353274973],[141.99079326359288,39.42504834766896],[141.99122684340122,39.4245464876063],[141.98927984637405,39.42405726534708],[141.988286087014,39.423447975065436],[141.9882504912593,39.42254097372865],[141.9905624113978,39.42316929442004],[141.9911636054362,39.42274081682266],[141.99045889756644,39.421992808180505],[141.99291166775777,39.42134405999693],[141.99395140202606,39.42025302153994],[141.9936207239313,39.41980231358745],[141.9912806981609,39.41927377042878],[141.99175644137895,39.41863059792437],[142.0011448196095,39.41999199847748],[142.00093043934413,39.42081230826926],[141.9997809925286,39.42177522315526],[141.99974896069477,39.423518613618626],[141.99890765831245,39.425354888504145],[141.99628402421814,39.429360961118796],[141.99653046080252,39.43586299066629],[141.9971517012283,39.43998910498449],[141.99761472679418,39.44195638639478],[141.99766198252334,39.443366362072254],[141.99719031973152,39.445657284522],[141.99664159040924,39.44633508428279],[141.99637793325854,39.44894287846045],[141.99482680344727,39.452597113638014]]]},"properties":{"KEY_CODE":"03482010001","PREF":"03","CITY":"482","CITY_NAME":"山田町","S_NAME":"船越第九地割","SETAI":"772"}},{"type":"Feature","geometry":{"type":"Polygon","coordinates":[[[142.0011448196095,39.41999199847748],[141.99175644137895,39.41863059792437],[141.9912806981609,39.41927377042878],[141.9936207239313,39.41980231358745],[141.99395140202606,39.42025302153994],[141.99291166775777,39.42134405999693],[141.99045889756644,39.421992808180505],[141.9911636054362,39.42274081682266],[141.9905624113978,39.42316929442004],[141.9882504912593,39.42254097372865],[141.988286087014,39.423447975065436],[141.98927984637405,39.42405726534708],[141.99122684340122,39.4245464876063],[141.99079326359288,39.42504834766896],[141.98904468640356,39.425353274973],[141.98953665580288,39.425790636481594],[141.98749544361465,39.42574032477001],[141.98490354170718,39.42522295329068],[141.9836286938649,39.424310499706934],[141.98211964848116,39.42428363847569],[141.9833612542268,39.42141398697942],[141.98381215940807,39.42093752703886],[141.98515208834687,39.417748997185186],[141.98496356800374,39.41652759895234],[141.98328930274837,39.41612624440287],[141.9830686931107,39.41648152740296],[141.98163279212142,39.41496529023848],[141.98173381679499,39.41326723267135],[141.9810877853376,39.410842430414796],[141.98002841475295,39.4100385770469],[141.98203361355397,39.408827018904724],[141.98395957392228,39.40837740341726],[141.98485257160658,39.40873424457647],[141.98840029172874,39.40889718054738],[141.98972733269545,39.40930462990969],[141.99070518208947,39.408751746610385],[141.991665784442,39.40911866608754],[141.9937213102219,39.40899638457434],[141.9940191252599,39.40944918246577],[141.99674496494865,39.409828177719916],[141.9967918168769,39.41145992048681],[141.9980955915932,39.41220802520669],[141.99948369621458,39.41133295346344],[142.00061186820258,39.41137029560237],[142.0014313166443,39.41092969243988],[142.00221613368424,39.41133704368387],[142.00391594068492,39.41070382553314],[142.00541769395724,39.410585108624545],[142.00316283909012,39.41558242749546],[142.0025105798396,39.41793241670043],[142.0011448196095,39.41999199847748]]]},"properties":{"KEY_CODE":"03482010002","PREF":"03","CITY":"482","CITY_NAME":"山田町","S_NAME":"船越第一一地割","SETAI":"240"}},{"type":"Feature","geometry":{"type":"Polygon","coordinates":[[[141.97908974963508,39.41015505901001],[141.97822283456148,39.41018792570421],[141.97768126477635,39.40909790765723],[141.97877481029596,39.40858539721269],[141.98016228921054,39.408715822705425],[141.97908974963508,39.41015505901001]]]},"properties":{"KEY_CODE":"03482010002","PREF":"03","CITY":"482","CITY_NAME":"山田町","S_NAME":"船越第一一地割","SETAI":"0"}},{"type":"Feature","geometry":{"type":"Polygon","coordinates":[[[142.0013425527865,39.41020545702312],[142.0018484355759,39.41059851174268],[142.00094123724622,39.410858048447615],[142.0013425527865,39.41020545702312]]]},"properties":{"KEY_CODE":"03482010002","PREF":"03","CITY":"482","CITY_NAME":"山田町","S_NAME":"船越第一一地割","SETAI":"0"}},{"type":"Feature","geometry":{"type":"Polygon","coordinates":[[[142.00432853158057,39.40954576355831],[142.00460784552953,39.41034647094353],[142.0037993600597,39.410118580012714],[142.00432853158057,39.40954576355831]]]},"properties":{"KEY_CODE":"03482010002","PREF":"03","CITY":"482","CITY_NAME":"山田町","S_NAME":"船越第一一地割","SETAI":"0"}},{"type":"Feature","geometry":{"type":"Polygon","coordinates":[[[142.00532138111413,39.406298388705515],[142.0059805663163,39.40710786282105],[142.00511094481877,39.4066941405009],[142.00532138111413,39.406298388705515]]]},"properties":{"KEY_CODE":"03482010002","PREF":"03","CITY":"482","CITY_NAME":"山田町","S_NAME":"船越第一一地割","SETAI":"0"}},{"type":"Feature","geometry":{"type":"Polygon","coordinates":[[[141.99027208470625,39.408263307142555],[141.99074988799472,39.408438701590846],[141.99068318272893,39.40861772741984],[141.99027208470625,39.408263307142555]]]},"properties":{"KEY_CODE":"03482010002","PREF":"03","CITY":"482","CITY_NAME":"山田町","S_NAME":"船越第一一地割","SETAI":"0"}},{"type":"Feature","geometry":{"type":"Polygon","coordinates":[[[142.0005301338819,39.40703115127313],[141.99875204586922,39.40686702782626],[141.99854286601067,39.405115307412416],[141.99788185027958,39.40446702778044],[141.99734434880682,39.403080694743096],[141.99634225408195,39.40286551937535],[141.99467143503347,39.40167346854527],[141.99382527563031,39.40043163087845],[141.9948979423051,39.39979761872749],[141.99738047406152,39.399533161636484],[141.99921307805073,39.40074702756316],[141.99995970075634,39.40291038128557],[141.9982733831693,39.40287956005386],[141.99917983743626,39.40334789762523],[142.00056418506264,39.404692369971556],[142.0008612615729,39.40579467499209],[142.0000908606258,39.40694189146976],[142.0005301338819,39.40703115127313]]]},"properties":{"KEY_CODE":"03482010002","PREF":"03","CITY":"482","CITY_NAME":"山田町","S_NAME":"船越第一一地割","SETAI":"0"}},{"type":"Feature","geometry":{"type":"Polygon","coordinates":[[[142.00541769395724,39.410585108624545],[142.0053420598664,39.41230635333877],[142.00609471292123,39.41363282845028],[142.0059557194269,39.4142755754973],[142.0073181339482,39.415395009601326],[142.0081816544854,39.415573619605084],[142.0098304769731,39.41515342913838],[142.01107364296547,39.415534476301495],[142.01133794111624,39.416401926284834],[142.01080571063505,39.41720721065023],[142.0093902155494,39.41783318347642],[142.00995713269617,39.41812199360365],[142.00933488052127,39.418825474260764],[142.00803575379098,39.4189827328342],[142.00678662529597,39.421360795824576],[142.00810377003648,39.423167933323406],[142.00793175712306,39.42453976090587],[142.0086757675969,39.425342020604326],[142.01115354495315,39.426403273356215],[142.01354559226658,39.42650510583007],[142.0156511017003,39.42471010427769],[142.01816949731335,39.4243952932071],[142.0181200790815,39.42326354401916],[142.01913958370048,39.42236139096296],[142.01987083597365,39.42062805335586],[142.02150623669286,39.42091489967424],[142.02229449463962,39.42014660958896],[142.0225900615037,39.41908969202662],[142.0220909356554,39.417872463108765],[142.0234647463763,39.417191838264394],[142.02419529396516,39.417741037877505],[142.02556589589224,39.41632629938918],[142.0271330908025,39.416294876449825],[142.02803870390366,39.415673969581555],[142.02959575181112,39.415729106561564],[142.03168173713985,39.4164246434563],[142.03109067076264,39.41683248777026],[142.0327917585989,39.417766128145075],[142.0358319500205,39.418437328015365],[142.03641412051854,39.41946809609567],[142.03588703457865,39.420556250469346],[142.03710427888365,39.42191552816728],[142.0379219703543,39.42138012193232],[142.03871271579484,39.42231773078873],[142.03757560601375,39.42305099207671],[142.03849211265643,39.42501328572038],[142.0401500234913,39.424640303143626],[142.04098834181892,39.425638661834995],[142.04256555413633,39.42523224592064],[142.04349973632708,39.42559184529839],[142.04422799098435,39.42526270578039],[142.04457696937882,39.42643006022082],[142.04389666309123,39.42745316742775],[142.04293214224614,39.42735510673374],[142.04234332734904,39.42803049718582],[142.04146987144912,39.42796212525487],[142.0421479701198,39.4288909621355],[142.04181066029403,39.43000149181504],[142.04122233261216,39.43030305870593],[142.04270996326133,39.43162974146367],[142.04313369678303,39.43295846455833],[142.04149852789476,39.43297816970726],[142.04166956202786,39.433863645392016],[142.0397047165527,39.43375885001264],[142.0396931111405,39.43456874356237],[142.04038996968552,39.43564063605263],[142.03993722924432,39.436124534134066],[142.03751481634083,39.43562811470464],[142.038768108938,39.436361849664806],[142.03853171398083,39.43727227446283],[142.0400654891627,39.43816972559654],[142.03947888916417,39.43857577115125],[142.04052819380027,39.43879725047821],[142.03948067648432,39.439756628468416],[142.0394968085355,39.44028611549027],[142.04107831208302,39.43917348103893],[142.04245776736457,39.43974463919549],[142.04315135148366,39.44075257421575],[142.04259340716416,39.44154024477097],[142.04117091241324,39.44204052587786],[142.0426317791188,39.44241446284476],[142.042397424101,39.44276460684183],[142.0407922239527,39.44251556368101],[142.03994300396963,39.442846858872535],[142.03815944236516,39.4427644768624],[142.04002815935235,39.44407730717498],[142.03794060851195,39.44523119996758],[142.0391286171099,39.44526934108563],[142.0385538853376,39.446098576960935],[142.03897470135058,39.44718863124121],[142.04156204121884,39.44672219457679],[142.0441680031397,39.44933520112761],[142.04668668030507,39.44992866199087],[142.04766689658658,39.44990850562547],[142.04909651176757,39.450607868323644],[142.04782791588357,39.452219046794156],[142.04884334410067,39.45381719418154],[142.04801579487813,39.45406904566512],[142.04831718333122,39.4572284565165],[142.05148793962508,39.45947869370624],[142.0517889233022,39.45994393215504],[142.05447337864757,39.46148758763689],[142.05443386326502,39.4632138166337],[142.05685765662454,39.465187123076525],[142.05838769319334,39.4644369043163],[142.05933230128286,39.4647557200167],[142.05785624005344,39.46527569423249],[142.05925368484463,39.46590317376312],[142.05944779828732,39.46636863507572],[142.05774735272945,39.46661895584799],[142.0585457664564,39.46801029391112],[142.0599933550369,39.46818689368079],[142.06002827497664,39.46944486300599],[142.05874479508955,39.47007900598626],[142.06143190098578,39.47134685038237],[142.06101304971065,39.47184668948121],[142.05820360722234,39.47149350781854],[142.05840678630773,39.47227322899267],[142.05951212696425,39.472876761318254],[142.05817683616792,39.47307732230974],[142.0574475586317,39.47271569371077],[142.0568174292486,39.47389689449111],[142.05492175601495,39.47475452875633],[142.05462345434313,39.475707958048744],[142.05386248613777,39.47559075912432],[142.05381012640512,39.47459055633548],[142.05282317972257,39.474182977147834],[142.05290937909788,39.47492248550406],[142.05227604566022,39.477256662336856],[142.05080484760146,39.47747024432649],[142.04993210810454,39.47928180647298],[142.04912057072718,39.47993342324576],[142.04961213423599,39.4808623578092],[142.05140472224275,39.48141017978537],[142.050877741185,39.48178409629338],[142.05153123316398,39.48246182109227],[142.05157827568354,39.48409531686122],[142.0502325522667,39.48477956544783],[142.04934247404196,39.483929578483895],[142.0484973342634,39.48245667601866],[142.04648881916108,39.48246414983112],[142.04530644566438,39.48305477270514],[142.04354040732653,39.48276601568386],[142.04200444636245,39.48327654770842],[142.04072903484482,39.482990733945414],[142.0401263324564,39.48181521082379],[142.03903739757757,39.481493240355654],[142.03875415473846,39.4821186177822],[142.03631673887858,39.48225827893633],[142.03601386100692,39.483500871569916],[142.03317934284215,39.48096662287158],[142.03172723817303,39.478308167260145],[142.0298239444784,39.477121692144685],[142.0280825256008,39.47710809966186],[142.02835739546245,39.475914469240564],[142.02616255810176,39.47555150936526],[142.02564509209654,39.47464885085525],[142.02605476024695,39.47339258280745],[142.02489591234132,39.473182004858316],[142.024279103441,39.472585706102954],[142.02221324650316,39.47221326157563],[142.02089223230973,39.471077436315355],[142.01756120249246,39.47004134528359],[142.01523584906397,39.46805813688336],[142.0133656645204,39.467358344382916],[142.01252266924106,39.467396640860635],[142.01153003178726,39.466148362587646],[142.008831259348,39.46495606765893],[142.00862821025618,39.46331965364446],[142.00499295565888,39.45977406237312],[142.00380648292753,39.45741072127978],[142.00291431211602,39.45617574186393],[142.00291307230924,39.455202015592334],[142.0022967506784,39.45503169293119],[142.0030927651497,39.454207570456504],[142.00292002726457,39.452148358152215],[142.00330687132814,39.450965377254306],[142.00308623839896,39.4500677532816],[142.0042121729551,39.44799545727081],[142.00482614597578,39.4460868666498],[142.00257883809556,39.445437522456096],[142.0013913564176,39.447444659538256],[141.99884572753353,39.448903362583344],[141.99831515020878,39.44969052260771],[141.9963406894965,39.45084978294852],[141.99569566286215,39.452028151719624],[141.99482680344727,39.452597113638014],[141.99637793325854,39.44894287846045],[141.99664159040924,39.44633508428279],[141.99719031973152,39.445657284522],[141.99766198252334,39.443366362072254],[141.99761472679418,39.44195638639478],[141.9971517012283,39.43998910498449],[141.99653046080252,39.43586299066629],[141.99628402421814,39.429360961118796],[141.99890765831245,39.425354888504145],[141.99974896069477,39.423518613618626],[141.9997809925286,39.42177522315526],[142.00093043934413,39.42081230826926],[142.0011448196095,39.41999199847748],[142.0025105798396,39.41793241670043],[142.00316283909012,39.41558242749546],[142.00541769395724,39.410585108624545]]]},"properties":{"KEY_CODE":"03482010003","PREF":"03","CITY":"482","CITY_NAME":"山田町","S_NAME":"船越第二三地割","SETAI":"241"}},{"type":"Feature","geometry":{"type":"Polygon","coordinates":[[[142.04770877537345,39.4497801684797],[142.0469629127998,39.449648340271395],[142.04825893451306,39.449144809585775],[142.04915388332435,39.44976415076542],[142.04770877537345,39.4497801684797]]]},"properties":{"KEY_CODE":"03482010003","PREF":"03","CITY":"482","CITY_NAME":"山田町","S_NAME":"船越第二三地割","SETAI":"0"}},{"type":"Feature","geometry":{"type":"Polygon","coordinates":[[[142.05774126469734,39.46097399861953],[142.05783844284161,39.46141075425453],[142.05736576737897,39.46109687928049],[142.05774126469734,39.46097399861953]]]},"properties":{"KEY_CODE":"03482010003","PREF":"03","CITY":"482","CITY_NAME":"山田町","S_NAME":"船越第二三地割","SETAI":"0"}},{"type":"Feature","geometry":{"type":"Polygon","coordinates":[[[142.0553210548587,39.46098685851616],[142.05557238045975,39.461735429775],[142.05497298038998,39.46121929340784],[142.0553210548587,39.46098685851616]]]},"properties":{"KEY_CODE":"03482010003","PREF":"03","CITY":"482","CITY_NAME":"山田町","S_NAME":"船越第二三地割","SETAI":"0"}},{"type":"Feature","geometry":{"type":"Polygon","coordinates":[[[142.00688634547598,39.411190915110765],[142.0063401868133,39.41096222499987],[142.00716221104176,39.41067739857514],[142.00688634547598,39.411190915110765]]]},"properties":{"KEY_CODE":"03482010003","PREF":"03","CITY":"482","CITY_NAME":"山田町","S_NAME":"船越第二三地割","SETAI":"0"}},{"type":"Feature","geometry":{"type":"Polygon","coordinates":[[[142.0121011613923,39.41448997013937],[142.01127081695634,39.415175758622475],[142.0108970746591,39.41435983913471],[142.0119684612927,39.41343740966867],[142.0121011613923,39.41448997013937]]]},"properties":{"KEY_CODE":"03482010003","PREF":"03","CITY":"482","CITY_NAME":"山田町","S_NAME":"船越第二三地割","SETAI":"0"}},{"type":"Feature","geometry":{"type":"Polygon","coordinates":[[[142.03417823129766,39.4178283806472],[142.03329011474176,39.41784476232842],[142.0334494935229,39.417389149946196],[142.03417823129766,39.4178283806472]]]},"properties":{"KEY_CODE":"03482010003","PREF":"03","CITY":"482","CITY_NAME":"山田町","S_NAME":"船越第二三地割","SETAI":"0"}},{"type":"Feature","geometry":{"type":"Polygon","coordinates":[[[142.05291251026858,39.4808223891375],[142.0523013066507,39.48129719280347],[142.05211338848554,39.48085329057016],[142.05291251026858,39.4808223891375]]]},"properties":{"KEY_CODE":"03482010003","PREF":"03","CITY":"482","CITY_NAME":"山田町","S_NAME":"船越第二三地割","SETAI":"0"}},{"type":"Feature","geometry":{"type":"Polygon","coordinates":[[[142.06013792828762,39.46457424719404],[142.06077078666806,39.46507919709181],[142.05971021160363,39.464836388752026],[142.06013792828762,39.46457424719404]]]},"properties":{"KEY_CODE":"03482010003","PREF":"03","CITY":"482","CITY_NAME":"山田町","S_NAME":"船越第二三地割","SETAI":"0"}},{"type":"Feature","geometry":{"type":"Polygon","coordinates":[[[142.03786168120067,39.41990438045538],[142.0366436088606,39.41978098889974],[142.03669757102253,39.41832658688403],[142.0376209373608,39.41833416869343],[142.0374684773783,39.41892123922745],[142.0390632324972,39.419138922270974],[142.03921650914523,39.419745346183],[142.03786168120067,39.41990438045538]]]},"properties":{"KEY_CODE":"03482010003","PREF":"03","CITY":"482","CITY_NAME":"山田町","S_NAME":"船越第二三地割","SETAI":"0"}},{"type":"Feature","geometry":{"type":"Polygon","coordinates":[[[142.0440365715095,39.448058416755025],[142.04389024141096,39.44872737682948],[142.04342236802466,39.448210726470116],[142.0440365715095,39.448058416755025]]]},"properties":{"KEY_CODE":"03482010003","PREF":"03","CITY":"482","CITY_NAME":"山田町","S_NAME":"船越第二三地割","SETAI":"0"}},{"type":"Feature","geometry":{"type":"Polygon","coordinates":[[[141.9559814970936,39.45854378597687],[141.9554554945016,39.45917425180082],[141.95497223243814,39.45997892991285],[141.95238267142435,39.45862404402787],[141.95202632669827,39.45757058525275],[141.9527184846453,39.45683967766117],[141.95149263390627,39.45606998728052],[141.95108252496712,39.457089090678],[141.94869564064214,39.45674155764799],[141.94472067596772,39.454555747619374],[141.94198048542532,39.45324057628912],[141.9379033809362,39.45187028429266],[141.9336181170722,39.45149514179568],[141.93146509137537,39.4516068153134],[141.92889618636787,39.45201521787095],[141.92663460362152,39.452713590245416],[141.92610756226355,39.453644699359685],[141.92574928260836,39.45552809798965],[141.92482093982193,39.45692119784154],[141.91946967321798,39.45861374688019],[141.9160412895652,39.45933699218125],[141.91342618853105,39.459471420133944],[141.91126382203905,39.45931968634063],[141.90950557440536,39.458859534566166],[141.9072520403923,39.457944944121586],[141.90468268192916,39.45664751429484],[141.90192203133955,39.45503926301619],[141.8987473544776,39.45368859942618],[141.89444781053626,39.4529254217704],[141.88975047819952,39.45273783806615],[141.8872782642602,39.45328311960096],[141.8854365357487,39.45405814403042],[141.8831413482964,39.4544356677868],[141.88118426049076,39.454166203252875],[141.87579839798215,39.450627563713624],[141.87199112658288,39.44912312994679],[141.8696022576708,39.450049833318765],[141.86540848114151,39.4505985285089],[141.85925253382308,39.45039976167385],[141.8565447371756,39.449963871644904],[141.853449352979,39.44905371152028],[141.8510893917129,39.4487123193639],[141.84907315288774,39.44806319823428],[141.85137605170644,39.4451056771198],[141.85263843592668,39.44259808545019],[141.85452307004633,39.44156780591976],[141.85850549459934,39.43875397999195],[141.85933066900273,39.43703750766083],[141.86124794882167,39.43536387565438],[141.85991913690543,39.43217709816063],[141.86023361484285,39.43026178542259],[141.86106775001426,39.42887658709745],[141.86090349798044,39.42777247984663],[141.8617820651393,39.42625239574876],[141.86176254849067,39.424927198790634],[141.86309541378253,39.423809856565335],[141.86447599663026,39.42220327285019],[141.86552053168475,39.42045479678248],[141.8706226926149,39.41813440258496],[141.8717551769487,39.41847761454258],[141.87284542180765,39.418102869561764],[141.87344720832354,39.41696258303301],[141.87644824339452,39.41570321183728],[141.87860135854586,39.416153821949145],[141.87954667299212,39.41536286107151],[141.8800956806185,39.41341445536946],[141.88180499315663,39.412646906303486],[141.8815135913123,39.41061382066171],[141.8825571554003,39.408004264319],[141.88392700198463,39.406304799760015],[141.88555322804893,39.40588657481152],[141.8868138150552,39.404754112711196],[141.88861431970798,39.404269100718004],[141.8905000550017,39.40298595468288],[141.89100507689787,39.40136075063972],[141.89275807899355,39.39985704118586],[141.89540964780068,39.399574645743876],[141.8965785014298,39.39889344444398],[141.89731675721015,39.39966416446504],[141.8997077473638,39.40011422617657],[141.90227261919546,39.40085897804898],[141.90249737516646,39.401403706457835],[141.90478445120772,39.40208037514177],[141.9055808442959,39.402080343334895],[141.9069520560633,39.401390336291065],[141.9096123942134,39.40162917956358],[141.91525321826467,39.40005518367012],[141.9199038780878,39.40098398072116],[141.92275083328897,39.40131015858208],[141.92567230849843,39.40376199823584],[141.9299289178535,39.405926193832876],[141.93046049105521,39.406539201158516],[141.93180861541742,39.4058324459759],[141.93523304247447,39.40716028126574],[141.93694323481725,39.40876069690961],[141.93852362389504,39.409628503485],[141.94306833147346,39.41008968101485],[141.94577837021288,39.41088352867805],[141.9502268390855,39.41317410869751],[141.95656081865528,39.41687947848021],[141.9588358279975,39.418634623474155],[141.95963670071882,39.41971609658752],[141.962611819636,39.426003147175756],[141.9628236017759,39.43035075493978],[141.9633145668434,39.431677824368414],[141.96342419921186,39.433682002536784],[141.96401897453237,39.434663861683525],[141.96418809702615,39.43597410791724],[141.96376688279153,39.43697580547447],[141.96409396249285,39.43889803161943],[141.96491654914402,39.44043633596075],[141.9663265282657,39.44129548401959],[141.9693821398429,39.44722142700711],[141.97017953128685,39.44954057594259],[141.96915395463674,39.449134462007336],[141.96785431545578,39.447732052168206],[141.96558755330423,39.44787484985943],[141.9640988481522,39.44827579098278],[141.96242592376282,39.4497179600922],[141.96318177241477,39.450043893217135],[141.96214851587388,39.45318405371049],[141.96154174103006,39.45417535716728],[141.9621064635986,39.454249148326326],[141.9612971641744,39.45513533917553],[141.9602386234911,39.454785206170094],[141.9570983432364,39.45675672103802],[141.9582850319997,39.45793154101456],[141.9587784995365,39.457475476449474],[141.96036000692794,39.458197894880264],[141.961714942931,39.45820097239653],[141.96154652670984,39.45871061821855],[141.96004677213946,39.45873508761723],[141.9579325828297,39.45913386910187],[141.95606185444427,39.45849990856724],[141.9559814970936,39.45854378597687]]]},"properties":{"KEY_CODE":"034820110","PREF":"03","CITY":"482","CITY_NAME":"山田町","S_NAME":"織笠","SETAI":"807"}},{"type":"Feature","geometry":{"type":"Polygon","coordinates":[[[142.0116321787695,39.486923223750544],[142.01188558876368,39.48747370244705],[142.01115647599298,39.4873910215529],[142.0116321787695,39.486923223750544]]]},"properties":{"KEY_CODE":"034820120","PREF":"03","CITY":"482","CITY_NAME":"山田町","S_NAME":"大沢","SETAI":"0"}},{"type":"Feature","geometry":{"type":"Polygon","coordinates":[[[141.9826194265827,39.51984703407083],[141.98195835078397,39.5199921417046],[141.98167011499606,39.52014513321586],[141.98134808584382,39.52073433605843],[141.98141011765932,39.52133420067607],[141.98187876066044,39.52262869042663],[141.98188415030006,39.52272965576558],[141.982061957205,39.523114761730405],[141.9819567193281,39.52442066552413],[141.98155967011758,39.524753719802725],[141.98117469278506,39.52514724238785],[141.9810806025643,39.525315621677194],[141.98080013888259,39.52594195330092],[141.9795925620141,39.52799492727183],[141.97868446886903,39.52854085345827],[141.97783304946077,39.529135297188134],[141.9776096256939,39.52930318786213],[141.97710773692236,39.52743207497777],[141.9727173591682,39.524788485138735],[141.96568788094464,39.51869500098426],[141.96387462505425,39.51687078355941],[141.96165503642692,39.51410164190531],[141.9580526242155,39.51065597094611],[141.9564661025734,39.50830328055067],[141.95435784063247,39.5059969062515],[141.9523474018399,39.50451221538453],[141.950727195158,39.50242136308698],[141.94750651758451,39.499653741628464],[141.94481494096604,39.49648396575241],[141.94533770198257,39.496293363705185],[141.9501754912803,39.49482896434707],[141.95161427070056,39.49454156026944],[141.95461796007598,39.49465596110907],[141.95678809656948,39.494068300352765],[141.95733017127623,39.49272448594632],[141.95720470156982,39.48977667471731],[141.95757053383787,39.48809980591322],[141.95853327082415,39.486861483960794],[141.95988640780854,39.48447245933988],[141.95884438246787,39.48335573041159],[141.9586207760247,39.48153066421121],[141.95901845751197,39.48004781481856],[141.96158562804644,39.47629572913272],[141.96458518476933,39.47728080733047],[141.96555657493286,39.47647330008154],[141.96784583594362,39.47723551722055],[141.96701475509212,39.47794804512073],[141.96854766270357,39.47951391177461],[141.9681576915781,39.47983477824289],[141.9695934396892,39.48020895775818],[141.9729035288847,39.48211317218857],[141.97426802967277,39.482598819390816],[141.97533031664932,39.482379415366324],[141.9737971049908,39.48173959804521],[141.97758431294116,39.48181495474354],[141.97620148855552,39.48276176138389],[141.97769754462684,39.48283890540203],[141.98013564551687,39.482514026219874],[141.97977250933002,39.48149346054398],[141.9813567698263,39.4805031722283],[141.98333133015728,39.48055120145119],[141.98473687392917,39.48155062868467],[141.98488533900752,39.48202838682607],[141.98772659214376,39.48274598560244],[141.98855300684195,39.483162955395876],[141.99111136780573,39.48378782398182],[141.99115828051893,39.48324961529283],[141.99271424695405,39.48343226411302],[141.99526039310118,39.481921465685765],[141.99789496950874,39.48112493471612],[142.00076223434084,39.479299139075785],[142.00228733526419,39.47889196714903],[142.0035753324771,39.47931314830469],[142.00550810807871,39.47950895223821],[142.00645865768067,39.478530128760426],[142.00652303188184,39.47786563012855],[142.00852443110728,39.47654739257267],[142.0082136985867,39.47604073168572],[142.01032417638626,39.47637065736599],[142.01225036725953,39.480034290458036],[142.01133817584324,39.48018316042393],[142.0115254005585,39.481703533151645],[142.01108652757094,39.48242499542091],[142.01127455618507,39.48357876197537],[142.0106332296253,39.484352695259936],[142.0109682434176,39.485122152894434],[142.0105509637339,39.48664052541672],[142.00953931547997,39.487726295842826],[142.0094910788266,39.48927787651694],[142.0100421952246,39.48997396957571],[142.01124744684378,39.490095988035264],[142.00969469887178,39.490598130991835],[142.00904858550223,39.49178916537695],[142.00949434281236,39.49361047380027],[142.00926075927129,39.495411630702336],[142.01060812640551,39.49684997758657],[142.0114087580989,39.49682655316561],[142.01187551617116,39.4976856200683],[142.0126099370697,39.49780159645658],[142.01197038630306,39.49882772493575],[142.01036417792676,39.50030681070928],[142.0095385123871,39.500781767818175],[142.00944005155773,39.50087375504293],[142.00939561580512,39.50092641979412],[142.0093092531068,39.5011164507644],[142.00926988667587,39.50139970395992],[142.00923001029884,39.50157234004346],[142.00894634406512,39.50173484802181],[142.00678766550183,39.501930761691725],[142.0063825153452,39.50216172708908],[142.00620498792506,39.502553934983226],[142.0062729784892,39.50336103005182],[142.0058026708546,39.50476783021971],[142.00558886610597,39.50565510268821],[142.00539155129488,39.50589782846955],[142.00412232221595,39.506314230672984],[142.0034550735239,39.506356382459934],[142.00316973850286,39.50680533205659],[142.00173147002494,39.508058984658646],[142.00097759955577,39.508392306460934],[141.99954378661056,39.50992202125001],[141.9982060441824,39.510360300319846],[141.9979096255732,39.51068190792794],[141.99643029712797,39.512131010326904],[141.99553283537327,39.512579375711326],[141.9937443702514,39.51305338169457],[141.99289579839956,39.51356992170092],[141.9916505873193,39.51512101786174],[141.99190759054585,39.516004735099926],[141.9923357526758,39.516647132733915],[141.9921996924362,39.51787828011402],[141.99219528976894,39.51828538079037],[141.99192174275004,39.51887123110748],[141.99190016286997,39.51891208526456],[141.9917736334826,39.51893044603906],[141.99097762080987,39.51858040584899],[141.9893766698752,39.51823837087338],[141.9888787523361,39.51833572002731],[141.9886810222904,39.5183232605213],[141.98825366552973,39.518177372708465],[141.98760294008488,39.51804527898263],[141.9871639392929,39.518095837094556],[141.9867611263654,39.51807671942911],[141.98640415634816,39.518126460439916],[141.9854975008809,39.51874746658606],[141.98490984418393,39.51950101524343],[141.98460929289934,39.51981000382267],[141.9826194265827,39.51984703407083]]]},"properties":{"KEY_CODE":"034820120","PREF":"03","CITY":"482","CITY_NAME":"山田町","S_NAME":"大沢","SETAI":"576"}},{"type":"Feature","geometry":{"type":"Polygon","coordinates":[[[142.01333302403538,39.48652222493653],[142.01383348249715,39.48690175609507],[142.01304817110744,39.48686290070162],[142.01333302403538,39.48652222493653]]]},"properties":{"KEY_CODE":"034820120","PREF":"03","CITY":"482","CITY_NAME":"山田町","S_NAME":"大沢","SETAI":"0"}},{"type":"Feature","geometry":{"type":"Polygon","coordinates":[[[141.93319906949804,39.54439837238616],[141.93118674714202,39.54609477348227],[141.92944311696257,39.54710420949789],[141.92904725871716,39.54875065005893],[141.92848081205918,39.54841641638579],[141.92799628106957,39.54701880588383],[141.92645507011176,39.54641007805515],[141.9259895741399,39.54733529762405],[141.92400204056935,39.54740320068168],[141.92329003394306,39.546193133273576],[141.92110972111635,39.54540356361082],[141.91825874485042,39.54475201045154],[141.91692445843054,39.54505568933478],[141.91492792857994,39.54726311318276],[141.9141640117163,39.547242844933486],[141.9134923063983,39.54652205005524],[141.91375826433497,39.54367911431541],[141.91554889440457,39.542989356566125],[141.91707400842424,39.54284319909085],[141.91947104235854,39.54097903459664],[141.91977771705012,39.540456019572055],[141.92025471069104,39.53946699550707],[141.92215293909473,39.54007281813575],[141.92197654313583,39.540399480129814],[141.92339307365245,39.54093308658976],[141.923741840994,39.54066813877904],[141.9240825983257,39.540843857946264],[141.9264982965256,39.541512020176405],[141.92654768912064,39.54181583957833],[141.93319906949804,39.54439837238616]]]},"properties":{"KEY_CODE":"034820131","PREF":"03","CITY":"482","CITY_NAME":"山田町","S_NAME":"石峠","SETAI":"69"}},{"type":"Feature","geometry":{"type":"Polygon","coordinates":[[[141.87817401903632,39.563488949040824],[141.87637026260882,39.563266581612126],[141.8739192546497,39.562360759742546],[141.87322457939135,39.56246489152229],[141.87089848880237,39.563592749353056],[141.86925373342797,39.56189096490493],[141.86779262931893,39.56164688337527],[141.86518206058145,39.56049345500018],[141.86381116145031,39.559394880577834],[141.86174424583797,39.55950467919505],[141.86005076575017,39.55873188316388],[141.8582805600497,39.55868438965521],[141.85587452019246,39.55831492129119],[141.85453571322537,39.558503258797025],[141.85294142363816,39.556991104797675],[141.85052170857549,39.556730785657855],[141.84850849580513,39.55607390706857],[141.8474005768526,39.55461839223613],[141.8445903041411,39.55424249417936],[141.84186012271212,39.554316746542966],[141.84056249704994,39.553836659829415],[141.83929003809735,39.5515943780555],[141.83675309181402,39.551150210211375],[141.83457937730873,39.549756898167836],[141.83282809668685,39.550167286306575],[141.83131812845446,39.549880942928986],[141.8296615109221,39.55029553667031],[141.82796044106215,39.55033664209786],[141.8266380167899,39.55107422015282],[141.82542542021187,39.551280352962124],[141.82181765254964,39.55400774665442],[141.81993498120877,39.55367893727365],[141.81723955769047,39.55436619882734],[141.81394342012555,39.55296177435449],[141.8123853663953,39.552971129067224],[141.81179216924554,39.55255428800426],[141.80951490641493,39.551891388932404],[141.80793893591664,39.55201197528086],[141.8059539670566,39.551120462336456],[141.80357600570477,39.550938267667014],[141.80309768595143,39.550565876660485],[141.8010367771031,39.55006895645808],[141.798633303659,39.549924762884395],[141.79769188182405,39.54921640340427],[141.79467560192396,39.548167801517174],[141.79156247077637,39.54837286700746],[141.78756444434313,39.54805212170299],[141.7859419262518,39.54810459910627],[141.78274686629936,39.54721245963598],[141.7799880169365,39.546240926138374],[141.778061661679,39.54578800189436],[141.77754307842895,39.54495481703936],[141.77389577205855,39.543424531304744],[141.77254668239598,39.543309135833844],[141.77017398401046,39.54204251766039],[141.7671148065079,39.541647792780786],[141.76313906919393,39.54236046257997],[141.76092171998053,39.54197146812233],[141.75891087107598,39.54091134860882],[141.7556239025619,39.54030090495213],[141.7536309355338,39.54045945434405],[141.74997074011813,39.53590803890108],[141.7484430767199,39.533238038439656],[141.7483269541525,39.53269233506004],[141.74841133338893,39.529282306809506],[141.74932589358818,39.52871047631331],[141.7503522782795,39.52711052059805],[141.75179426559953,39.52693855994527],[141.7532717583713,39.527286792845615],[141.75477675039966,39.52674056088151],[141.7558891315116,39.52597871302471],[141.75872764824575,39.52572084697026],[141.7589493517269,39.52518754043162],[141.76043147258474,39.52401019191022],[141.76132753466212,39.52284305883823],[141.7621825162441,39.52075157420091],[141.76301635500315,39.5194880189499],[141.76456594056015,39.518022156399795],[141.7653283570879,39.51774719908541],[141.76630937389555,39.51812309296288],[141.7699863370237,39.51837261509528],[141.77131072215133,39.51785802045014],[141.77226819094966,39.517045920396555],[141.77504416272197,39.51562209141267],[141.7769662997716,39.5150889816249],[141.77976828487752,39.514854882126656],[141.7819451769571,39.514292485223855],[141.78213743264095,39.51150377826522],[141.78190255177634,39.51024003802983],[141.78257463309842,39.509246073081236],[141.7852877306016,39.50673909142199],[141.78591595700757,39.5049217155467],[141.7867498425426,39.50424230187928],[141.78837471857935,39.504132018707246],[141.79045825705182,39.50299646741385],[141.79313313639278,39.50210942158466],[141.79419305595866,39.50136598101802],[141.79793885915427,39.49925342967536],[141.79887867257358,39.49783056957679],[141.79882014230054,39.495553705321754],[141.80057969897118,39.49398759497935],[141.8023174875459,39.49280992082792],[141.8032452566397,39.49183490764358],[141.80550479732045,39.49019807293691],[141.80674992043035,39.48818663613186],[141.80717657423796,39.48529279746335],[141.8081025875048,39.48352535274677],[141.80911232533407,39.483321544670524],[141.80972598810504,39.48186320283524],[141.81156308906662,39.480510165177854],[141.81223636131134,39.47957917717452],[141.81421159272563,39.478527085568196],[141.81480087047507,39.477691235745674],[141.8140380895492,39.47641307999123],[141.81410798146356,39.474601000201226],[141.81368802560826,39.47259013710742],[141.81407064735103,39.471604355023956],[141.81530601940827,39.47052221207838],[141.81539783486735,39.4685354590733],[141.81703558102947,39.46718058596508],[141.81708097524802,39.466062957054184],[141.8201219262143,39.463757189582914],[141.82305801481624,39.462857801572554],[141.82486076180766,39.46302386551546],[141.82577638546388,39.46235780356555],[141.82769246412354,39.462609026456896],[141.82959888286535,39.463879770211875],[141.83068197146412,39.46382235382349],[141.8333192715537,39.4621272992009],[141.83420174753616,39.46180127717899],[141.83667215681572,39.46171043205855],[141.83750977789265,39.46088753140157],[141.8400330274583,39.459826094900286],[141.84030918665175,39.45889667312804],[141.84264456325138,39.45981897472731],[141.84604015973886,39.460565720492966],[141.851315977264,39.46085162362629],[141.85380133383745,39.46108730747988],[141.85613441825782,39.46165495651171],[141.85992164524632,39.46224754006877],[141.86381592323062,39.46387972810167],[141.86611659842188,39.46462358834661],[141.8713075080464,39.4669586150773],[141.875800909462,39.468647966373524],[141.8793455640112,39.46929839671829],[141.88265667624364,39.470325252015655],[141.88491214443349,39.4717009984571],[141.88905277257447,39.47293365867576],[141.89213412602035,39.47337798177224],[141.89447770336383,39.47429435802189],[141.8962737955084,39.476310871135986],[141.90016876995716,39.48004727210785],[141.9025429949872,39.481761059706464],[141.90307394231905,39.48281292092951],[141.90300488114835,39.484496653508316],[141.90368067693367,39.48586561114569],[141.9058310219544,39.487581368564975],[141.90555552734824,39.48973237001596],[141.9057913966932,39.49126630780916],[141.90679562167279,39.494010865324285],[141.90782664145758,39.49526802791904],[141.90995820076574,39.4970118533075],[141.91139419978973,39.49787066450078],[141.9154088620817,39.49692821428966],[141.9193821754295,39.49526308376878],[141.9226788566034,39.49356439582732],[141.92587888778985,39.49234324484074],[141.92736794264778,39.492211259673084],[141.93055061906492,39.49084841036603],[141.9330230597732,39.48911112964639],[141.93602949270118,39.48765748251901],[141.93760803966373,39.48775992414147],[141.94166054975355,39.49028003223266],[141.94226252136284,39.49242735484127],[141.94351620919124,39.49317804821481],[141.94447294243622,39.49524567899616],[141.94533770198257,39.496293363705185],[141.94481494096604,39.49648396575241],[141.94750651758451,39.499653741628464],[141.950727195158,39.50242136308698],[141.9523474018399,39.50451221538453],[141.95435784063247,39.5059969062515],[141.9564661025734,39.50830328055067],[141.9580526242155,39.51065597094611],[141.96165503642692,39.51410164190531],[141.96387462505425,39.51687078355941],[141.96568788094464,39.51869500098426],[141.9727173591682,39.524788485138735],[141.97710773692236,39.52743207497777],[141.9776096256939,39.52930318786213],[141.97756061575257,39.529340051881285],[141.97693766372765,39.530905115795605],[141.97683326281953,39.532040664054485],[141.97683162832573,39.53284903114518],[141.9755783999576,39.53517905864935],[141.9754654452097,39.5356671348883],[141.97508052607216,39.5365293700681],[141.97511298150084,39.537527969097276],[141.97504250923936,39.53814673035554],[141.97490840175467,39.538575727054045],[141.97290405245226,39.53926965455449],[141.97252020474554,39.53946697292028],[141.97229650132073,39.54008723307723],[141.9719473439712,39.540427800746954],[141.9714837308888,39.54092240333474],[141.9707821634074,39.542402706571146],[141.9706193453104,39.54403690701633],[141.97071683134337,39.544434814187525],[141.96716882133796,39.544764885490984],[141.9664716938541,39.54448700583624],[141.96356235891244,39.54463124516674],[141.96296983711957,39.54500776855756],[141.95995063697376,39.54496428373712],[141.95735404949258,39.54514835703924],[141.9557253156223,39.54489927589835],[141.95295329206797,39.54693866386047],[141.95134382343764,39.54948978984767],[141.94996818607262,39.55009886120021],[141.94771157468995,39.55016027169557],[141.94635674586874,39.54993495565854],[141.94457916872867,39.55054119182146],[141.94404904148627,39.55161875336473],[141.9418312936275,39.55179306548747],[141.94004875751872,39.5518979886419],[141.9391892263245,39.55136709947614],[141.9377246954149,39.551989986277185],[141.93369658093906,39.55141926015033],[141.9318179738215,39.55086136787232],[141.93073602769982,39.55093813145439],[141.92886223468028,39.55205395649576],[141.92394293698115,39.55165764691591],[141.92268355258832,39.55111374428907],[141.92117929226453,39.55112784048851],[141.9209766367834,39.55025791187523],[141.91932968703622,39.549111949485635],[141.91792920800364,39.54971734069191],[141.91676549014534,39.54867998365184],[141.9167285063797,39.54796155775741],[141.91579278921864,39.547491085979715],[141.91542477020732,39.54815339947962],[141.91358046506414,39.54840348544562],[141.91166126606024,39.5479853949363],[141.9097500066239,39.548079645928276],[141.9089625383804,39.547747498146876],[141.90589532199795,39.548973825097676],[141.90358755267744,39.54788035208355],[141.9010308635268,39.54765096248256],[141.89820271200085,39.54906457023952],[141.89697836847583,39.549954303773895],[141.89541936797792,39.550038445141645],[141.89348044297026,39.5514271704644],[141.89228936642053,39.5516842668695],[141.8918603056898,39.553149054443224],[141.89094285980042,39.55387618925799],[141.88731711375343,39.55431847020099],[141.8863961870051,39.55481932104044],[141.88542856277192,39.55677812822245],[141.8830282878714,39.55753525704305],[141.88221999421563,39.558094966291726],[141.88088391795094,39.56043971870257],[141.87976795991844,39.561128600449784],[141.87817401903632,39.563488949040824]],[[141.90511058053488,39.532233084297275],[141.90350515178673,39.53262210810584],[141.90116974012247,39.5319816977598],[141.89542608650797,39.53188209666987],[141.89298851654883,39.53301394864725],[141.8921253528306,39.53312143023524],[141.89009379867818,39.53229046883531],[141.88938841309775,39.531012984501],[141.88825463393226,39.53023191982069],[141.8867017052347,39.53073924934808],[141.8853735038003,39.53000130013949],[141.88450204341606,39.52810560121271],[141.88465824143753,39.527128372584485],[141.88334502757877,39.525145647654746],[141.8823607390989,39.52497560719739],[141.88045364391644,39.52552800118367],[141.87748674006767,39.524983672802826],[141.87666296053928,39.52344363580408],[141.8760466761461,39.5236538728342],[141.87641887187266,39.524692487116475],[141.87709053005284,39.52516350846995],[141.8797904979411,39.52564951856006],[141.8817082959838,39.5263887513704],[141.88361146347802,39.5279824793054],[141.8850549682084,39.53090314902605],[141.88568817785512,39.53150992945206],[141.88752113412633,39.5313283227373],[141.8891789446481,39.532141154630104],[141.89085155800055,39.5335141667828],[141.89020559361373,39.53451542002019],[141.8891264665571,39.53435229258627],[141.88756198727285,39.53505037260426],[141.88449864462768,39.53572343429489],[141.8825807145052,39.5367989992168],[141.88096416457603,39.538803503015004],[141.88096709398837,39.539614794152634],[141.87975507770037,39.540839757897594],[141.8770659761564,39.54233209000428],[141.87498005981575,39.54442990336822],[141.87421327762695,39.54491561460087],[141.8710673922056,39.54561218946199],[141.8672755325138,39.545842818002754],[141.8640966265694,39.54537877383228],[141.86336423739493,39.54553462632188],[141.85997368764913,39.54753714156781],[141.85721062251628,39.548657323028905],[141.85602074284785,39.54892205723216],[141.8527708358981,39.54908287970105],[141.85139592287447,39.550308606399085],[141.85069872016365,39.54901550283238],[141.84988850581175,39.55022648338859],[141.85002055629954,39.55123875469979],[141.85084256362828,39.55210160688753],[141.85306518921388,39.55228564788376],[141.85143083235434,39.55404294984738],[141.85218432230013,39.55516532601429],[141.8541544279614,39.555932054109604],[141.85626950001915,39.55484503585919],[141.85791315316936,39.55531260502992],[141.85714289292852,39.55284765572776],[141.85774253482174,39.55266531538719],[141.85864495950833,39.55328419859082],[141.85916074935017,39.552291093806986],[141.86270537588155,39.5498829258257],[141.86312765267274,39.54871241368218],[141.86755919212152,39.5469484077341],[141.86846896860018,39.54689939339226],[141.8674667880884,39.54939152230485],[141.8681088802439,39.54946948255806],[141.8689408448707,39.54775070402192],[141.86975795387283,39.54688640241237],[141.87092741987703,39.54686809424764],[141.87212975480517,39.54801022282906],[141.87277952471527,39.54811599092475],[141.87279698049772,39.54719150458669],[141.8734391675866,39.546869336258375],[141.874880129452,39.54724524113884],[141.87605974955082,39.54710360292238],[141.87782136518334,39.54602257783681],[141.87894711514946,39.54904885497745],[141.87973782221718,39.54902333945737],[141.88026650977233,39.54818471262828],[141.8799525682262,39.54646329354029],[141.88107585757933,39.546892438068255],[141.88161037857316,39.54639498386814],[141.88102089509724,39.54530619328665],[141.88283933621847,39.545898017552126],[141.88233090779087,39.544808677794926],[141.88277040134744,39.54426168975857],[141.88458834275625,39.54349102066827],[141.88409070335402,39.542707360766094],[141.88464298749363,39.54198112507349],[141.88445168106003,39.54054284158099],[141.88513403667054,39.540179810409334],[141.88533602195864,39.541042497618385],[141.88673159713628,39.54122787752459],[141.88697381515334,39.54351662806671],[141.88856876885393,39.542634293259766],[141.88891724737553,39.541225385601734],[141.88861325009557,39.53924736465483],[141.88977781093385,39.540412372321335],[141.89135845233838,39.538731978843664],[141.89254340858986,39.53805011972611],[141.89552026418684,39.537813483370186],[141.89712569057528,39.53696616345701],[141.89949828365008,39.53677838344298],[141.9019249631064,39.53732079317798],[141.90412499660354,39.53823444048086],[141.90779598178148,39.53949675813572],[141.91100355774924,39.54104635724929],[141.9133947204924,39.543088105185504],[141.91375826433497,39.54367911431541],[141.9134923063983,39.54652205005524],[141.9141640117163,39.547242844933486],[141.91492792857994,39.54726311318276],[141.91692445843054,39.54505568933478],[141.91825874485042,39.54475201045154],[141.92110972111635,39.54540356361082],[141.92329003394306,39.546193133273576],[141.92400204056935,39.54740320068168],[141.9259895741399,39.54733529762405],[141.92645507011176,39.54641007805515],[141.92799628106957,39.54701880588383],[141.92848081205918,39.54841641638579],[141.92904725871716,39.54875065005893],[141.92944311696257,39.54710420949789],[141.93118674714202,39.54609477348227],[141.93319906949804,39.54439837238616],[141.92654768912058,39.54181583957835],[141.9264982965256,39.541512020176405],[141.9240825983257,39.540843857946264],[141.923741840994,39.54066813877904],[141.92339307365245,39.54093308658976],[141.92197654313583,39.540399480129814],[141.92215293909473,39.54007281813575],[141.92025471069104,39.53946699550707],[141.91999303620557,39.53996717807194],[141.9165700629585,39.53895785492551],[141.91363081283947,39.53824456166048],[141.91056113056328,39.53676828207482],[141.91103584962423,39.53677137347818],[141.91558585261097,39.53663907881125],[141.9160100703152,39.53651514406714],[141.91662695456924,39.535526308475085],[141.915569690779,39.53415273175246],[141.9140433786629,39.533923170639014],[141.91022818692815,39.53274264199577],[141.90957156723348,39.53251628806118],[141.90545935359742,39.53217367711494],[141.90511058053488,39.532233084297275]]]},"properties":{"KEY_CODE":"034820132","PREF":"03","CITY":"482","CITY_NAME":"山田町","S_NAME":"豊間根","SETAI":"842"}},{"type":"Feature","geometry":{"type":"Polygon","coordinates":[[[141.91375826433497,39.54367911431541],[141.9133947204924,39.543088105185504],[141.91100355774924,39.54104635724929],[141.90779598178148,39.53949675813572],[141.90412499660354,39.53823444048086],[141.9019249631064,39.53732079317798],[141.89949828365008,39.53677838344298],[141.89712569057528,39.53696616345701],[141.89552026418684,39.537813483370186],[141.89254340858986,39.53805011972611],[141.89135845233838,39.538731978843664],[141.88977781093385,39.540412372321335],[141.88861325009557,39.53924736465483],[141.88891724737553,39.541225385601734],[141.88856876885393,39.542634293259766],[141.88697381515334,39.54351662806671],[141.88673159713628,39.54122787752459],[141.88533602195864,39.541042497618385],[141.88513403667054,39.540179810409334],[141.88445168106003,39.54054284158099],[141.88464298749363,39.54198112507349],[141.88409070335402,39.542707360766094],[141.88458834275625,39.54349102066827],[141.88277040134744,39.54426168975857],[141.88233090779087,39.544808677794926],[141.88283933621847,39.545898017552126],[141.88102089509724,39.54530619328665],[141.88161037857316,39.54639498386814],[141.88107585757933,39.546892438068255],[141.8799525682262,39.54646329354029],[141.88026650977233,39.54818471262828],[141.87973782221718,39.54902333945737],[141.87894711514946,39.54904885497745],[141.87782136518334,39.54602257783681],[141.87605974955082,39.54710360292238],[141.874880129452,39.54724524113884],[141.8734391675866,39.546869336258375],[141.87279698049772,39.54719150458669],[141.87277952471527,39.54811599092475],[141.87212975480517,39.54801022282906],[141.87092741987703,39.54686809424764],[141.86975795387283,39.54688640241237],[141.8689408448707,39.54775070402192],[141.8681088802439,39.54946948255806],[141.8674667880884,39.54939152230485],[141.86846896860018,39.54689939339226],[141.86755919212152,39.5469484077341],[141.86312765267274,39.54871241368218],[141.86270537588155,39.5498829258257],[141.85916074935017,39.552291093806986],[141.85864495950833,39.55328419859082],[141.85774253482174,39.55266531538719],[141.85714289292852,39.55284765572776],[141.85791315316936,39.55531260502992],[141.85626950001915,39.55484503585919],[141.8541544279614,39.555932054109604],[141.85218432230013,39.55516532601429],[141.85143083235434,39.55404294984738],[141.85306518921388,39.55228564788376],[141.85084256362828,39.55210160688753],[141.85002055629954,39.55123875469979],[141.84988850581175,39.55022648338859],[141.85069872016365,39.54901550283238],[141.85139592287447,39.550308606399085],[141.8527708358981,39.54908287970105],[141.85602074284785,39.54892205723216],[141.85721062251628,39.548657323028905],[141.85997368764913,39.54753714156781],[141.86336423739493,39.54553462632188],[141.8640966265694,39.54537877383228],[141.8672755325138,39.545842818002754],[141.8710673922056,39.54561218946199],[141.87421327762695,39.54491561460087],[141.87498005981575,39.54442990336822],[141.8770659761564,39.54233209000428],[141.87975507770037,39.540839757897594],[141.88096709398837,39.539614794152634],[141.88096416457603,39.538803503015004],[141.8825807145052,39.5367989992168],[141.88449864462768,39.53572343429489],[141.88756198727285,39.53505037260426],[141.8891264665571,39.53435229258627],[141.89020559361373,39.53451542002019],[141.89085155800055,39.5335141667828],[141.8891789446481,39.532141154630104],[141.88752113412633,39.5313283227373],[141.88568817785512,39.53150992945206],[141.8850549682084,39.53090314902605],[141.88361146347802,39.5279824793054],[141.8817082959838,39.5263887513704],[141.8797904979411,39.52564951856006],[141.87709053005284,39.52516350846995],[141.87641887187266,39.524692487116475],[141.8760466761461,39.5236538728342],[141.87666296053928,39.52344363580408],[141.87748674006767,39.524983672802826],[141.88045364391644,39.52552800118367],[141.8823607390989,39.52497560719739],[141.88334502757877,39.525145647654746],[141.88465824143753,39.527128372584485],[141.88450204341606,39.52810560121271],[141.8853735038003,39.53000130013949],[141.8867017052347,39.53073924934808],[141.88825463393226,39.53023191982069],[141.88938841309775,39.531012984501],[141.89009379867818,39.53229046883531],[141.8921253528306,39.53312143023524],[141.89298851654883,39.53301394864725],[141.89542608650797,39.53188209666987],[141.90116974012247,39.5319816977598],[141.90350515178673,39.53262210810584],[141.90511058053488,39.532233084297275],[141.90545935359742,39.53217367711494],[141.90957156723348,39.53251628806118],[141.91022818692815,39.53274264199577],[141.9140433786629,39.533923170639014],[141.915569690779,39.53415273175246],[141.91662695456927,39.535526308475085],[141.9160100703152,39.53651514406714],[141.91558585261097,39.53663907881125],[141.91103584962423,39.53677137347818],[141.91056113056328,39.53676828207482],[141.91363081283947,39.53824456166048],[141.9165700629585,39.53895785492551],[141.91999303620557,39.53996717807194],[141.91977771705012,39.540456019572055],[141.91947104235854,39.54097903459664],[141.91707400842424,39.54284319909085],[141.91554889440457,39.542989356566125],[141.91375826433497,39.54367911431541]]]},"properties":{"KEY_CODE":"034820140","PREF":"03","CITY":"482","CITY_NAME":"山田町","S_NAME":"荒川","SETAI":"149"}}]}