{"type":"FeatureCollection","features":[{"type":"Feature","geometry":{"type":"Polygon","coordinates":[[[135.17382523755126,34.02876687302655],[135.17432077586355,34.02957442223586],[135.17356331167585,34.029879931794085],[135.17303318541045,34.028993119386605],[135.17179431920707,34.02770723349669],[135.17165068586593,34.02756694634644],[135.17224693592462,34.02714428329085],[135.1736591695877,34.02885520466426],[135.17382523755126,34.02876687302655]]]},"properties":{"KEY_CODE":"30362001000","PREF":"30","CITY":"362","CITY_NAME":"広川町","S_NAME":"大字広","SETAI":"30"}},{"type":"Feature","geometry":{"type":"Polygon","coordinates":[[[135.17179431920707,34.02770723349669],[135.17086060325954,34.028018019060525],[135.17146941948604,34.02776575390634],[135.16985816064246,34.026416619874],[135.1677403881568,34.025887116848686],[135.16765835253418,34.025485792173065],[135.1666566928326,34.025972732121886],[135.16717719346917,34.024687610923635],[135.16759594117792,34.024190233160745],[135.16792458601918,34.02347671434526],[135.16802660579853,34.02345021890461],[135.1681475210526,34.0233855355475],[135.16822125336475,34.02336251066562],[135.16835936949835,34.02335569943601],[135.1685109531551,34.02341659631774],[135.1689400935988,34.02379745160824],[135.16914337935196,34.0239088468132],[135.16977024808153,34.02405085915317],[135.17005313833556,34.02402262842152],[135.1701314772857,34.02399554840663],[135.1702151750823,34.02404386816316],[135.1701106643625,34.02428334079347],[135.17001847882844,34.024490496099496],[135.17000464893144,34.02454703125927],[135.17043655030386,34.02508905335183],[135.17039286417514,34.02516257246648],[135.17165665048066,34.02642835464458],[135.17224693592462,34.02714428329085],[135.17165068586593,34.02756694634644],[135.17179431920707,34.02770723349669]]]},"properties":{"KEY_CODE":"30362001001","PREF":"30","CITY":"362","CITY_NAME":"広川町","S_NAME":"大字広","SETAI":"29"}},{"type":"Feature","geometry":{"type":"Polygon","coordinates":[[[135.1727101781493,34.02684637567001],[135.1740252887528,34.02867229018475],[135.17382523755126,34.02876687302655],[135.1736591695877,34.02885520466426],[135.17224693592462,34.02714428329085],[135.1727101781493,34.02684637567001]]]},"properties":{"KEY_CODE":"30362001002","PREF":"30","CITY":"362","CITY_NAME":"広川町","S_NAME":"大字広","SETAI":"31"}},{"type":"Feature","geometry":{"type":"Polygon","coordinates":[[[135.17118463600218,34.025258643445305],[135.1727101781493,34.02684637567001],[135.17224693592462,34.02714428329085],[135.17165665048066,34.02642835464458],[135.17039286417514,34.02516257246648],[135.17043655030386,34.02508905335183],[135.17118463600218,34.025258643445305]]]},"properties":{"KEY_CODE":"30362001003","PREF":"30","CITY":"362","CITY_NAME":"広川町","S_NAME":"大字広","SETAI":"13"}},{"type":"Feature","geometry":{"type":"Polygon","coordinates":[[[135.16921797841016,34.02130837348372],[135.17075661403388,34.021065223504934],[135.17200035917085,34.02056128976221],[135.17157840263027,34.021202205402076],[135.17166229591388,34.02225110826301],[135.17076912241956,34.02366375023695],[135.1701314772857,34.02399554840663],[135.17005313833556,34.02402262842152],[135.16977024808153,34.02405085915317],[135.16914337935196,34.0239088468132],[135.1689400935988,34.02379745160824],[135.1685109531551,34.02341659631774],[135.16835936949835,34.02335569943601],[135.16822125336475,34.02336251066562],[135.1681475210526,34.0233855355475],[135.16802660579853,34.02345021890461],[135.16792458601918,34.02347671434526],[135.16782447792076,34.022924820458954],[135.1691028390104,34.02183204304507],[135.16921797841016,34.02130837348372]]]},"properties":{"KEY_CODE":"30362001004","PREF":"30","CITY":"362","CITY_NAME":"広川町","S_NAME":"大字広","SETAI":"0"}},{"type":"Feature","geometry":{"type":"Polygon","coordinates":[[[135.17324877819092,34.02657588050128],[135.1727101781493,34.02684637567001],[135.17118463600218,34.025258643445305],[135.17166191200033,34.02398349438074],[135.1711514830444,34.023749446868976],[135.17215501388148,34.02327361113568],[135.17358882012454,34.02217972413085],[135.17436651642262,34.022400065714244],[135.17496648490842,34.023304528841095],[135.1734471423303,34.02469691808723],[135.17416878527087,34.025274828786834],[135.17400972429868,34.025925129114746],[135.17324877819092,34.02657588050128]]]},"properties":{"KEY_CODE":"30362001005","PREF":"30","CITY":"362","CITY_NAME":"広川町","S_NAME":"大字広","SETAI":"65"}},{"type":"Feature","geometry":{"type":"Polygon","coordinates":[[[135.17436651642262,34.022400065714244],[135.17358882012454,34.02217972413085],[135.17215501388148,34.02327361113568],[135.1711514830444,34.023749446868976],[135.17166191200033,34.02398349438074],[135.17118463600218,34.025258643445305],[135.17043655030386,34.02508905335183],[135.17000464893144,34.02454703125927],[135.17001847882844,34.024490496099496],[135.1701106643625,34.02428334079347],[135.1702151750823,34.02404386816316],[135.1701314772857,34.02399554840663],[135.17076912241956,34.02366375023695],[135.17166229591388,34.02225110826301],[135.17157840263027,34.021202205402076],[135.17200035917085,34.02056128976221],[135.17075661403388,34.021065223504934],[135.16921797841016,34.02130837348372],[135.1692834752387,34.0194871175409],[135.17038469636694,34.01894687711693],[135.17146975152727,34.019121561485335],[135.17318465262656,34.01861375117015],[135.17365119430391,34.01841601666175],[135.17388082664655,34.01715834480179],[135.17461957499026,34.01681818886767],[135.17490686572904,34.01942322178568],[135.17523253876254,34.01985097409499],[135.17582904810763,34.020332806904854],[135.1755515291737,34.021286871047685],[135.17436651642262,34.022400065714244]]]},"properties":{"KEY_CODE":"30362001006","PREF":"30","CITY":"362","CITY_NAME":"広川町","S_NAME":"大字広","SETAI":"149"}},{"type":"Feature","geometry":{"type":"Polygon","coordinates":[[[135.17508945334225,34.02735346894884],[135.17525903901253,34.029152500449506],[135.17432077586355,34.02957442223586],[135.17382523755126,34.02876687302655],[135.1740252887528,34.02867229018475],[135.1727101781493,34.02684637567001],[135.17324877819092,34.02657588050128],[135.1743907873478,34.02782687073041],[135.17508945334225,34.02735346894884]]]},"properties":{"KEY_CODE":"30362001007","PREF":"30","CITY":"362","CITY_NAME":"広川町","S_NAME":"大字広","SETAI":"83"}},{"type":"Feature","geometry":{"type":"Polygon","coordinates":[[[135.17876738661718,34.0303228516593],[135.1786982540253,34.030342250332126],[135.17670504729256,34.030898267870455],[135.17413888274385,34.03201808891197],[135.17356331167585,34.029879931794085],[135.17432077586355,34.02957442223586],[135.17525903901253,34.029152500449506],[135.175301366421,34.02969301132052],[135.17746457205718,34.02917393677984],[135.17801836033763,34.02999820345577],[135.17851762077478,34.02983363560346],[135.17876738661718,34.0303228516593]]]},"properties":{"KEY_CODE":"30362001008","PREF":"30","CITY":"362","CITY_NAME":"広川町","S_NAME":"大字広","SETAI":"70"}},{"type":"Feature","geometry":{"type":"Polygon","coordinates":[[[135.17746457205718,34.02917393677984],[135.175301366421,34.02969301132052],[135.17525903901253,34.029152500449506],[135.17508945334225,34.02735346894884],[135.1762938817262,34.0264781839667],[135.17613004337528,34.02799310066516],[135.17746457205718,34.02917393677984]]]},"properties":{"KEY_CODE":"30362001009","PREF":"30","CITY":"362","CITY_NAME":"広川町","S_NAME":"大字広","SETAI":"53"}},{"type":"Feature","geometry":{"type":"Polygon","coordinates":[[[135.17508945334225,34.02735346894884],[135.1743907873478,34.02782687073041],[135.17324877819092,34.02657588050128],[135.17400972429868,34.025925129114746],[135.17416878527087,34.025274828786834],[135.1734471423303,34.02469691808723],[135.17496648490842,34.023304528841095],[135.17436651642262,34.022400065714244],[135.1755515291737,34.021286871047685],[135.17582904810763,34.020332806904854],[135.17635958294917,34.02078869664435],[135.17751113135802,34.02192463364056],[135.17770710174136,34.02231347492307],[135.17733904307883,34.02329806798965],[135.1757184780468,34.02464670089665],[135.17629741438262,34.025699773040984],[135.1762938817262,34.0264781839667],[135.17508945334225,34.02735346894884]]]},"properties":{"KEY_CODE":"30362001010","PREF":"30","CITY":"362","CITY_NAME":"広川町","S_NAME":"大字広","SETAI":"148"}},{"type":"Feature","geometry":{"type":"Polygon","coordinates":[[[135.1806776734376,34.02703989226389],[135.17981015914117,34.028264572500404],[135.181347187779,34.02923316673377],[135.18065016957584,34.029704784052186],[135.17876738661718,34.0303228516593],[135.17851762077478,34.02983363560346],[135.1796452954536,34.028880469520544],[135.17911137934715,34.02838202854076],[135.1793869638977,34.02811171679479],[135.1798963969136,34.027160323684875],[135.1806776734376,34.02703989226389]]]},"properties":{"KEY_CODE":"30362001011","PREF":"30","CITY":"362","CITY_NAME":"広川町","S_NAME":"大字広","SETAI":"45"}},{"type":"Feature","geometry":{"type":"Polygon","coordinates":[[[135.17911137934715,34.02838202854076],[135.17746457205718,34.02917393677984],[135.17613004337528,34.02799310066516],[135.1762938817262,34.0264781839667],[135.17629741438262,34.025699773040984],[135.177093368462,34.026434247879145],[135.17836128021602,34.0268085838159],[135.17854344523116,34.02791251693898],[135.1793869638977,34.02811171679479],[135.17911137934715,34.02838202854076]]]},"properties":{"KEY_CODE":"30362001012","PREF":"30","CITY":"362","CITY_NAME":"広川町","S_NAME":"大字広","SETAI":"41"}},{"type":"Feature","geometry":{"type":"Polygon","coordinates":[[[135.1806776734376,34.02703989226389],[135.1798963969136,34.027160323684875],[135.1793869638977,34.02811171679479],[135.17854344523116,34.02791251693898],[135.17836128021602,34.0268085838159],[135.177093368462,34.026434247879145],[135.17773153303625,34.02531031897976],[135.17804059035046,34.02563976747226],[135.17899523277006,34.025118612356636],[135.1806776734376,34.02703989226389]]]},"properties":{"KEY_CODE":"30362001013","PREF":"30","CITY":"362","CITY_NAME":"広川町","S_NAME":"大字広","SETAI":"73"}},{"type":"Feature","geometry":{"type":"Polygon","coordinates":[[[135.17911137934715,34.02838202854076],[135.1796452954536,34.028880469520544],[135.17851762077478,34.02983363560346],[135.17801836033763,34.02999820345577],[135.17746457205718,34.02917393677984],[135.17911137934715,34.02838202854076]]]},"properties":{"KEY_CODE":"30362001014","PREF":"30","CITY":"362","CITY_NAME":"広川町","S_NAME":"大字広","SETAI":"32"}},{"type":"Feature","geometry":{"type":"Polygon","coordinates":[[[135.18230436585512,34.026470092202594],[135.18208868602494,34.027940582819255],[135.181347187779,34.02923316673377],[135.17981015914117,34.028264572500404],[135.1806776734376,34.02703989226389],[135.17899523277006,34.025118612356636],[135.17851203916433,34.02459177157313],[135.17904439858708,34.02388522101779],[135.17877807818397,34.02275381935237],[135.17770710174136,34.02231347492307],[135.17751113135802,34.02192463364056],[135.1792154473318,34.02169375731128],[135.17981638799395,34.02285345749727],[135.1809506797106,34.023582140457364],[135.1817014772883,34.02337303273849],[135.18161008896624,34.02502593122504],[135.18230436585512,34.026470092202594]]]},"properties":{"KEY_CODE":"30362001015","PREF":"30","CITY":"362","CITY_NAME":"広川町","S_NAME":"大字広","SETAI":"127"}},{"type":"Feature","geometry":{"type":"Polygon","coordinates":[[[135.17899523277006,34.025118612356636],[135.17804059035046,34.02563976747226],[135.17773153303625,34.02531031897976],[135.177093368462,34.026434247879145],[135.17629741438262,34.025699773040984],[135.1757184780468,34.02464670089665],[135.17733904307883,34.02329806798965],[135.17851203916433,34.02459177157313],[135.17899523277006,34.025118612356636]]]},"properties":{"KEY_CODE":"30362001016","PREF":"30","CITY":"362","CITY_NAME":"広川町","S_NAME":"大字広","SETAI":"77"}},{"type":"Feature","geometry":{"type":"Polygon","coordinates":[[[135.17770710174136,34.02231347492307],[135.17877807818397,34.02275381935237],[135.17904439858708,34.02388522101779],[135.17851203916433,34.02459177157313],[135.17733904307883,34.02329806798965],[135.17770710174136,34.02231347492307]]]},"properties":{"KEY_CODE":"30362001017","PREF":"30","CITY":"362","CITY_NAME":"広川町","S_NAME":"大字広","SETAI":"51"}},{"type":"Feature","geometry":{"type":"Polygon","coordinates":[[[135.17356331167585,34.029879931794085],[135.17413888274385,34.03201808891197],[135.1740862951357,34.032040978285025],[135.17375625695712,34.03170180008414],[135.17072351611597,34.03130028196722],[135.17105935096583,34.03076120048253],[135.1708228317913,34.02995778633068],[135.17042278244045,34.03022751776192],[135.16980625139965,34.02805878300776],[135.17086060325954,34.028018019060525],[135.17179431920707,34.02770723349669],[135.17303318541045,34.028993119386605],[135.17356331167585,34.029879931794085]]]},"properties":{"KEY_CODE":"30362001018","PREF":"30","CITY":"362","CITY_NAME":"広川町","S_NAME":"大字広","SETAI":"48"}},{"type":"Feature","geometry":{"type":"Polygon","coordinates":[[[135.16705246924582,34.024613372074676],[135.16622890566705,34.02576528557258],[135.166472270163,34.026329424016225],[135.1674739304914,34.02664162688459],[135.16774864881077,34.02803497935572],[135.16538364147365,34.028452078409856],[135.16411741011999,34.02789238383093],[135.16109645037636,34.026956546072086],[135.1606832868908,34.02637221855841],[135.16290828365334,34.02508059293597],[135.16261750535944,34.02346187080626],[135.165049346833,34.02324742500834],[135.1666762498964,34.0238981678724],[135.16705246924582,34.024613372074676]]]},"properties":{"KEY_CODE":"303620020","PREF":"30","CITY":"362","CITY_NAME":"広川町","S_NAME":"大字和田","SETAI":"46"}},{"type":"Feature","geometry":{"type":"Polygon","coordinates":[[[135.1618684148245,34.0011015997347],[135.15996196870927,34.00119930801882],[135.15913176286392,34.001001912866194],[135.15783684552795,34.00124380445282],[135.1572402409643,34.00249316928145],[135.15517070514855,34.003387294566735],[135.15442242275202,34.00353344442847],[135.15364109957193,34.00447990714809],[135.153257558225,34.00600144179662],[135.15352952144275,34.00757552467918],[135.15296161677952,34.007489205238215],[135.1514086016485,34.00795673007372],[135.15174417820037,34.00743798445776],[135.1508898494038,34.006787200361394],[135.14977609924568,34.00653270482974],[135.14772791440618,34.00525946990028],[135.14551515605876,34.005753092876155],[135.14423943969902,34.005291084643495],[135.14265428143105,34.00655152520628],[135.14048470441512,34.00602409682783],[135.14080489829422,34.004457648327275],[135.14005755039483,34.003043919313185],[135.1385315763237,34.00251515758695],[135.13845546978587,34.00193523864022],[135.13705174738877,34.000440118244875],[135.13494646164844,34.00024688679396],[135.13461043521045,33.99974938050304],[135.13645880137224,33.99875232221333],[135.13838858404964,33.99735827760791],[135.13903589480375,33.99588200255254],[135.13984466469964,33.9951658432886],[135.14005247269958,33.994236990720864],[135.1409246625478,33.99287085783407],[135.14085482873807,33.99175031472328],[135.14172264894887,33.9914137662594],[135.1438220790556,33.98946112708817],[135.14485919861286,33.990083366613206],[135.14582551323952,33.990379977919396],[135.14643604912771,33.99066482021329],[135.14692848952367,33.990921513561],[135.14778307349133,33.99074754177585],[135.14857868682108,33.99091631614535],[135.15046314394007,33.9918613247036],[135.15099168370844,33.991856519484884],[135.1521651957781,33.992001109504145],[135.15271090551954,33.99230336601965],[135.15298680464184,33.992612638710476],[135.1536975207161,33.992690354623065],[135.15399082803506,33.992548122256345],[135.15526668083766,33.992332200377824],[135.156187927059,33.99276379633963],[135.1573292516955,33.9928990981926],[135.15791190177436,33.99362629477641],[135.16063776954175,33.99457758859263],[135.1624670808338,33.994871653698176],[135.16423674160015,33.99615602508858],[135.16366074452776,33.9979658016023],[135.1624035781271,34.00087549028631],[135.1618684148245,34.0011015997347]]]},"properties":{"KEY_CODE":"303620030","PREF":"30","CITY":"362","CITY_NAME":"広川町","S_NAME":"大字唐尾","SETAI":"120"}},{"type":"Feature","geometry":{"type":"Polygon","coordinates":[[[135.15025997202963,34.01825605274446],[135.14867749833886,34.017507230565236],[135.1478841933197,34.01827016952496],[135.14657186253223,34.018727915318046],[135.1459616857956,34.01861592378361],[135.14422246914228,34.01910422365599],[135.14336813057477,34.0189719296175],[135.14136946168367,34.019561920509815],[135.13952326991233,34.019287170640624],[135.13781458079006,34.01784289281928],[135.13683804861265,34.016805336260525],[135.13857732685625,34.01646984057603],[135.13981324761298,34.01710025759417],[135.14049983617102,34.01630703182943],[135.14280351967588,34.01571719541759],[135.14315458977296,34.014893303528986],[135.14300179071827,34.013337200558524],[135.14443606591868,34.01315388401575],[135.14565675624627,34.01378455852654],[135.14637364329377,34.0134387583072],[135.14690774944168,34.01243172003027],[135.14629751871493,34.0116182098884],[135.14707549576576,34.010784176303474],[135.1494099280462,34.010041663620655],[135.15093560291118,34.00982810395251],[135.1514086016485,34.00795673007372],[135.15296161677952,34.007489205238215],[135.15352952144275,34.00757552467918],[135.153257558225,34.00600144179662],[135.15364109957193,34.00447990714809],[135.15442242275202,34.00353344442847],[135.15517070514855,34.003387294566735],[135.1572402409643,34.00249316928145],[135.15783684552795,34.00124380445282],[135.15913176286392,34.001001912866194],[135.15996196870927,34.00119930801882],[135.1618684148245,34.0011015997347],[135.16156211640427,34.00295348933504],[135.162209459586,34.00343178763252],[135.1632165620826,34.005293465664565],[135.16451513381426,34.00559967748914],[135.1643438261458,34.00683266240903],[135.1650503261513,34.007224996847164],[135.1643366114495,34.00859952816196],[135.16364926574457,34.0089799832163],[135.16249276748755,34.00874812015523],[135.1622365657561,34.00999277521213],[135.1623919882977,34.011410688848386],[135.16102993279333,34.01177384176434],[135.1608708499127,34.012471172830566],[135.1601241613721,34.01281837396017],[135.15974556803522,34.01357759070595],[135.1602856995101,34.01374948303956],[135.16094241333235,34.01541845813081],[135.1621712531031,34.01581170308082],[135.16199275151976,34.01727366884408],[135.16117087574116,34.0186854549106],[135.16024556174008,34.01918920288593],[135.15899037362075,34.01879618786284],[135.15765519949403,34.01767137630522],[135.15672799823025,34.01784222731461],[135.15556591267193,34.016872967355106],[135.15221463430186,34.01546712700056],[135.15159103390556,34.01622365011921],[135.150226355483,34.0173069318798],[135.15025997202963,34.01825605274446]]]},"properties":{"KEY_CODE":"303620040","PREF":"30","CITY":"362","CITY_NAME":"広川町","S_NAME":"大字西広","SETAI":"131"}},{"type":"Feature","geometry":{"type":"Polygon","coordinates":[[[135.16661518870754,34.008856180582576],[135.16652163691182,34.01082531500461],[135.16686550718427,34.01120912202067],[135.16670939698065,34.01302018588387],[135.16759222068086,34.01467221283254],[135.16590065937442,34.015298997522315],[135.1655238054394,34.01581454471797],[135.16419952090564,34.016591429488535],[135.16199275151976,34.01727366884408],[135.1621712531031,34.01581170308082],[135.16094241333235,34.01541845813081],[135.1602856995101,34.01374948303956],[135.15974556803522,34.01357759070595],[135.1601241613721,34.01281837396017],[135.1608708499127,34.012471172830566],[135.16102993279333,34.01177384176434],[135.1623919882977,34.011410688848386],[135.1622365657561,34.00999277521213],[135.16249276748755,34.00874812015523],[135.16364926574457,34.0089799832163],[135.1643366114495,34.00859952816196],[135.1650503261513,34.007224996847164],[135.1643438261458,34.00683266240903],[135.16451513381426,34.00559967748914],[135.1632165620826,34.005293465664565],[135.162209459586,34.00343178763252],[135.16156211640427,34.00295348933504],[135.1618684148245,34.0011015997347],[135.1624035781271,34.00087549028631],[135.16366074452776,33.9979658016023],[135.16423674160015,33.99615602508858],[135.16494915771477,33.99606352415309],[135.1672955302888,33.99472610525811],[135.16993778016462,33.99503514396583],[135.16972144638956,33.99598666838381],[135.16987726536917,33.997182579502905],[135.16971947883724,33.999880157042405],[135.16843556729233,34.00281072368648],[135.1687400711182,34.00334428503945],[135.16855748067005,34.00457016150838],[135.16794724685928,34.00478381463614],[135.16661069434886,34.00619541845613],[135.16700756634637,34.007768517488024],[135.1660445273472,34.007767476177506],[135.16661518870754,34.008856180582576]]]},"properties":{"KEY_CODE":"30362005000","PREF":"30","CITY":"362","CITY_NAME":"広川町","S_NAME":"大字山本","SETAI":"48"}},{"type":"Feature","geometry":{"type":"Polygon","coordinates":[[[135.1606832868908,34.02637221855841],[135.1600285129143,34.025919214406095],[135.1585639529482,34.02604104470801],[135.15795352081653,34.02456620639192],[135.1574044223763,34.02441368711063],[135.154825838441,34.02608174424192],[135.15368175230688,34.026173183692876],[135.15233916991085,34.0259189623674],[135.1512253993181,34.02520679808136],[135.15079821734625,34.024525569708175],[135.1516373473191,34.023640659093616],[135.15131681920812,34.02291847224249],[135.15032525884254,34.0222471494508],[135.1499284319658,34.02148428423471],[135.15029474560018,34.020986032838344],[135.15131686435322,34.02100633599374],[135.1517440098829,34.020284098040804],[135.15178986065285,34.01886024013725],[135.15025997202963,34.01825605274446],[135.150226355483,34.0173069318798],[135.15159103390556,34.01622365011921],[135.15221463430186,34.01546712700056],[135.15556591267193,34.016872967355106],[135.15672799823025,34.01784222731461],[135.15765519949403,34.01767137630522],[135.15899037362075,34.01879618786284],[135.16024556174008,34.01918920288593],[135.16117087574116,34.0186854549106],[135.16199275151976,34.01727366884408],[135.16419952090564,34.016591429488535],[135.1655238054394,34.01581454471797],[135.16590065937442,34.015298997522315],[135.16759222068086,34.01467221283254],[135.16670939698065,34.01302018588387],[135.16686550718427,34.01120912202067],[135.16652163691182,34.01082531500461],[135.16661518870754,34.008856180582576],[135.16703274156288,34.01005287823212],[135.16808673761957,34.01059997496763],[135.16894543382892,34.01057550402298],[135.17040006796873,34.011247005582746],[135.1714334315772,34.01251264390212],[135.1714511764701,34.01350898118807],[135.17226919512015,34.015320568260506],[135.17211517396674,34.016140929713664],[135.17311706325935,34.0173645023129],[135.17318465262656,34.01861375117015],[135.17146975152727,34.019121561485335],[135.17038469636694,34.01894687711693],[135.1692834752387,34.0194871175409],[135.16921797841016,34.02130837348372],[135.1691028390104,34.02183204304507],[135.16782447792076,34.022924820458954],[135.16792458601918,34.02347671434526],[135.16759594117792,34.024190233160745],[135.16717719346917,34.024687610923635],[135.16705246924582,34.024613372074676],[135.1666762498964,34.0238981678724],[135.165049346833,34.02324742500834],[135.16261750535944,34.02346187080626],[135.16290828365334,34.02508059293597],[135.1606832868908,34.02637221855841]]]},"properties":{"KEY_CODE":"30362005001","PREF":"30","CITY":"362","CITY_NAME":"広川町","S_NAME":"大字山本","SETAI":"113"}},{"type":"Feature","geometry":{"type":"Polygon","coordinates":[[[135.17523253876254,34.01985097409499],[135.17490686572904,34.01942322178568],[135.17461957499026,34.01681818886767],[135.17388082664655,34.01715834480179],[135.17365119430391,34.01841601666175],[135.17318465262656,34.01861375117015],[135.17311706325935,34.0173645023129],[135.17211517396674,34.016140929713664],[135.17226919512015,34.015320568260506],[135.1714511764701,34.01350898118807],[135.1714334315772,34.01251264390212],[135.17040006796873,34.011247005582746],[135.16894543382892,34.01057550402298],[135.16808673761957,34.01059997496763],[135.16703274156288,34.01005287823212],[135.16661518870754,34.008856180582576],[135.1660445273472,34.007767476177506],[135.16700756634637,34.007768517488024],[135.16661069434886,34.00619541845613],[135.16794724685928,34.00478381463614],[135.16855748067005,34.00457016150838],[135.1687400711182,34.00334428503945],[135.16843556729233,34.00281072368648],[135.16971947883724,33.999880157042405],[135.16987726536917,33.997182579502905],[135.16972144638956,33.99598666838381],[135.16993778016462,33.99503514396583],[135.17276402463364,33.99450240608851],[135.17412055275474,33.99477818929559],[135.1748680754894,33.99461458781511],[135.1750368670946,33.99569140425076],[135.17479814725993,33.99703905872192],[135.17509431970996,33.9975360660154],[135.1773944095257,33.999339835043976],[135.17802592033559,34.001769151790604],[135.17906039149472,34.003034751327995],[135.17891762348816,34.00386267745464],[135.17780471658864,34.005578069652756],[135.17764233594048,34.00660547337432],[135.17807557045927,34.00728637987584],[135.17908029407883,34.00777346726738],[135.17873164698526,34.0084971787893],[135.17905077685418,34.00918098244535],[135.17886483992754,34.010187239698105],[135.17925209969144,34.01157091620613],[135.1788853393879,34.01221561422871],[135.1775611330142,34.013368773796984],[135.17797062478198,34.01402416077027],[135.17872058454788,34.01403566046233],[135.17898604166763,34.01507845526386],[135.17870630420944,34.01583713195688],[135.17925525725576,34.01624115282068],[135.17959551926683,34.0172378195507],[135.1784376608301,34.01862495089302],[135.17597630891754,34.01920248513599],[135.17523253876254,34.01985097409499]]]},"properties":{"KEY_CODE":"303620060","PREF":"30","CITY":"362","CITY_NAME":"広川町","S_NAME":"大字上中野","SETAI":"192"}},{"type":"Feature","geometry":{"type":"Polygon","coordinates":[[[135.17713384030256,34.0201890064749],[135.17635958294917,34.02078869664435],[135.17582904810763,34.020332806904854],[135.17523253876254,34.01985097409499],[135.17597630891754,34.01920248513599],[135.1784376608301,34.01862495089302],[135.17959551926683,34.0172378195507],[135.17925525725576,34.01624115282068],[135.17870630420944,34.01583713195688],[135.17898604166763,34.01507845526386],[135.17872058454788,34.01403566046233],[135.17797062478198,34.01402416077027],[135.1775611330142,34.013368773796984],[135.1788853393879,34.01221561422871],[135.17925209969144,34.01157091620613],[135.17886483992754,34.010187239698105],[135.17905077685418,34.00918098244535],[135.17873164698526,34.0084971787893],[135.17908029407883,34.00777346726738],[135.17807557045927,34.00728637987584],[135.17764233594048,34.00660547337432],[135.17780471658864,34.005578069652756],[135.17891762348816,34.00386267745464],[135.17906039149472,34.003034751327995],[135.17974783635972,34.00281845900091],[135.18239324338248,34.00482082101844],[135.18313820983482,34.0062301119066],[135.18316988351,34.007029900628716],[135.18379506295585,34.007551755117355],[135.18399879761873,34.009180439141744],[135.18273867525753,34.01242332959787],[135.18316591631094,34.01220839027798],[135.18285504462742,34.013935768513136],[135.18351762287318,34.013948207286276],[135.1830045851721,34.01700249377076],[135.1817765650537,34.017869809784344],[135.18118784206084,34.01825017200976],[135.1786118216988,34.019266927300194],[135.17713384030256,34.0201890064749]]]},"properties":{"KEY_CODE":"303620070","PREF":"30","CITY":"362","CITY_NAME":"広川町","S_NAME":"大字南金屋","SETAI":"72"}},{"type":"Feature","geometry":{"type":"Polygon","coordinates":[[[135.18565533681772,34.01696404488652],[135.185402455642,34.017430475016546],[135.18473800102825,34.01711460282562],[135.18433839218488,34.01700291511833],[135.18403912422116,34.016906401817344],[135.18391920409894,34.016815871371435],[135.18375613060627,34.016735758715086],[135.18358805609574,34.016727456824654],[135.1830045851721,34.01700249377076],[135.18351762287318,34.013948207286276],[135.18285504462742,34.013935768513136],[135.18316591631094,34.01220839027798],[135.18273867525753,34.01242332959787],[135.18399879761873,34.009180439141744],[135.18502987367424,34.01008476893049],[135.18657513966835,34.010812040158626],[135.18727472830898,34.010853579105834],[135.18769642173888,34.01031387700781],[135.1911992020911,34.011589190494874],[135.19095092682116,34.01240445845042],[135.18956596795556,34.01282540113057],[135.18856681910998,34.013544280549134],[135.18787293677215,34.014705387456495],[135.18780671991547,34.01492625454903],[135.18778948376996,34.01531536231017],[135.18629829254206,34.01553383778617],[135.18616378347403,34.01595287770461],[135.18565533681772,34.01696404488652]]]},"properties":{"KEY_CODE":"303620080","PREF":"30","CITY":"362","CITY_NAME":"広川町","S_NAME":"大字殿","SETAI":"41"}},{"type":"Feature","geometry":{"type":"Polygon","coordinates":[[[135.1859225695059,34.02114666350289],[135.18464659507248,34.02160869267038],[135.184239141784,34.02119183108708],[135.18398782286485,34.02078572692219],[135.18334147563237,34.02065436294935],[135.18288132259278,34.019867648063176],[135.1819519309839,34.01877676493048],[135.18161090613893,34.01877406793482],[135.1814588973552,34.01899548544227],[135.18093437866253,34.01933922580277],[135.18052198063427,34.01953720940877],[135.18003220891794,34.01965325237266],[135.17967324363508,34.01972142760046],[135.17958826498517,34.01975339992955],[135.1793392356159,34.01990359095296],[135.17875501325148,34.0203500356771],[135.1779977957009,34.020753340427405],[135.1771338403026,34.0201890064749],[135.1786118216988,34.019266927300194],[135.18118784206084,34.01825017200976],[135.1817765650537,34.017869809784344],[135.18358805609574,34.016727456824654],[135.18375613060627,34.016735758715086],[135.18391920409894,34.016815871371435],[135.18403912422116,34.016906401817344],[135.18433839218488,34.01700291511833],[135.18473800102825,34.01711460282562],[135.18540245564196,34.017430475016546],[135.18565533681772,34.01696404488652],[135.18616378347403,34.01595287770461],[135.18629829254206,34.01553383778618],[135.18778948376996,34.01531536231017],[135.18757031476565,34.01604516448923],[135.18601708981956,34.01838527731115],[135.18655864258713,34.0201309944208],[135.1859225695059,34.02114666350289]]]},"properties":{"KEY_CODE":"303620090","PREF":"30","CITY":"362","CITY_NAME":"広川町","S_NAME":"大字東中","SETAI":"41"}},{"type":"Feature","geometry":{"type":"Polygon","coordinates":[[[135.18863724489697,34.02501668581567],[135.18772035483443,34.02531588100929],[135.18575080455452,34.02524662028495],[135.18565050508357,34.02584619385216],[135.18452302406854,34.026120722631724],[135.1832476060627,34.025839654862345],[135.18230436585512,34.026470092202594],[135.18161008896624,34.02502593122504],[135.1817014772883,34.02337303273849],[135.1809506797106,34.023582140457364],[135.17981638799395,34.02285345749727],[135.1792154473318,34.02169375731128],[135.17751113135802,34.02192463364056],[135.17635958294917,34.02078869664435],[135.17713384030256,34.0201890064749],[135.1779977957009,34.020753340427405],[135.17875501325148,34.0203500356771],[135.1793392356159,34.01990359095296],[135.17958826498517,34.01975339992955],[135.17967324363508,34.01972142760046],[135.18003220891794,34.01965325237266],[135.18052198063427,34.01953720940877],[135.18093437866253,34.01933922580277],[135.1814588973552,34.01899548544227],[135.18161090613893,34.01877406793482],[135.1819519309839,34.01877676493048],[135.18288132259278,34.019867648063176],[135.18334147563237,34.02065436294935],[135.18398782286485,34.02078572692219],[135.184239141784,34.02119183108708],[135.18464659507248,34.02160869267038],[135.18604486640334,34.02134398643854],[135.18632379566884,34.02174843702456],[135.18687722116988,34.022055817087264],[135.18720449762262,34.022171947549666],[135.1873678119106,34.02226417088656],[135.1876573204069,34.02250908547938],[135.1882262815794,34.02310520238579],[135.1887428451277,34.023465578328434],[135.18930689879207,34.02397431920325],[135.18863724489697,34.02501668581567]]]},"properties":{"KEY_CODE":"303620100","PREF":"30","CITY":"362","CITY_NAME":"広川町","S_NAME":"大字名島","SETAI":"105"}},{"type":"Feature","geometry":{"type":"Polygon","coordinates":[[[135.1937841714202,34.02510287445704],[135.19370642677458,34.025120958251435],[135.19342622564162,34.0251861700836],[135.1929971775173,34.02511291465591],[135.19249479246804,34.02511961161598],[135.1914769514687,34.02458366538353],[135.1908461070631,34.02409576468948],[135.1901330307057,34.02397512574494],[135.18930689879207,34.02397431920325],[135.1887428451277,34.023465578328434],[135.1882262815794,34.02310520238579],[135.1876573204069,34.02250908547938],[135.1873678119106,34.02226417088656],[135.18720449762262,34.022171947549666],[135.18687722116988,34.022055817087264],[135.18632379566884,34.02174843702456],[135.18604486640334,34.02134398643854],[135.1859225695059,34.02114666350289],[135.18655864258713,34.0201309944208],[135.18601708981956,34.01838527731115],[135.18757031476565,34.01604516448923],[135.18778948376996,34.01531536231017],[135.18780671991547,34.01492625454903],[135.1883020622784,34.01466638625371],[135.19029961804404,34.01441403614356],[135.19133985679105,34.01422339277066],[135.19219405764136,34.01411674166543],[135.19395889548235,34.0145368615259],[135.19560075701318,34.015227184754174],[135.19661693289396,34.01565179908917],[135.19688272839156,34.015945279629086],[135.19741381921443,34.01637939052874],[135.19754389850527,34.016965695427075],[135.19780929026615,34.01714126205864],[135.19901935145293,34.01714577347038],[135.19930382530427,34.01723524793497],[135.20069386155464,34.01750476607872],[135.20160101515356,34.017853402169806],[135.20245311516086,34.01829197225528],[135.2024862906585,34.01858886229479],[135.20251123007438,34.01876243572612],[135.20236729520965,34.01977224985679],[135.20204029184393,34.020322055465776],[135.20194457982274,34.021032543140045],[135.2016959916088,34.02169949358096],[135.20148091693778,34.022626847509294],[135.20140789009662,34.022936990187404],[135.20050014750757,34.02320549550116],[135.1997246418431,34.02330919357928],[135.1988728963068,34.024289580099676],[135.1977695634018,34.02451156753304],[135.1966650700786,34.02486567080211],[135.19611846370927,34.02468149715061],[135.1957020465977,34.0248030144724],[135.19534056357875,34.02503772642729],[135.19501253482224,34.02518714945864],[135.19453798089222,34.02503246046896],[135.1937841714202,34.02510287445704]]]},"properties":{"KEY_CODE":"303620110","PREF":"30","CITY":"362","CITY_NAME":"広川町","S_NAME":"大字柳瀬","SETAI":"27"}},{"type":"Feature","geometry":{"type":"Polygon","coordinates":[[[135.21131386570946,34.010070917532104],[135.2107635329461,34.01060679374272],[135.2094724974249,34.01118975637558],[135.20855182848018,34.01265820385486],[135.20844006862492,34.01389208880607],[135.20766676437606,34.014579354931385],[135.207267303669,34.01620568192163],[135.20617140530538,34.0169601619334],[135.20539589973168,34.01828765469096],[135.2026012330354,34.01840027781091],[135.20245311516086,34.01829197225528],[135.20160101515356,34.017853402169806],[135.20069386155464,34.01750476607872],[135.19930382530427,34.01723524793497],[135.19901935145293,34.01714577347038],[135.19780929026615,34.01714126205864],[135.19754389850527,34.016965695427075],[135.19741381921443,34.01637939052874],[135.19688272839156,34.015945279629086],[135.19661693289396,34.01565179908917],[135.19560075701318,34.015227184754174],[135.19395889548235,34.0145368615259],[135.19219405764136,34.014116741665404],[135.19133985679105,34.01422339277066],[135.19029961804404,34.01441403614356],[135.1883020622784,34.01466638625371],[135.18787293677215,34.014705387456495],[135.18856681910998,34.013544280549134],[135.18956596795556,34.01282540113057],[135.19095092682116,34.01240445845042],[135.1911992020911,34.011589190494874],[135.18769642173888,34.01031387700781],[135.18727472830898,34.010853579105834],[135.18657513966835,34.010812040158626],[135.18502987367424,34.01008476893049],[135.18399879761873,34.009180439141744],[135.18379506295585,34.007551755117355],[135.18316988351,34.007029900628716],[135.18313820983482,34.0062301119066],[135.18239324338248,34.00482082101844],[135.17974783635972,34.00281845900091],[135.17906039149472,34.003034751327995],[135.17802592033559,34.001769151790604],[135.1773944095257,33.999339835043976],[135.17509431970996,33.9975360660154],[135.17479814725993,33.99703905872192],[135.1750368670946,33.99569140425076],[135.1748680754894,33.99461458781511],[135.1755422921015,33.9938015042464],[135.17702605612234,33.99343996901272],[135.1780877304341,33.99351158724908],[135.1796787169976,33.99365927630112],[135.18030981185612,33.993826612358816],[135.18141889519447,33.9939199301203],[135.18258043645847,33.994487475480405],[135.18421559966427,33.99535990163512],[135.18459339270137,33.996063244494444],[135.18532892010398,33.996915607690354],[135.18557932446924,33.99804903098659],[135.18610019051832,33.99851721793326],[135.1862295800396,33.998561463241934],[135.1879299785145,33.99890868885494],[135.18997553239097,33.99977995318206],[135.1907112735864,33.99942431042445],[135.19113847946733,33.99887490772363],[135.1933966123842,33.998061427645816],[135.19394571614112,33.99798008594928],[135.19445941723035,33.998011768882385],[135.19464747147,33.998193457022424],[135.19440481249947,33.99875267348792],[135.19431399830344,33.998912670961936],[135.19480206244918,33.99937665804413],[135.19504142953875,33.99970448275454],[135.19551761021899,34.00062269673949],[135.19642083729437,34.001833471288634],[135.1972291263003,34.002755396622625],[135.19961650532773,34.00374943963527],[135.20131334169605,34.00396233404301],[135.2021477848802,34.004311051832445],[135.20318851937088,34.004631798702896],[135.20407817328868,34.003931930467026],[135.2050755640926,34.004175746823506],[135.20546786321952,34.005406681472216],[135.20676421540833,34.00611869929923],[135.2104355123401,34.007361684902996],[135.21078507318296,34.00860612998323],[135.21136945275384,34.00918096246334],[135.21131386570946,34.010070917532104]]]},"properties":{"KEY_CODE":"303620120","PREF":"30","CITY":"362","CITY_NAME":"広川町","S_NAME":"大字井関","SETAI":"82"}},{"type":"Feature","geometry":{"type":"Polygon","coordinates":[[[135.20407817328868,34.003931930467026],[135.20318851937088,34.004631798702896],[135.2021477848802,34.004311051832445],[135.20131334169605,34.00396233404301],[135.19961650532773,34.00374943963527],[135.1972291263003,34.002755396622625],[135.19642083729437,34.001833471288634],[135.19551761021899,34.00062269673949],[135.19504142953875,33.99970448275454],[135.19480206244918,33.99937665804413],[135.19431399830344,33.998912670961936],[135.19440481249947,33.99875267348792],[135.19464747147,33.998193457022424],[135.19445941723035,33.998011768882385],[135.19394571614112,33.99798008594928],[135.1933966123842,33.998061427645816],[135.1911384794673,33.99887490772363],[135.1907112735864,33.99942431042445],[135.18997553239097,33.99977995318206],[135.1879299785145,33.99890868885494],[135.1862295800396,33.998561463241934],[135.18610019051832,33.99851721793326],[135.1855793244693,33.998049030986586],[135.18532892010398,33.996915607690354],[135.18459339270137,33.996063244494444],[135.18421559966427,33.99535990163512],[135.18258043645847,33.994487475480405],[135.1814188951944,33.99391993012031],[135.18030981185612,33.993826612358816],[135.1796787169976,33.99365927630112],[135.1780877304341,33.99351158724908],[135.17702605612234,33.99343996901272],[135.1755422921015,33.993801504246385],[135.17517733837994,33.993011455839905],[135.1746431457845,33.99194543577819],[135.17486710389673,33.990270029231226],[135.17586964354987,33.987352578463494],[135.17608654794418,33.985659216806674],[135.17556092743828,33.98407639031442],[135.17755344993003,33.98441696225888],[135.1828722106399,33.98457817989632],[135.1863313987356,33.98493482298902],[135.1870561804488,33.98479521955131],[135.18759591629623,33.98290856423871],[135.18862502671394,33.98411727366826],[135.1909908271981,33.9838170137923],[135.19154535758426,33.98490326376763],[135.191836250863,33.985463170279594],[135.19205404574598,33.98609923153384],[135.19263211818938,33.98663031289364],[135.1933175858821,33.98739396910198],[135.19377939630942,33.98792639460167],[135.19403011042067,33.98832022560617],[135.19418162694467,33.99014790555757],[135.19559169208458,33.991552479255745],[135.19613009527382,33.9925931025248],[135.19639440725336,33.99316156025626],[135.19669652925802,33.9944387115887],[135.19671451415422,33.99470197859066],[135.1968433778178,33.99695929138087],[135.19753817030653,33.9971669605304],[135.19751079611717,33.99822584813584],[135.19808570240139,33.99822466174259],[135.19819770513985,33.99911231343836],[135.1987641091099,33.998918356775455],[135.20012080343955,33.99957292805083],[135.20184154880312,34.001362454790865],[135.2024795834098,34.00179371289688],[135.20360841797438,34.00253975398002],[135.20407817328868,34.003931930467026]]]},"properties":{"KEY_CODE":"303620130","PREF":"30","CITY":"362","CITY_NAME":"広川町","S_NAME":"大字河瀬","SETAI":"21"}},{"type":"Feature","geometry":{"type":"Polygon","coordinates":[[[135.23953412875358,34.009845590315564],[135.23878612932506,34.00926310600578],[135.23785483457638,34.00913789248366],[135.23569795365316,34.00939333667598],[135.23462585924787,34.00897307760549],[135.233139358881,34.009123610545636],[135.23132830116356,34.00859040912543],[135.22979157091154,34.00871170905759],[135.22585927042883,34.0080406511155],[135.22486837740482,34.007272726285436],[135.22372284885606,34.007476845478884],[135.22262092507313,34.00726663411341],[135.2191156553708,34.00814482606852],[135.21797086076825,34.00806333307673],[135.21663797736707,34.008671477614136],[135.21468215849436,34.00989378935069],[135.21363749302898,34.00983035867321],[135.2131944853513,34.01023113169404],[135.21131386570946,34.010070917532104],[135.21136945275384,34.00918096246334],[135.21078507318296,34.00860612998323],[135.2104355123401,34.007361684902996],[135.20676421540833,34.00611869929923],[135.20546786321952,34.005406681472216],[135.2050755640926,34.004175746823506],[135.20407817328868,34.003931930467026],[135.20360841797438,34.00253975398002],[135.2024795834098,34.00179371289688],[135.20184154880312,34.001362454790865],[135.20012080343955,33.99957292805083],[135.1987641091099,33.998918356775455],[135.19819770513985,33.99911231343836],[135.19808570240136,33.99822466174259],[135.19751079611717,33.99822584813586],[135.19753817030653,33.99716696053042],[135.1968433778178,33.99695929138087],[135.19671451415422,33.99470197859066],[135.19669652925802,33.9944387115887],[135.19639440725336,33.99316156025626],[135.19613009527382,33.9925931025248],[135.19559169208458,33.99155247925571],[135.19418162694467,33.99014790555757],[135.19403011042067,33.988320225606145],[135.19377939630942,33.98792639460167],[135.1933175858821,33.98739396910198],[135.19263211818938,33.98663031289364],[135.19205404574598,33.98609923153384],[135.191836250863,33.985463170279594],[135.19154535758426,33.98490326376763],[135.1909908271981,33.9838170137923],[135.19132304006968,33.98234454392541],[135.19210131513995,33.981597817330496],[135.19293081458295,33.98129826881436],[135.1961386867324,33.9806911033305],[135.1964974867435,33.982103868503756],[135.19800105165334,33.98506369510183],[135.1989558963618,33.98647088988572],[135.20006803448985,33.987159090782974],[135.20059781436296,33.987399475831914],[135.20103404976808,33.988085253600175],[135.20120245795485,33.988621660053894],[135.20353816802006,33.98885301261189],[135.20386161404306,33.98881565785525],[135.20440446527536,33.98857221374563],[135.2054372200646,33.98875834695237],[135.20771510692222,33.98947314289886],[135.20786079025063,33.990030664852924],[135.20795120071853,33.99189822343271],[135.2081846378298,33.992294587328594],[135.2086550914285,33.99269261318666],[135.20988138927228,33.992933901462045],[135.210791274673,33.99359505501989],[135.212148879185,33.993621612757664],[135.2126445663526,33.99362477350847],[135.21376027667586,33.994170435971895],[135.21504998840317,33.99455561385373],[135.21611996223356,33.99538820610168],[135.21687301538432,33.99553667443036],[135.21721242594194,33.996131198820976],[135.21796228000437,33.99662069518121],[135.2181324018684,33.996873090405394],[135.21819413416134,33.99719664416103],[135.21943963824606,33.997707158364975],[135.22133502872143,33.9990386833567],[135.22281974466173,33.999317242505455],[135.2240012730211,33.99975545742737],[135.22518085834912,34.000409184801065],[135.22646234790543,34.001709863470644],[135.22783845043392,34.00328920195121],[135.22821971800187,34.004027655509724],[135.229444307997,34.004484125563536],[135.23043420064113,34.004669768939785],[135.23090305350274,34.00526521053235],[135.23320175878632,34.00614123393947],[135.23665454621664,34.00692562415357],[135.2375558091898,34.00738003018246],[135.2391651608865,34.00821578316768],[135.24028427056524,34.00842018900459],[135.24111767157237,34.00874876923427],[135.24092085532817,34.00917680428321],[135.2401384443052,34.009761689992324],[135.23953412875358,34.009845590315564]]]},"properties":{"KEY_CODE":"303620140","PREF":"30","CITY":"362","CITY_NAME":"広川町","S_NAME":"大字前田","SETAI":"62"}},{"type":"Feature","geometry":{"type":"Polygon","coordinates":[[[135.2375720446266,34.00068113238208],[135.23861530660258,34.0025051195044],[135.24079926547853,34.004653401511895],[135.2410293128843,34.005386101724895],[135.2405201939774,34.0065715289668],[135.24111767157237,34.00874876923427],[135.24028427056524,34.00842018900459],[135.2391651608865,34.008215783167685],[135.2375558091898,34.00738003018246],[135.23665454621664,34.00692562415357],[135.23320175878632,34.00614123393947],[135.23090305350274,34.00526521053235],[135.23043420064113,34.004669768939785],[135.229444307997,34.004484125563536],[135.2282197180018,34.00402765550974],[135.22783845043392,34.003289201951205],[135.22646234790543,34.001709863470644],[135.22518085834912,34.00040918480108],[135.2240012730211,33.99975545742737],[135.22281974466173,33.999317242505455],[135.22133502872143,33.9990386833567],[135.2194396382461,33.997707158364996],[135.21819413416134,33.997196644161036],[135.2181324018684,33.996873090405394],[135.21796228000437,33.99662069518121],[135.21721242594194,33.996131198820976],[135.21687301538432,33.99553667443032],[135.21611996223356,33.99538820610168],[135.21504998840317,33.99455561385373],[135.21376027667586,33.994170435971895],[135.2126445663526,33.99362477350847],[135.212148879185,33.993621612757664],[135.210791274673,33.99359505501987],[135.20988138927228,33.992933901462045],[135.2086550914284,33.99269261318666],[135.2081846378298,33.992294587328594],[135.20795120071853,33.99189822343272],[135.20786079025063,33.990030664852924],[135.20771510692222,33.98947314289886],[135.2054372200646,33.98875834695237],[135.20440446527536,33.98857221374563],[135.20386161404306,33.98881565785525],[135.20353816802006,33.98885301261189],[135.20120245795485,33.988621660053894],[135.20103404976808,33.988085253600175],[135.20059781436296,33.987399475831914],[135.20006803448985,33.987159090782974],[135.1989558963618,33.98647088988572],[135.19800105165334,33.98506369510183],[135.19649748674354,33.982103868503756],[135.1961386867324,33.98069110333055],[135.19710991112362,33.98010027850979],[135.19832118787807,33.97910796042557],[135.19973832349908,33.979068706412505],[135.20050747532355,33.97925584642406],[135.2022981895987,33.98008014459857],[135.2037655382363,33.98131255387137],[135.20491807246762,33.98278902257178],[135.206357613487,33.983311783245036],[135.20678089058197,33.9840573350441],[135.208076265413,33.98481229442988],[135.2087983012934,33.98490962542384],[135.21013877487923,33.98521743122396],[135.21075934188798,33.985682897926296],[135.21226754657764,33.98718986034428],[135.21369731654514,33.98781683112449],[135.21567739188134,33.988253298528015],[135.21718811308273,33.98862365198571],[135.2198271897236,33.99003385599201],[135.22460237329966,33.99168889748087],[135.2273984813781,33.9929748399856],[135.23123616929195,33.995683244252966],[135.23296337229516,33.99610617346865],[135.2339902492526,33.99812772746795],[135.23465768400462,33.999051620388],[135.2375720446266,34.00068113238208]]]},"properties":{"KEY_CODE":"30362015000","PREF":"30","CITY":"362","CITY_NAME":"広川町","S_NAME":"大字下津木","SETAI":"18"}},{"type":"Feature","geometry":{"type":"Polygon","coordinates":[[[135.2218506412792,33.97259804492972],[135.2255837236289,33.973869241766494],[135.2257502493515,33.974077793440784],[135.2255517318279,33.97600300183459],[135.22734283188737,33.97815847290924],[135.22986340590185,33.979068494586464],[135.23117234721875,33.97976130173384],[135.23196475468325,33.98098535512047],[135.23196434617856,33.98205725886746],[135.23187934492586,33.983368964642935],[135.23266579269009,33.98505461883128],[135.2330344032567,33.985965544830556],[135.23321240588032,33.98742679280335],[135.23316086244813,33.988772217089384],[135.233497337136,33.989545014599784],[135.23328162302204,33.99097985868509],[135.2333434597315,33.99248770599868],[135.23361852085046,33.99380289666792],[135.2332767409455,33.99552589075436],[135.23296337229516,33.99610617346865],[135.23123616929192,33.995683244252966],[135.2273984813781,33.9929748399856],[135.22460237329966,33.99168889748087],[135.2198271897236,33.99003385599201],[135.21718811308273,33.98862365198571],[135.21567739188134,33.988253298528015],[135.21369731654514,33.98781683112447],[135.21226754657764,33.98718986034428],[135.21075934188798,33.985682897926296],[135.21013877487923,33.98521743122396],[135.2087983012934,33.98490962542384],[135.208076265413,33.98481229442988],[135.20678089058197,33.9840573350441],[135.206357613487,33.98331178324506],[135.20491807246762,33.98278902257178],[135.2037655382363,33.98131255387137],[135.2022981895987,33.98008014459857],[135.20050747532355,33.97925584642406],[135.19973832349908,33.979068706412505],[135.19863569524694,33.97890207580613],[135.1987714505849,33.97851809175452],[135.19826271600226,33.977273967876286],[135.198128375363,33.97538622875314],[135.20071975090963,33.97386358113785],[135.20250007940385,33.97360688301515],[135.2027537278203,33.97323238904623],[135.2085988291936,33.972755986887215],[135.21071194104317,33.97256609778911],[135.21223953308444,33.9725852903371],[135.2135944779621,33.97228372084967],[135.21538624588857,33.971889541515026],[135.21710575078797,33.97130652903651],[135.21843666451085,33.9713458104198],[135.21984176458403,33.97193678681089],[135.22015622918616,33.97230208713092],[135.2218506412792,33.97259804492972]]]},"properties":{"KEY_CODE":"30362015001","PREF":"30","CITY":"362","CITY_NAME":"広川町","S_NAME":"大字下津木","SETAI":"69"}},{"type":"Feature","geometry":{"type":"Polygon","coordinates":[[[135.2375720446266,34.00068113238208],[135.23465768400462,33.999051620388],[135.2339902492526,33.99812772746795],[135.23296337229516,33.99610617346865],[135.2332767409455,33.99552589075436],[135.23361852085046,33.99380289666792],[135.2333434597315,33.99248770599868],[135.23328162302204,33.99097985868509],[135.23349733713601,33.98954501459981],[135.2331608624482,33.9887722170894],[135.23321240588032,33.98742679280335],[135.2330344032567,33.985965544830556],[135.23266579269009,33.98505461883128],[135.23187934492586,33.983368964642935],[135.23196434617856,33.98205725886746],[135.23196475468325,33.98098535512047],[135.23117234721875,33.97976130173384],[135.22986340590185,33.979068494586464],[135.22734283188737,33.97815847290924],[135.2255517318279,33.97600300183459],[135.2257502493515,33.974077793440784],[135.2255837236289,33.97386924176651],[135.2218506412792,33.97259804492972],[135.22015622918616,33.97230208713092],[135.21984176458403,33.97193678681089],[135.22096170892263,33.97200922234187],[135.22318781948724,33.970609013402466],[135.2250243162691,33.969908012273734],[135.22542014486126,33.96925289381332],[135.22602382011692,33.96724513256949],[135.22844701720817,33.965827751459976],[135.2297506538495,33.964821740293246],[135.2304020471422,33.963837853239944],[135.23265553012678,33.96291634230537],[135.23369938336108,33.96151338501196],[135.23572226496796,33.96004181601234],[135.23663946957828,33.95886048469121],[135.23705191696754,33.95949373105266],[135.23781435476442,33.95987711285788],[135.23853927980176,33.96026871037201],[135.2389267718612,33.96020207171025],[135.23997670448122,33.96011035289757],[135.240226661646,33.96004370899162],[135.24180150542782,33.96051870104731],[135.24303894341523,33.960502066455305],[135.24405138612195,33.96025202241374],[135.24618866627208,33.96148533858147],[135.24692611727178,33.961660296149915],[135.24711360105076,33.9617769576426],[135.247352845603,33.961755738617086],[135.2484759983746,33.96238527291037],[135.24922590383832,33.9630685871863],[135.2495633911756,33.963576810479736],[135.25036333978065,33.96357689526287],[135.2526506242974,33.963543611161896],[135.25338812591338,33.96367684702461],[135.25413099774477,33.9638149000175],[135.2546630035754,33.96467675304111],[135.25477546112108,33.96679322965566],[135.25605031108762,33.96928469431934],[135.25652528504634,33.96981795346239],[135.2573252214982,33.97056785715633],[135.25842517764517,33.97175105226293],[135.25902508797483,33.97242606018166],[135.25915963564273,33.97269509066055],[135.25914720415736,33.97377987687864],[135.2591251024493,33.97384257384925],[135.25784389653293,33.97526684039972],[135.2572334989553,33.97551659633857],[135.25678728657215,33.97630223335542],[135.2567112102868,33.97768261146897],[135.2561602506083,33.97722976471858],[135.25340081704388,33.976078359059265],[135.24803205952665,33.97200715715799],[135.24502867292702,33.97154659401634],[135.2425825469008,33.972117064125605],[135.24213066218348,33.972919244178144],[135.24084437425788,33.97362894515],[135.23953183666552,33.97531092804226],[135.23956038225035,33.976779439344256],[135.24115982917527,33.97865052513037],[135.24094808107822,33.979788606720135],[135.23905286188995,33.98186269805589],[135.23874233757377,33.98432874323422],[135.23983486247724,33.986527755340035],[135.2401464536773,33.987651581449455],[135.24067356289262,33.991018288570565],[135.2406288974943,33.99289710340844],[135.23977405954045,33.99437098437587],[135.2393379451401,33.99603649937922],[135.2384020025008,33.99799743494829],[135.23852709835197,33.999352978245156],[135.2375720446266,34.00068113238208]]]},"properties":{"KEY_CODE":"30362015002","PREF":"30","CITY":"362","CITY_NAME":"広川町","S_NAME":"大字下津木","SETAI":"18"}},{"type":"Feature","geometry":{"type":"Polygon","coordinates":[[[135.24126346846205,34.01511988734276],[135.2413563425003,34.01486293975992],[135.2416111104304,34.01430143084951],[135.24161311082597,34.014076183684914],[135.2410446298967,34.0133893029263],[135.24010349440636,34.01250121092158],[135.23956512612588,34.011930451388686],[135.23942970080438,34.01102914377611],[135.23970350148855,34.01033476694546],[135.2401384443052,34.009761689992324],[135.24092085532817,34.00917680428321],[135.24111767157237,34.00874876923427],[135.2405201939774,34.0065715289668],[135.2410293128843,34.005386101724895],[135.24079926547853,34.004653401511895],[135.23861530660258,34.0025051195044],[135.2375720446266,34.00068113238208],[135.23852709835197,33.999352978245156],[135.2384020025008,33.99799743494829],[135.2393379451401,33.99603649937922],[135.23977405954045,33.99437098437587],[135.2406288974943,33.99289710340844],[135.24067356289262,33.991018288570565],[135.2401464536773,33.987651581449455],[135.23983486247724,33.986527755340035],[135.23874233757377,33.98432874323422],[135.23905286188995,33.98186269805589],[135.24094808107822,33.979788606720135],[135.24115982917527,33.97865052513037],[135.23956038225035,33.976779439344256],[135.23953183666552,33.97531092804226],[135.24084437425788,33.97362894515],[135.24213066218348,33.972919244178144],[135.2425825469008,33.972117064125605],[135.24502867292702,33.97154659401634],[135.24803205952665,33.97200715715799],[135.25340081704388,33.976078359059265],[135.2561602506083,33.97722976471858],[135.2567112102868,33.97768261146897],[135.25636269890265,33.97879185631658],[135.25646267729007,33.97922521866931],[135.25773759468944,33.98070007790143],[135.25785003484242,33.98149161076082],[135.25807502360678,33.98337473189772],[135.25783752410837,33.98493289915235],[135.25797498596907,33.985716128370704],[135.25842492484423,33.986349373550105],[135.25843742303994,33.988632438581064],[135.25932476685398,33.9898656145943],[135.2604371873227,33.99039056248564],[135.26179958700698,33.99136539636003],[135.26256199410022,33.99197373762335],[135.26318697379835,33.992565331676],[135.26438685226265,33.99279027973291],[135.2651992928213,33.99324858631998],[135.26650851728166,33.994362777117765],[135.26832396900306,33.995489949155896],[135.26954886702188,33.995564959011226],[135.27002389771425,33.99625648421642],[135.27121124696367,33.99678978804075],[135.2720736738505,33.99756473043039],[135.27311109602007,33.99763975253328],[135.27371101173975,33.99814803905794],[135.2745609211766,33.999922812640115],[135.2750859082401,34.000214413347784],[135.2755733035122,34.0009810862414],[135.2765481810577,34.00284744333651],[135.27741062683842,34.003330772833195],[135.2775730900076,34.003530785849534],[135.2791729633688,34.0042307570239],[135.2792729292277,34.00423077988607],[135.27867292487008,34.00485570863053],[135.2778480130494,34.00567217195799],[135.27509822339962,34.006847094038626],[135.27394835838632,34.007022037867266],[135.2731858899254,34.00794689519236],[135.27188342638698,34.00872613295912],[135.27016106873393,34.01013839280114],[135.2697985934485,34.01148823833101],[135.26917353259228,34.01255477318058],[135.2690360942771,34.01352135571173],[135.2695859933319,34.0137463493576],[135.27003053777298,34.01458042955112],[135.26903604114494,34.01530456366633],[135.26848608955254,34.015212836002384],[135.2671986294279,34.01527958298942],[135.26469889549085,34.0151879415676],[135.26428642924395,34.01467128497654],[135.26293656446384,34.01412959170224],[135.26092420744087,34.013613078778526],[135.2595868382639,34.01366296374549],[135.25757447371097,34.014296234082174],[135.25537461440575,34.01449627130604],[135.25378727698148,34.01418802734635],[135.2528247765742,34.014121346461714],[135.2517748677416,34.014212895486104],[135.25013754868937,34.01414632763649],[135.24851261420528,34.013788059355626],[135.24722528489846,34.01369639365696],[135.24658779925664,34.01422966127573],[135.24585034686916,34.01426290824033],[135.24357551633517,34.01426292181238],[135.24300054056934,34.01501279392795],[135.24241305625696,34.015579447472845],[135.24117836943768,34.016139014947456],[135.24120089176617,34.01578429069647],[135.24156090069576,34.015383322038204],[135.24139608046352,34.0151790255723],[135.24126346846205,34.01511988734276]]]},"properties":{"KEY_CODE":"30362015003","PREF":"30","CITY":"362","CITY_NAME":"広川町","S_NAME":"大字下津木","SETAI":"18"}},{"type":"Feature","geometry":{"type":"Polygon","coordinates":[[[135.21710575078797,33.97130652903651],[135.21538624588862,33.971889541515026],[135.2135944779621,33.97228372084967],[135.21223953308444,33.972585290337086],[135.21071194104317,33.97256609778911],[135.2085988291936,33.972755986887215],[135.20851711209244,33.97043089367237],[135.20867499565713,33.96990475342601],[135.208338286693,33.96881671973828],[135.20634287484194,33.967629128722024],[135.2047722945971,33.96631604537377],[135.20479151392965,33.965048987163065],[135.2040305145284,33.96404272752981],[135.20377667840123,33.96086221346703],[135.20348842139805,33.959800963625604],[135.2026269404281,33.95913440373028],[135.19894089193295,33.95832258452032],[135.19769270732934,33.956732426340324],[135.19625562506317,33.95524371786013],[135.19665566441688,33.95499373566024],[135.19738046025458,33.95392244583984],[135.19753059841977,33.95368562417639],[135.19820554136123,33.95382723013027],[135.20095527475573,33.954168963156945],[135.2019383725222,33.95411433416156],[135.2029800521292,33.95387735868089],[135.20353001136542,33.953835692780714],[135.2046923767813,33.9538357332258],[135.2065922357635,33.95425229223578],[135.20719218703982,33.95386902563524],[135.20737969286287,33.95314416303138],[135.20906705429346,33.95235259687023],[135.21066689025758,33.95226930817009],[135.21254170261406,33.952569231949994],[135.2136790850724,33.952277696345945],[135.21474146153483,33.952727647140755],[135.21569136261215,33.952344318912786],[135.21829118089167,33.95301094656753],[135.2200535112074,33.95256102477995],[135.22192835258286,33.95292758083797],[135.22260327475274,33.952544296488334],[135.22364062272274,33.95107786701534],[135.2232282254784,33.950128040989],[135.22356566833386,33.94822824155977],[135.22425653685022,33.94794619473516],[135.22560301051587,33.947645016609314],[135.22706535475302,33.946986732665586],[135.22822777773953,33.94755327753471],[135.2292026698445,33.94753669308188],[135.23075250324234,33.94799490960477],[135.23118996330967,33.94806159376168],[135.23223991962047,33.947836679304515],[135.23290239148176,33.9475700415563],[135.23311478186895,33.94989479075248],[135.23272738724813,33.95056970107394],[135.2328398253214,33.951227998333806],[135.23367724621778,33.952477823769065],[135.2348646017862,33.953227743151544],[135.23583953385287,33.954152715493215],[135.2359520612375,33.954586038423976],[135.23558954720545,33.95501092374075],[135.23535210317888,33.95569424422755],[135.23526453295665,33.95659403105321],[135.23542701104512,33.95716065018922],[135.23561452951472,33.958018893672985],[135.23624602544132,33.95869449457128],[135.23663946957828,33.95886048469121],[135.23572226496796,33.96004181601234],[135.23369938336108,33.96151338501196],[135.23265553012678,33.96291634230537],[135.2304020471422,33.963837853239944],[135.2297506538495,33.964821740293246],[135.22844701720817,33.965827751459976],[135.22602382011692,33.96724513256949],[135.22542014486126,33.96925289381332],[135.2250243162691,33.969908012273734],[135.22318781948724,33.970609013402466],[135.22096170892263,33.97200922234187],[135.21984176458403,33.97193678681089],[135.21843666451085,33.9713458104198],[135.21710575078797,33.97130652903651]]]},"properties":{"KEY_CODE":"30362016000","PREF":"30","CITY":"362","CITY_NAME":"広川町","S_NAME":"大字上津木","SETAI":"28"}},{"type":"Feature","geometry":{"type":"Polygon","coordinates":[[[135.2085988291936,33.972755986887215],[135.2027537278203,33.97323238904623],[135.20250007940385,33.97360688301515],[135.20071975090963,33.97386358113785],[135.198128375363,33.97538622875314],[135.19826271600226,33.977273967876286],[135.1987714505849,33.97851809175452],[135.19863569524694,33.97890207580613],[135.19832118787807,33.97910796042557],[135.19710991112362,33.98010027850979],[135.1961386867324,33.9806911033305],[135.19293081458295,33.98129826881436],[135.19210131513995,33.981597817330496],[135.19132304006968,33.98234454392541],[135.1909908271981,33.9838170137923],[135.1898219864032,33.98312736158816],[135.18912131107334,33.98093528332877],[135.18915591912656,33.980246927657404],[135.18931082565885,33.97863411452554],[135.1883888920458,33.97774434261594],[135.18787104180896,33.97814382927548],[135.1873047040965,33.977817632827836],[135.18712270320123,33.9772629360532],[135.18527640025422,33.976449864938964],[135.18459735715436,33.97559533499743],[135.18456061505267,33.97510442551495],[135.18391508391574,33.97436422167914],[135.1824930404414,33.9742067317975],[135.18050662079676,33.97491889187215],[135.17926370180888,33.97489582327963],[135.1763717836587,33.974483055958764],[135.17533570398072,33.975078076985135],[135.17404805357663,33.9747409301098],[135.1733474892519,33.972978828950474],[135.17396287885052,33.9714388389359],[135.17386971121445,33.968963896644766],[135.1745774247446,33.967287154595006],[135.17457226562118,33.96602642831288],[135.1749435580594,33.964614668035416],[135.1759969391141,33.96461452929076],[135.17769511033944,33.964064198854345],[135.17789389914896,33.96254660348124],[135.17758314531218,33.96083415685384],[135.17750234184876,33.95729170636628],[135.17814900975964,33.956073355588906],[135.17878218368506,33.955976709288684],[135.18021953099134,33.956435109952544],[135.181894354052,33.956501745076345],[135.18319420065046,33.957368299539496],[135.18481906479852,33.95765996359419],[135.186268930817,33.95694347615125],[135.1871313571147,33.95746012604853],[135.1881438415829,33.95658520251781],[135.19046818914788,33.955929365465195],[135.1929933759753,33.955735323293915],[135.1942183083984,33.955943666319854],[135.19625562506317,33.95524371786013],[135.19769270732934,33.956732426340324],[135.19894089193295,33.95832258452031],[135.2026269404281,33.959134403730296],[135.20348842139805,33.95980096362564],[135.20377667840123,33.96086221346703],[135.2040305145284,33.96404272752981],[135.20479151392965,33.965048987163065],[135.2047722945971,33.96631604537377],[135.20634287484194,33.967629128722024],[135.208338286693,33.96881671973828],[135.20867499565713,33.96990475342601],[135.20851711209244,33.97043089367237],[135.2085988291936,33.972755986887215]]]},"properties":{"KEY_CODE":"30362016001","PREF":"30","CITY":"362","CITY_NAME":"広川町","S_NAME":"大字上津木","SETAI":"57"}},{"type":"Feature","geometry":{"type":"Polygon","coordinates":[[[135.1909908271981,33.9838170137923],[135.18862502671394,33.98411727366826],[135.18759591629623,33.98290856423871],[135.1870561804488,33.98479521955131],[135.1863313987356,33.98493482298902],[135.1828722106399,33.98457817989632],[135.17755344993003,33.98441696225888],[135.17556092743828,33.98407639031442],[135.1754713900421,33.98404085457803],[135.17648405450493,33.98289530586262],[135.17685403833588,33.9805981964587],[135.17775657954772,33.97947683388579],[135.17774531204978,33.979233191394854],[135.17774219568864,33.978775198103214],[135.17713617667897,33.977455958318195],[135.1766625728018,33.976093077244485],[135.17609121972362,33.97529458554283],[135.17533570398072,33.975078076985135],[135.1763717836587,33.974483055958764],[135.17926370180888,33.97489582327963],[135.18050662079676,33.97491889187215],[135.1824930404414,33.9742067317975],[135.18391508391574,33.97436422167912],[135.18456061505267,33.97510442551495],[135.18459735715436,33.97559533499743],[135.18527640025422,33.976449864938964],[135.18712270320125,33.9772629360532],[135.1873047040965,33.977817632827836],[135.18787104180896,33.97814382927548],[135.1883888920458,33.97774434261594],[135.18931082565885,33.97863411452554],[135.18915591912656,33.980246927657404],[135.1891213110733,33.980935283328755],[135.1898219864032,33.98312736158816],[135.1909908271981,33.9838170137923]]]},"properties":{"KEY_CODE":"30362016002","PREF":"30","CITY":"362","CITY_NAME":"広川町","S_NAME":"大字上津木","SETAI":"7"}},{"type":"Feature","geometry":{"type":"Polygon","coordinates":[[[135.1186765040797,34.01862731951705],[135.12056400958662,34.017224394358124],[135.12162834661805,34.01675416445422],[135.1220738181017,34.015818325342046],[135.12491951399454,34.01526296825579],[135.125528893765,34.01563804870513],[135.12478378614622,34.016408934994395],[135.12531037110483,34.0172712478516],[135.1259651453511,34.01749324601851],[135.1272507356778,34.01737697782748],[135.12869381788113,34.01755100729121],[135.1275026989673,34.01857133251671],[135.1252487403289,34.01850817670443],[135.12268711641426,34.019544644333045],[135.1208732142599,34.019629484367094],[135.11949849275385,34.01921200950195],[135.1186765040797,34.01862731951705]]]},"properties":{"KEY_CODE":"303620170","PREF":"30","CITY":"362","CITY_NAME":"広川町","S_NAME":"","SETAI":"0"}}]}