{"type":"FeatureCollection","features":[{"type":"Feature","geometry":{"type":"Polygon","coordinates":[[[140.26993892181278,40.615651996379476],[140.2653200657384,40.61672847334795],[140.26334094341948,40.616966394325544],[140.26033615294264,40.61678640637027],[140.2579879299079,40.61584602017651],[140.25694131026538,40.614726337392305],[140.25475231350632,40.61104179391361],[140.25342684053808,40.61087002966717],[140.25316102965368,40.61029083500936],[140.2521818225011,40.60969961763045],[140.25058051764375,40.609104699953946],[140.24966322374183,40.608150926803845],[140.25124060683427,40.60771841655791],[140.25251219518177,40.60737321407694],[140.2527812355601,40.60689084164615],[140.25365508745173,40.60560292382914],[140.2540146896319,40.6054922885484],[140.25468664350802,40.60531714609783],[140.25513208863435,40.60422345048353],[140.2551566447555,40.60409502598815],[140.25504478215055,40.6040231213961],[140.25423129555838,40.60375844339835],[140.25440308199677,40.60313992450995],[140.2546575007742,40.60299484849225],[140.25481387528956,40.60280284509412],[140.25477484202725,40.60161926959924],[140.25505041440186,40.60065319987225],[140.25494977889812,40.59982090300006],[140.2541574498061,40.59874247736803],[140.25446106964546,40.598322751434175],[140.25458566612164,40.598009217634655],[140.2542995075728,40.59771136180859],[140.25449420124332,40.596901509056856],[140.25478396051736,40.59512932526122],[140.2546987212887,40.591330203977755],[140.25475959868214,40.58790439482307],[140.2571200304501,40.586973837380086],[140.25763166773137,40.586976377942584],[140.25889428329347,40.5871662092875],[140.2601767302775,40.5876716654037],[140.26068763870984,40.58776597717862],[140.26138204879535,40.58751698727249],[140.2620513072202,40.58669417903406],[140.26366557638224,40.586231690680066],[140.2641471725112,40.586234057015496],[140.26574355449932,40.58610419039694],[140.2666746730514,40.586338229092114],[140.26790349601362,40.58625343050576],[140.26935198799214,40.58647315386149],[140.27260354315024,40.58620186559001],[140.27554869940863,40.58648413934801],[140.27863447762311,40.58711336208436],[140.27983236783913,40.587289229629484],[140.2805838225616,40.587484202420946],[140.28144878707988,40.587445795716036],[140.28184258607118,40.58704366017281],[140.28252069090135,40.58598370341476],[140.2833451068645,40.58585087817151],[140.28441759036582,40.58595018334348],[140.2874084199599,40.58686805382741],[140.28979517917742,40.588830180337055],[140.29230744415986,40.59065932785325],[140.29419277225705,40.59179244716382],[140.29638471013607,40.592612972830025],[140.2967859194662,40.59285757253436],[140.29727446636812,40.593313233291155],[140.29849848138713,40.5944148143235],[140.29977378400022,40.59486613853466],[140.29921232754404,40.59651026529489],[140.2961939430158,40.6001205818743],[140.29621171260328,40.60170953888551],[140.29591247164544,40.602961124218176],[140.2978537188131,40.60220212446718],[140.29750506350794,40.60285732514665],[140.2984020023007,40.60359236016616],[140.29725857914664,40.60424065584555],[140.29729392632032,40.60495032611177],[140.29793860604522,40.604818352679374],[140.29841409917634,40.60531763779373],[140.29784968305788,40.60594552780346],[140.29776337346587,40.60674026398695],[140.29674963165775,40.60737268723471],[140.2960034744432,40.6072210544958],[140.29485563812287,40.607865989418706],[140.29329219495838,40.6075442763386],[140.29213476323218,40.606700962215356],[140.29116291701035,40.60695161262093],[140.28956382109305,40.60650619951138],[140.28880632742522,40.60721707623818],[140.2874262502887,40.607464158570714],[140.28726498698768,40.6094865254232],[140.2864447498157,40.610208630027934],[140.28586362245355,40.61127429968835],[140.2847782815709,40.611652768878194],[140.28441392823242,40.61209057945819],[140.2837354829266,40.6115149172261],[140.28183365431542,40.6116783241292],[140.2813250249188,40.61248517682047],[140.28059625952739,40.61219202959407],[140.28001942821876,40.612652520323905],[140.27875118218478,40.61285760148756],[140.27767216821417,40.613689352225165],[140.27619653633505,40.61370991142146],[140.27573028709142,40.6146452058204],[140.2744910459748,40.61484819526598],[140.27354263276231,40.61532233661767],[140.2708430134847,40.61579571011798],[140.26993892181278,40.615651996379476]]]},"properties":{"KEY_CODE":"023430010","PREF":"02","CITY":"343","CITY_NAME":"西目屋村","S_NAME":"大字白沢","SETAI":"25"}},{"type":"Feature","geometry":{"type":"Polygon","coordinates":[[[140.25477484202725,40.60161926959924],[140.25481387528956,40.60280284509412],[140.2546575007742,40.60299484849225],[140.25440308199677,40.60313992450995],[140.25423129555838,40.60375844339835],[140.25504478215055,40.6040231213961],[140.2551566447555,40.60409502598815],[140.25513208863435,40.60422345048353],[140.25468664350802,40.60531714609783],[140.2540146896319,40.6054922885484],[140.25365508745173,40.60560292382914],[140.2527812355601,40.60689084164615],[140.25251219518177,40.60737321407694],[140.25124060683427,40.60771841655791],[140.24966322374183,40.60815092680383],[140.2490211164877,40.60759859998247],[140.2486920838421,40.60721896626308],[140.24888919313085,40.605381813351585],[140.2490504669658,40.60514368450399],[140.2491316888754,40.60496017448437],[140.24915823231953,40.60472692555935],[140.24891736106457,40.604396214284016],[140.24858424348702,40.6041163293446],[140.24836269910813,40.603819276601506],[140.248278965313,40.60358736905736],[140.24816928717723,40.603245147886966],[140.24780611186384,40.6027559990853],[140.2476135974208,40.60264491152553],[140.24738142586511,40.602587730257056],[140.2464213273845,40.60272112184379],[140.24619177134284,40.60271327183823],[140.24605754524057,40.60267691863753],[140.24572321252464,40.602611683810316],[140.2454944574547,40.602596590617296],[140.24481783692033,40.60262044657266],[140.2436674812019,40.602994948422],[140.2430958721132,40.60353084456527],[140.2430211417335,40.60357844878284],[140.2427948673716,40.603627390075914],[140.242075928995,40.60347117354547],[140.24073143719014,40.60341967925437],[140.24041885567402,40.60353571853009],[140.24000933653625,40.603783042292186],[140.23914118295724,40.60401168342503],[140.23887493454725,40.60389379773412],[140.23864357873722,40.603875159440946],[140.23852900318343,40.603902924171976],[140.23819875038708,40.6042356428353],[140.2381323410816,40.604307208809054],[140.2378366430298,40.60444942833385],[140.23765359496807,40.60446375407604],[140.23741384760595,40.60442332727562],[140.23728038163947,40.60432237671857],[140.23714166069493,40.60401341629199],[140.23702568969568,40.60387118380534],[140.23689233064252,40.60376376198268],[140.23650823881965,40.603559143934255],[140.2362738852016,40.60339561261944],[140.23609362879137,40.603091854244504],[140.23604811066622,40.60242489407639],[140.23618478810252,40.602004078341196],[140.23619685529223,40.601934414628424],[140.23615802553755,40.601801305344466],[140.23592132031985,40.60158112361406],[140.23585331268916,40.601511046073135],[140.23570160037463,40.60121616002226],[140.2357988406471,40.60040943111956],[140.23597698897993,40.59998552289204],[140.23582581578506,40.598662267538934],[140.23585197291735,40.59845646099371],[140.23606314382056,40.59817435470762],[140.23626170311084,40.59802284234213],[140.23641229758036,40.59796592582871],[140.2366307600646,40.59782323845926],[140.23666858979905,40.59774716360899],[140.23660763363694,40.5975333798728],[140.23625348501798,40.59717855820312],[140.23569786924804,40.59682600124592],[140.23535871886935,40.596715332647115],[140.23522560295592,40.59657737310105],[140.23513141283198,40.59608563590179],[140.23501813000522,40.5956493144395],[140.23498164171858,40.59557503670495],[140.2349010349093,40.59547984610097],[140.2348044305821,40.59541398229418],[140.23459645462268,40.595338817248475],[140.23389591714022,40.59505199221825],[140.23353421465634,40.59443025062913],[140.23345629959894,40.59419456455966],[140.2332539229722,40.59365427941384],[140.23281760606054,40.59306915567019],[140.23206601273108,40.5922624481762],[140.23188796940556,40.59204143806171],[140.2316156382005,40.591333048193086],[140.23153339251627,40.59110275593643],[140.23127016411036,40.59082033247692],[140.2308175024308,40.59046610706842],[140.22923465020818,40.59025633706499],[140.22868516857812,40.59018046692247],[140.22838367381843,40.590182160849395],[140.22822336879358,40.59021182337762],[140.2277013137651,40.59042041505629],[140.22735124907368,40.59041967017074],[140.22645327833212,40.589852856518476],[140.22598500167567,40.58964666954767],[140.22521379731683,40.589443286030985],[140.224472265972,40.58927597385133],[140.22387702968078,40.589204200123135],[140.22349423837147,40.58919475839178],[140.22321804065,40.589236607467214],[140.22188349225848,40.58925119241986],[140.2218046832179,40.589219852374875],[140.22142982507646,40.58862958887352],[140.22109189631072,40.58799315324383],[140.22079329386307,40.58727034408151],[140.2204548778427,40.58657747499008],[140.22019295445378,40.58616947331125],[140.21996604790849,40.585888587538946],[140.21907859866198,40.58536981795839],[140.21888707938047,40.58528668860111],[140.21841268957021,40.585154172183934],[140.21668969935882,40.584751108237114],[140.21648828125672,40.58463080558972],[140.21624020404803,40.58442131981103],[140.21594945508085,40.583979977552104],[140.21570336641642,40.58369524887198],[140.21526097607475,40.58343191433767],[140.2135170306063,40.58322122844582],[140.2132973326745,40.58313797197186],[140.21136699521895,40.58201536271174],[140.2107540824091,40.58162405423878],[140.21042359593056,40.58132323739899],[140.2097609927259,40.580485989595466],[140.20961324115612,40.58024378378135],[140.20955277068254,40.579854465544],[140.20972261012375,40.57965112717663],[140.20977978851565,40.57956541953406],[140.2098990785789,40.57900215853375],[140.21009956537915,40.57825558774569],[140.2101431149633,40.57812192637844],[140.21031983113582,40.57786293173379],[140.21045422619963,40.57774439588358],[140.2111884210043,40.57721765840887],[140.2113075037933,40.57709319896608],[140.2113906560704,40.5769724864707],[140.21155492942233,40.57667623680598],[140.2116408386572,40.576392298884976],[140.21163067626864,40.57610492373678],[140.21156324699203,40.5759130036815],[140.21139734623642,40.57569807068283],[140.21060776205334,40.57515041108717],[140.2105433063868,40.57505134582363],[140.21075076775227,40.57452078077753],[140.21077559891805,40.57419155512412],[140.2107485344318,40.57407024652071],[140.21065547982522,40.57387621631772],[140.21053418228092,40.573687907610534],[140.2104528155134,40.57347733508038],[140.21043731846285,40.57321339740379],[140.21110945658768,40.57205004898235],[140.21112602346042,40.57192507072185],[140.2111034000327,40.571872143137874],[140.21099489366551,40.571687843511235],[140.21085261052747,40.571554129328874],[140.21033546766395,40.57106953774985],[140.21019407614676,40.57084006588732],[140.209908833893,40.5702237783451],[140.20974117211847,40.569649179879896],[140.20970753441355,40.56940660401712],[140.20969288190147,40.56933028894868],[140.2094777129245,40.56903790004404],[140.20929868370672,40.56885807306283],[140.20923345191645,40.56870915369465],[140.20920674640846,40.568544822025395],[140.20914128011776,40.568421334703444],[140.20898284255668,40.56822990387362],[140.20886336004432,40.56812565212447],[140.20830945176394,40.56773855445112],[140.2081538195002,40.56752367334934],[140.20793513448203,40.56706510593619],[140.20778915216795,40.567052564363046],[140.20725025748519,40.5671200396526],[140.20715294170844,40.56710776277294],[140.20599846150614,40.56681516135948],[140.20502072036987,40.566527381645976],[140.20350199941032,40.56653571171425],[140.20286798210844,40.566499991816094],[140.2024791399263,40.566421668097334],[140.202120840594,40.5662251954588],[140.20188208825272,40.56599715059165],[140.20182756762927,40.565795514937804],[140.20205092347464,40.565350118415985],[140.202014253957,40.56515835897763],[140.2012726393951,40.56457276756624],[140.20124295474997,40.56432535516131],[140.20116542841956,40.56411771692117],[140.20104708881726,40.563894234948734],[140.20068535446006,40.56352574080693],[140.19959988998662,40.5625776529771],[140.19892611802248,40.561905942100125],[140.19835580140182,40.5612270217443],[140.19829075798268,40.56099327611565],[140.19831253943502,40.56082667542531],[140.19885956395444,40.55969992070649],[140.19901955572138,40.558955742594094],[140.19890890176796,40.558389637848556],[140.19879710647166,40.55812485129463],[140.19856072986025,40.55769396017197],[140.19829165267697,40.55734623332124],[140.19818950237322,40.55712512244213],[140.19798101509548,40.556594365970625],[140.19888353110056,40.55634102663351],[140.20072532109012,40.555548966013355],[140.2013485269394,40.55430247007748],[140.20147148360041,40.552932037975225],[140.2013356226654,40.551774696502534],[140.20152016308717,40.550357929947495],[140.20163608294192,40.54973365088739],[140.20169765355564,40.54839083022317],[140.20141562745331,40.54717675545243],[140.2015603723741,40.54608624450548],[140.2022835609587,40.54459780156952],[140.20374284909178,40.54283359294929],[140.20492024852416,40.54113310244172],[140.20493454855423,40.539603514925666],[140.20470276215968,40.53824049892601],[140.2045143793499,40.537833211110204],[140.20623719615216,40.536689537519685],[140.20894555895504,40.53450022523733],[140.20984723606884,40.53348393201643],[140.2101661338615,40.532770831415284],[140.21040805960956,40.53072980031295],[140.21029286674582,40.528720893151],[140.2105193767457,40.528347696763056],[140.21096793455084,40.52807779115959],[140.21230676536922,40.52801693700641],[140.2150486561037,40.52818484597255],[140.2179081508654,40.52768958089112],[140.221715477966,40.5259738568316],[140.22238582195666,40.52584126089409],[140.22393636714955,40.5258707061782],[140.22390841706186,40.52674231606303],[140.22457353232457,40.52745280190853],[140.22548381584028,40.52742157609943],[140.2253778365568,40.52817572809107],[140.22849716853105,40.52950611259265],[140.22910150036122,40.52897880533973],[140.2299048340173,40.52889657329074],[140.23001491551832,40.52833244595697],[140.23029498840577,40.52882294104251],[140.2311264495937,40.528760653593736],[140.2316843090002,40.52828174425533],[140.23270065806514,40.52813481637587],[140.23340430916602,40.52771519632515],[140.23449018184544,40.527976627940376],[140.23445822211272,40.527325317160056],[140.23520706151308,40.52792451628466],[140.23629874152164,40.528067932737486],[140.23688459503825,40.52868157458807],[140.2366785744934,40.52955320963765],[140.238016063265,40.52993203651249],[140.23942881856283,40.5292702021856],[140.2415612407652,40.52944776977861],[140.24291165436114,40.53050567946627],[140.24340944973616,40.53296323486059],[140.24383140178603,40.53289784707136],[140.24448385442045,40.53090818393834],[140.24561125515532,40.5314299472277],[140.24516073600972,40.531789720492625],[140.2453752998125,40.53276796362771],[140.24460773830978,40.53388079065458],[140.24477901989118,40.534540895471025],[140.24540172429803,40.53460348894398],[140.2455670232348,40.5351420171594],[140.24702255392788,40.535533965691506],[140.24771619674803,40.53531591658409],[140.24758436218903,40.53459656436205],[140.2488774969683,40.534528381879426],[140.25337864195777,40.53545521823217],[140.2544269715185,40.53584952041768],[140.25700166740435,40.53637842611031],[140.25699763148643,40.536026256589835],[140.25743409651963,40.53619504099901],[140.2575358326055,40.536306328241764],[140.2575719177906,40.53636775623741],[140.25842616715573,40.5368258920999],[140.25858987730223,40.53687265069136],[140.25873090874896,40.53694539921679],[140.25882491705366,40.53699539907617],[140.25892469674773,40.53706073013426],[140.25896660096328,40.537126689583815],[140.25898763436842,40.537152896788555],[140.25902489787123,40.53721162079026],[140.25905828059888,40.53731447673864],[140.25919958181103,40.53735570570624],[140.25931715995782,40.5374103257034],[140.25940395975493,40.53747288354556],[140.25946520804456,40.537487611882426],[140.2595762552769,40.53748095132487],[140.25970834232822,40.537494200706],[140.25973570073904,40.5383951838535],[140.25972274702357,40.53896763298687],[140.25896828558254,40.53926133115872],[140.258571229177,40.540893420614125],[140.25911028864505,40.5418608994732],[140.26075803157633,40.543718473403615],[140.26100654968764,40.545023709138206],[140.26082111630535,40.546475392578124],[140.26040026787024,40.548037848684196],[140.2593483549493,40.5491459215016],[140.2581807300181,40.54984445315262],[140.25658381226876,40.55023410771348],[140.2532140052826,40.550694407916666],[140.2510692787845,40.55122111336243],[140.25002315702622,40.552302091133775],[140.25026090682962,40.55362507954678],[140.25249502613386,40.556336926008896],[140.25346517947239,40.55774319300619],[140.25535305866322,40.558474273347706],[140.25855090140774,40.55879824552192],[140.26069488711934,40.558899737518786],[140.26281221779007,40.55863754556575],[140.26388733957475,40.55832477851806],[140.26501411486157,40.55718289506802],[140.26692514956798,40.556646981451706],[140.26834959183472,40.55729013206646],[140.26978416323075,40.55672911908433],[140.27234956787763,40.558042494881754],[140.27485376419602,40.55966196041691],[140.27552890207429,40.56086938542046],[140.27631784969194,40.56127122042996],[140.28018505086314,40.56338770897105],[140.2811633915906,40.564433366016104],[140.28185521603558,40.565853925622875],[140.28186010349742,40.56653456981977],[140.28074625808603,40.5679144698194],[140.28078185397538,40.56933593294206],[140.28140926286304,40.56965123571651],[140.28253249959727,40.569688622126826],[140.28420450536942,40.5693923234039],[140.2852319266728,40.57060976904912],[140.28658594638125,40.57157052666876],[140.2838880926236,40.57219757354446],[140.2825063055915,40.57292600925018],[140.281015106193,40.572666566855894],[140.27992699025006,40.573069516452094],[140.27925738484646,40.57382757610003],[140.27839090151613,40.573251517367524],[140.27810341488373,40.574329229947715],[140.27680603863794,40.575052419308875],[140.27592135294282,40.57502989264733],[140.2741707127792,40.575605009077776],[140.27164133847958,40.57439767248315],[140.27035192629816,40.57452148757552],[140.26626489935765,40.57298618145418],[140.26256172795024,40.572566872234326],[140.2599132620986,40.57186083838583],[140.25546755768923,40.57020670031727],[140.2530797866121,40.56979362756676],[140.25178709593976,40.56995127625071],[140.24871173766013,40.57161351705576],[140.2484649547134,40.572487565267565],[140.25188494109128,40.576598699928866],[140.2530231631803,40.57891314731774],[140.25311802514017,40.58241125671926],[140.25347133094132,40.58495677619455],[140.25387516831518,40.586485024275184],[140.25475959868214,40.58790439482307],[140.2546987212887,40.591330203977755],[140.25478396051736,40.59512932526122],[140.25449420124332,40.596901509056856],[140.2542995075728,40.59771136180859],[140.25458566612164,40.598009217634655],[140.25446106964546,40.598322751434175],[140.25415744980612,40.59874247736803],[140.25494977889812,40.59982090300006],[140.25505041440186,40.60065319987225],[140.25477484202725,40.60161926959924]]]},"properties":{"KEY_CODE":"02343002000","PREF":"02","CITY":"343","CITY_NAME":"西目屋村","S_NAME":"大字大秋","SETAI":"0"}},{"type":"Feature","geometry":{"type":"Polygon","coordinates":[[[140.27554869940863,40.58648413934801],[140.27260354315024,40.58620186559001],[140.26935198799214,40.58647315386149],[140.26790349601362,40.58625343050576],[140.2666746730514,40.586338229092114],[140.26574355449932,40.58610419039694],[140.2641471725112,40.586234057015496],[140.2702524602367,40.57801102157286],[140.27077646918212,40.57796659584427],[140.27278279418167,40.57745963143109],[140.27384858985548,40.577346271703796],[140.27554897928155,40.577338273731684],[140.2763897675534,40.57776724254215],[140.27710217534369,40.579418742831194],[140.27768831039387,40.580013861409796],[140.27841216997984,40.58028773507642],[140.27879833832583,40.580559984790895],[140.27796494790974,40.58127701049463],[140.27554869940863,40.58648413934801]]]},"properties":{"KEY_CODE":"02343002001","PREF":"02","CITY":"343","CITY_NAME":"西目屋村","S_NAME":"大字大秋字鶴住","SETAI":"15"}},{"type":"Feature","geometry":{"type":"Polygon","coordinates":[[[140.2702524602367,40.57801102157286],[140.26414717251123,40.58623405701548],[140.26366557638224,40.586231690680066],[140.2620513072202,40.58669417903406],[140.26138204879535,40.58751698727249],[140.26068763870984,40.58776597717862],[140.2601767302775,40.5876716654037],[140.2588942832934,40.5871662092875],[140.25763166773137,40.586976377942584],[140.2571200304501,40.586973837380086],[140.25475959868214,40.58790439482307],[140.25387516831518,40.586485024275184],[140.25347133094132,40.58495677619455],[140.25311802514017,40.58241125671926],[140.2530231631803,40.57891314731774],[140.25188494109128,40.576598699928866],[140.2484649547134,40.572487565267565],[140.24871173766013,40.57161351705576],[140.25178709593976,40.56995127625071],[140.2530797866121,40.56979362756676],[140.25546755768923,40.57020670031727],[140.2599132620986,40.57186083838583],[140.26256172795024,40.572566872234326],[140.26626489935765,40.57298618145418],[140.27035192629816,40.57452148757552],[140.27343848548037,40.5760879426084],[140.27384858985548,40.577346271703796],[140.27278279418167,40.57745963143109],[140.27077646918212,40.57796659584427],[140.2702524602367,40.57801102157286]]]},"properties":{"KEY_CODE":"02343002002","PREF":"02","CITY":"343","CITY_NAME":"西目屋村","S_NAME":"大字大秋字都谷森","SETAI":"11"}},{"type":"Feature","geometry":{"type":"Polygon","coordinates":[[[140.2833451068645,40.58585087817151],[140.28252069090135,40.58598370341472],[140.28184258607118,40.58704366017281],[140.28144878707988,40.587445795716],[140.2805838225616,40.587484202420946],[140.27983236783913,40.587289229629484],[140.27863447762311,40.58711336208436],[140.27554869940863,40.58648413934801],[140.27796494790974,40.58127701049461],[140.27879833832583,40.580559984790895],[140.28035787004023,40.58189361676123],[140.2811671990065,40.582051996187175],[140.2822026576245,40.583460388226555],[140.2834021812666,40.58340171559997],[140.28343226541313,40.58385252021391],[140.28492610289786,40.584979789898476],[140.28476790017217,40.585738687559214],[140.2833451068645,40.58585087817151]]]},"properties":{"KEY_CODE":"02343002003","PREF":"02","CITY":"343","CITY_NAME":"西目屋村","S_NAME":"大字大秋字開野","SETAI":"13"}},{"type":"Feature","geometry":{"type":"Polygon","coordinates":[[[140.2874084199599,40.58686805382741],[140.28441759036582,40.585950183343435],[140.2833451068645,40.58585087817151],[140.28476790017217,40.585738687559214],[140.28492610289786,40.584979789898476],[140.28343226541313,40.58385252021391],[140.2834021812666,40.58340171559997],[140.2822026576245,40.583460388226555],[140.2811671990065,40.582051996187175],[140.28035787004023,40.58189361676123],[140.27879833832583,40.580559984790895],[140.27841216997984,40.58028773507642],[140.27768831039387,40.580013861409796],[140.27710217534369,40.579418742831194],[140.2763897675534,40.57776724254215],[140.27554897928155,40.577338273731684],[140.27384858985548,40.577346271703796],[140.27343848548037,40.5760879426084],[140.27035192629816,40.57452148757552],[140.27164133847958,40.57439767248315],[140.2741707127792,40.575605009077776],[140.27592135294282,40.57502989264733],[140.27680603863794,40.575052419308875],[140.27810341488373,40.574329229947715],[140.27945132808134,40.575875698186785],[140.28069796887553,40.57863426015254],[140.28206508966016,40.58001247237115],[140.28571084543418,40.58252377252976],[140.28650427583153,40.583072929169184],[140.28688327409114,40.58382986567177],[140.2872772041343,40.58613920124989],[140.2874084199599,40.58686805382741]]]},"properties":{"KEY_CODE":"02343002004","PREF":"02","CITY":"343","CITY_NAME":"西目屋村","S_NAME":"大字大秋字沢田","SETAI":"6"}},{"type":"Feature","geometry":{"type":"Polygon","coordinates":[[[140.31093648727796,40.58896795299408],[140.3098176010495,40.589597820388576],[140.30940468591103,40.589721261554075],[140.30934129515785,40.58977244191018],[140.30931858850238,40.58980811848592],[140.30923768413098,40.5900338167205],[140.30910387301859,40.59037452387991],[140.3090221179327,40.59061442959262],[140.30899138368753,40.5907090299067],[140.3088121488523,40.591275596415066],[140.30872643796033,40.59150757071237],[140.3085986976919,40.5918267052655],[140.30834674779533,40.59247308087443],[140.30832489613337,40.592546859769875],[140.30829613829798,40.59274844975925],[140.3083205308331,40.59295752636586],[140.3084317212017,40.59330926361406],[140.3084174463426,40.59387770232006],[140.30664748631642,40.59394031710598],[140.304869944643,40.59392807766875],[140.30317995337262,40.59421939251712],[140.30203465043914,40.59424320905584],[140.30117172650557,40.5944136742254],[140.30098242690516,40.59453438774947],[140.3006606312109,40.59473005928092],[140.29977378400022,40.59486613853466],[140.29849848138713,40.5944148143235],[140.29727446636812,40.593313233291155],[140.2967859194662,40.59285757253436],[140.29638471013607,40.592612972830025],[140.29419277225705,40.59179244716382],[140.29230744415986,40.59065932785325],[140.28979517917742,40.588830180337055],[140.2874084199599,40.58686805382741],[140.28953202121534,40.586388982735876],[140.29090107160013,40.58609771598251],[140.29419294360147,40.58600679643191],[140.29690169275122,40.585594134488986],[140.2988320630091,40.58516904765679],[140.29933922981863,40.5854131456961],[140.29983551112127,40.585732827627155],[140.30000912193395,40.58660302846198],[140.30004644338223,40.5866741594482],[140.300850826691,40.58657140586933],[140.30152637941563,40.58656117860618],[140.3027020103632,40.58663756481416],[140.30337233700408,40.58581563267101],[140.3040298578754,40.58513555067071],[140.3044164374624,40.58484458663292],[140.30587201893727,40.58506547303862],[140.30596962827195,40.585128221314974],[140.3062211584121,40.585386884149585],[140.30679590235644,40.58579649553005],[140.30855231749834,40.58673894850785],[140.3091256748511,40.587128205692316],[140.30959053633822,40.58749537029174],[140.31060631798812,40.58833892651099],[140.31093648727796,40.58896795299408]]]},"properties":{"KEY_CODE":"023430030","PREF":"02","CITY":"343","CITY_NAME":"西目屋村","S_NAME":"大字杉ケ沢","SETAI":"24"}},{"type":"Feature","geometry":{"type":"Polygon","coordinates":[[[140.30367358564231,40.57424150622729],[140.3045677773568,40.57561673634728],[140.30858461888522,40.57871095020996],[140.30569633804126,40.58001663754975],[140.30638852771617,40.58101085993007],[140.3057541476616,40.58211774824971],[140.304190432919,40.58295721470069],[140.30217235597408,40.583118972788576],[140.30052029535287,40.583731425860165],[140.2986441706495,40.584791260868556],[140.2988320630091,40.58516904765679],[140.29690169275122,40.585594134488986],[140.29419294360153,40.58600679643191],[140.2909010716002,40.58609771598253],[140.28953202121534,40.586388982735876],[140.2874084199599,40.58686805382741],[140.2872772041343,40.58613920124989],[140.28688327409114,40.58382986567177],[140.28650427583148,40.583072929169184],[140.28571084543418,40.58252377252976],[140.28206508966016,40.58001247237115],[140.28069796887553,40.57863426015254],[140.28082730041604,40.57871266300138],[140.28117983727446,40.57873200706182],[140.2821788060389,40.578598902574036],[140.2833717024842,40.578583371303694],[140.28384544625038,40.578546750083426],[140.28401808063612,40.57843091195265],[140.28476911237235,40.57824886887569],[140.28550277594903,40.57820992495749],[140.28606368876248,40.578290366508966],[140.28619833044587,40.57828393420073],[140.28700648061826,40.57792540215933],[140.28859047595967,40.57689879584098],[140.28889412760353,40.57665276971548],[140.28920415662822,40.576479209467855],[140.29059688353357,40.576429194146854],[140.29105527708705,40.57627405712102],[140.29181353029648,40.5760548887465],[140.291924366428,40.57554986989638],[140.29203127832724,40.57552560431468],[140.29277027923692,40.575679320560134],[140.29314219110464,40.575599761419525],[140.29329363086475,40.575236320451495],[140.29344381919452,40.575028439373824],[140.2936382789957,40.574794274454945],[140.2945465713917,40.574330199167456],[140.29509892780317,40.57411673575778],[140.29774159646726,40.57334787788273],[140.29855933934823,40.57373329535886],[140.29925275304086,40.5746524457962],[140.3003000044905,40.57499180445852],[140.30193593801604,40.57495180382025],[140.30235754433133,40.574823082264686],[140.30320150247164,40.57447061583356],[140.3035921969337,40.57430614659493],[140.30367358564231,40.57424150622729]],[[140.29474833625406,40.57711990127678],[140.29408470839903,40.57748316944828],[140.29472963407628,40.57820972748888],[140.29481986644717,40.57818883069472],[140.2954562785682,40.577870917698924],[140.29474833625406,40.57711990127678]]]},"properties":{"KEY_CODE":"02343004001","PREF":"02","CITY":"343","CITY_NAME":"西目屋村","S_NAME":"大字田代字神田","SETAI":"190"}},{"type":"Feature","geometry":{"type":"Polygon","coordinates":[[[140.29474833625406,40.57711990127678],[140.29545627856822,40.577870917698924],[140.29481986644717,40.57818883069472],[140.29472963407628,40.57820972748888],[140.29408470839903,40.57748316944829],[140.29474833625406,40.57711990127678]]]},"properties":{"KEY_CODE":"02343004002","PREF":"02","CITY":"343","CITY_NAME":"西目屋村","S_NAME":"大字田代字稲元","SETAI":"1"}},{"type":"Feature","geometry":{"type":"Polygon","coordinates":[[[140.30193593801604,40.57495180382025],[140.3003000044905,40.57499180445852],[140.29925275304086,40.5746524457962],[140.29855933934823,40.57373329535886],[140.29774159646726,40.57334787788273],[140.29509892780317,40.57411673575778],[140.2945465713917,40.574330199167456],[140.2936382789957,40.574794274454945],[140.29344381919452,40.575028439373824],[140.29329363086475,40.575236320451495],[140.29314219110464,40.575599761419525],[140.29277027923692,40.575679320560134],[140.29203127832724,40.57552560431468],[140.291924366428,40.57554986989638],[140.29181353029648,40.5760548887465],[140.29105527708705,40.57627405712102],[140.29059688353357,40.576429194146854],[140.28920415662822,40.576479209467855],[140.28889412760353,40.57665276971548],[140.28859047595967,40.57689879584098],[140.28700648061826,40.57792540215933],[140.28619833044587,40.57828393420073],[140.28606368876248,40.578290366508966],[140.28550277594903,40.57820992495749],[140.28476911237235,40.57824886887569],[140.28401808063612,40.57843091195265],[140.28384544625038,40.578546750083426],[140.2833717024842,40.578583371303694],[140.2821788060389,40.578598902574036],[140.28117983727446,40.57873200706182],[140.28082730041604,40.57871266300138],[140.28069796887553,40.57863426015254],[140.27945132808134,40.575875698186785],[140.27810341488373,40.574329229947715],[140.27839090151613,40.573251517367524],[140.27925738484646,40.57382757610003],[140.27992699025006,40.573069516452094],[140.281015106193,40.572666566855894],[140.2825063055915,40.57292600925018],[140.2838880926236,40.57219757354446],[140.28658594638125,40.57157052666876],[140.28884345210327,40.57191488332033],[140.29018755269354,40.57181877154428],[140.29096405642935,40.57131023373157],[140.2920329310932,40.56994519556994],[140.29475091907838,40.56812689897524],[140.29676767296087,40.5657930908705],[140.29864061118653,40.562523874176264],[140.300163797581,40.56099439326814],[140.30092326385713,40.56051452871843],[140.30211267396285,40.56088084341821],[140.3040784306873,40.56066700398752],[140.3067308996697,40.55939616170419],[140.30758348373004,40.55869142176055],[140.3072441575757,40.56036791180625],[140.3078283444866,40.560376059398806],[140.3089691838176,40.5609829224815],[140.30902046486415,40.56196593873299],[140.31018837748474,40.56286726727398],[140.31008261071187,40.56347057918843],[140.31080398356886,40.5643891875442],[140.30902942112567,40.56568237416152],[140.31063637154006,40.56747474965474],[140.30876588785026,40.56809662368433],[140.3082625891908,40.56861450713972],[140.3074114958441,40.5694136523895],[140.3070584237503,40.56981517401598],[140.3071329672435,40.57010486738002],[140.30723858007826,40.5702386107746],[140.3072333938852,40.570358902628136],[140.30670436630288,40.57143584998758],[140.30624342045942,40.57198969804897],[140.3057913767723,40.57223146893544],[140.3054899761647,40.57257144525274],[140.3053264044972,40.57302585630799],[140.30512475894477,40.573164740065465],[140.30353722708261,40.57399300409205],[140.3035921969337,40.57430614659493],[140.30320150247164,40.57447061583356],[140.30235754433133,40.574823082264686],[140.30193593801604,40.57495180382025]]]},"properties":{"KEY_CODE":"02343004003","PREF":"02","CITY":"343","CITY_NAME":"西目屋村","S_NAME":"大字田代字名坪平","SETAI":"20"}},{"type":"Feature","geometry":{"type":"Polygon","coordinates":[[[140.28658594638125,40.57157052666876],[140.2852319266728,40.57060976904912],[140.28420450536942,40.5693923234039],[140.28253249959727,40.569688622126826],[140.28140926286304,40.56965123571651],[140.28078185397538,40.56933593294206],[140.28074625808603,40.5679144698194],[140.28186010349742,40.56653456981977],[140.28185521603558,40.565853925622875],[140.2811633915906,40.564433366016104],[140.28018505086314,40.56338770897105],[140.27631784969194,40.56127122042996],[140.27711599558492,40.5612430608831],[140.2794303107137,40.560693685238135],[140.28252895289265,40.55923520733969],[140.28517909768462,40.558687339518976],[140.29147253695675,40.55613124349887],[140.29271810563256,40.55596835584892],[140.29431081870874,40.55634412745347],[140.29604581044936,40.55731307069345],[140.29734703540507,40.55870435189641],[140.298871782528,40.55972033414065],[140.30092326385713,40.56051452871843],[140.300163797581,40.56099439326814],[140.29864061118653,40.562523874176264],[140.29676767296087,40.5657930908705],[140.29475091907838,40.56812689897524],[140.2920329310932,40.56994519556994],[140.29096405642935,40.57131023373157],[140.29018755269354,40.57181877154428],[140.28884345210327,40.57191488332033],[140.28658594638125,40.57157052666876]]]},"properties":{"KEY_CODE":"02343004004","PREF":"02","CITY":"343","CITY_NAME":"西目屋村","S_NAME":"大字田代字山科","SETAI":"12"}},{"type":"Feature","geometry":{"type":"Polygon","coordinates":[[[140.3089691838176,40.5609829224815],[140.3078283444866,40.560376059398806],[140.3072441575757,40.56036791180625],[140.30758348373004,40.55869142176055],[140.3067308996697,40.55939616170419],[140.3040784306873,40.56066700398752],[140.30211267396285,40.56088084341821],[140.30092326385713,40.56051452871843],[140.298871782528,40.55972033414065],[140.29734703540507,40.55870435189641],[140.29604581044936,40.55731307069345],[140.29431081870874,40.55634412745347],[140.29271810563256,40.55596835584892],[140.29147253695675,40.55613124349887],[140.28517909768462,40.558687339518976],[140.28252895289265,40.55923520733969],[140.2794303107137,40.560693685238135],[140.27711599558492,40.5612430608831],[140.27631784969194,40.56127122042996],[140.27552890207429,40.56086938542046],[140.27485376419602,40.55966196041691],[140.27234956787763,40.558042494881754],[140.273891635204,40.55563664091086],[140.27597755699279,40.55346455035042],[140.27877976878216,40.55080445657915],[140.279677953537,40.550073154459575],[140.27992663164915,40.54931776872699],[140.27955282147934,40.545829586607866],[140.28037214396912,40.544378714520086],[140.28121208306555,40.54377007166991],[140.28223000093683,40.54348901873999],[140.28308880275415,40.543670555756],[140.28658635219466,40.54371139667474],[140.29477674437913,40.543349490620784],[140.29990176472347,40.54316905405828],[140.30246761845618,40.543019541960916],[140.30243524796467,40.54653312783294],[140.3037666230641,40.54788532864347],[140.30469194096088,40.54786343088538],[140.3054183807002,40.548441768695476],[140.30795246082718,40.54937250516979],[140.30854930565366,40.55046428078045],[140.30957274753123,40.55162054375504],[140.31003761815126,40.5524833625396],[140.3098704467874,40.553943901366985],[140.3100218402195,40.55504940487949],[140.31041276510982,40.55567424467742],[140.3100710967845,40.55791761810354],[140.31039639653068,40.55832376449813],[140.30998658458913,40.55957764506314],[140.30996701914248,40.560467179161826],[140.3089691838176,40.5609829224815]]]},"properties":{"KEY_CODE":"02343005001","PREF":"02","CITY":"343","CITY_NAME":"西目屋村","S_NAME":"大字村市字村元","SETAI":"27"}},{"type":"Feature","geometry":{"type":"Polygon","coordinates":[[[140.27234956787763,40.558042494881754],[140.26978416323075,40.55672911908433],[140.26834959183472,40.55729013206646],[140.26692514956798,40.556646981451706],[140.26501411486157,40.55718289506802],[140.26388733957475,40.55832477851806],[140.26281221779007,40.55863754556575],[140.26069488711934,40.558899737518786],[140.25855090140774,40.55879824552192],[140.25535305866322,40.558474273347706],[140.25346517947239,40.55774319300619],[140.25249502613386,40.556336926008896],[140.25026090682962,40.55362507954678],[140.25002315702622,40.552302091133775],[140.2510692787845,40.55122111336243],[140.2532140052826,40.550694407916666],[140.25658381226876,40.55023410771348],[140.2581807300181,40.54984445315262],[140.2593483549493,40.5491459215016],[140.26040026787024,40.548037848684196],[140.2612690500102,40.547451418763565],[140.26364577475707,40.546406648218124],[140.26582476213065,40.545849361406745],[140.2690282351056,40.5456492269117],[140.26980411797592,40.545471241214926],[140.2708859780814,40.54431776856342],[140.27201794385053,40.54476456463693],[140.27266707463298,40.54503075112091],[140.27471888134426,40.54542692018661],[140.27588174976898,40.545273484405506],[140.27761406153064,40.54469108363898],[140.27937402896129,40.54435874126938],[140.28037214396912,40.544378714520086],[140.27955282147934,40.545829586607866],[140.27992663164915,40.54931776872699],[140.279677953537,40.550073154459575],[140.27877976878216,40.55080445657915],[140.27597755699279,40.55346455035042],[140.273891635204,40.55563664091086],[140.27234956787763,40.558042494881754]]]},"properties":{"KEY_CODE":"02343005002","PREF":"02","CITY":"343","CITY_NAME":"西目屋村","S_NAME":"大字村市字稲葉","SETAI":"52"}},{"type":"Feature","geometry":{"type":"Polygon","coordinates":[[[140.27201794385053,40.54476456463693],[140.2708859780814,40.54431776856342],[140.26980411797592,40.545471241214926],[140.2690282351056,40.5456492269117],[140.26582476213065,40.545849361406745],[140.26364577475707,40.546406648218124],[140.2612690500102,40.547451418763565],[140.26040026787024,40.548037848684196],[140.26082111630535,40.546475392578124],[140.26100654968764,40.545023709138206],[140.26075803157633,40.543718473403615],[140.25911028864505,40.5418608994732],[140.258571229177,40.540893420614125],[140.25896828558254,40.53926133115872],[140.25972274702357,40.53896763298687],[140.25973570073904,40.5383951838535],[140.26160586264376,40.53829686994511],[140.26212569832174,40.53788776580486],[140.2629306364992,40.53752721005774],[140.26430467565802,40.5371168560679],[140.26530647079448,40.53711270539194],[140.26611569911583,40.53708765647771],[140.26711630464558,40.53694023425743],[140.2695645279242,40.5361143218731],[140.26982167354404,40.53609379934863],[140.2716133463143,40.53752076106216],[140.27234209455733,40.538017589353],[140.27338358209354,40.53867554023668],[140.27461182784037,40.540915821919285],[140.27458166922364,40.54110431174017],[140.2719341614051,40.54218090489865],[140.27147727914993,40.542663288277225],[140.27164980756098,40.54445963410883],[140.27201794385053,40.54476456463693]]]},"properties":{"KEY_CODE":"023430060","PREF":"02","CITY":"343","CITY_NAME":"西目屋村","S_NAME":"大字藤川","SETAI":"16"}},{"type":"Feature","geometry":{"type":"Polygon","coordinates":[[[140.27937402896129,40.54435874126938],[140.27761406153064,40.54469108363898],[140.27588174976898,40.545273484405506],[140.27471888134426,40.54542692018661],[140.27266707463298,40.54503075112091],[140.27164980756098,40.54445963410883],[140.27147727914993,40.542663288277225],[140.27193416140517,40.542180904898665],[140.27458166922364,40.54110431174017],[140.27461182784037,40.540915821919285],[140.27338358209354,40.53867554023668],[140.27234209455733,40.538017589353],[140.2716133463143,40.53752076106216],[140.26982167354404,40.53609379934863],[140.2695645279242,40.5361143218731],[140.26711630464558,40.53694023425743],[140.26611569911583,40.53708765647771],[140.26530647079448,40.53711270539194],[140.26430467565802,40.5371168560679],[140.2629306364992,40.53752721005774],[140.26212569832174,40.53788776580486],[140.26160586264376,40.53829686994511],[140.25973570073904,40.5383951838535],[140.25970834232822,40.537494200706],[140.2595762552769,40.53748095132487],[140.25946520804456,40.537487611882426],[140.25940395975493,40.53747288354556],[140.25931715995782,40.5374103257034],[140.25919958181103,40.53735570570624],[140.25905828059888,40.53731447673864],[140.25902489787123,40.53721162079026],[140.25898763436842,40.537152896788555],[140.25896660096328,40.537126689583815],[140.25892469674773,40.53706073013426],[140.25882491705366,40.53699539907617],[140.25873090874896,40.53694539921679],[140.25858987730223,40.53687265069136],[140.25842616715573,40.5368258920999],[140.2575719177906,40.53636775623741],[140.2575358326055,40.536306328241764],[140.25743409651963,40.53619504099901],[140.2569976314864,40.53602625658983],[140.25717446359465,40.534810514433644],[140.25718626134739,40.533433950557296],[140.2568792348213,40.53210980053663],[140.2567504657851,40.5306246061336],[140.2578794470786,40.52891622579249],[140.2598424861271,40.526874550810874],[140.26073947942675,40.52539438609739],[140.2615970563401,40.523215972091144],[140.2650868502076,40.52411420937748],[140.26718076612744,40.52489825914392],[140.26766248023827,40.521168862093496],[140.2684265666082,40.51921635495131],[140.2695116601144,40.517183947915136],[140.2705647217842,40.515783064404594],[140.27137179402848,40.51505340731871],[140.2731958208438,40.51404340800056],[140.27630121866085,40.51303955543501],[140.2790344963427,40.511830033974945],[140.28375787548657,40.5088367542754],[140.28547703986388,40.507540785120334],[140.28800790883682,40.504903718809196],[140.29026804562358,40.50271361781708],[140.29240320772664,40.49944287782559],[140.29322035737027,40.497408973983994],[140.2938795700946,40.49508904671306],[140.29545304973962,40.491917506210974],[140.29798040267838,40.48792511487861],[140.2990836656774,40.48678910906748],[140.3023287965404,40.48478671249639],[140.30792817918908,40.4820205631561],[140.3107779046792,40.48104518754254],[140.31145327340047,40.47998860533974],[140.3101985724873,40.48004406990332],[140.3084136715183,40.47964881553856],[140.30727051796813,40.47909344499777],[140.30481439260552,40.477553721849304],[140.3006817657439,40.47464539657394],[140.29654603523002,40.472175488526176],[140.29479559918258,40.47139339796933],[140.28996053468867,40.4698357844968],[140.2834201666697,40.46823119238277],[140.2805898072555,40.467366354864346],[140.27771103403717,40.466230357155986],[140.27867399128476,40.464145242972464],[140.27981936485386,40.462460861156906],[140.28060253409737,40.46169064709625],[140.28369486341953,40.45940920022093],[140.28424113204153,40.45868941089172],[140.28451948954168,40.45768457905735],[140.28389316303918,40.45579827426563],[140.28042679267185,40.45223437058262],[140.27959120583915,40.45117261851044],[140.27852669135933,40.449206801174164],[140.27800443750377,40.44701133869815],[140.27828338541676,40.44561453616964],[140.27954977888575,40.446058186120275],[140.28248903536263,40.44597708288032],[140.284610697271,40.44537834729217],[140.28532883574601,40.44587639327896],[140.28667278546547,40.44597787228837],[140.2878266171859,40.444955906385836],[140.28904553660823,40.445113867371255],[140.2901322243451,40.446241466526494],[140.29067790709627,40.44651041865216],[140.29198621838933,40.446350060062024],[140.29846119601694,40.44638491857905],[140.2996356439356,40.44587663175175],[140.30067012618935,40.44416909118166],[140.30192462298123,40.442976268044674],[140.30252373229004,40.44278876757936],[140.30566155621108,40.44276509098862],[140.3073100222914,40.44212574275096],[140.30786111419303,40.441709703747485],[140.30833522503514,40.43981830696914],[140.30799919228338,40.438356866985266],[140.308236519286,40.4376206189237],[140.3092793117479,40.43632607868495],[140.31058385256927,40.43640233229913],[140.31212845644149,40.43720635787624],[140.31508896169908,40.437445187754044],[140.31675845070768,40.43869137453082],[140.3174654124309,40.43962356506726],[140.31819888420813,40.439612105989845],[140.31945868378054,40.43890988794878],[140.32124565226755,40.43867453146224],[140.32240849762997,40.43930639531622],[140.32601930524592,40.43907163566168],[140.32823836799122,40.43912557555111],[140.33130430136225,40.439492855308615],[140.3322258726395,40.44014569869725],[140.3337904469265,40.43997550984325],[140.3352806093953,40.43942159794428],[140.33763393715788,40.44089900961211],[140.33898429562095,40.44099329326346],[140.33930319428245,40.442248086510645],[140.3406674561632,40.44307972856464],[140.33990636102607,40.44422667675483],[140.34075639019954,40.44544689647583],[140.34059850991116,40.44591810085697],[140.3417892818265,40.44673423884476],[140.34106155326094,40.44992367472372],[140.34142432286612,40.450470838507215],[140.34232851105727,40.45088757119139],[140.3426718946717,40.45144938797054],[140.34372885021457,40.45210271404093],[140.34378128896068,40.45285499361015],[140.3427346055994,40.454774934988805],[140.3438806655023,40.45646087437868],[140.34354660170936,40.45727051519904],[140.34337133222763,40.45881075727244],[140.3428932719072,40.46054039413707],[140.34295414542734,40.461050067882354],[140.3436594798048,40.46169397787801],[140.34535847678376,40.461783308809686],[140.34710255135968,40.461593478393574],[140.34784975933846,40.462401842727495],[140.34831583163734,40.4649098871162],[140.34794990939315,40.46732063864715],[140.34736990197595,40.46771492403694],[140.34674825021418,40.46854980962051],[140.34649521149728,40.468960177744776],[140.3461246089934,40.46966388167196],[140.34591193026318,40.46980990021843],[140.34590884672744,40.470235996258445],[140.3459629028986,40.470735791895834],[140.3454215700698,40.47110086380742],[140.34523462819965,40.47168045034989],[140.3448477203253,40.47197268046614],[140.34411374701165,40.47236627097347],[140.34380183927763,40.4729233032448],[140.343261976548,40.473082632274334],[140.34233882510745,40.47303463034414],[140.34176034063245,40.47320849337455],[140.33990780275695,40.473964644145475],[140.33957858279675,40.474257100412906],[140.33907695156012,40.47444598311079],[140.33836606124055,40.47431069364806],[140.33767341223975,40.474307721810845],[140.337457789253,40.47485044113143],[140.3370282622317,40.47570080706567],[140.3368454749633,40.47700771401359],[140.33666387085123,40.47815300160897],[140.33657006906049,40.479129658143],[140.3354890273085,40.47960988595738],[140.3345794715937,40.48031121423464],[140.33453633272336,40.48094282895413],[140.33389845427857,40.481336795609046],[140.33233375672327,40.48215282165314],[140.33070024629137,40.48186657920854],[140.32718286419333,40.48133697392736],[140.32808459268202,40.48297918639507],[140.32825282553483,40.483641098222506],[140.32799626237795,40.48449218133339],[140.32718456084524,40.48495881360498],[140.32708246322582,40.48573711488696],[140.32770780142417,40.48703283009015],[140.32709385206692,40.488065990696356],[140.32720699866195,40.488375050965296],[140.32988814732516,40.49012055158558],[140.33042049800028,40.49098974697761],[140.32987529366935,40.49183958008834],[140.32961831902438,40.49274941987916],[140.3288962464675,40.49279770086423],[140.3285098073072,40.493001712436175],[140.32756073060168,40.49380568434149],[140.32746215317468,40.494113817109834],[140.32789641945618,40.49523237201725],[140.32575586111014,40.495796025947435],[140.32475341435833,40.49601201749889],[140.3236319752025,40.49669761734402],[140.32301353968705,40.49703282234494],[140.32195355031914,40.49721915476253],[140.32175649719983,40.49782066702744],[140.3215900622434,40.49819462834771],[140.3202151634269,40.49929048565302],[140.31991492115048,40.500802523106074],[140.320503765282,40.501833649095865],[140.3202116773292,40.50290861851972],[140.31967585442302,40.50358956292851],[140.31914138537408,40.504327254760334],[140.31928474959057,40.50478766808298],[140.31974893430382,40.505563421516605],[140.31987340222094,40.506573204034986],[140.3226104603685,40.50886725846522],[140.323375729712,40.509661187514396],[140.3226325733759,40.510790441972865],[140.32206850919937,40.51155045626773],[140.3218607968631,40.511818670028184],[140.32169449878407,40.512434653590276],[140.3213823636797,40.51290423548368],[140.3210686428214,40.51358686653268],[140.32032282117166,40.51409378660435],[140.32003827708718,40.514798954457426],[140.31922744743443,40.515154192284605],[140.3180231476554,40.51509275185247],[140.31694932393802,40.51525615724164],[140.3160673764096,40.515308289596184],[140.31542089803,40.515305393931044],[140.3142412831516,40.515849550716865],[140.31340773543005,40.5167289061106],[140.31298301056316,40.51706613354994],[140.31170378846988,40.518131257958004],[140.31180136472014,40.51844783046851],[140.31194907471414,40.51860111151169],[140.31231396278127,40.51896121251254],[140.31183255350547,40.52012495772267],[140.31115867474327,40.520604590327835],[140.30991910852617,40.52089287616754],[140.30870130765285,40.52113122193267],[140.30816551156482,40.5213927495757],[140.3074646587538,40.5219559006937],[140.30607566508226,40.52145296676439],[140.30501205546403,40.5224108607483],[140.30439768845687,40.52358427474625],[140.30438248223703,40.524063398016224],[140.30406170533593,40.524928845737364],[140.3032811180753,40.525456738939006],[140.3028414003774,40.52691410913123],[140.3022089590652,40.52747753667348],[140.30205793466305,40.52780792310121],[140.30213617913358,40.528017394977134],[140.3022118519356,40.52855793691353],[140.30164772514598,40.529866578934744],[140.30153695883078,40.530876727724745],[140.3014256375994,40.53195660092896],[140.30173757716832,40.53366135705653],[140.30150189578018,40.5345838246148],[140.30141704793206,40.53520204185714],[140.30183496618332,40.53578771068786],[140.3016382137452,40.53683668295439],[140.3015059942266,40.537672479233215],[140.30202666697267,40.538258616404136],[140.30224090978524,40.53860809327465],[140.30232871659373,40.539780341560636],[140.30163229617872,40.541916114608405],[140.3024242787142,40.54286071528129],[140.30246761845615,40.543019541960916],[140.29990176472347,40.54316905405828],[140.29477674437913,40.543349490620784],[140.28658635219466,40.54371139667474],[140.28308880275415,40.543670555756],[140.28223000093683,40.54348901873999],[140.28121208306555,40.54377007166991],[140.28037214396912,40.544378714520086],[140.27937402896129,40.54435874126938]]]},"properties":{"KEY_CODE":"023430070","PREF":"02","CITY":"343","CITY_NAME":"西目屋村","S_NAME":"大字居森平","SETAI":"25"}},{"type":"Feature","geometry":{"type":"Polygon","coordinates":[[[140.25699763148643,40.536026256589835],[140.25700166740435,40.53637842611031],[140.2544269715185,40.53584952041768],[140.25337864195777,40.53545521823217],[140.2488774969683,40.534528381879426],[140.24758436218903,40.53459656436205],[140.24771619674803,40.53531591658409],[140.24702255392788,40.535533965691506],[140.2455670232348,40.5351420171594],[140.24540172429803,40.53460348894398],[140.24477901989118,40.534540895471025],[140.24460773830978,40.53388079065458],[140.2453752998125,40.53276796362771],[140.24516073600972,40.531789720492625],[140.24561125515532,40.5314299472277],[140.24448385442045,40.53090818393834],[140.24383140178603,40.53289784707136],[140.24340944973616,40.53296323486059],[140.24291165436114,40.53050567946627],[140.2415612407652,40.52944776977861],[140.23942881856283,40.5292702021856],[140.23939016692285,40.52757912892768],[140.240001323216,40.52459758119328],[140.2411178736088,40.52297014405563],[140.24152197257848,40.5193863261346],[140.2423875710385,40.51980497364374],[140.24354800850168,40.52023694342109],[140.24714153094493,40.5211310193617],[140.25094393324113,40.52132963012119],[140.25239085137378,40.52151061985354],[140.25565556253926,40.522063843653875],[140.25908684668497,40.52273044556411],[140.26159705634012,40.523215972091144],[140.26073947942675,40.52539438609739],[140.2598424861271,40.526874550810874],[140.2578794470786,40.52891622579249],[140.2567504657851,40.5306246061336],[140.2568792348213,40.53210980053663],[140.25718626134739,40.533433950557296],[140.25717446359465,40.534810514433644],[140.25699763148643,40.536026256589835]]]},"properties":{"KEY_CODE":"02343008001","PREF":"02","CITY":"343","CITY_NAME":"西目屋村","S_NAME":"大字砂子瀬字宮元","SETAI":"0"}},{"type":"Feature","geometry":{"type":"Polygon","coordinates":[[[140.23942881856283,40.5292702021856],[140.238016063265,40.52993203651249],[140.2366785744934,40.52955320963765],[140.23688459503825,40.52868157458807],[140.23629874152164,40.528067932737486],[140.23520706151308,40.52792451628466],[140.23445822211272,40.527325317160056],[140.23408740516558,40.52678274137645],[140.23406440917645,40.5246825424903],[140.23494851871843,40.52139380536594],[140.23602543070325,40.51985613121302],[140.23647489325626,40.517368579435605],[140.236815869196,40.51652714285948],[140.2379669619892,40.514838697022974],[140.2391840071804,40.513938087899525],[140.24056531889698,40.512407909873694],[140.241089581545,40.51296384338563],[140.24164989123753,40.514552537514746],[140.2417344916642,40.51640511007309],[140.24152197257848,40.5193863261346],[140.2411178736088,40.52297014405563],[140.240001323216,40.52459758119328],[140.23939016692285,40.52757912892768],[140.23942881856283,40.5292702021856]]]},"properties":{"KEY_CODE":"02343008002","PREF":"02","CITY":"343","CITY_NAME":"西目屋村","S_NAME":"大字砂子瀬字芦沢","SETAI":"0"}},{"type":"Feature","geometry":{"type":"Polygon","coordinates":[[[140.19798101509548,40.556594365970625],[140.19684825810631,40.55637394974875],[140.19487750763116,40.55657982989376],[140.19219320120885,40.55597763214024],[140.18987461429995,40.555813437610325],[140.18834213488984,40.556955165124045],[140.18701178040052,40.557349110974435],[140.18594004849768,40.55864599394182],[140.18445232893023,40.55914291730884],[140.18299730667763,40.560210413231985],[140.18109890450742,40.560109526990445],[140.18056536628407,40.56040705775229],[140.18156380678172,40.56232682765208],[140.17987579358572,40.56383825994457],[140.17959141391478,40.56456748437319],[140.17875597849473,40.564772948843824],[140.17873937845619,40.56581404905737],[140.17806958864824,40.56682301383934],[140.176388073886,40.566819645538864],[140.17535614234487,40.56738136396374],[140.17515979859039,40.566407052376],[140.17305250850714,40.565839762121215],[140.1731745086396,40.565141815523845],[140.1725788790577,40.56420725398244],[140.17245882531785,40.56322472043919],[140.1717005750295,40.562505614795505],[140.1708174853909,40.562449853892865],[140.16962284845775,40.56126328676423],[140.16628494691713,40.5607197498753],[140.16502764154103,40.558998561386645],[140.16395906655453,40.55836045751885],[140.16321340228308,40.557044923494196],[140.16316512906116,40.55634852897877],[140.16378521094,40.55470023547261],[140.16319264730095,40.55358601135229],[140.1635935196011,40.55032096580183],[140.1631755966134,40.54982428361071],[140.16203891708363,40.549247953874406],[140.16193041395746,40.54850331647032],[140.16130195222684,40.54757615758677],[140.16014641173533,40.54650804227558],[140.1599908898784,40.54534950477993],[140.16026531898115,40.544167484355036],[140.15809827993417,40.5433171821547],[140.1565629413628,40.543061061889574],[140.1550278054177,40.54380125934085],[140.15235008399642,40.54388697409799],[140.1495583839262,40.54377940946216],[140.14851820442738,40.54412705565557],[140.14613476675385,40.54411031197792],[140.14429683433735,40.54277012505428],[140.14341347266324,40.541791932239654],[140.141797506234,40.54143112974747],[140.1397406848153,40.54182463448556],[140.1381157647348,40.54035034310602],[140.1376863739024,40.53966621851353],[140.13748307611542,40.53855418166896],[140.13665609678844,40.53708465373914],[140.13663127056324,40.5351984878176],[140.1362850523969,40.53340406573758],[140.13582045015787,40.53217860484623],[140.1351853833201,40.52964104310898],[140.13367352931456,40.52618248347013],[140.13459767047985,40.525498715639856],[140.13468478213798,40.52170644962693],[140.13549597588,40.52105583678652],[140.13564401693796,40.52025810692261],[140.13644547168465,40.518902421107185],[140.13436256993688,40.51793774410568],[140.13307408276174,40.51695444778477],[140.1314219868159,40.51652301570279],[140.13013030337865,40.51455117639568],[140.13014922643924,40.51404142808205],[140.12953146843415,40.51379834129343],[140.1273389147121,40.5138864399667],[140.12660519216644,40.5136478348709],[140.12445347727157,40.51244582675807],[140.12279556923045,40.51258133496167],[140.11954613666683,40.512059272077394],[140.11966737045367,40.51059026566532],[140.12061032248744,40.50941244703136],[140.12030933672918,40.50886952358908],[140.1204769793174,40.50752045257525],[140.12012901930666,40.506909589266854],[140.12079368800082,40.50529044252718],[140.12077703075434,40.504291402244654],[140.1215493878893,40.50312297084271],[140.12272260377705,40.50271136354507],[140.1236472488651,40.501960035952514],[140.12563444793983,40.50159761031296],[140.1270597279862,40.50022240419606],[140.1278364699015,40.49861687559331],[140.12726613298574,40.49776017365813],[140.12770228177948,40.496792528504784],[140.12988270673424,40.4948755684059],[140.13281153633767,40.494047877198284],[140.13253783652877,40.492519223257744],[140.13185803659957,40.49170350088073],[140.1312740772762,40.49019635908238],[140.1311662574934,40.4891005447315],[140.13153931073577,40.48763301144096],[140.1316653288374,40.485674942600966],[140.1326338884343,40.485581948911154],[140.13360563743467,40.48584277053136],[140.13445699231457,40.484237699253306],[140.13603692685794,40.48366452000495],[140.13845141169062,40.48175695939539],[140.13844239176655,40.48113963727716],[140.13989241427038,40.479763931251554],[140.14020218693844,40.479210224258445],[140.1421972488315,40.47760552012692],[140.14326392778838,40.47643612414558],[140.14340010550904,40.47591960993985],[140.14486765791062,40.47581956993258],[140.14604280265712,40.476085232312336],[140.1469053239533,40.47530259578921],[140.1493024027781,40.47463192196242],[140.14961387148966,40.474286921992885],[140.1490082170201,40.47290476079641],[140.1497920126103,40.47114285214231],[140.14974467078616,40.47050176346187],[140.14908747058027,40.46964840776955],[140.14988356881236,40.469329775713504],[140.15071547416275,40.4685116891555],[140.1517392612131,40.46812677716037],[140.15146013795982,40.466802428381264],[140.15220146869606,40.46618657477304],[140.15268463463815,40.46521651472699],[140.1525276703015,40.46360775181004],[140.15308943231352,40.46247351027062],[140.15133921171423,40.46087301284302],[140.1518406619528,40.4596149522234],[140.15139219104168,40.45829545547227],[140.1515305568656,40.457934718633936],[140.150692276926,40.45597505513873],[140.1507342909276,40.45486418896982],[140.15165729684577,40.453773227399836],[140.15130786302333,40.452560137166955],[140.15008306960692,40.45153881610595],[140.15118757966016,40.449996261092465],[140.15168846960086,40.44878523203448],[140.1511891832702,40.44755655232318],[140.15012939117997,40.446206983836156],[140.1500566766436,40.44578913436047],[140.15160609819998,40.44475186332494],[140.15180179202912,40.44328035004854],[140.1514330537112,40.442081818633085],[140.149782567511,40.440943369564],[140.14745577381277,40.44011536994303],[140.14715850732722,40.4394639941006],[140.1472797103905,40.43813607825452],[140.14758317255956,40.437353172935204],[140.14950335034854,40.435728081691046],[140.15126462082603,40.43510211303777],[140.1521284039554,40.43498221018704],[140.15417218246026,40.43583516454669],[140.155655601129,40.43621885033384],[140.15691058116394,40.4371353404635],[140.15976022567455,40.43847590406397],[140.16309740710088,40.439415827321035],[140.16705658475985,40.439887645087296],[140.16915633556175,40.43962698213832],[140.17070222114248,40.4382153283807],[140.1712385330213,40.438127496405755],[140.17314129429175,40.43975210290408],[140.174443669282,40.440418690186455],[140.1766166677233,40.4402719800273],[140.17884433967313,40.44062552950944],[140.18043046437185,40.441179985102266],[140.1829498459559,40.44249444375829],[140.18516217625285,40.44332605576187],[140.18559381163448,40.44329438444846],[140.1858444702194,40.44197756828357],[140.18752193548758,40.43961988300931],[140.1901989946225,40.43820103926317],[140.19093314905686,40.43738800683607],[140.1923951075402,40.43642483823767],[140.19423730604885,40.4347160178708],[140.19585356061228,40.434493688097746],[140.1969826361103,40.4345769883428],[140.20068398856205,40.435753613847425],[140.2035120269142,40.43647054422221],[140.20528756434513,40.436464806016566],[140.20649066417187,40.437273010987184],[140.20896012274423,40.43859684567329],[140.21037611114355,40.43820364380606],[140.21142355824406,40.43620507031971],[140.21197352817921,40.4356376094953],[140.2142760035299,40.434270155507605],[140.21619765002606,40.433725434829896],[140.2175957059665,40.43306999028597],[140.21847653060098,40.43161007003906],[140.22061968205284,40.4310972753694],[140.22383083744967,40.43184657857075],[140.22483343844686,40.43253021592414],[140.22612168140407,40.43286071892894],[140.22794050370575,40.43364880385546],[140.2314062968835,40.43414482011666],[140.23301551733513,40.4346927826499],[140.23533106376993,40.436362105839365],[140.23824888670043,40.43724049783923],[140.2412117615542,40.437594878812305],[140.2426570997221,40.4372862356102],[140.24415388829294,40.43782946434778],[140.24628499100302,40.43967269847493],[140.24809291432058,40.44080438338087],[140.25021592978905,40.44294598634293],[140.2513947400792,40.44196260158738],[140.25269328045835,40.441531513639035],[140.2544126773083,40.44138794131998],[140.25827277894138,40.44133110777137],[140.26050963167236,40.4418368560275],[140.26171114130335,40.44110079809432],[140.26381963643516,40.4405879884993],[140.26648417240867,40.44058208155004],[140.26732886968892,40.44081451011001],[140.2699333986944,40.44202584348437],[140.27301718044723,40.442516469710455],[140.27521327844582,40.44344984527016],[140.27828338541676,40.44561453616964],[140.27800443750377,40.44701133869815],[140.27852669135933,40.449206801174164],[140.27959120583915,40.45117261851044],[140.28042679267185,40.45223437058262],[140.28389316303918,40.45579827426563],[140.28451948954168,40.45768457905735],[140.28424113204153,40.45868941089172],[140.28369486341953,40.45940920022093],[140.28060253409737,40.46169064709625],[140.27981936485386,40.462460861156906],[140.27867399128476,40.464145242972464],[140.27771103403717,40.466230357155986],[140.2805898072555,40.467366354864346],[140.2834201666697,40.46823119238277],[140.28996053468867,40.4698357844968],[140.29479559918258,40.47139339796933],[140.29654603523002,40.472175488526176],[140.3006817657439,40.47464539657394],[140.30481439260552,40.477553721849304],[140.30727051796813,40.47909344499777],[140.3084136715183,40.47964881553856],[140.3101985724873,40.48004406990332],[140.31145327340047,40.47998860533974],[140.3107779046792,40.48104518754254],[140.30792817918908,40.4820205631561],[140.3023287965404,40.48478671249639],[140.2990836656774,40.48678910906748],[140.29798040267838,40.48792511487861],[140.29545304973962,40.491917506210974],[140.2938795700946,40.49508904671306],[140.29322035737027,40.497408973983994],[140.29240320772664,40.49944287782559],[140.29026804562358,40.50271361781708],[140.28800790883682,40.504903718809196],[140.28547703986388,40.507540785120334],[140.28375787548657,40.5088367542754],[140.2790344963427,40.511830033974945],[140.27630121866085,40.51303955543501],[140.2731958208438,40.51404340800056],[140.27137179402848,40.51505340731871],[140.2705647217842,40.515783064404594],[140.2695116601144,40.517183947915136],[140.2684265666082,40.51921635495131],[140.26766248023827,40.521168862093496],[140.26718076612744,40.52489825914392],[140.2650868502076,40.52411420937748],[140.2615970563401,40.523215972091144],[140.25908684668497,40.52273044556411],[140.25565556253926,40.522063843653875],[140.25239085137378,40.52151061985354],[140.25094393324113,40.52132963012119],[140.24714153094493,40.5211310193617],[140.24354800850168,40.52023694342109],[140.2423875710385,40.51980497364374],[140.24152197257848,40.5193863261346],[140.2417344916642,40.51640511007309],[140.24164989123753,40.514552537514746],[140.241089581545,40.51296384338563],[140.24056531889698,40.512407909873694],[140.23916480851426,40.51253721578001],[140.2376609911517,40.51296373847742],[140.23672721947827,40.51327473334606],[140.23413346967604,40.5141140417781],[140.2316020176053,40.51492199236983],[140.22929509585063,40.51606270406104],[140.22758517982905,40.51753810463438],[140.22654460814917,40.51934860060506],[140.22563591073023,40.520016924451035],[140.22525713150046,40.52071367435932],[140.22503748204852,40.52097700142435],[140.2247835370642,40.52103093207076],[140.22442445892392,40.52126590630355],[140.22419070042355,40.521371269512976],[140.22345886905617,40.521731412576244],[140.22309234107027,40.522044830882706],[140.22333321456955,40.52282822206519],[140.22362833746195,40.5230946507942],[140.22370187910687,40.523612536182895],[140.2237305422556,40.52370545695104],[140.22382084016905,40.52390044286634],[140.22387766787597,40.52401423380983],[140.2238981720676,40.524091808218884],[140.2239260365469,40.524272955420244],[140.22399130279305,40.52436606989797],[140.22408600929344,40.52446655104652],[140.2241398034507,40.52451816242101],[140.224296677028,40.52466217184435],[140.2243375830343,40.52470653899357],[140.2243768825254,40.52479589223143],[140.22438000843707,40.52484273265112],[140.22439064439135,40.52497158300961],[140.22441123696916,40.52504465479711],[140.22430838657084,40.52519179754156],[140.2242466763175,40.525230205042085],[140.22422401434906,40.52525347956197],[140.22415378213958,40.52532156961801],[140.22408734030972,40.525358157876006],[140.22400208296835,40.525390108014456],[140.22393576070382,40.52541857024908],[140.2238923336696,40.52565249844292],[140.2239163220272,40.52573730368058],[140.22393554460376,40.52582925990533],[140.22393636714955,40.5258707061782],[140.22238582195666,40.52584126089409],[140.22171547796597,40.52597385683157],[140.2179081508654,40.52768958089112],[140.2150486561037,40.52818484597255],[140.21230676536922,40.52801693700641],[140.21096793455092,40.52807779115958],[140.2105193767457,40.528347696763056],[140.21029286674582,40.528720893151],[140.21040805960956,40.53072980031295],[140.2101661338615,40.532770831415284],[140.20984723606884,40.533483932016416],[140.20894555895504,40.53450022523733],[140.20623719615216,40.536689537519685],[140.2045143793499,40.537833211110204],[140.20470276215968,40.53824049892601],[140.20493454855423,40.539603514925666],[140.20492024852416,40.54113310244172],[140.20374284909178,40.54283359294929],[140.2022835609587,40.544597801569566],[140.2015603723741,40.54608624450548],[140.20141562745331,40.54717675545243],[140.20169765355564,40.54839083022317],[140.20163608294192,40.54973365088739],[140.20152016308717,40.550357929947495],[140.2013356226654,40.551774696502534],[140.20147148360041,40.552932037975225],[140.2013485269394,40.55430247007748],[140.20072532109012,40.555548966013355],[140.19888353110056,40.55634102663351],[140.19798101509548,40.556594365970625]]]},"properties":{"KEY_CODE":"02343009000","PREF":"02","CITY":"343","CITY_NAME":"西目屋村","S_NAME":"大字川原平字暗門","SETAI":"0"}},{"type":"Feature","geometry":{"type":"Polygon","coordinates":[[[140.23445822211272,40.527325317160056],[140.23449018184544,40.527976627940376],[140.23340430916602,40.52771519632515],[140.23270065806514,40.52813481637587],[140.2316843090002,40.52828174425533],[140.2311264495937,40.528760653593736],[140.23029498840577,40.52882294104251],[140.23001491551832,40.52833244595697],[140.22967129578637,40.52749970484335],[140.2297984418112,40.52544114060531],[140.22955337542186,40.523211235106054],[140.23010746907514,40.52070835870983],[140.23073621452147,40.519176345394285],[140.23179206541437,40.51767044073441],[140.23261997048363,40.51600422175949],[140.23413346967604,40.5141140417781],[140.23672721947827,40.51327473334606],[140.2376609911517,40.51296373847742],[140.23916480851426,40.51253721577999],[140.24056531889698,40.512407909873694],[140.2391840071804,40.513938087899525],[140.2379669619892,40.514838697022974],[140.236815869196,40.51652714285948],[140.23647489325626,40.517368579435605],[140.23602543070325,40.51985613121302],[140.23494851871843,40.52139380536594],[140.23406440917645,40.5246825424903],[140.23408740516558,40.52678274137645],[140.23445822211272,40.527325317160056]]]},"properties":{"KEY_CODE":"02343009001","PREF":"02","CITY":"343","CITY_NAME":"西目屋村","S_NAME":"大字川原平字宮元","SETAI":"0"}},{"type":"Feature","geometry":{"type":"Polygon","coordinates":[[[140.23001491551832,40.52833244595697],[140.2299048340173,40.52889657329074],[140.22910150036122,40.52897880533973],[140.22849716853105,40.52950611259265],[140.2253778365568,40.52817572809107],[140.22548381584028,40.52742157609943],[140.22457353232457,40.52745280190853],[140.22390841706186,40.52674231606303],[140.22393636714955,40.5258707061782],[140.22393554460376,40.52582925990533],[140.2239163220272,40.52573730368058],[140.2238923336696,40.52565249844292],[140.22393576070382,40.52541857024908],[140.22400208296835,40.525390108014456],[140.22408734030972,40.525358157876006],[140.22415378213958,40.52532156961801],[140.22422401434906,40.52525347956197],[140.2242466763175,40.525230205042085],[140.22430838657084,40.52519179754156],[140.22441123696916,40.52504465479711],[140.22439064439135,40.52497158300961],[140.22438000843707,40.52484273265112],[140.2243768825254,40.52479589223143],[140.2243375830343,40.52470653899357],[140.224296677028,40.52466217184435],[140.2241398034507,40.52451816242101],[140.22408600929344,40.52446655104652],[140.22399130279305,40.52436606989797],[140.2239260365469,40.524272955420244],[140.2238981720676,40.524091808218884],[140.22387766787597,40.52401423380983],[140.22382084016905,40.52390044286634],[140.2237305422556,40.52370545695104],[140.22370187910687,40.523612536182895],[140.22362833746195,40.5230946507942],[140.22333321456955,40.52282822206519],[140.22309234107027,40.522044830882706],[140.22345886905617,40.521731412576244],[140.22419070042355,40.521371269512976],[140.22442445892392,40.52126590630355],[140.2247835370642,40.52103093207076],[140.22503748204852,40.52097700142435],[140.22525713150046,40.52071367435932],[140.22563591073023,40.520016924451035],[140.22654460814917,40.51934860060506],[140.22758517982905,40.51753810463438],[140.22929509585063,40.51606270406104],[140.2316020176053,40.51492199236983],[140.23413346967604,40.5141140417781],[140.23261997048363,40.51600422175949],[140.23179206541437,40.51767044073441],[140.23073621452147,40.519176345394285],[140.23010746907514,40.52070835870983],[140.22955337542186,40.523211235106054],[140.2297984418112,40.52544114060531],[140.22967129578637,40.52749970484335],[140.23001491551832,40.52833244595697]]]},"properties":{"KEY_CODE":"02343009002","PREF":"02","CITY":"343","CITY_NAME":"西目屋村","S_NAME":"大字川原平字福岡","SETAI":"0"}}]}