{"type":"FeatureCollection","features":[{"type":"Feature","geometry":{"type":"Polygon","coordinates":[[[141.1851780581026,40.495902230616494],[141.1847987756194,40.495240482480675],[141.1806809691348,40.4941944372192],[141.17922515437277,40.49468134952709],[141.17880399485196,40.494238103458414],[141.17746200702092,40.49431694285073],[141.17546919539603,40.49374994473187],[141.17467435403282,40.493038511882425],[141.1742342823094,40.49320811728564],[141.17309802167202,40.49278943578336],[141.17196891970502,40.49354735224342],[141.16897286802336,40.493215350680785],[141.16759031226857,40.49382713696721],[141.16637744706856,40.493552630224485],[141.16601422565054,40.49418679166876],[141.16473190224264,40.49328050952319],[141.16385595753454,40.49375440493971],[141.16129568613158,40.49419391679075],[141.16041737511785,40.49465336416327],[141.15940803733594,40.494676367326385],[141.15754783102005,40.495316357837766],[141.15611006759423,40.49481433382853],[141.15468689620414,40.49521407655628],[141.15305394517767,40.49541740359902],[141.1521311910997,40.49520235393231],[141.15058111759018,40.49678288837925],[141.14995814261786,40.496770556585545],[141.14882241051333,40.4962282484568],[141.1491588183335,40.497320891699665],[141.14769717885025,40.49764575473578],[141.14676288410774,40.49710836802087],[141.1459701970623,40.496169707428834],[141.14584611962152,40.49550632009403],[141.14448269087987,40.49602898916103],[141.14409980697442,40.49577101863633],[141.1444119776101,40.495034090464145],[141.14311159106308,40.49516233707032],[141.14196974681232,40.49608741336312],[141.1407313852908,40.49594784548512],[141.13909018974869,40.494371000236576],[141.1372357561073,40.49432710099756],[141.13679663146803,40.494786274183085],[141.13584759962603,40.49463861298504],[141.1351322721443,40.49519651637187],[141.13322704490196,40.49446859466758],[141.1325525698654,40.49463741864668],[141.13096819086124,40.4959732103246],[141.12959337313603,40.49595289445145],[141.12811946607496,40.496407330313794],[141.12648018398585,40.496122776560156],[141.12497795962136,40.49525234438905],[141.1207852144699,40.49535148596063],[141.12026797943366,40.495637844490524],[141.11883509906414,40.49577213881285],[141.11811869734126,40.49657905647398],[141.1147299088395,40.497801268437634],[141.11379884303335,40.49840541456967],[141.11224896308053,40.49874312036916],[141.11180531772916,40.49858144903833],[141.11053267360856,40.49728874566697],[141.10874226648428,40.49678932675211],[141.10711460533477,40.49426623420476],[141.10590552946877,40.494095799202974],[141.10464664761471,40.49297840834448],[141.10401227452326,40.49267192829697],[141.10130147650955,40.49290204528276],[141.09806906565606,40.492986663901306],[141.09671448896808,40.49380816998],[141.09363745926012,40.4936383350688],[141.0915892453869,40.49270192933663],[141.09078678136424,40.49258238572062],[141.0873790963104,40.493687849297984],[141.0869255180605,40.492984182949414],[141.08620266066308,40.49090069599157],[141.08416109626478,40.48953955484649],[141.08280138841104,40.489366781165025],[141.08153662849153,40.488508472939394],[141.0790265430657,40.48814987682829],[141.07711492747816,40.48690042115844],[141.07577897961514,40.48661205110303],[141.0745960162024,40.485593665523716],[141.07350045454822,40.48509055045103],[141.07216672458551,40.485061660588826],[141.06947904225711,40.483578966501234],[141.0676521049811,40.482824211829],[141.06752949828552,40.482325107711816],[141.06902992257494,40.48161902964398],[141.06916786535473,40.48062338226405],[141.0680841535546,40.47997479445758],[141.0645604521183,40.479656059250445],[141.06103865846256,40.48006154553139],[141.059279754495,40.47950649046065],[141.0580502069643,40.47958985164597],[141.05692037391415,40.47881122085608],[141.05621613983683,40.47764906352969],[141.0556063959255,40.47709643195382],[141.05471460946345,40.476922568048955],[141.05273176465315,40.47698638803136],[141.0506205772886,40.477515680570804],[141.04921181520672,40.47747031493125],[141.04705847394496,40.47590148337692],[141.0464441529992,40.47574054767367],[141.04384892181466,40.4756147102182],[141.04200635059738,40.47585667851059],[141.03869402170554,40.474760998977246],[141.0355545841983,40.47486257387846],[141.0336057810902,40.4751076220817],[141.03279219897703,40.47473530516011],[141.0310906592606,40.474449323301386],[141.0285569042271,40.472776460116734],[141.02505788568436,40.471000928160265],[141.02352971111938,40.46993257749665],[141.02211131867426,40.46920351999814],[141.01960527452556,40.46848347577053],[141.01863399268913,40.468775845522636],[141.01870708571758,40.46761216327541],[141.0178906831374,40.46645188091681],[141.01582759167482,40.46475825506818],[141.0146111663415,40.464097540682374],[141.0132098348187,40.46299529887408],[141.01196358350992,40.461326311434036],[141.01083371882868,40.46060669532244],[141.00950676254075,40.460257472669646],[141.00828577292535,40.45948062606611],[141.0057211365357,40.45846415372866],[141.00111096880366,40.45473354963594],[141.00092221847115,40.45416698563128],[141.00137314933303,40.452555005506305],[141.00120844199736,40.449082735725725],[141.0013856546518,40.44796651025644],[141.00090031848032,40.44723239716679],[141.00114282488488,40.445491301446495],[141.00089952299268,40.44486688160063],[140.99900388171918,40.44368880855601],[140.99833218064333,40.442961842334356],[140.99827340441453,40.441542411952234],[140.99733827043036,40.439283332328834],[140.9963169223406,40.43855488039689],[140.99605272845614,40.43723790733236],[140.99618617655378,40.43660016615537],[140.99572017517184,40.43530015528427],[140.99519847070212,40.434881430186195],[140.99491526413058,40.433661718831274],[140.99213666869224,40.43295635378013],[140.99179450419018,40.43178388840276],[140.99130853846324,40.43122753598211],[140.98866842007186,40.43030182707144],[140.98632130748666,40.428730224805626],[140.98554257510605,40.42771940638999],[140.98534709579457,40.42535626216898],[140.98555966328303,40.422939911435854],[140.9858096970776,40.421673389552765],[140.98523477851978,40.42109011777108],[140.9835224675163,40.42001524754748],[140.98257258121816,40.418998673531405],[140.98001039377922,40.417873769705444],[140.97887308391074,40.41660722942011],[140.9787981256439,40.415724002690894],[140.97927312371897,40.41523241083091],[140.98093543552423,40.41558240637314],[140.9815353977123,40.4153657600598],[140.9828103800627,40.41330770368596],[140.98236279428616,40.411913608743305],[140.98346473365046,40.40903485487731],[140.9843266358612,40.40800207369339],[140.98718486365613,40.40639879919187],[140.9896940546235,40.403639843772446],[140.9910942870672,40.402574645392626],[140.99213584080243,40.403001815933884],[140.9930522091833,40.40388073848548],[140.99399555599516,40.40426004227527],[140.99627050078516,40.40684988697139],[141.0003224953563,40.408235175835294],[141.0025273758201,40.40872927454403],[141.0043415712417,40.41001119388445],[141.00639088681476,40.40991409265839],[141.01203428511687,40.40769426453574],[141.0135329878771,40.40677318593567],[141.01473990772732,40.40646205794357],[141.0158089130628,40.406669952297875],[141.01670863295757,40.407223477299155],[141.01867306458556,40.40899699556848],[141.01981051907006,40.40833327095156],[141.02178703512755,40.408957141317465],[141.02315390076797,40.40885039293209],[141.02454159270823,40.40805270478895],[141.02548039985393,40.407006062193375],[141.02766872075694,40.40732756400203],[141.03038396606786,40.40716625586995],[141.03076128859414,40.406666320764884],[141.03178258830613,40.4067522873886],[141.03199922511544,40.405523139021376],[141.03323649554196,40.40613214876708],[141.03320773853315,40.4050864320618],[141.03390027646418,40.40436465278637],[141.03643099743172,40.40295172847009],[141.03746424204826,40.40253815401317],[141.03866732198824,40.401374455052746],[141.04081269051395,40.40084679187283],[141.04262621544038,40.40111812154548],[141.04590788733478,40.402744024206996],[141.04680721490826,40.40396795685395],[141.04790282380284,40.404796922691595],[141.04997437478403,40.40728257711817],[141.050851566599,40.407720982570346],[141.0535901119214,40.40862323867134],[141.05640755887467,40.40829453203501],[141.05862042090786,40.408180589816176],[141.06181838851904,40.40848760408445],[141.06476184904983,40.40927282786895],[141.0665555716048,40.41014958925052],[141.06799886177146,40.41041844010208],[141.06955911815177,40.411517760723484],[141.0715293986822,40.41187523821701],[141.07369999292678,40.41196049057389],[141.08189037593928,40.411686767013286],[141.08450865324934,40.41221093278778],[141.08597862743983,40.416024893677296],[141.08594791809293,40.417399901234745],[141.08743514050835,40.41804540201467],[141.0897035426841,40.41832604439236],[141.09470784577047,40.41936258021927],[141.09507593857495,40.42011193181268],[141.09350549420378,40.42036907397025],[141.0929124616141,40.421422520199506],[141.09292175163716,40.422340146574406],[141.093545740868,40.422792741672346],[141.11107426140333,40.42588927021051],[141.11269436326108,40.426440505552435],[141.11757717505304,40.42734358150674],[141.1227439693684,40.42752295312405],[141.12422462636277,40.42812576731625],[141.12553289350552,40.42803010504631],[141.12735351013652,40.42705251990583],[141.1279828859623,40.427002010542815],[141.129962736345,40.42774570709687],[141.13038901124185,40.42883633003517],[141.13112487556955,40.429789900285904],[141.13344989543359,40.42976507788162],[141.135011332007,40.4303532315891],[141.13806756451285,40.4322172237387],[141.1392615833046,40.43263443443034],[141.1430826083465,40.43303285434823],[141.14495571312068,40.433664083909704],[141.1463771802841,40.43498537825617],[141.14719581384708,40.435352378576866],[141.14900569715476,40.43561207790205],[141.1508654569817,40.43501499882102],[141.15237924244607,40.435287667297],[141.1547746907315,40.4362649609553],[141.1570746135692,40.43797527758195],[141.15846528223102,40.43916138719283],[141.1619312540167,40.4411421270012],[141.16423594220106,40.442226673945115],[141.16517723978066,40.4436336218435],[141.1657086633262,40.444065095159985],[141.168966158836,40.44545027456348],[141.17326772520013,40.44782541084696],[141.17502968249013,40.45004506946856],[141.17692571212757,40.45115189865578],[141.17780681776463,40.45254302514866],[141.1791257863926,40.45327647772553],[141.1811977388328,40.45382432746907],[141.1836648727346,40.453565450035256],[141.185190803971,40.45381225131813],[141.18609728881466,40.45361771862351],[141.18710755598215,40.45404084259321],[141.18933612201812,40.454359806799786],[141.1906076839696,40.45415032285484],[141.1917785126661,40.454410516223504],[141.1928858466368,40.45496894570393],[141.19553256801169,40.455577218508836],[141.19493386776253,40.4559300888555],[141.19334890493892,40.45616933988509],[141.19214493548498,40.45663542758544],[141.19194926794663,40.457649127867526],[141.1930774372084,40.45857498377059],[141.193633564244,40.45963911603002],[141.1953051679677,40.461140354059204],[141.19557378796446,40.46161273061048],[141.19520440720365,40.46242378844135],[141.1957298898906,40.46495108473864],[141.1949867583831,40.467280663233296],[141.19466839092746,40.46775948620496],[141.19496413955258,40.469337126556916],[141.19459179674678,40.47014913630921],[141.1933797912391,40.470859131739914],[141.1930126500693,40.471850961931224],[141.19223537489535,40.471787130063994],[141.19130644957718,40.47374728079886],[141.19063119313427,40.47455320881997],[141.19016475384052,40.47673696730591],[141.1892462856052,40.47656624501011],[141.18631666896596,40.47674709619565],[141.18497240151663,40.47722963555171],[141.18394731002797,40.47832633447294],[141.183661977445,40.47951878280412],[141.18391953031565,40.4806511821285],[141.1837750559864,40.482479099031515],[141.18316769298036,40.484143207167605],[141.18212514020087,40.48499070230553],[141.18088812949003,40.486380558256634],[141.18059529309176,40.48698000732751],[141.1782827770296,40.48722081668026],[141.1760724601278,40.48849721683599],[141.1756942312076,40.48898724774405],[141.17699881422305,40.48994135228385],[141.17775969983904,40.49016241565906],[141.17855400910753,40.49116428315024],[141.18052142550357,40.49176223065775],[141.1839039862027,40.493245153918885],[141.1846763584016,40.49435138780928],[141.18571106705065,40.495290470956824],[141.1851780581026,40.495902230616494]]]},"properties":{"KEY_CODE":"024500010","PREF":"02","CITY":"450","CITY_NAME":"新郷村","S_NAME":"大字戸来","SETAI":"594"}},{"type":"Feature","geometry":{"type":"Polygon","coordinates":[[[141.22923688708184,40.454667643078935],[141.22810538201256,40.45531184073451],[141.22638704373531,40.45574747343684],[141.22486014881167,40.45682718421404],[141.2230962350706,40.457682801045024],[141.2226280761599,40.459069264130335],[141.2218959219892,40.45971937038838],[141.22035103676697,40.45987702610069],[141.21808412336762,40.460409694835846],[141.2161308478779,40.460333607265675],[141.2134771754444,40.459703553576176],[141.2128022378682,40.458970924309426],[141.2114877195187,40.45907299631405],[141.20916886241187,40.45832375800472],[141.2089853170977,40.457855823087456],[141.20809081023907,40.45770196573381],[141.20644481368683,40.45691176430841],[141.2050296039197,40.45717142227937],[141.2036949797384,40.457108375868785],[141.20126186841247,40.456431087599206],[141.19978667774689,40.45655838433299],[141.1988356552733,40.45614190669609],[141.19780985267056,40.456159574104056],[141.19745544408605,40.455795343054504],[141.19553256801169,40.455577218508836],[141.1928858466368,40.45496894570393],[141.1917785126661,40.454410516223504],[141.1906076839696,40.45415032285484],[141.18933612201812,40.454359806799786],[141.18710755598215,40.45404084259321],[141.18609728881466,40.45361771862351],[141.185190803971,40.45381225131813],[141.1836648727346,40.453565450035256],[141.1811977388328,40.45382432746907],[141.1791257863926,40.45327647772553],[141.17780681776463,40.45254302514866],[141.17692571212757,40.45115189865578],[141.17502968249013,40.45004506946856],[141.17326772520013,40.44782541084696],[141.168966158836,40.44545027456348],[141.1657086633262,40.444065095159985],[141.16517723978066,40.4436336218435],[141.16423594220106,40.442226673945115],[141.1619312540167,40.4411421270012],[141.15846528223102,40.43916138719283],[141.1570746135692,40.43797527758195],[141.1547746907315,40.4362649609553],[141.15237924244607,40.435287667297],[141.1508654569817,40.43501499882102],[141.14900569715476,40.43561207790205],[141.14719581384708,40.435352378576866],[141.1463771802841,40.43498537825617],[141.14495571312068,40.433664083909704],[141.1430826083465,40.43303285434823],[141.1392615833046,40.43263443443034],[141.13806756451285,40.4322172237387],[141.135011332007,40.4303532315891],[141.13344989543359,40.42976507788162],[141.13112487556955,40.429789900285904],[141.13038901124185,40.42883633003517],[141.129962736345,40.42774570709687],[141.1279828859623,40.427002010542815],[141.12735351013652,40.42705251990583],[141.12553289350552,40.42803010504631],[141.12422462636277,40.42812576731625],[141.1227439693684,40.42752295312405],[141.11757717505304,40.42734358150674],[141.11269436326108,40.426440505552435],[141.11107426140333,40.42588927021051],[141.093545740868,40.422792741672346],[141.09292175163716,40.422340146574406],[141.0929124616141,40.421422520199506],[141.09350549420378,40.42036907397025],[141.09507593857495,40.42011193181268],[141.09470784577047,40.41936258021927],[141.0897035426841,40.41832604439236],[141.08743514050835,40.41804540201467],[141.08594791809293,40.417399901234745],[141.08597862743983,40.416024893677296],[141.08450865324934,40.41221093278778],[141.0853252912338,40.41188383474705],[141.0867559512036,40.41053338646388],[141.08845775188428,40.4098961091858],[141.09211667393106,40.40707074422894],[141.09337907056795,40.405871804079396],[141.09592284493948,40.40527107996484],[141.09595444461294,40.40563692115859],[141.09796542938426,40.406104315605994],[141.09868852176447,40.40662920481132],[141.0995273695533,40.40642357722911],[141.10057188728152,40.40686007864568],[141.10209162912165,40.40717943736076],[141.1030697362801,40.40784900293719],[141.10372175307805,40.40894363476283],[141.10514944084971,40.40985969390274],[141.10591365790552,40.40984097145633],[141.10699668917084,40.41057484471381],[141.1071147286862,40.41116415607315],[141.10781428744764,40.411807423785596],[141.11077218385128,40.41283271337154],[141.11226119202215,40.412973637655774],[141.11267863629135,40.413473068685654],[141.11233693465684,40.4142541299854],[141.11308788386057,40.41466047379533],[141.11415087284178,40.41465099259689],[141.11477738660022,40.41512067163068],[141.1163807599324,40.41541423258917],[141.11775731054192,40.415347059462285],[141.11821676213137,40.41589555188513],[141.11933021256357,40.41649160512427],[141.1211506284853,40.41664865932006],[141.1222519756705,40.41586172134884],[141.12357638412107,40.41633997361849],[141.1239896631679,40.41605379130422],[141.12574890746734,40.41595585519283],[141.12642254029544,40.415485252320984],[141.1288283050589,40.4153602882247],[141.1294985108298,40.415063891980566],[141.13144568769445,40.41486979866917],[141.13302813857322,40.41490040822952],[141.13445569395762,40.4158427949172],[141.13527571056733,40.41678820410527],[141.13640443191343,40.41735087172286],[141.1370134765635,40.417253785052054],[141.1380172758158,40.417808114540414],[141.13927413764011,40.41781923878862],[141.1407558097867,40.418560318865254],[141.14203789206863,40.41953048526032],[141.14323091688541,40.42005530720844],[141.148918293413,40.420767451555086],[141.14986797691117,40.42123148838337],[141.14988709916776,40.421889949145346],[141.15123323955427,40.4215559035901],[141.15243616726423,40.421523702076996],[141.15398248328867,40.42180705454839],[141.1552301632031,40.42150714989195],[141.15613091406206,40.420838874284755],[141.1566649770572,40.42116399820469],[141.1573109945537,40.42016231318964],[141.15796627006318,40.419718319463136],[141.15968158679604,40.42029379078146],[141.16068001612854,40.4201201258827],[141.16133388851128,40.42074132322548],[141.16253343624956,40.420695199782394],[141.1632008144919,40.42004512360984],[141.16447911007643,40.420639397151334],[141.1660079264141,40.41937637467449],[141.16851024778362,40.420873960919636],[141.16971241807136,40.42069459567887],[141.17052130369933,40.42009180577476],[141.1713360312005,40.41999900971077],[141.17209403762504,40.42039369937671],[141.17239416130488,40.4212419755198],[141.17324500133094,40.420778607508346],[141.17396529740583,40.419113066705314],[141.17433191845427,40.41902853395165],[141.17500300832617,40.41798276979292],[141.17450852479453,40.41701432926217],[141.17540249586648,40.41608807958032],[141.17730987763574,40.41614134258763],[141.1781865024696,40.41656075839871],[141.17941989723246,40.416112627104376],[141.18110430095976,40.41638961231848],[141.1830842372786,40.41630095836377],[141.18686407119284,40.41692287117804],[141.18840535164307,40.41734345929134],[141.18973066882316,40.41722174278799],[141.19073942503826,40.41674154787778],[141.1918729402055,40.4170293761733],[141.19427638060182,40.41627249162313],[141.1962352839099,40.41654278583616],[141.19839771178118,40.416493875609326],[141.2005719439439,40.41731145876412],[141.2018909882221,40.41843843190556],[141.2043173198537,40.419533421846445],[141.20473638518456,40.419196066369125],[141.20459240831218,40.417257331552285],[141.20604836877152,40.41625355517233],[141.20833946029865,40.416442182648915],[141.21166541086177,40.41396697114081],[141.21320605550392,40.41487848251866],[141.2141062920778,40.415032321566926],[141.21736574345422,40.415106711224176],[141.21919120805302,40.41632671353313],[141.2214206569625,40.416972904219875],[141.222699517591,40.4180674985312],[141.22381704331517,40.41847005949252],[141.22513890312507,40.41818997631449],[141.22600103205738,40.417382817974016],[141.2266217752584,40.41721665836754],[141.22811091402153,40.41742505124012],[141.2292748633603,40.41733423754572],[141.23051335450933,40.41789733976732],[141.23268809993482,40.418397349980246],[141.23382545397644,40.41888896032053],[141.23416272579567,40.41977455405196],[141.232280918365,40.41968217838838],[141.23003485164142,40.41973361612012],[141.2295939265412,40.42016454884204],[141.22970323602541,40.42201978545847],[141.22947095617928,40.422317298705146],[141.22947691471344,40.422422962004894],[141.22974968237523,40.42268626794771],[141.23059472909512,40.42258172400434],[141.23171350571462,40.422879403095585],[141.23130184277252,40.42305989387543],[141.23060068985535,40.423015729280415],[141.23031872854708,40.423577130614916],[141.22887512943052,40.423513695791954],[141.22804062648927,40.423675746430625],[141.22697021722178,40.42356485348366],[141.22612060508823,40.423955583118136],[141.226160821576,40.424546203165306],[141.22554599788504,40.42613881774885],[141.22530592626265,40.427074178262174],[141.22372492035117,40.42921159072614],[141.22257793076852,40.43012361751957],[141.22233165490576,40.430319382462386],[141.22783180664922,40.43305404745823],[141.22972877224436,40.434306271087365],[141.22992051945627,40.43481295109768],[141.23050498167592,40.43512929100524],[141.2317699807776,40.43658977829316],[141.23253428834826,40.43731459968286],[141.23307031933982,40.43768826014554],[141.23363667761612,40.4385157137429],[141.23415196955733,40.43896036677514],[141.2344464359337,40.43921053288328],[141.23443277828153,40.43937596343308],[141.23465676024753,40.43982036035198],[141.2351331540699,40.44083464489823],[141.235504964781,40.44122754820867],[141.23565886146324,40.4413837058798],[141.23609454025038,40.44184477382906],[141.2364473884901,40.44205990380564],[141.2365231382854,40.44247621041237],[141.23655706314125,40.4427049053021],[141.23746986580434,40.442930528443696],[141.23852078810668,40.44398630319218],[141.23808728832117,40.444659278786574],[141.2376783187998,40.44451091441629],[141.23657979205618,40.444263710276566],[141.23598164330957,40.44416560450533],[141.23500914412293,40.44416290685844],[141.2336628570353,40.44413317706305],[141.23329242421562,40.44422149775897],[141.2332333044915,40.4447571843575],[141.23333964883807,40.44525686751363],[141.23373270864226,40.446076400452824],[141.2338280738499,40.44651740639509],[141.23374656759984,40.44685070451349],[141.23370251494237,40.44724058536727],[141.23333353824083,40.44869241668866],[141.2329302977716,40.44872698891572],[141.23294091369272,40.449755024942775],[141.23264960043252,40.450454781745506],[141.23256521683777,40.450560193398715],[141.2322468239286,40.45078701048027],[141.23213020262347,40.45090801091661],[141.23176418888104,40.4516404624304],[141.23182345918772,40.452076210565174],[141.23186089443251,40.45224614247662],[141.23170344533935,40.45265945521582],[141.23158142529633,40.45357970670948],[141.23078638952254,40.453975099988774],[141.22923688708184,40.454667643078935]]]},"properties":{"KEY_CODE":"024500020","PREF":"02","CITY":"450","CITY_NAME":"新郷村","S_NAME":"大字西越","SETAI":"194"}}]}