{"type":"FeatureCollection","features":[{"type":"Feature","geometry":{"type":"Polygon","coordinates":[[[137.16066737267187,35.43363878754564],[137.16006909355752,35.43462511442679],[137.15793179997283,35.43496692451792],[137.15808487009747,35.43591272466952],[137.15765315624526,35.43606100441866],[137.1564897899928,35.435658372717896],[137.15437896947685,35.43561018423324],[137.15345161053617,35.436378618153796],[137.151361396158,35.43452409237221],[137.15133190726894,35.43388172057434],[137.1507042082381,35.43347955840751],[137.1508231493845,35.432559740592836],[137.1503444236214,35.43205738253748],[137.14743339480663,35.43098462769204],[137.14633975064012,35.42835156902842],[137.14683702527327,35.42780189067491],[137.14942142806217,35.42827158142313],[137.15087071980068,35.42817420079294],[137.1514244341692,35.42788799626696],[137.15310155981908,35.42626255938581],[137.15489683399818,35.42547293425887],[137.15570936491287,35.42668496760621],[137.15691726632105,35.42713275111095],[137.157559257879,35.4287225822453],[137.15845942535304,35.43014178420915],[137.1592275248423,35.43086490434535],[137.15947524493302,35.431746799190705],[137.15965441356826,35.431836317639416],[137.16046674394218,35.43196822535112],[137.1613533941387,35.43211016367013],[137.16149479977142,35.43218171933904],[137.16066737267187,35.43363878754564]]]},"properties":{"KEY_CODE":"215210010","PREF":"21","CITY":"521","CITY_NAME":"御嵩町","S_NAME":"井尻","SETAI":"121"}},{"type":"Feature","geometry":{"type":"Polygon","coordinates":[[[137.1812529122005,35.435867385503215],[137.17999969339672,35.43635200525365],[137.1773711255361,35.4369866695627],[137.1757705842673,35.43658302972785],[137.17463062954516,35.4365662073919],[137.17234046428504,35.43740598467746],[137.17170022210036,35.437357810732856],[137.17227597987133,35.43607354464845],[137.1721626989177,35.43528744199003],[137.17059759473764,35.434198860566006],[137.17012672770014,35.43321076022755],[137.16969465974856,35.43300066345177],[137.17001396994436,35.43220627022861],[137.1698125527786,35.43182538986885],[137.17141648623354,35.43099414461882],[137.17239475518141,35.42980382982456],[137.17246049305237,35.42981150292946],[137.17332771741812,35.429862734358835],[137.17350615759943,35.42982170228569],[137.17461279107727,35.42908237069603],[137.17472076124096,35.42863777676101],[137.1750387068528,35.42815658769076],[137.17514194853953,35.42811263759178],[137.175492972937,35.42799775720463],[137.17595961750624,35.427754449467564],[137.176116560639,35.42784567250472],[137.17702928645892,35.428132791732345],[137.177821661916,35.42817688461688],[137.1785738252639,35.427987383476044],[137.17874727472986,35.42796370585899],[137.179197204544,35.427057633916654],[137.17947369866596,35.42574322953427],[137.17958142554747,35.425570138682225],[137.1817548222147,35.4256376275354],[137.18144678619063,35.427406244847845],[137.18179380796147,35.42805522582321],[137.18187755779078,35.430406171896905],[137.1823928017864,35.43136737422478],[137.18073044621224,35.432795333085295],[137.18055711380478,35.4335420846505],[137.18099297311983,35.43423299512957],[137.1812529122005,35.435867385503215]]]},"properties":{"KEY_CODE":"215210020","PREF":"21","CITY":"521","CITY_NAME":"御嵩町","S_NAME":"謡坂","SETAI":"20"}},{"type":"Feature","geometry":{"type":"Polygon","coordinates":[[[137.1873264001115,35.47317382429532],[137.18722786931679,35.473169018643524],[137.1870033078686,35.473158985976184],[137.1862440903619,35.473119431868575],[137.18540662967766,35.473051963073466],[137.18526447987654,35.473033076938535],[137.1852063482468,35.47302403698366],[137.1848765953136,35.472964617848135],[137.18462424536122,35.47290786267311],[137.18406886117776,35.47276823224628],[137.182772970735,35.472420505325594],[137.18225506132194,35.472300684808914],[137.18200271882765,35.472243924143754],[137.18137615809056,35.472057637520415],[137.1812150705165,35.47200170806646],[137.1809735011128,35.47191596574096],[137.17919841761335,35.47116555764646],[137.1791175901558,35.471128207622066],[137.17891376719632,35.47103467542469],[137.17933719258613,35.46936970252051],[137.1802375871881,35.4671733651057],[137.18169203732955,35.46747730215324],[137.1821835525598,35.466568342061436],[137.18341456158439,35.46529097151289],[137.1834167771211,35.46486238533308],[137.18160246187966,35.463417685206004],[137.1815781786821,35.46238175167633],[137.18263748146558,35.461996651259916],[137.1824396494285,35.46130341165118],[137.18280536672663,35.46002689210647],[137.1825410734082,35.45927052507559],[137.18130913198507,35.45764731510618],[137.18143832211888,35.456447340563756],[137.18105335828753,35.45595872870658],[137.1794988154369,35.45540915359824],[137.17980899623598,35.45512271254021],[137.18032813084852,35.454401883883556],[137.1803480241996,35.45432043837841],[137.18030154604332,35.45411952962922],[137.1803579391449,35.45405438221386],[137.18046241341614,35.45382497012441],[137.18077418325464,35.45321951493124],[137.18096822180118,35.452908648349215],[137.18160183739178,35.45243075636269],[137.1831195701295,35.45166904853031],[137.1828852111549,35.45233837463179],[137.18293074096303,35.45276072706786],[137.18296661828822,35.45280272870823],[137.1838779123241,35.4527562310134],[137.1842192225983,35.453225582290955],[137.18463420183542,35.45367118675037],[137.18486946608374,35.45382305129027],[137.18507929441387,35.453927031292736],[137.18515880864626,35.454126277787175],[137.18536420741546,35.45435564483312],[137.18580487629362,35.4546994448223],[137.18614890783854,35.455024526391334],[137.18645788527866,35.45501926294309],[137.18756918223235,35.45490044537213],[137.18815348128732,35.4550069935659],[137.188828068863,35.45515095282821],[137.18904551342993,35.45519566372352],[137.1897112352768,35.45541975865831],[137.18990520184596,35.45560126870354],[137.19051752894674,35.455888819118364],[137.19190169249748,35.456114796937065],[137.19317958448593,35.45604691188681],[137.19421703841172,35.45564713653361],[137.19524658293088,35.45448373525747],[137.19620144961385,35.45435758761559],[137.1972085311739,35.45444683914842],[137.19874448476133,35.45430285280092],[137.19880565795762,35.454658641738924],[137.1986978318487,35.455300599948146],[137.1989471756603,35.45559394514124],[137.19952069445137,35.4557280150041],[137.1997966175989,35.45571441876952],[137.20022222209428,35.45564356231213],[137.20059929328391,35.4553517353677],[137.20109497913953,35.455294906437175],[137.20173163547577,35.4550771201579],[137.20274776864036,35.45448795578917],[137.20274379145178,35.45460922301918],[137.20209474248688,35.45598879900817],[137.19967668150446,35.45804907064377],[137.19983190829987,35.45920214670372],[137.19993496008527,35.459267363935304],[137.19997242855493,35.45929890247373],[137.20004077599685,35.45938993927596],[137.2001256809962,35.45957199028714],[137.20017862170553,35.459713487819855],[137.20020509378176,35.459787387941645],[137.20028338792054,35.459962258747815],[137.20031976257619,35.46001090937178],[137.20057876030353,35.46024248857269],[137.20066474364125,35.460350631900354],[137.20067798867873,35.46041284619523],[137.20065160442894,35.4605417251847],[137.20059435000383,35.46062469799286],[137.2006241605425,35.46077609602584],[137.20072995110215,35.46083648784503],[137.20075639687641,35.46085267731997],[137.20090959587202,35.46097615327629],[137.2013030682947,35.46135099976318],[137.2013593168874,35.4614853132545],[137.20138691053177,35.46160878977878],[137.20147857375306,35.4621189388728],[137.2014885811522,35.46232266741411],[137.20153822109856,35.46247680824967],[137.2022150182514,35.4632157649514],[137.20229664304586,35.463437465527335],[137.2022395644864,35.46392153152834],[137.20232118652228,35.464135169327804],[137.2023708156668,35.46424332366195],[137.20236973879852,35.46429469660721],[137.2021417713601,35.46452550288796],[137.20187296326435,35.46457607314112],[137.2018683081447,35.464578504608276],[137.20180137033896,35.46462295989745],[137.2017738591306,35.46471039776988],[137.20178710158012,35.464763597525454],[137.20183674953986,35.4649159068681],[137.2020131997159,35.46528543272482],[137.20216224766895,35.466002923572645],[137.20205215027252,35.46618594852627],[137.20190689624474,35.46642929962268],[137.20182140395843,35.46711196279785],[137.20208126847757,35.46726491633967],[137.20235898747887,35.46740906146646],[137.20238577757794,35.46743046213754],[137.20245268085102,35.467498259568465],[137.2024742020612,35.46753346564687],[137.2026211723222,35.467975146607685],[137.20266606408137,35.46810664746682],[137.20271524788447,35.46825177381657],[137.20288402520964,35.46869612606659],[137.20328552714062,35.46966230989499],[137.20324696671653,35.46967133528576],[137.2029506125682,35.469758851290294],[137.2025947622472,35.469860820215104],[137.20200645471746,35.470038554417734],[137.20149551883105,35.47020094740785],[137.2012628158875,35.470283932513674],[137.20085845143112,35.47043872298942],[137.2004480306928,35.4705967882714],[137.198905286798,35.47133738727943],[137.19756473494252,35.47241037278222],[137.1973113758941,35.47258261390246],[137.1970601987356,35.47273048725879],[137.19702301310613,35.47275060243102],[137.19673410464563,35.47290362797175],[137.1966558809161,35.47293882332652],[137.19640248802145,35.47305965762114],[137.19610723552964,35.47319990313836],[137.19587917501582,35.473300449439435],[137.19560473193087,35.47341301326126],[137.1955820206018,35.47342213823723],[137.19534263057412,35.473516032026794],[137.19490252290984,35.47366366812283],[137.1948765799046,35.473671173499675],[137.194740615475,35.473701239924054],[137.19466613335766,35.47371537673658],[137.19390254390703,35.47381833265413],[137.19385196615173,35.47382489273834],[137.1933552691726,35.473885214329584],[137.19322929985736,35.473895101831275],[137.1929692539512,35.473904173183456],[137.1928282081417,35.473900576927434],[137.19216383197843,35.47384656706365],[137.191832032979,35.473810089110536],[137.19111942376819,35.47371362114721],[137.19079950950587,35.473658545799864],[137.19049426163326,35.47359551025794],[137.19033958084043,35.47356159885865],[137.18972761284394,35.47344232058677],[137.18969202844664,35.47343613044885],[137.1893239750564,35.473368597172154],[137.1889250659305,35.47329205471629],[137.18876764609274,35.47326881000616],[137.18862753872781,35.47325154765264],[137.18828259780716,35.47322301941963],[137.1873264001115,35.47317382429532]]]},"properties":{"KEY_CODE":"215210030","PREF":"21","CITY":"521","CITY_NAME":"御嵩町","S_NAME":"大久後","SETAI":"25"}},{"type":"Feature","geometry":{"type":"Polygon","coordinates":[[[137.17561838710373,35.4445071118112],[137.17462950647342,35.44457404600985],[137.17379314068165,35.44367715891471],[137.17104484216065,35.44331577251323],[137.1690050506745,35.44150794702417],[137.1669641431462,35.441176675447515],[137.1649778994614,35.44049339540416],[137.16418046324335,35.43977092008563],[137.16430308542726,35.439191871701695],[137.16382391711514,35.43831552268122],[137.1623638911861,35.43712780920426],[137.1613407017637,35.43427854379931],[137.16066737267187,35.43363878754564],[137.16149479977142,35.43218171933904],[137.16257078091652,35.432176472159256],[137.16356331060624,35.43257386068176],[137.16496837928037,35.43371030970905],[137.16609472373838,35.433688481092084],[137.1668983290606,35.43396010398254],[137.16835148413696,35.432648544322426],[137.1698125527786,35.43182538986885],[137.17001396994436,35.43220627022861],[137.16969465974856,35.43300066345177],[137.17012672770014,35.43321076022755],[137.17059759473764,35.434198860566006],[137.1721626989177,35.43528744199003],[137.17227597987133,35.43607354464845],[137.17170022210036,35.437357810732856],[137.17234046428504,35.43740598467746],[137.17463062954516,35.4365662073919],[137.1757705842673,35.43658302972785],[137.1773711255361,35.4369866695627],[137.17999969339672,35.43635200525365],[137.1812529122005,35.435867385503215],[137.1831975788973,35.439430610009914],[137.18306524668296,35.44050753141909],[137.18324980624814,35.44180170230248],[137.1839082872654,35.442551508138926],[137.18390128417303,35.44331253417527],[137.18339166748515,35.44382193798775],[137.18279592157327,35.443762367864295],[137.18129575264973,35.44308213281796],[137.18003245162444,35.44393523668191],[137.1792683173584,35.444199787363075],[137.17645015534328,35.44393557138093],[137.17561838710373,35.4445071118112]]]},"properties":{"KEY_CODE":"215210040","PREF":"21","CITY":"521","CITY_NAME":"御嵩町","S_NAME":"小原","SETAI":"30"}},{"type":"Feature","geometry":{"type":"Polygon","coordinates":[[[137.0785881863525,35.43248034218967],[137.07958498208006,35.43448440388208],[137.08039682377628,35.43742593123618],[137.0826503965519,35.44020233314745],[137.0835754378854,35.44067954172865],[137.08445967117535,35.44219942851445],[137.0848186406987,35.443959896608156],[137.08557870852042,35.445548774438],[137.08553820228812,35.44798694968552],[137.08532409482567,35.448256202342165],[137.08344951389446,35.44861073548589],[137.08314945883822,35.446653761274554],[137.08271439325907,35.44554831066711],[137.08157299399588,35.44366445808191],[137.07997312495235,35.44206687607599],[137.07874922795497,35.44119071633418],[137.0771441516808,35.44040798750116],[137.074800024621,35.4396255402025],[137.07266109160085,35.43954723062651],[137.07239994414763,35.438697893981],[137.07102112460112,35.43761596355756],[137.06940024714208,35.43688491038261],[137.0700975475493,35.43699622544249],[137.0704434939365,35.437096297081794],[137.0707650159516,35.437176771188064],[137.0711492930293,35.437272647492094],[137.07152256861528,35.43736759809982],[137.07116730675827,35.43697625141652],[137.0712212378601,35.4365141768898],[137.07121806533448,35.43619684882692],[137.06963511687601,35.43576097716087],[137.06963464311264,35.43576083647549],[137.06921214014469,35.43524467696371],[137.06918288275554,35.43523810400552],[137.0692848472395,35.43482065006786],[137.06983575080704,35.433235043212825],[137.07028172578768,35.43330301460905],[137.0711131517856,35.43246266629631],[137.07045624783456,35.43195012455188],[137.07115670700213,35.43195882588466],[137.07140075632873,35.431406452476566],[137.07095789954082,35.43057770951325],[137.06989652688978,35.42939687283538],[137.07022705537003,35.42928717949176],[137.0716933231311,35.430807249578784],[137.07184619690887,35.43168357229961],[137.07589401859192,35.43257913359328],[137.0774073267112,35.4334943127217],[137.0785881863525,35.43248034218967]]]},"properties":{"KEY_CODE":"215210050","PREF":"21","CITY":"521","CITY_NAME":"御嵩町","S_NAME":"上恵土","SETAI":"700"}},{"type":"Feature","geometry":{"type":"Polygon","coordinates":[[[137.16813953557246,35.45864268168287],[137.16805904404262,35.45868990199901],[137.1677849476671,35.45816511603355],[137.16671300851928,35.458094805647434],[137.166412246892,35.45774959511679],[137.16510896205094,35.457422368463156],[137.16432130361656,35.456008945436096],[137.1636834650682,35.455331082513894],[137.16438854342655,35.454609056283104],[137.16420350735024,35.453339866978084],[137.16325166635008,35.454211533957036],[137.1622855351348,35.454106927550264],[137.1608501741822,35.45311441036702],[137.15940390708693,35.452804653995926],[137.1615913053982,35.4496241292709],[137.16213606946886,35.449345732146654],[137.16273255999494,35.44805311296143],[137.1614668487768,35.44774560378481],[137.16160784816532,35.44714885002],[137.16074690928366,35.44627567881171],[137.16055766432714,35.445685495257266],[137.15748838620888,35.44440854279646],[137.15677811788836,35.4444572918225],[137.15650508536234,35.44327448579842],[137.15562415404267,35.442786590845145],[137.15519783886472,35.441862606888435],[137.15498564806526,35.44037832474006],[137.15428787347972,35.440201458939896],[137.15373427649325,35.43906534356222],[137.1537329414956,35.43765231402024],[137.15345161053617,35.436378618153796],[137.15437896947685,35.43561018423324],[137.1564897899928,35.435658372717896],[137.15765315624526,35.43606100441866],[137.15808487009747,35.43591272466952],[137.15793179997283,35.43496692451792],[137.16006909355752,35.43462511442679],[137.16066737267187,35.43363878754564],[137.1613407017637,35.43427854379931],[137.1623638911861,35.43712780920426],[137.16382391711514,35.43831552268122],[137.16430308542726,35.439191871701695],[137.16418046324335,35.43977092008563],[137.1649778994614,35.44049339540416],[137.1669641431462,35.441176675447515],[137.1690050506745,35.44150794702417],[137.17104484216065,35.44331577251323],[137.17379314068165,35.44367715891471],[137.17462950647342,35.44457404600985],[137.17561838710373,35.4445071118112],[137.1749787955171,35.44516867095839],[137.1751583482864,35.44601239238545],[137.1748733967383,35.44675251741817],[137.17592559090218,35.44691367621406],[137.1766380320331,35.447819395335266],[137.1773087197255,35.447877086027496],[137.1778925854489,35.44907647077399],[137.17797093902664,35.4501985059434],[137.17939710770747,35.4505473447235],[137.18019402519263,35.45108683703628],[137.17979050124302,35.45187790121912],[137.1792093849411,35.45217077864239],[137.17799093867933,35.45356473307399],[137.1767589363253,35.45370931179654],[137.17607343581216,35.454115562830935],[137.17567606967833,35.4538590796665],[137.17537510438677,35.453656883396455],[137.17513960996553,35.45345080800712],[137.17435082521885,35.45302853603233],[137.1739520453876,35.45348542620475],[137.17374652009835,35.45421994508127],[137.17366004548097,35.454538928863265],[137.17360837599404,35.4546510796815],[137.17332977128146,35.454805531863705],[137.1732870810464,35.45493606236273],[137.17336124629423,35.45510334700849],[137.17292428629978,35.45600146907673],[137.17298958540914,35.45635164223864],[137.1731135600437,35.4568449448088],[137.17255181966294,35.45852765019058],[137.1721386852619,35.4585682339338],[137.17169248029919,35.458250612868255],[137.1710396759073,35.457182927453225],[137.17001511398607,35.457101869806046],[137.16923018510616,35.45762224209921],[137.16813953557246,35.45864268168287]]]},"properties":{"KEY_CODE":"215210060","PREF":"21","CITY":"521","CITY_NAME":"御嵩町","S_NAME":"上之郷","SETAI":"33"}},{"type":"Feature","geometry":{"type":"Polygon","coordinates":[[[137.17891376719632,35.47103467542469],[137.17882139129495,35.470992291879355],[137.17741752881318,35.47035966569629],[137.17676188342313,35.47004332366914],[137.17655133283048,35.46996144303376],[137.17654075701543,35.46995753613381],[137.17586300643958,35.46972942733861],[137.17580102789574,35.469708974275285],[137.17554319549728,35.469630650536516],[137.1753305796002,35.46957383661465],[137.1752798403989,35.46956028429363],[137.17499335370252,35.469493615740255],[137.1747035620156,35.46943325001604],[137.17435383004087,35.46936144470869],[137.17417687071259,35.46932511845994],[137.17413318631475,35.46931695298812],[137.17395539487956,35.469283654594655],[137.17357856221898,35.46925392562632],[137.17309264983763,35.469256664953065],[137.17278082656242,35.469200802852875],[137.1726287689903,35.46915123429326],[137.1723279598328,35.46902413965193],[137.1719412003775,35.46883578070045],[137.1708448439432,35.46826886625162],[137.1703611322205,35.4680300143956],[137.17000633585016,35.46786865474117],[137.1698851326056,35.467798343147706],[137.1697429927573,35.46765683465767],[137.16963988566627,35.46756870500185],[137.1694829571682,35.46748737298445],[137.16935404366862,35.46746484154997],[137.1691744452948,35.46745495139905],[137.16901247806535,35.46738192805451],[137.16895187580008,35.46729270517429],[137.1689287365298,35.467238621834966],[137.16889567713858,35.467125032365935],[137.16888796493353,35.46707094866349],[137.1688879626211,35.46698172435177],[137.16892321704844,35.46684380263457],[137.16881742838046,35.46633810711892],[137.1687513167622,35.46619120876644],[137.16865986778782,35.46611276078626],[137.16838992361576,35.466028047861265],[137.16818388934055,35.46597847432783],[137.16785885503194,35.46583784718094],[137.16788750129484,35.46577745957518],[137.16810014298818,35.465379045409236],[137.16814972336923,35.465375453727795],[137.1682510878581,35.46537002916428],[137.16841084498216,35.465368230815336],[137.16854856244734,35.46509150666659],[137.1686378065819,35.46488147161497],[137.1687242592094,35.46463196573486],[137.16878266118195,35.464407107973294],[137.1688239784963,35.46382232494689],[137.168803514,35.46371137585323],[137.16877108674058,35.46352937141132],[137.16875340160286,35.46335969104068],[137.16873802510662,35.46316251036572],[137.16876445155208,35.4625333260367],[137.16875894052396,35.462327800178485],[137.16876663920885,35.46187710065964],[137.1687522658954,35.461692561163794],[137.16872586992957,35.46156069679636],[137.16859585334754,35.46110369225788],[137.16847245315944,35.460761159485095],[137.16840083734309,35.460552957194125],[137.16834574610357,35.46037176053975],[137.16832922059874,35.460271691069494],[137.16832150292575,35.45991655040779],[137.16834132703983,35.459545177533606],[137.1683457294813,35.459434297375616],[137.168338018951,35.459254932130364],[137.168323955294,35.45918591780308],[137.16829284656535,35.45908996768168],[137.16807192787337,35.4587057105778],[137.16813953557246,35.45864268168287],[137.16923018510616,35.45762224209921],[137.17001511398607,35.457101869806046],[137.1710396759073,35.457182927453225],[137.17169248029919,35.458250612868255],[137.1721386852619,35.4585682339338],[137.17255181966294,35.45852765019058],[137.1731135600437,35.4568449448088],[137.17298958540914,35.45635164223864],[137.17292428629978,35.45600146907673],[137.17336124629423,35.45510334700849],[137.1732870810464,35.45493606236273],[137.17332977128146,35.454805531863705],[137.17360837599404,35.4546510796815],[137.17366004548097,35.454538928863265],[137.17374652009835,35.45421994508127],[137.1739520453876,35.45348542620475],[137.17435082521885,35.45302853603233],[137.17513960996553,35.45345080800712],[137.17537510438677,35.453656883396455],[137.17567606967833,35.4538590796665],[137.17607343581216,35.454115562830935],[137.17649843751363,35.454405565008926],[137.17663756054637,35.454471045395024],[137.17693962747012,35.45453105585901],[137.17724073527438,35.45460120534165],[137.17755802648648,35.45456607176358],[137.17795631675068,35.454559804110644],[137.1781125937115,35.454623731825826],[137.17864432791603,35.45487783502771],[137.1788501657497,35.45506805967537],[137.1794988154369,35.45540915359824],[137.18105335828753,35.45595872870658],[137.18143832211888,35.456447340563756],[137.18130913198507,35.45764731510618],[137.1825410734082,35.45927052507559],[137.18280536672663,35.46002689210647],[137.1824396494285,35.46130341165118],[137.18263748146558,35.461996651259916],[137.1815781786821,35.46238175167633],[137.18160246187966,35.463417685206004],[137.1834167771211,35.46486238533308],[137.18341456158439,35.46529097151289],[137.1821835525598,35.466568342061436],[137.18169203732955,35.46747730215324],[137.1802375871881,35.4671733651057],[137.17933719258613,35.46936970252051],[137.17891376719632,35.47103467542469]]]},"properties":{"KEY_CODE":"215210070","PREF":"21","CITY":"521","CITY_NAME":"御嵩町","S_NAME":"小和沢","SETAI":"2"}},{"type":"Feature","geometry":{"type":"Polygon","coordinates":[[[137.1104596922586,35.432574142893856],[137.1108792528684,35.43397075364362],[137.11034569912826,35.43406489658383],[137.11057232182517,35.434740604767235],[137.10960764378083,35.435941645331226],[137.11030925464806,35.43697279596343],[137.11024566740312,35.43782339462249],[137.1110098004006,35.439188405800344],[137.1119675663464,35.43931160984617],[137.11242357606685,35.44002044649195],[137.11263575802587,35.441701522516254],[137.11063729044164,35.44096444880692],[137.10998035297925,35.43995434622869],[137.10786849085267,35.44012658516849],[137.10763519722346,35.438825696932476],[137.1065427166504,35.43884660349173],[137.10554959123212,35.43756523577829],[137.10494852141585,35.43783582595944],[137.10513999575716,35.43877603072839],[137.10346047301104,35.438158108566775],[137.1028916786124,35.437693920953365],[137.1008476343864,35.4378236775143],[137.09943000513883,35.43767010736057],[137.09872573766629,35.43691163326221],[137.09915574387557,35.43636562111751],[137.09922771893162,35.43329942716053],[137.0992292220592,35.43283122299613],[137.10099249068904,35.432815136394574],[137.10098627581283,35.43233558988242],[137.10289599066016,35.43235649703734],[137.10252259901188,35.43103030065354],[137.10677696738142,35.43108941485015],[137.10676584292722,35.43086469114851],[137.10836265890765,35.43084224785813],[137.10833313624778,35.43238128173873],[137.10930289121418,35.43239075541176],[137.10941308973375,35.432902677599785],[137.1104596922586,35.432574142893856]]]},"properties":{"KEY_CODE":"215210080","PREF":"21","CITY":"521","CITY_NAME":"御嵩町","S_NAME":"顔戸","SETAI":"285"}},{"type":"Feature","geometry":{"type":"Polygon","coordinates":[[[137.17141648623354,35.43099414461882],[137.1698125527786,35.43182538986886],[137.16835148413696,35.432648544322426],[137.1668983290606,35.43396010398254],[137.16609472373838,35.433688481092084],[137.16496837928037,35.43371030970905],[137.16356331060624,35.43257386068176],[137.16257078091652,35.432176472159256],[137.1613533941387,35.43211016367013],[137.16046674394218,35.43196822535112],[137.15965441356826,35.431836317639416],[137.15947524493296,35.43174679919074],[137.16240332744684,35.428381119186405],[137.16486218513003,35.42927367710089],[137.16700630878805,35.42852326966683],[137.16303513137134,35.42623060698635],[137.16273843130548,35.426046371339744],[137.16259513752559,35.425838831674696],[137.16252899707305,35.42581175137572],[137.16198885126863,35.425760606236935],[137.16158815197323,35.425122587850055],[137.16185447639978,35.424770973205625],[137.16229870621524,35.42470820403651],[137.162605596929,35.42452394964543],[137.16304862507184,35.42447424254136],[137.16363456866486,35.424401121572984],[137.16405616024275,35.42420228794989],[137.16439914817576,35.42418768049462],[137.16470552384095,35.424420187832695],[137.16661993696422,35.42505576763693],[137.16650450450038,35.4240093106171],[137.1662176814147,35.42389522513426],[137.16539238214241,35.42393032702098],[137.16461531769323,35.42355158272662],[137.16502263452364,35.42276780995713],[137.16548887213298,35.422845313508944],[137.16579255750054,35.42195333259316],[137.16547638488788,35.421826109328414],[137.16484046234362,35.421659411047365],[137.16463682028467,35.42160968742385],[137.1644269707254,35.421485704954286],[137.16417106825202,35.42142833916009],[137.16405927918967,35.42132801794926],[137.1644586432506,35.4210959450349],[137.1656102342372,35.42077951147772],[137.16593349347573,35.420265739139296],[137.1662850253957,35.41990080745887],[137.1672898001423,35.419614110332006],[137.16767447903308,35.41951157061461],[137.1679408937588,35.419325261069275],[137.1681406987569,35.41911173345466],[137.16843484963076,35.418930002386695],[137.16857360634418,35.418952711594905],[137.1691674736175,35.41922531183198],[137.16956153296675,35.419170758939984],[137.16986124609386,35.41917075164355],[137.17003330284084,35.41920708639275],[137.17009181435944,35.41907331408457],[137.17014843353945,35.41898063579328],[137.1708070671915,35.4183702163831],[137.17111741476504,35.41893616914906],[137.17295564416145,35.41841967521746],[137.1730910103806,35.417964944641035],[137.17446545003153,35.418890136319135],[137.17426424610005,35.419433359640664],[137.1751128830232,35.42061772483021],[137.17537673106827,35.42107186608241],[137.17539446704055,35.42158056626274],[137.17629481490954,35.42273150020531],[137.17675990402682,35.422847242693926],[137.17717196177875,35.4228839348987],[137.1774493813775,35.42298187184718],[137.17777303838588,35.42296850160828],[137.17813474775642,35.422830441319796],[137.17844071270255,35.422791432912035],[137.17902004789138,35.42298064205474],[137.17939264162794,35.42288708437101],[137.18019359473695,35.42285249640599],[137.18053631544538,35.422974926873835],[137.18111971992155,35.423120674567016],[137.18130742463592,35.42331878825155],[137.18043972756573,35.42378677622654],[137.18013827980334,35.423871279781494],[137.17984724974642,35.42451497701102],[137.17958142554747,35.425570138682225],[137.17947369866596,35.42574322953427],[137.179197204544,35.427057633916654],[137.17874727472986,35.42796370585899],[137.1785738252639,35.427987383476044],[137.177821661916,35.42817688461688],[137.17702928645892,35.428132791732345],[137.176116560639,35.42784567250472],[137.17595961750624,35.427754449467564],[137.175492972937,35.42799775720463],[137.17514194853953,35.42811263759178],[137.1750387068528,35.42815658769076],[137.17472076124096,35.42863777676101],[137.17461279107727,35.42908237069603],[137.17350615759943,35.42982170228569],[137.17332771741812,35.429862734358835],[137.17246049305237,35.42981150292946],[137.17239475518141,35.42980382982456],[137.17141648623354,35.43099414461882]]]},"properties":{"KEY_CODE":"215210090","PREF":"21","CITY":"521","CITY_NAME":"御嵩町","S_NAME":"西洞","SETAI":"10"}},{"type":"Feature","geometry":{"type":"Polygon","coordinates":[[[137.19720233828642,35.410544329446765],[137.1956746304381,35.410818004190254],[137.19437355883207,35.41172443347521],[137.19238181007842,35.412386268112364],[137.19217858682077,35.41162397554267],[137.19110859198378,35.411658621798814],[137.19136516922336,35.41212322660337],[137.19080334077387,35.41271157975455],[137.19141996976433,35.41288466834138],[137.1906766362521,35.41330168154338],[137.19038071743086,35.414996370088744],[137.18919566477146,35.41486682620935],[137.18946091210813,35.41310721765665],[137.1898454595076,35.412009918196105],[137.18894022380863,35.41177796285901],[137.18839701607902,35.412232566902546],[137.1870954923489,35.41175594447845],[137.18665627246168,35.41058860234693],[137.18566674454428,35.40992437752665],[137.18470935564346,35.409688523846995],[137.1835859966456,35.4099945923879],[137.1825361088245,35.409875283304906],[137.180149828359,35.41035498618171],[137.1788926906829,35.411218778124876],[137.1784281390973,35.41091198360538],[137.17923823764391,35.40990865751969],[137.18085990140438,35.40992497766116],[137.1827637047187,35.4089720040595],[137.18318109191483,35.40804151879484],[137.1832925231489,35.4093081415321],[137.18475419310116,35.409352104901046],[137.18470023381641,35.4080133627925],[137.18531158645968,35.40646818563692],[137.18722601957924,35.40528731505575],[137.18791428002,35.40383183078797],[137.18807672471857,35.405018510104156],[137.1877546352177,35.40634801918083],[137.18779411570094,35.40737661834272],[137.1884987476141,35.408181510891936],[137.19172482871312,35.409432697205915],[137.19115270960498,35.41032472207366],[137.1921241315,35.41129355944878],[137.19301162502416,35.41144746572286],[137.19570547449678,35.41024439667568],[137.1968053885605,35.41017561663996],[137.19720233828642,35.410544329446765]]]},"properties":{"KEY_CODE":"215210100","PREF":"21","CITY":"521","CITY_NAME":"御嵩町","S_NAME":"次月","SETAI":"22"}},{"type":"Feature","geometry":{"type":"Polygon","coordinates":[[[137.18477711163806,35.416438027940934],[137.183625372701,35.416881532643444],[137.18237372105006,35.41625471358735],[137.1818009352977,35.41519811165193],[137.18245276866546,35.41514373929746],[137.18269711319314,35.41564818605305],[137.18398763606095,35.41579583917422],[137.18477711163806,35.416438027940934]]]},"properties":{"KEY_CODE":"215210100","PREF":"21","CITY":"521","CITY_NAME":"御嵩町","S_NAME":"次月","SETAI":"0"}},{"type":"Feature","geometry":{"type":"Polygon","coordinates":[[[137.16843484963076,35.418930002386695],[137.1681406987569,35.41911173345466],[137.1679408937588,35.419325261069275],[137.16767447903308,35.41951157061461],[137.1672898001423,35.419614110332006],[137.1662850253957,35.41990080745887],[137.16593349347573,35.420265739139296],[137.1656102342372,35.42077951147772],[137.1644586432506,35.4210959450349],[137.16405927918967,35.42132801794926],[137.16323809709482,35.41872935679953],[137.16215927966124,35.41854220224147],[137.16266278024537,35.4165300597263],[137.16425464365088,35.41546405939008],[137.16551446001372,35.41410155041706],[137.16693460284017,35.41640118975341],[137.16798640311183,35.41707088400946],[137.16871660256172,35.416765517166525],[137.16908960645915,35.41738136813126],[137.1703815434099,35.41848717066278],[137.17014843353945,35.41898063579328],[137.17009181435944,35.41907331408457],[137.17003330284084,35.41920708639275],[137.16986124609386,35.41917075164355],[137.16956153296675,35.419170758939984],[137.1691674736175,35.41922531183198],[137.16857360634418,35.418952711594905],[137.16843484963076,35.418930002386695]]]},"properties":{"KEY_CODE":"215210110","PREF":"21","CITY":"521","CITY_NAME":"御嵩町","S_NAME":"宿","SETAI":"55"}},{"type":"Feature","geometry":{"type":"Polygon","coordinates":[[[137.19681443919316,35.418347166434806],[137.19707857340296,35.41931056425582],[137.19811943796773,35.41999718746545],[137.19881211544507,35.4200997955332],[137.19891045292908,35.42093988850586],[137.1994977623911,35.42188531459458],[137.20004171092828,35.42177520496013],[137.2012460206225,35.42083561001913],[137.201778974641,35.42079398441549],[137.2024789002888,35.42230909063464],[137.20321569490056,35.422517121797995],[137.20385276355447,35.4237599823941],[137.2043505504306,35.42383645589405],[137.20593905153092,35.42493750110886],[137.20620582838356,35.42549809666068],[137.205961860845,35.426543821456114],[137.20452770094573,35.42822991481909],[137.20411982148389,35.42973900701496],[137.2021670765397,35.43196692561226],[137.2016209886444,35.432371829672086],[137.20081148609276,35.43233057344533],[137.2001894803382,35.432939191063525],[137.1994080586196,35.434265383041264],[137.19977106227154,35.43581637905966],[137.19677509806948,35.435676857647394],[137.19158932112097,35.433930022974195],[137.1901493897553,35.43231024986624],[137.18813138844894,35.430854254658065],[137.18680662039824,35.430425099154895],[137.1855123666606,35.42948778401802],[137.18476042048883,35.42944496824491],[137.18413248331544,35.43018607920663],[137.18293340915542,35.43080399021229],[137.1823928017864,35.43136737422478],[137.18187755779078,35.430406171896905],[137.18179380796147,35.42805522582321],[137.18144678619063,35.427406244847845],[137.1817548222147,35.4256376275354],[137.17958142554747,35.425570138682225],[137.17984724974642,35.42451497701102],[137.18013827980334,35.423871279781494],[137.18043972756573,35.42378677622654],[137.18130742463592,35.42331878825155],[137.18229879667336,35.422368767516794],[137.18156196901808,35.42152571258173],[137.18215065469005,35.419503860402834],[137.18253046999166,35.419044265936606],[137.1836888477123,35.41850981653614],[137.18517557966075,35.41850440009046],[137.18530732768966,35.419501011056575],[137.18618473869742,35.41945936969367],[137.18704583277065,35.42000751783343],[137.18804915565033,35.42017214857551],[137.18921406822247,35.41993701916227],[137.19075866626696,35.42062601103895],[137.19409111160226,35.4206050612192],[137.19588985249814,35.418782949034906],[137.19681443919316,35.418347166434806]]]},"properties":{"KEY_CODE":"215210120","PREF":"21","CITY":"521","CITY_NAME":"御嵩町","S_NAME":"津橋","SETAI":"47"}},{"type":"Feature","geometry":{"type":"Polygon","coordinates":[[[137.1347205634756,35.450189597626654],[137.135005501713,35.45117311763118],[137.13438511141507,35.4516290647872],[137.13360425534395,35.45112943974469],[137.13321847362542,35.45166477757055],[137.1324561366248,35.45169158915909],[137.13145013899103,35.45218433439112],[137.12866405049257,35.452296983426756],[137.12794696182445,35.45212909958092],[137.12705514671543,35.45338081282985],[137.12605744581464,35.45257642286505],[137.1255030205005,35.453178358513014],[137.12385785420315,35.4539565423745],[137.12286548570717,35.45353972529159],[137.1213960033327,35.453304787569024],[137.12072988011133,35.4526194658697],[137.11971759848984,35.4523901173131],[137.11929537430638,35.45291183519611],[137.117487410801,35.453182408791015],[137.1162090894191,35.453847058013814],[137.11563630523122,35.45353603403286],[137.11530179952936,35.45149159831821],[137.11454390511324,35.450727507057984],[137.11423062590967,35.449975303979784],[137.1131333723915,35.44974255022786],[137.11228394339327,35.44905217055315],[137.11123080127058,35.44875597138872],[137.1105487265875,35.44797682101579],[137.1104151467031,35.44692938377906],[137.11140738870193,35.4456909765566],[137.1111071571915,35.443965960579],[137.11016988017258,35.443429314504264],[137.10965646476046,35.442058401305346],[137.10804786568195,35.44104452667732],[137.10786849085267,35.44012658516849],[137.10998035297925,35.43995434622869],[137.11063729044164,35.44096444880692],[137.11263575802587,35.441701522516254],[137.11242357606685,35.44002044649195],[137.1119675663464,35.43931160984617],[137.1110098004006,35.439188405800344],[137.11024566740312,35.43782339462249],[137.11030925464806,35.43697279596343],[137.10960764378083,35.435941645331226],[137.11057232182517,35.434740604767235],[137.11034569912826,35.43406489658383],[137.1108792528684,35.43397075364362],[137.1104596922586,35.432574142893856],[137.11171526561404,35.432599360117166],[137.1130846388435,35.43314676515862],[137.11417097660504,35.43291124446166],[137.11460387373205,35.43236073689887],[137.1153221278219,35.43036021714659],[137.11622867894937,35.42956699202547],[137.1170429513973,35.42949607994562],[137.11778233429303,35.428435376677655],[137.11692462230454,35.4280733174026],[137.11622789186575,35.42664209349573],[137.11635266584656,35.426225738367194],[137.11884350594616,35.42592496996738],[137.11933460843315,35.425323339768276],[137.1195347041673,35.424261480220025],[137.11999475684271,35.424229908427485],[137.12006352688877,35.424897262696376],[137.12084510012826,35.42526110125516],[137.12102552694037,35.424411872143835],[137.12187204583446,35.42486583553534],[137.12339848738944,35.42483848488149],[137.1241880418318,35.423877426106856],[137.12442483312833,35.42305916001137],[137.12561732026677,35.42336275130799],[137.12526070275064,35.42455591160059],[137.12537129101017,35.4251143706053],[137.12688431407176,35.425241759373264],[137.12771425332318,35.424874111166524],[137.12807150077168,35.42572603347283],[137.12789319347897,35.42772733301028],[137.12846797748236,35.429731930079974],[137.12837427591913,35.431461478566426],[137.1288076020445,35.43333968564363],[137.1292184144636,35.433843516754386],[137.12856092895933,35.43393879697686],[137.1295247409105,35.436091399979674],[137.13056632350612,35.436042821070274],[137.13218490850764,35.4363094800554],[137.13368846083947,35.43733298141386],[137.13392979869684,35.43807808358756],[137.1324121312828,35.44013125560073],[137.1329801262881,35.44253982626873],[137.13283129280103,35.444706179024],[137.13228195536223,35.44510837223294],[137.13259711682497,35.44628648237577],[137.13320863798643,35.44705091507115],[137.13392159279078,35.447306824569615],[137.1343789518858,35.447936353211894],[137.13431902736016,35.449063014243144],[137.1347205634756,35.450189597626654]]]},"properties":{"KEY_CODE":"215210130","PREF":"21","CITY":"521","CITY_NAME":"御嵩町","S_NAME":"中","SETAI":"2044"}},{"type":"Feature","geometry":{"type":"Polygon","coordinates":[[[137.15947524493302,35.431746799190705],[137.1592275248423,35.43086490434535],[137.15845942535304,35.43014178420915],[137.157559257879,35.4287225822453],[137.15691726632105,35.42713275111095],[137.15570936491287,35.42668496760621],[137.15489683399818,35.42547293425887],[137.15532953959976,35.42530501375981],[137.15526831750654,35.424271359810724],[137.1557032160208,35.42396445539392],[137.15565512695483,35.422392412461186],[137.1565224458947,35.42150380513896],[137.15639439084464,35.420478456923924],[137.15587111396798,35.41965075460989],[137.15468275159552,35.41881763371128],[137.1535122470585,35.41668647996086],[137.15336864695192,35.41457373674726],[137.15301558649003,35.413240110065395],[137.15241502480757,35.41238361448955],[137.15240266270138,35.410056513873805],[137.15286279909347,35.407890030448485],[137.15219637509435,35.405716736814966],[137.1513868461932,35.40463443790033],[137.1526691670758,35.404655210917454],[137.1533355396247,35.40311108343148],[137.15476241383624,35.40293184517279],[137.1556917601016,35.401914239503284],[137.1571660098184,35.40121124466443],[137.15951776335723,35.39932292673348],[137.15987119767473,35.398688374239434],[137.16066713507993,35.39860004467364],[137.1609137214199,35.398698369485565],[137.16331916266887,35.39793855650625],[137.164250505593,35.397464431589505],[137.16536240281707,35.39551740845289],[137.16746938125877,35.39446101941503],[137.167707147062,35.39381376499218],[137.16863732674753,35.39366052165516],[137.1704656930004,35.39221373063461],[137.17073166459775,35.39280097863845],[137.1717240225665,35.39409405065461],[137.1725507237358,35.394015641989185],[137.1730263069789,35.3944175968729],[137.17408640232895,35.39457895962341],[137.17494502546694,35.39440130953473],[137.1759918157075,35.39370807729891],[137.1766985132213,35.393536762104226],[137.1776869146464,35.3926749254583],[137.17915085756132,35.391983391453785],[137.18031451042694,35.39270715733448],[137.18165703745638,35.39280722761464],[137.18166189891826,35.39280617073327],[137.18183363638514,35.39288002455964],[137.18195363788516,35.392971068288254],[137.18231147415545,35.393370394539986],[137.18237643495968,35.393428063824054],[137.18253828494656,35.393590299031864],[137.18295001652518,35.3937551800379],[137.18315369505913,35.3938660705694],[137.183349657952,35.39397872284879],[137.18361828339104,35.39410122482553],[137.18375149648074,35.39417332085305],[137.18378676207834,35.39436895099076],[137.1837504646435,35.39451050554072],[137.18370647635504,35.39472051204945],[137.18383309697745,35.39484486258382],[137.18399163411692,35.394933223792336],[137.18465986280296,35.395058418006826],[137.18558032831456,35.39581456728401],[137.18564968491103,35.39584343091261],[137.18616709531346,35.395913637875914],[137.18646100189227,35.39584957858208],[137.1866818522612,35.39579799522925],[137.18676920682006,35.39572875628606],[137.18700809980197,35.395766607232105],[137.18746385648865,35.395806183468565],[137.1876212809173,35.39582510277612],[137.1876354820917,35.39582749434284],[137.18903914917348,35.39578789455423],[137.1903514583996,35.39617076414317],[137.19096919203236,35.39671692281086],[137.19223909002324,35.398670002952684],[137.1916153390336,35.400120560917685],[137.1917104171933,35.4014266804416],[137.19134316420727,35.402902327121794],[137.19428396195647,35.403482289183806],[137.19371533005645,35.405170747851564],[137.19347824400208,35.40738195791518],[137.19273746889243,35.40800409315067],[137.19172482871312,35.409432697205915],[137.1884987476141,35.408181510891936],[137.18779411570094,35.40737661834272],[137.1877546352177,35.40634801918083],[137.18807672471857,35.405018510104156],[137.18791428002,35.40383183078797],[137.18722601957924,35.40528731505575],[137.18531158645968,35.40646818563692],[137.18470023381641,35.4080133627925],[137.18475419310116,35.409352104901046],[137.1832925231489,35.4093081415321],[137.18318109191483,35.40804151879484],[137.18286031679656,35.40697295180103],[137.18227153360738,35.406277588326525],[137.18217664093456,35.40473018340512],[137.18128945633694,35.40465802644309],[137.18101458617008,35.40623997939498],[137.1818969611298,35.40689440012851],[137.1824029379033,35.40804823146105],[137.1817652441162,35.409127826268204],[137.18053908728226,35.409746346346566],[137.17912700882485,35.40966197387258],[137.1779082907743,35.41081308097412],[137.1772360003625,35.41031537981163],[137.17621918806793,35.410755810107176],[137.17510839806565,35.410701230250304],[137.1748892137515,35.411181532574275],[137.17361561885724,35.411879073664636],[137.17275334921777,35.41298508095821],[137.1707968992989,35.41301761399333],[137.16964268286623,35.41221632278603],[137.16881207471704,35.41218858916042],[137.16790400737207,35.4133567552758],[137.16551446001372,35.41410155041706],[137.16425464365088,35.41546405939008],[137.16266278024537,35.4165300597263],[137.16215927966124,35.41854220224147],[137.16323809709482,35.41872935679953],[137.16405927918967,35.42132801794926],[137.16417106825202,35.42142833916009],[137.1644269707254,35.421485704954286],[137.16463682028467,35.42160968742385],[137.16484046234362,35.421659411047365],[137.16547638488788,35.421826109328414],[137.16579255750054,35.42195333259316],[137.165488872133,35.422845313508944],[137.16502263452364,35.42276780995712],[137.16461531769323,35.42355158272662],[137.16539238214241,35.42393032702098],[137.1662176814147,35.42389522513426],[137.16650450450038,35.4240093106171],[137.16661993696422,35.42505576763693],[137.16470552384095,35.424420187832695],[137.16439914817576,35.42418768049462],[137.16405616024275,35.42420228794989],[137.16363456866486,35.424401121572984],[137.16304862507184,35.42447424254136],[137.162605596929,35.42452394964543],[137.16229870621524,35.42470820403651],[137.16185447639978,35.424770973205625],[137.16158815197323,35.425122587850055],[137.16198885126863,35.425760606236935],[137.16252899707305,35.42581175137572],[137.16259513752559,35.425838831674696],[137.16273843130548,35.426046371339744],[137.16303513137134,35.42623060698635],[137.16700630878805,35.42852326966683],[137.16486218513003,35.42927367710089],[137.16240332744684,35.428381119186405],[137.15947524493302,35.431746799190705]]]},"properties":{"KEY_CODE":"215210140","PREF":"21","CITY":"521","CITY_NAME":"御嵩町","S_NAME":"中切","SETAI":"137"}},{"type":"Feature","geometry":{"type":"Polygon","coordinates":[[[137.11563630523122,35.45353603403286],[137.11499863567872,35.45517427878187],[137.1138193283298,35.455987707915774],[137.1132471191716,35.45665447278678],[137.11281799745439,35.45831110450922],[137.11160171578734,35.45780659537792],[137.11122301416805,35.45738606824066],[137.11018499797132,35.4577149929836],[137.10992256519847,35.45718836096464],[137.10854107930763,35.457227531473],[137.10667180146189,35.45755241780133],[137.1069235925451,35.45570244485004],[137.10618730671166,35.45473215104782],[137.10512273479645,35.454609936157084],[137.10536196458602,35.45360346294956],[137.10440654979632,35.45242635144686],[137.1037750745109,35.45224344110393],[137.10376237447093,35.45169347904568],[137.10277213421597,35.45135512176363],[137.10252863503106,35.45022324326732],[137.1018049880612,35.45075856897271],[137.10125017712673,35.45208816599639],[137.1006864216408,35.45039589695719],[137.10195533072127,35.449504622882856],[137.10100086084952,35.449183100743724],[137.10050263887203,35.448532190053946],[137.09904813117163,35.44768262101339],[137.09785135375634,35.44743099846153],[137.09821445865524,35.446445240589675],[137.09730151455406,35.44500932016107],[137.09743714770704,35.444193280998505],[137.09664298469121,35.44317467374701],[137.0960023179285,35.441317499330346],[137.0977093306088,35.44088843220724],[137.0994418614517,35.44101076362987],[137.09871893454755,35.44057368467864],[137.09784393437116,35.43945852194046],[137.09802684750244,35.43880183977678],[137.09781678687486,35.43765291771339],[137.09943000513883,35.43767010736057],[137.1008476343864,35.4378236775143],[137.1028916786124,35.437693920953365],[137.10346047301104,35.438158108566775],[137.10513999575716,35.43877603072839],[137.10494852141585,35.43783582595944],[137.10554959123212,35.43756523577829],[137.1065427166504,35.43884660349173],[137.10763519722346,35.438825696932476],[137.10786849085267,35.44012658516849],[137.10804786568195,35.44104452667732],[137.10965646476046,35.442058401305346],[137.11016988017258,35.443429314504264],[137.1111071571915,35.443965960579],[137.11140738870193,35.4456909765566],[137.1104151467031,35.44692938377906],[137.1105487265875,35.44797682101579],[137.11123080127058,35.44875597138872],[137.11228394339327,35.44905217055315],[137.1131333723915,35.44974255022786],[137.11423062590967,35.449975303979784],[137.11454390511324,35.450727507057984],[137.11530179952936,35.45149159831821],[137.11563630523122,35.45353603403286]]]},"properties":{"KEY_CODE":"215210150","PREF":"21","CITY":"521","CITY_NAME":"御嵩町","S_NAME":"比衣","SETAI":"317"}},{"type":"Feature","geometry":{"type":"Polygon","coordinates":[[[137.09785135375634,35.44743099846153],[137.09744144819996,35.44779081940317],[137.09735598145426,35.448694806849815],[137.09645282721078,35.44879626983687],[137.09579703086047,35.44987836201153],[137.0961346410743,35.451387424196454],[137.0952897522384,35.45182173181355],[137.09475176438343,35.4527978374181],[137.09414873159213,35.45247521565104],[137.0920654131667,35.45314460992413],[137.09083362053235,35.45133210638458],[137.09021827378103,35.44755489430309],[137.08974926940252,35.44577388907381],[137.08861547421185,35.44647679485539],[137.08769931497994,35.447417725986995],[137.08702962040516,35.447581425509675],[137.0858599520425,35.44759477774914],[137.08553820228812,35.44798694968552],[137.08557870852042,35.445548774438],[137.0848186406987,35.443959896608156],[137.08445967117535,35.44219942851445],[137.0835754378854,35.44067954172865],[137.0826503965519,35.44020233314745],[137.08039682377628,35.43742593123618],[137.07958498208006,35.43448440388208],[137.0785881863525,35.43248034218967],[137.0790556606518,35.43041748021791],[137.07905617845674,35.43041543889332],[137.08003703085515,35.43081729637757],[137.0806534892143,35.43108729330591],[137.08077346835162,35.43114868493855],[137.08153705248475,35.43185501972341],[137.08163935905458,35.431965094455336],[137.08175374464332,35.43211028307146],[137.0818307352474,35.432208614432525],[137.08192779251308,35.432345516194864],[137.08195279978958,35.43238535782789],[137.08208910644132,35.43262704174586],[137.08214958293183,35.432725325754106],[137.0822815866415,35.432876864614705],[137.08234540624073,35.43293641784593],[137.082631512847,35.43317278635335],[137.08273165540632,35.43324676690151],[137.08281530659124,35.433298200814605],[137.08309382884636,35.43342009054622],[137.08333605503935,35.4334923761605],[137.0835111456063,35.433517746698925],[137.0836300839857,35.43352504947631],[137.0838827699182,35.43352533412055],[137.08404530565997,35.433522632075],[137.08457695659027,35.433519415211585],[137.08473833380927,35.433517699291755],[137.08611237184994,35.43370708121014],[137.0869060311419,35.43413129555691],[137.08841125295632,35.43561423241734],[137.08961894457147,35.43616053997861],[137.0902468259543,35.43606979521466],[137.09175995900986,35.43514821648208],[137.0929033303629,35.434937546076],[137.0936101198,35.43526250500168],[137.09500773885966,35.43652895135373],[137.0965598498433,35.437522368269065],[137.09781678687486,35.43765291771339],[137.09802684750244,35.43880183977678],[137.09784393437116,35.43945852194046],[137.09871893454755,35.44057368467864],[137.0994418614517,35.44101076362987],[137.0977093306088,35.44088843220724],[137.0960023179285,35.441317499330346],[137.09664298469121,35.44317467374701],[137.09743714770704,35.444193280998505],[137.09730151455406,35.44500932016107],[137.09821445865524,35.446445240589675],[137.09785135375634,35.44743099846153]]]},"properties":{"KEY_CODE":"215210160","PREF":"21","CITY":"521","CITY_NAME":"御嵩町","S_NAME":"伏見","SETAI":"920"}},{"type":"Feature","geometry":{"type":"Polygon","coordinates":[[[137.12771425332318,35.424874111166524],[137.12688431407176,35.425241759373264],[137.12537129101017,35.4251143706053],[137.12526070275064,35.42455591160059],[137.12561732026677,35.42336275130799],[137.12442483312833,35.42305916001137],[137.1241880418318,35.423877426106856],[137.12339848738944,35.42483848488149],[137.12187204583446,35.42486583553534],[137.12102552694037,35.424411872143835],[137.12084510012826,35.42526110125516],[137.12006352688877,35.424897262696376],[137.11999475684271,35.424229908427485],[137.1195347041673,35.424261480220025],[137.11933460843315,35.425323339768276],[137.11884350594616,35.42592496996738],[137.11635266584656,35.426225738367194],[137.11622789186575,35.42664209349573],[137.11692462230454,35.4280733174026],[137.11778233429303,35.428435376677655],[137.1170429513973,35.42949607994562],[137.11622867894937,35.42956699202547],[137.1153221278219,35.43036021714659],[137.11460387373205,35.43236073689887],[137.11417097660504,35.43291124446166],[137.1130846388435,35.43314676515862],[137.11171526561404,35.432599360117166],[137.1104596922586,35.432574142893856],[137.10941308973375,35.432902677599785],[137.10930289121418,35.43239075541176],[137.10833313624778,35.43238128173873],[137.10836265890765,35.43084224785813],[137.10676584292722,35.43086469114851],[137.1063642488852,35.43072053432576],[137.106391702669,35.42935671009021],[137.1058128023841,35.42886513325031],[137.1055140362043,35.42782655705989],[137.10458384948817,35.42732306035353],[137.10462979454235,35.426298192394555],[137.1052912488495,35.42538362262357],[137.10600271125412,35.425309180578054],[137.1065783746618,35.42421786775302],[137.10733420637143,35.42369456728526],[137.10777786976416,35.42237243932068],[137.10703638245144,35.421390397121684],[137.10593784571319,35.42079488679347],[137.10542730821692,35.42025647979556],[137.1055185013665,35.41906667364511],[137.10519857606312,35.41848977985208],[137.10672082966283,35.41776478274254],[137.10734115770128,35.417242292468686],[137.10875971660508,35.41682207304405],[137.10970299255212,35.415815684338],[137.11017535118103,35.41585197044381],[137.1112956042686,35.41687289214471],[137.1124736864274,35.41708707299088],[137.1130138166128,35.41622739654984],[137.11429402243454,35.41687699303299],[137.11539734201165,35.418663150237386],[137.11630888323032,35.4190349228865],[137.11850772803692,35.41936849849411],[137.11958752741972,35.42015316977083],[137.11998629272927,35.41991984500751],[137.11978020779765,35.41829634705928],[137.1201692594283,35.41770245610544],[137.1220282599448,35.417248893553584],[137.12222054593002,35.415994211502706],[137.12202495124956,35.41492494901322],[137.12302206832774,35.41415200353083],[137.125168084823,35.41428078741716],[137.12636725326917,35.414184713698994],[137.12735295763255,35.41357006927567],[137.12928865591735,35.41389990953842],[137.13111730978108,35.414594551228],[137.13246299034012,35.41477620925831],[137.1330079335649,35.41561834420778],[137.1351682945633,35.416390977438496],[137.135448421011,35.41682844929265],[137.13533409766984,35.41799009007778],[137.13559899836056,35.41922478713923],[137.13520783653118,35.4197899042543],[137.1325934536567,35.42105166908936],[137.13173554984746,35.422275448668515],[137.13071130769964,35.42286384495776],[137.12878412061335,35.42301437063548],[137.12786894334909,35.423542494268254],[137.12771425332318,35.424874111166524]]]},"properties":{"KEY_CODE":"215210170","PREF":"21","CITY":"521","CITY_NAME":"御嵩町","S_NAME":"古屋敷","SETAI":"233"}},{"type":"Feature","geometry":{"type":"Polygon","coordinates":[[[137.19524658293088,35.45448373525747],[137.19421703841172,35.45564713653357],[137.19317958448593,35.45604691188681],[137.19190169249748,35.456114796937065],[137.19051752894674,35.455888819118364],[137.18990520184596,35.45560126870354],[137.1897112352768,35.45541975865831],[137.18904551342993,35.45519566372352],[137.188828068863,35.45515095282821],[137.18815348128732,35.4550069935659],[137.18756918223235,35.45490044537213],[137.18645788527866,35.45501926294309],[137.18614890783854,35.455024526391334],[137.18580487629362,35.4546994448223],[137.18536420741546,35.45435564483312],[137.18515880864626,35.454126277787175],[137.18507929441387,35.453927031292736],[137.18486946608374,35.45382305129027],[137.18463420183542,35.45367118675037],[137.1842192225983,35.453225582290955],[137.1838779123241,35.4527562310134],[137.18296661828822,35.45280272870823],[137.18293074096303,35.45276072706786],[137.1828852111549,35.45233837463179],[137.1831195701295,35.45166904853031],[137.18160183739178,35.45243075636269],[137.18096822180118,35.452908648349215],[137.18077418325464,35.45321951493124],[137.18046241341614,35.45382497012441],[137.1803579391449,35.45405438221386],[137.18030154604332,35.45411952962922],[137.1803480241996,35.45432043837841],[137.18032813084852,35.454401883883556],[137.17980899623598,35.45512271254021],[137.1794988154369,35.45540915359824],[137.1788501657497,35.45506805967537],[137.17864432791603,35.45487783502771],[137.1781125937115,35.454623731825826],[137.17795631675068,35.454559804110644],[137.17755802648648,35.45456607176358],[137.17724073527438,35.45460120534165],[137.17693962747012,35.45453105585901],[137.17663756054637,35.454471045395024],[137.17649843751363,35.454405565008926],[137.17607343581216,35.454115562830935],[137.1767589363253,35.45370931179654],[137.17799093867933,35.45356473307399],[137.1792093849411,35.45217077864239],[137.17979050124302,35.45187790121912],[137.18019402519263,35.45108683703628],[137.17939710770747,35.4505473447235],[137.17797093902664,35.4501985059434],[137.1778925854489,35.44907647077399],[137.1773087197255,35.447877086027496],[137.1766380320331,35.447819395335266],[137.17592559090218,35.44691367621406],[137.1748733967383,35.44675251741817],[137.1751583482864,35.44601239238545],[137.1749787955171,35.44516867095839],[137.17561838710373,35.4445071118112],[137.17645015534328,35.44393557138093],[137.1792683173584,35.444199787363075],[137.18003245162444,35.44393523668191],[137.18129575264973,35.44308213281796],[137.18279592157327,35.443762367864295],[137.18339166748515,35.44382193798775],[137.18390128417303,35.44331253417527],[137.1839082872654,35.442551508138926],[137.18324980624814,35.44180170230248],[137.18306524668296,35.44050753141909],[137.1831975788973,35.439430610009914],[137.1812529122005,35.435867385503215],[137.18099297311983,35.43423299512957],[137.18055711380478,35.4335420846505],[137.18073044621224,35.432795333085295],[137.1823928017864,35.43136737422478],[137.18293340915542,35.43080399021229],[137.18413248331544,35.43018607920663],[137.18476042048883,35.42944496824491],[137.1855123666606,35.42948778401802],[137.18680662039824,35.430425099154895],[137.18813138844894,35.430854254658065],[137.1901493897553,35.43231024986624],[137.19158932112097,35.433930022974195],[137.19677509806948,35.435676857647394],[137.19977106227154,35.43581637905966],[137.19837856474516,35.43778652369474],[137.19932324334667,35.43967654541889],[137.19909386825998,35.44171556937592],[137.19954020313475,35.442306749854204],[137.19970392596503,35.44401936852502],[137.1992405937624,35.44500113856163],[137.19937448292632,35.44648390321495],[137.19855077876542,35.44707453661198],[137.19899318160623,35.44878528174558],[137.1986326694422,35.45077204328093],[137.19906069635795,35.45228268708727],[137.19977463787208,35.45252136478539],[137.20212557922207,35.45277309163817],[137.2030268760426,35.45315591815136],[137.20274776864036,35.45448795578917],[137.20173163547577,35.4550771201579],[137.20109497913953,35.455294906437175],[137.20059929328391,35.4553517353677],[137.20022222209428,35.45564356231213],[137.1997966175989,35.45571441876952],[137.19952069445137,35.4557280150041],[137.1989471756603,35.45559394514124],[137.1986978318487,35.455300599948146],[137.19880565795762,35.454658641738924],[137.19874448476133,35.45430285280092],[137.1972085311739,35.45444683914842],[137.19620144961385,35.45435758761559],[137.19524658293088,35.45448373525747]]]},"properties":{"KEY_CODE":"215210180","PREF":"21","CITY":"521","CITY_NAME":"御嵩町","S_NAME":"前沢","SETAI":"14"}},{"type":"Feature","geometry":{"type":"Polygon","coordinates":[[[137.19681443919316,35.418347166434806],[137.19588985249814,35.418782949034906],[137.19409111160226,35.4206050612192],[137.19075866626696,35.42062601103895],[137.18921406822247,35.41993701916227],[137.18804915565033,35.42017214857551],[137.18704583277065,35.42000751783343],[137.18618473869742,35.41945936969367],[137.18530732768966,35.419501011056575],[137.18517557966075,35.41850440009046],[137.1836888477123,35.41850981653614],[137.18253046999166,35.419044265936606],[137.18215065469005,35.419503860402834],[137.18156196901808,35.42152571258173],[137.18229879667336,35.422368767516794],[137.18130742463592,35.42331878825155],[137.18111971992155,35.423120674567016],[137.18053631544538,35.422974926873835],[137.18019359473695,35.42285249640599],[137.17939264162794,35.42288708437101],[137.17902004789138,35.42298064205474],[137.17844071270255,35.422791432912035],[137.17813474775642,35.422830441319796],[137.17777303838588,35.42296850160828],[137.1774493813775,35.42298187184718],[137.17717196177875,35.4228839348987],[137.17675990402682,35.422847242693926],[137.17629481490954,35.42273150020531],[137.17539446704055,35.42158056626274],[137.17537673106827,35.42107186608241],[137.1751128830232,35.42061772483021],[137.17426424610005,35.419433359640664],[137.17446545003153,35.418890136319135],[137.1730910103806,35.417964944641035],[137.17295564416145,35.41841967521746],[137.17111741476504,35.41893616914906],[137.1708070671915,35.4183702163831],[137.1703815434099,35.41848717066278],[137.16908960645915,35.41738136813126],[137.16871660256172,35.416765517166525],[137.16798640311183,35.41707088400946],[137.16693460284017,35.41640118975341],[137.16551446001372,35.41410155041706],[137.16790400737207,35.4133567552758],[137.16881207471704,35.41218858916042],[137.16964268286623,35.41221632278603],[137.1707968992989,35.41301761399333],[137.17275334921777,35.41298508095821],[137.17361561885724,35.411879073664636],[137.1748892137515,35.411181532574275],[137.17510839806565,35.410701230250304],[137.17621918806793,35.410755810107176],[137.1772360003625,35.41031537981163],[137.1779082907743,35.41081308097412],[137.17912700882485,35.40966197387258],[137.18053908728226,35.409746346346566],[137.1817652441162,35.409127826268204],[137.1824029379033,35.40804823146105],[137.1818969611298,35.40689440012851],[137.18101458617008,35.40623997939498],[137.18128945633694,35.40465802644309],[137.18217664093456,35.40473018340512],[137.18227153360738,35.406277588326525],[137.18286031679656,35.40697295180103],[137.18318109191483,35.40804151879484],[137.1827637047187,35.4089720040595],[137.18085990140438,35.40992497766116],[137.17923823764391,35.40990865751969],[137.1784281390973,35.41091198360538],[137.1788926906829,35.411218778124876],[137.180149828359,35.41035498618171],[137.1825361088245,35.409875283304906],[137.1835859966456,35.4099945923879],[137.18470935564346,35.409688523846995],[137.18566674454428,35.40992437752665],[137.18665627246168,35.41058860234693],[137.1870954923489,35.41175594447845],[137.18839701607902,35.412232566902546],[137.18894022380863,35.41177796285901],[137.1898454595076,35.412009918196105],[137.18946091210813,35.41310721765665],[137.18919566477146,35.41486682620935],[137.19038071743086,35.414996370088744],[137.1906766362521,35.41330168154338],[137.19141996976433,35.41288466834138],[137.19080334077387,35.41271157975455],[137.19136516922336,35.41212322660337],[137.19110859198378,35.411658621798814],[137.19217858682077,35.41162397554267],[137.19238181007842,35.412386268112364],[137.19437355883207,35.41172443347521],[137.1956746304381,35.410818004190254],[137.19720233828642,35.410544329446765],[137.1993605606445,35.41206979014807],[137.19859491774295,35.413836774273776],[137.1972445456274,35.41558945849416],[137.19695309378514,35.41651080691563],[137.19681443919316,35.418347166434806]],[[137.18477711163806,35.416438027940934],[137.18398763606095,35.41579583917422],[137.18269711319314,35.41564818605305],[137.18245276866546,35.41514373929746],[137.1818009352977,35.41519811165193],[137.18237372105006,35.41625471358735],[137.183625372701,35.416881532643444],[137.18477711163806,35.416438027940934]]]},"properties":{"KEY_CODE":"215210190","PREF":"21","CITY":"521","CITY_NAME":"御嵩町","S_NAME":"美佐野","SETAI":"72"}},{"type":"Feature","geometry":{"type":"Polygon","coordinates":[[[137.15940390708693,35.452804653995926],[137.1578504148964,35.453470289181645],[137.15484519636013,35.4532924627104],[137.15408840520826,35.45312654232996],[137.15216928602067,35.45363111274768],[137.14981242558537,35.45593476227125],[137.14813469821107,35.45545318178562],[137.14711445974854,35.455886605387214],[137.146335677455,35.45547900700097],[137.145458078737,35.455482291021774],[137.1436034966374,35.45558396114309],[137.14392119025953,35.45408950306813],[137.1435350098768,35.452306445659374],[137.1426295690153,35.45196192365246],[137.14141447567647,35.45194993239312],[137.14036782414277,35.452280499440526],[137.13961546275132,35.45211718901211],[137.1397114845723,35.45157094828683],[137.13917837594403,35.4513427568812],[137.13922002779685,35.450745834710105],[137.13797682396594,35.450420319521484],[137.13735323345742,35.450654525079656],[137.13548948723383,35.45017899824847],[137.1347205634756,35.450189597626654],[137.13431902736016,35.449063014243144],[137.1343789518858,35.447936353211894],[137.13392159279078,35.447306824569615],[137.13320863798643,35.44705091507115],[137.13259711682497,35.44628648237577],[137.13228195536223,35.44510837223294],[137.13283129280103,35.444706179024],[137.1329801262881,35.44253982626873],[137.1324121312828,35.44013125560073],[137.13392979869684,35.43807808358756],[137.13368846083947,35.43733298141386],[137.13218490850764,35.4363094800554],[137.13056632350612,35.436042821070274],[137.1295247409105,35.436091399979674],[137.12856092895933,35.43393879697686],[137.1292184144636,35.433843516754386],[137.1288076020445,35.43333968564363],[137.12837427591913,35.431461478566426],[137.12846797748236,35.429731930079974],[137.12789319347897,35.42772733301028],[137.12807150077168,35.42572603347283],[137.12771425332318,35.424874111166524],[137.12786894334909,35.423542494268254],[137.12878412061335,35.42301437063548],[137.13071130769964,35.42286384495776],[137.13173554984746,35.422275448668515],[137.1325934536567,35.42105166908936],[137.13520783653118,35.4197899042543],[137.13559899836056,35.41922478713923],[137.13533409766984,35.41799009007778],[137.135448421011,35.41682844929265],[137.1351682945633,35.416390977438496],[137.1330079335649,35.41561834420778],[137.13246299034012,35.41477620925831],[137.13310729329862,35.41399479719371],[137.1335801154617,35.41291590023456],[137.136082149061,35.41185977237361],[137.13694902329124,35.41120046510554],[137.13741586965654,35.411224942109385],[137.13974431651368,35.408957471884506],[137.1400849413815,35.407760411157646],[137.14085906042286,35.40747662344643],[137.1411356475597,35.4067654706562],[137.14208586507314,35.40664755743407],[137.1436392067134,35.40729687477893],[137.1444242743199,35.40716546280697],[137.1466405861331,35.40735872154182],[137.14747214548612,35.40619692218318],[137.14872516644832,35.40585272595652],[137.15049469393293,35.404799197350165],[137.1513868461932,35.40463443790033],[137.15219637509435,35.405716736814966],[137.15286279909347,35.407890030448485],[137.15240266270138,35.410056513873805],[137.15241502480757,35.41238361448955],[137.15301558649003,35.413240110065395],[137.15336864695192,35.41457373674726],[137.1535122470585,35.41668647996086],[137.15468275159552,35.41881763371128],[137.15587111396798,35.41965075460989],[137.15639439084464,35.420478456923924],[137.1565224458947,35.42150380513896],[137.15565512695483,35.422392412461186],[137.1557032160208,35.42396445539392],[137.15526831750654,35.424271359810724],[137.15532953959976,35.42530501375981],[137.15489683399818,35.42547293425887],[137.15310155981908,35.42626255938581],[137.1514244341692,35.42788799626696],[137.15087071980068,35.42817420079294],[137.14942142806217,35.42827158142313],[137.14683702527327,35.42780189067491],[137.14633975064012,35.42835156902842],[137.14743339480663,35.43098462769204],[137.1503444236214,35.43205738253748],[137.1508231493845,35.432559740592836],[137.1507042082381,35.43347955840751],[137.15133190726894,35.43388172057434],[137.151361396158,35.43452409237221],[137.15345161053617,35.436378618153796],[137.1537329414956,35.43765231402024],[137.15373427649325,35.43906534356222],[137.15428787347972,35.440201458939896],[137.15498564806526,35.44037832474006],[137.15519783886472,35.441862606888435],[137.15562415404267,35.442786590845145],[137.15650508536234,35.44327448579842],[137.15677811788836,35.4444572918225],[137.15748838620888,35.44440854279646],[137.16055766432714,35.445685495257266],[137.16074690928366,35.44627567881171],[137.16160784816532,35.44714885002],[137.1614668487768,35.44774560378481],[137.16273255999494,35.44805311296143],[137.16213606946886,35.449345732146654],[137.1615913053982,35.4496241292709],[137.15940390708693,35.452804653995926]]]},"properties":{"KEY_CODE":"215210200","PREF":"21","CITY":"521","CITY_NAME":"御嵩町","S_NAME":"御嵩","SETAI":"1681"}}]}