{"type":"FeatureCollection","features":[{"type":"Feature","geometry":{"type":"Polygon","coordinates":[[[139.25646988029223,38.49129599049539],[139.25538335544306,38.49080271185439],[139.25462243795008,38.491011167209145],[139.25462323633442,38.4901600758908],[139.25255243432932,38.489784596211194],[139.2514389531722,38.48775116319142],[139.2511314580128,38.48816755901582],[139.2502291002683,38.48747259751815],[139.2501382022852,38.486668547086886],[139.25097403073505,38.48492272327223],[139.25053978098006,38.48438382839163],[139.24940681429544,38.484554375334014],[139.24822401544156,38.48422747038751],[139.2481665752061,38.48366025620895],[139.24638808173773,38.48370060204132],[139.246243766853,38.48315646304489],[139.24510955980517,38.48309245560087],[139.24548084285178,38.48263878618514],[139.24414302435804,38.482840992493756],[139.24348377501494,38.48248565544941],[139.2436972676564,38.48128888686057],[139.2426402663544,38.48014579183324],[139.2424114429515,38.47884456403917],[139.2410470641052,38.47767496894111],[139.24076584120544,38.476845084875045],[139.23977432001547,38.475935226756654],[139.2373605497012,38.475916950121025],[139.23734218141868,38.47501445551862],[139.23831550161242,38.47414794011313],[139.23817413184284,38.47298466998241],[139.23867561123308,38.47271320089395],[139.23815833568332,38.47075864463912],[139.23667741707635,38.47005455829076],[139.23729438742234,38.46975787312972],[139.2367931469656,38.468924857698674],[139.23544547680208,38.46824496956986],[139.233064789418,38.467847442160334],[139.23405254116327,38.467168093477675],[139.23258515848644,38.465744804797026],[139.2306473105359,38.465507466994026],[139.23172652098916,38.46480335316189],[139.23171922480583,38.463965535807056],[139.23099251607138,38.4634889232698],[139.22924179828632,38.463733234952635],[139.2294936606935,38.463256991364],[139.22697105570552,38.463203138875336],[139.22577809260176,38.46398815149483],[139.22586622328495,38.46455068361398],[139.2249514625728,38.46520585885583],[139.22414549133362,38.46504952390157],[139.22413465836544,38.46396594806139],[139.2256312124349,38.463624186964125],[139.22632748266258,38.462327041822846],[139.22311928642526,38.459933264617206],[139.22240754232118,38.46049003890755],[139.22211265390527,38.459644144158354],[139.2210207464718,38.45953262444373],[139.22176191240064,38.45871272417819],[139.22319293785478,38.45847415708609],[139.22453869597254,38.45670114917217],[139.22506410536403,38.454247379078716],[139.22448649052706,38.453427453768846],[139.22278466932985,38.45395769472067],[139.2226113617284,38.45300913366757],[139.22367535952262,38.45297468743356],[139.22416843587396,38.45187082148142],[139.223740962927,38.45128504708857],[139.22489856938296,38.45109967175358],[139.22535060514622,38.44956530080519],[139.22399186452728,38.44807085391955],[139.22275486186848,38.44752357877279],[139.2206559050455,38.447737246914706],[139.21988610035297,38.44739427716238],[139.21748964308833,38.44752694280571],[139.21842519674453,38.44656087726181],[139.218142464877,38.44554456266647],[139.21706855942193,38.44526284345791],[139.21795244137763,38.444747563458854],[139.21807429866593,38.44305926824232],[139.21891896901263,38.44251916362398],[139.21881101977397,38.44122249221422],[139.21735762903458,38.440555704420966],[139.2166173868765,38.439487004964114],[139.21470688491453,38.43927344169133],[139.21427742845506,38.43870228336641],[139.21486039443974,38.43741659507117],[139.21717030677516,38.43725298277494],[139.2188536509474,38.437553488238],[139.22193216672548,38.43727695565894],[139.2218539854305,38.4365566960588],[139.22269508640278,38.435785723694785],[139.22574512930453,38.43679477384923],[139.22715667420596,38.43751408553846],[139.23120065206172,38.44029446054052],[139.23264674702858,38.441701571345526],[139.23465491167616,38.44419272522386],[139.23670312383467,38.4457671770551],[139.2395135858421,38.44726049222982],[139.24110899470486,38.4478926040393],[139.2433192903603,38.44960472150067],[139.24497534615995,38.450443049490815],[139.24587381428867,38.45169778508172],[139.24763106324522,38.45334428875077],[139.2480596458503,38.45523517894981],[139.25009896062457,38.45854569803039],[139.25195218660994,38.460245572646016],[139.25391938534443,38.46122479363823],[139.2542935956065,38.46217285678855],[139.25433058441948,38.46396178796172],[139.25614720357575,38.465314136015216],[139.25723993636498,38.46790173471283],[139.2559152281826,38.46526889560335],[139.25449945475222,38.464222813146435],[139.25379438580822,38.46517697386944],[139.25468157735452,38.46641650677942],[139.25583939881926,38.46887025036375],[139.25526136941883,38.4690459922429],[139.25592893192768,38.47020021984725],[139.25588972399387,38.47105832007538],[139.25711895279002,38.47178548601389],[139.25939818418678,38.47254272079074],[139.25995604486738,38.47240509131342],[139.26012950212652,38.47332093353842],[139.25930077094836,38.47297776538347],[139.25814844691138,38.473682591547615],[139.25832834564176,38.47455701146269],[139.25693638716686,38.475484101840436],[139.25707181692698,38.47648240436932],[139.25777772035306,38.47724362532232],[139.25750088421177,38.477955170571356],[139.25841994213437,38.47881326408699],[139.25811354101725,38.48009539159727],[139.2586814079016,38.48222154022163],[139.2600960956823,38.483123983768735],[139.260651952944,38.48388728115024],[139.2643921509933,38.48694492303728],[139.26425557796907,38.488877441664435],[139.26261566507543,38.4893492867346],[139.2609355231177,38.488790659542076],[139.26037864755995,38.48950262377117],[139.25864305379142,38.48959889983717],[139.2564942138321,38.49032537270298],[139.25646988029223,38.49129599049539]]]},"properties":{"KEY_CODE":"155860010","PREF":"15","CITY":"586","CITY_NAME":"粟島浦村","S_NAME":"釜谷","SETAI":"170"}}]}