{"type":"FeatureCollection","features":[{"type":"Feature","geometry":{"type":"Polygon","coordinates":[[[139.57274310963274,37.38570167264456],[139.5715464022256,37.38550754235781],[139.56918760150495,37.38571691242353],[139.56769843098186,37.38721971994428],[139.56394211651633,37.38830939713104],[139.56047221496615,37.38704585397437],[139.5583982322139,37.38779958187899],[139.55733722421795,37.3886126436583],[139.55627621003285,37.390638537316065],[139.55474330612444,37.39174037978463],[139.55335234046726,37.393243104412925],[139.5506473234631,37.39363376619039],[139.54870179740882,37.39355042511018],[139.5431346578288,37.392045154152285],[139.54094619815095,37.391041782023564],[139.5401481236789,37.391054164625075],[139.53830628936302,37.39200108071372],[139.53688568952794,37.391843629543445],[139.53593424762732,37.390950557911715],[139.53360677156084,37.391119971567],[139.5318423455192,37.39061468683423],[139.5297972046126,37.39080982457122],[139.52792938675947,37.39038643802672],[139.52562300337613,37.38867780282147],[139.5240215856217,37.387815041124114],[139.52355540426132,37.38670840902461],[139.52308679780634,37.3840137377255],[139.522417229225,37.38331799393157],[139.519973313593,37.38242439686849],[139.5190792718584,37.38182096949429],[139.5182354990831,37.379915714913444],[139.51654561562776,37.378899858882825],[139.51734680697885,37.378183371019276],[139.51790787304017,37.37715367113768],[139.51851419583494,37.376283047096315],[139.51972412847041,37.375193815793565],[139.52057343605685,37.37361054999018],[139.52042133306776,37.37334108449088],[139.51928210086675,37.37218043043758],[139.51890219134077,37.37143361835795],[139.51951082917543,37.36999220559243],[139.52064446808888,37.368792802184046],[139.52139255889904,37.368199771177956],[139.52155776361639,37.3677681023142],[139.52198143784284,37.366578920921924],[139.52455442478217,37.36554630283568],[139.52661058029554,37.36475276957276],[139.52752054643852,37.364510561003755],[139.529109340691,37.36436386292143],[139.53043734745853,37.3642939156369],[139.53159169093126,37.3642398414051],[139.53257330368288,37.36395694483546],[139.5341121207156,37.36352465281909],[139.53492966681833,37.36340450236538],[139.5363192778511,37.36325297295823],[139.53729990535587,37.36321473523769],[139.53823973749707,37.36316005652138],[139.53917545410468,37.362848544290244],[139.53950270091738,37.36274333561322],[139.5408915001597,37.36279562633069],[139.54141327966357,37.36256051438985],[139.54230275613133,37.36231813773805],[139.54276184484894,37.36244978288756],[139.54380360803398,37.36244416679871],[139.54418453342922,37.36164621755371],[139.5448756956952,37.36117904985967],[139.54565267937934,37.360969041562115],[139.5469498873531,37.36093135518587],[139.54754415609642,37.3604193092128],[139.54763892912447,37.35966135271861],[139.5480481126407,37.35948296656838],[139.54889526529087,37.359615523990776],[139.55139122471255,37.35990266664857],[139.55420103175442,37.35997691123839],[139.55544524300575,37.36223835257815],[139.5568282399112,37.3630966480528],[139.5596480874425,37.36300267592263],[139.56027055732886,37.36511619387881],[139.5619509789111,37.36873470743476],[139.56433830626466,37.37073916403292],[139.56724048698726,37.37197146910302],[139.57098257123175,37.374079467751606],[139.57179875111964,37.374961231924765],[139.5718431219825,37.375803843657835],[139.56984132606829,37.37866839233105],[139.56987382691935,37.3794756358425],[139.5710814315036,37.382289104956534],[139.5721343620127,37.38392435170686],[139.57274310963274,37.38570167264456]]]},"properties":{"KEY_CODE":"074460010","PREF":"07","CITY":"446","CITY_NAME":"昭和村","S_NAME":"大字松山","SETAI":"20"}},{"type":"Feature","geometry":{"type":"Polygon","coordinates":[[[139.59971052520555,37.38792967368568],[139.59455910324712,37.38769910934697],[139.59169523078802,37.387453774956654],[139.58123320249615,37.387066898255874],[139.5785886314886,37.3882809473002],[139.57634184858557,37.388508667928825],[139.57545506813045,37.38824906464133],[139.57274310963274,37.38570167264456],[139.5721343620127,37.38392435170686],[139.5710814315036,37.382289104956534],[139.56987382691935,37.3794756358425],[139.56984132606829,37.37866839233105],[139.5718431219825,37.375803843657835],[139.57179875111964,37.374961231924765],[139.57098257123175,37.374079467751606],[139.56724048698726,37.37197146910302],[139.56433830626466,37.37073916403292],[139.5619509789111,37.36873470743476],[139.56027055732886,37.36511619387881],[139.5596480874425,37.36300267592263],[139.5568282399112,37.3630966480528],[139.55544524300575,37.36223835257815],[139.55420103175442,37.35997691123839],[139.55435888653662,37.359644301559605],[139.5541109056443,37.359069408766594],[139.5526713404445,37.35757018431996],[139.55205132006358,37.35710366205103],[139.54978549249842,37.3564220109977],[139.5485615369052,37.35601963555905],[139.54758045571893,37.3548473968008],[139.54639924830104,37.35394781086948],[139.54700704721202,37.35254723380339],[139.54718810477286,37.351923944592954],[139.5474239748689,37.35165545224384],[139.55065659170526,37.35012261289654],[139.5525440207308,37.34920178272776],[139.5529327600771,37.34900713736491],[139.5548244852686,37.348294096224116],[139.55574427083255,37.348084354597034],[139.55607241924832,37.34770187126131],[139.5566252818022,37.347303722581884],[139.5565361437753,37.34654546287517],[139.55638450964355,37.344731218291095],[139.55616132338176,37.34433125435398],[139.55573320157023,37.344134543718454],[139.55523242592878,37.344255725571095],[139.55294875837345,37.34467837575573],[139.5521430686586,37.34442359527026],[139.55090425223835,37.34257015222557],[139.5500469204212,37.34111296834346],[139.54725140993784,37.338528275398936],[139.54644959559792,37.337941329370395],[139.54595342531553,37.33820511022597],[139.54518149721218,37.338488492827345],[139.54497745511313,37.338447307523346],[139.54455647908352,37.337728923239474],[139.54496054893386,37.335269755481704],[139.54534064815047,37.33483209169185],[139.54567777913846,37.33444782604991],[139.5458791346824,37.334467745105314],[139.54610410521914,37.334687650510055],[139.54682235874662,37.335201185711036],[139.54728527090018,37.33545080620709],[139.54793078420448,37.33583251162132],[139.5481807626073,37.33590125604002],[139.54874839485484,37.33590261479932],[139.54870062447176,37.33562470673354],[139.5488493598998,37.33503061145132],[139.54997673417967,37.33468482452852],[139.55080749825905,37.33450150611174],[139.55100437560128,37.33408281518612],[139.551134975457,37.33343502907102],[139.5519588680292,37.33345147932875],[139.55255451787158,37.33329941205294],[139.55352174165577,37.33252194044219],[139.55407773034716,37.33235766369805],[139.55485065845622,37.33212292784251],[139.5551569634069,37.33181670062713],[139.55588108168476,37.33074619699752],[139.5561137085351,37.33055665717247],[139.5583350264104,37.329774720232365],[139.55858634587102,37.32947314168911],[139.55863808390086,37.32867886596219],[139.55879852669554,37.328196710698975],[139.5599796959401,37.32749630167752],[139.56060298388573,37.327158707282244],[139.5645585027951,37.32982899194243],[139.56894020336492,37.33224285866202],[139.574301963428,37.33427797020466],[139.57932929641407,37.3351202682892],[139.5812085207299,37.33584544822563],[139.58474461229176,37.33627362165945],[139.58669958613643,37.33687863287405],[139.5887144886501,37.338355275918325],[139.59069443444722,37.33902053821322],[139.59139310665833,37.34022382238337],[139.5926872912413,37.34353184345615],[139.5941881364877,37.344997363183],[139.59311550587066,37.34696846870182],[139.59210974646732,37.3479601718924],[139.59163085396963,37.35121908760842],[139.59321640837368,37.35152319771229],[139.59511727297829,37.35247685663233],[139.59869254160975,37.353900974483906],[139.59962270277532,37.35453612124226],[139.6013027937332,37.35639175849253],[139.60485237989676,37.356556929497096],[139.60880626626454,37.35749067993601],[139.6092585538541,37.358805614623954],[139.60936571679207,37.36282715920732],[139.6098966095049,37.364411287722824],[139.61064806009193,37.36518850259411],[139.61574307542136,37.368424818260145],[139.61244024176273,37.369340465071645],[139.60778245743083,37.37391926844686],[139.6064057325663,37.374323242537535],[139.60404602364272,37.37407465653545],[139.60319397583288,37.37451453204788],[139.60412961284615,37.37649893601082],[139.60662699506895,37.378493122729424],[139.60736219801515,37.37950588695676],[139.6087196482879,37.380240077970534],[139.6105940051736,37.38302733620934],[139.60900511703525,37.3835594852494],[139.60692532216135,37.38535036063728],[139.60518155623126,37.38596620177232],[139.6016116626987,37.38665247781759],[139.59971052520555,37.38792967368568]]]},"properties":{"KEY_CODE":"074460020","PREF":"07","CITY":"446","CITY_NAME":"昭和村","S_NAME":"大字野尻","SETAI":"98"}},{"type":"Feature","geometry":{"type":"Polygon","coordinates":[[[139.64086873211988,37.36916525107475],[139.63892918127038,37.36952334830999],[139.63632665402957,37.369411170351405],[139.63568438275627,37.36882297146497],[139.63439903068576,37.36899919515818],[139.63236080904014,37.36866121940101],[139.63139861163728,37.36883177788191],[139.62922143554343,37.36767238256074],[139.62614658939174,37.368349628905285],[139.62394124449003,37.36785521250574],[139.6221239842965,37.36845403559773],[139.6212304921711,37.36831867487601],[139.61836488804502,37.36687804494664],[139.61574307542136,37.368424818260145],[139.61064806009193,37.36518850259411],[139.6098966095049,37.364411287722824],[139.60936571679207,37.36282715920732],[139.6092585538541,37.358805614623954],[139.60880626626454,37.35749067993601],[139.60485237989676,37.356556929497096],[139.6013027937332,37.35639175849253],[139.59962270277532,37.35453612124226],[139.59869254160975,37.353900974483906],[139.59511727297829,37.35247685663233],[139.59321640837368,37.35152319771229],[139.59163085396963,37.35121908760842],[139.59210974646732,37.3479601718924],[139.59311550587066,37.34696846870182],[139.5941881364877,37.344997363183],[139.5926872912413,37.34353184345615],[139.59139310665833,37.34022382238337],[139.59069443444722,37.33902053821322],[139.5887144886501,37.338355275918325],[139.58669958613643,37.33687863287405],[139.58474461229176,37.33627362165945],[139.5812085207299,37.33584544822563],[139.57932929641407,37.3351202682892],[139.574301963428,37.33427797020466],[139.56894020336492,37.33224285866202],[139.5645585027951,37.32982899194243],[139.56060298388573,37.327158707282244],[139.5608824968422,37.3271724467248],[139.56149793063008,37.32758315331592],[139.5637086476351,37.3277775863909],[139.5644109801101,37.32777918648572],[139.56571404367423,37.32698636752249],[139.56645833450904,37.325851121435136],[139.56660662474167,37.325521712731714],[139.56673346858682,37.32453684826411],[139.56683060952406,37.32390038773099],[139.56761133027206,37.32318971177462],[139.56853217005462,37.32311588438221],[139.5688784084744,37.3231584740995],[139.56967521913347,37.32327387247174],[139.56998831591488,37.32329737722616],[139.57108764961816,37.32374698609163],[139.57170408294803,37.3238770375125],[139.57236730267994,37.32419698570493],[139.57263235220475,37.324394545788174],[139.5727918356807,37.32493302353248],[139.57292514456688,37.32480448693027],[139.57376270231305,37.324109102389336],[139.57388170422786,37.32400700370593],[139.5749379146576,37.32319072552236],[139.57538516214007,37.322835484562226],[139.5735432518995,37.32169071645775],[139.57316943474825,37.3200073701015],[139.57278775726533,37.319237353631564],[139.5727539852024,37.31802445081945],[139.57340089801613,37.31755603520648],[139.5738648725686,37.31647699891543],[139.57222896782486,37.31343794076616],[139.57251989561377,37.3116346873675],[139.57284353887047,37.309964131704646],[139.57249414178597,37.30947831205595],[139.57299054040723,37.30861547277183],[139.57390881540883,37.30784817662505],[139.57421660682223,37.307613720358376],[139.57425696336216,37.3074369669259],[139.57432251809968,37.30628890325315],[139.57493162580417,37.3053142302576],[139.575498529534,37.30316267297113],[139.57813509752512,37.3022839207194],[139.57962352487925,37.30273740715192],[139.5833229894569,37.30320487911992],[139.58634703533275,37.30375064360995],[139.5897732826646,37.303657797367],[139.59195960914417,37.304211673618774],[139.59292977544573,37.30581182346149],[139.59400225859312,37.306712836677264],[139.59789650626362,37.308958012239835],[139.60103216064496,37.30993314580526],[139.6052574009323,37.310380768468264],[139.61059304480804,37.31024701088383],[139.61290395035934,37.31789418342956],[139.61430283542344,37.31907482481815],[139.61501374204676,37.32030867816943],[139.6143386059794,37.324010701408085],[139.6134672500056,37.326354357293326],[139.6136199863409,37.3278953922413],[139.61525564999087,37.3307060638388],[139.61637328777385,37.33121625525747],[139.6166720397416,37.332255043433854],[139.61769300294608,37.33204655470559],[139.61993169327224,37.33409174701648],[139.62166594611085,37.33491063631856],[139.62293232384982,37.3349196648758],[139.62370123205062,37.337289808124225],[139.62484215527255,37.3393933745854],[139.62480249652265,37.341913288536816],[139.62608554203015,37.34399091845898],[139.62682813903217,37.34804696324175],[139.62763324659767,37.349199411439876],[139.6295302593529,37.35049328659853],[139.63237015641204,37.350463267090575],[139.63542357286036,37.35233445483691],[139.63804932494145,37.35491123797878],[139.64046924863072,37.356885983949034],[139.6441885904109,37.35911550238207],[139.64508127704707,37.36035510028686],[139.64553673092266,37.361716063893404],[139.64632173769658,37.36602949263192],[139.64373796369296,37.36789640437765],[139.6431362680237,37.36875471335071],[139.64086873211988,37.36916525107475]]]},"properties":{"KEY_CODE":"074460030","PREF":"07","CITY":"446","CITY_NAME":"昭和村","S_NAME":"大字下中津川","SETAI":"157"}},{"type":"Feature","geometry":{"type":"Polygon","coordinates":[[[139.65731046185925,37.35659215574687],[139.6549676947133,37.35703223683055],[139.65362348558452,37.3585354248495],[139.6530933370854,37.359597900560836],[139.6518983655727,37.360148385297535],[139.65010910327817,37.359634487678825],[139.6485320787247,37.3606070043986],[139.64738435600097,37.3649846481129],[139.64632173769658,37.36602949263192],[139.64553673092266,37.361716063893404],[139.64508127704707,37.36035510028686],[139.6441885904109,37.35911550238207],[139.64046924863072,37.356885983949034],[139.63804932494145,37.35491123797878],[139.63542357286036,37.35233445483691],[139.63237015641204,37.350463267090575],[139.6295302593529,37.35049328659853],[139.62763324659767,37.349199411439876],[139.62682813903217,37.34804696324175],[139.62608554203015,37.34399091845898],[139.62480249652265,37.341913288536816],[139.62484215527255,37.3393933745854],[139.62370123205062,37.337289808124225],[139.62293232384982,37.3349196648758],[139.62166594611085,37.33491063631856],[139.61993169327224,37.33409174701648],[139.61769300294608,37.33204655470559],[139.6166720397416,37.332255043433854],[139.61637328777385,37.33121625525747],[139.61525564999087,37.3307060638388],[139.6136199863409,37.3278953922413],[139.6134672500056,37.326354357293326],[139.6143386059794,37.324010701408085],[139.61501374204676,37.32030867816943],[139.61430283542344,37.31907482481815],[139.61290395035934,37.31789418342956],[139.61059304480804,37.31024701088383],[139.61444995239333,37.309848686675906],[139.6185020784409,37.3096364408349],[139.62509007446818,37.31001028284051],[139.62760086768895,37.309950869828874],[139.62610045392367,37.311051818525556],[139.62441789116136,37.31297302104658],[139.62396932235345,37.313870103031206],[139.6262701984783,37.31748717105464],[139.62580927918836,37.319631289432955],[139.62578399168348,37.322353443292045],[139.6277111634508,37.32437417341024],[139.62802407429788,37.32549293862564],[139.62905566994542,37.3267916246677],[139.62923118989212,37.3278894520901],[139.63193994868513,37.32940473202894],[139.63794250895305,37.33061924144231],[139.64322015528856,37.33273721294251],[139.64545632753251,37.33427299263755],[139.64802331611423,37.33558833831091],[139.64986041312636,37.33614695851173],[139.6555087823254,37.3372089720794],[139.65247189844845,37.33998274469313],[139.6520007310388,37.34092622248822],[139.65265938813155,37.342595860951086],[139.65293985253936,37.34469632780136],[139.65256740353968,37.34699105214243],[139.65442653312692,37.349769338350804],[139.6561775620887,37.35086264029081],[139.65676635895616,37.35195430373998],[139.65623867927167,37.35526619113936],[139.65731046185925,37.35659215574687]]]},"properties":{"KEY_CODE":"074460040","PREF":"07","CITY":"446","CITY_NAME":"昭和村","S_NAME":"大字小中津川","SETAI":"91"}},{"type":"Feature","geometry":{"type":"Polygon","coordinates":[[[139.62760086768895,37.309950869828874],[139.63367368651183,37.30874587085863],[139.63601810213882,37.316687896730166],[139.64088003720798,37.31931373081764],[139.64114062522444,37.31950972980731],[139.64191694932686,37.32034903400746],[139.6419791238982,37.32094217807292],[139.6426978457495,37.321976808782274],[139.6430978609606,37.32321451145274],[139.64470828138002,37.324013323738754],[139.64575620453647,37.32493849665652],[139.64664580560952,37.32554984999187],[139.64815168731334,37.32575554782314],[139.64883041421,37.32584137642945],[139.65029163685008,37.326978778531],[139.6508414087894,37.32775909263107],[139.65217546372276,37.32886249135521],[139.6553551865618,37.33010428026389],[139.65579479436428,37.33072037920867],[139.65692508921822,37.33477471064467],[139.6555087823254,37.3372089720794],[139.64986041312636,37.33614695851173],[139.64802331611423,37.33558833831091],[139.64545632753251,37.33427299263755],[139.64322015528856,37.33273721294251],[139.63794250895305,37.33061924144231],[139.63193994868513,37.32940473202894],[139.62923118989212,37.3278894520901],[139.62905566994542,37.3267916246677],[139.62802407429788,37.32549293862564],[139.6277111634508,37.32437417341024],[139.62578399168348,37.322353443292045],[139.62580927918836,37.319631289432955],[139.6262701984783,37.31748717105464],[139.62396932235345,37.313870103031206],[139.62441789116136,37.31297302104658],[139.62610045392367,37.311051818525556],[139.62760086768895,37.309950869828874]]]},"properties":{"KEY_CODE":"074460050","PREF":"07","CITY":"446","CITY_NAME":"昭和村","S_NAME":"大字佐倉","SETAI":"26"}},{"type":"Feature","geometry":{"type":"Polygon","coordinates":[[[139.71621795066267,37.35450860387827],[139.71658728719584,37.35538008601732],[139.71572945456168,37.356118445258836],[139.71468292100198,37.358930427098606],[139.71427150853708,37.359305664785374],[139.71420016349145,37.36004872529354],[139.71466438568265,37.36111601935502],[139.7155046957928,37.36200404908269],[139.71674897935424,37.36354664136607],[139.7153541063093,37.36330110678385],[139.71487069190238,37.36327626572788],[139.71007620805256,37.36126858839944],[139.70834688514694,37.35985520464437],[139.7072231728662,37.358593956089024],[139.7046912616158,37.357868532107005],[139.7016663178264,37.355721072066096],[139.69967348575807,37.35475028729791],[139.69817293338676,37.3543450146231],[139.69535429872752,37.35421726346949],[139.69273360910157,37.3538563121093],[139.69204691800516,37.35347070746203],[139.689813309175,37.353182509852545],[139.6888242917885,37.35181260581293],[139.68693259634296,37.3504429977132],[139.6857622363235,37.34891811003495],[139.6840098504824,37.34808648845802],[139.68177746600597,37.34825404032502],[139.67981048001937,37.3480780594008],[139.67912210322035,37.347589860920955],[139.67743256507433,37.347936145752726],[139.67480556427142,37.34884901412561],[139.67370164100905,37.34872603088358],[139.67149644254698,37.35003672902187],[139.66983950923924,37.34986867504309],[139.67089541368654,37.34935609751275],[139.6712861659534,37.34859814806632],[139.6683931478039,37.3482392433401],[139.665634604576,37.34905854231578],[139.66316891086313,37.34928867469386],[139.66170259863617,37.350482042667196],[139.6612997388421,37.35210585177288],[139.65925546631365,37.35419829249035],[139.6583518520567,37.356063766110786],[139.65731046185925,37.35659215574687],[139.65623867927167,37.35526619113936],[139.65676635895616,37.35195430373998],[139.6561775620887,37.35086264029081],[139.65442653312692,37.349769338350804],[139.65256740353968,37.34699105214243],[139.65293985253936,37.34469632780136],[139.65265938813155,37.342595860951086],[139.6520007310388,37.34092622248822],[139.65247189844845,37.33998274469313],[139.6555087823254,37.3372089720794],[139.65692508921822,37.33477471064467],[139.65579479436428,37.33072037920867],[139.65614971201103,37.329234638298814],[139.65747677143764,37.327008069729125],[139.65976905604717,37.326565712314164],[139.6606200990319,37.32694233237641],[139.66112413883334,37.324878680459],[139.66280001252196,37.32420077343337],[139.6677634137597,37.324606722764045],[139.67008531501128,37.323999869107645],[139.67473241339297,37.32114428351596],[139.67687034290762,37.319205347409174],[139.67799726975517,37.31802016378805],[139.67840208841577,37.31644893779602],[139.67825632546206,37.314231703484836],[139.68091215015622,37.31203736295404],[139.6834900904889,37.31120159309263],[139.6854164852596,37.31096422859415],[139.6871418929972,37.31118615384693],[139.68916902948808,37.31056927141029],[139.69047136625719,37.30965186344449],[139.6919138705414,37.3073062147826],[139.69341696213672,37.30596929001193],[139.69706798695313,37.306253294086005],[139.69966946536215,37.306036450484044],[139.70250957945578,37.30521043346549],[139.70553532893686,37.30549347637508],[139.70651124687976,37.305194895680245],[139.70940368899284,37.3028903678708],[139.7106047317008,37.302512020778885],[139.71380592745817,37.30249527940707],[139.71756832946934,37.30344796974243],[139.72069444296739,37.303490949655966],[139.7256485606461,37.30189714783695],[139.72777594480655,37.30072026055456],[139.73904189558138,37.295802470292614],[139.74342312844522,37.29420788918193],[139.74468000617597,37.29686614301596],[139.74553078914303,37.297026716591134],[139.7463062754663,37.297382801264455],[139.7465150473357,37.29866972254647],[139.74362528565462,37.29986228690229],[139.7430837676246,37.300605164204775],[139.74274687140206,37.301871404575564],[139.744142165657,37.30305925163022],[139.74418102822466,37.3040662832676],[139.74371013025007,37.30432965071697],[139.74247805911256,37.3047842121402],[139.7416312930566,37.30537901209514],[139.74024920420274,37.305665601546714],[139.7402883994277,37.3063609042235],[139.74116339955495,37.30726861314403],[139.74153351358052,37.30756457597835],[139.74206718441235,37.309247262954464],[139.74106925472572,37.31057705829017],[139.7398251167446,37.31215868132973],[139.73972340839714,37.31386860798165],[139.738564775583,37.315517860471026],[139.73771277439553,37.316172600641096],[139.7371460359314,37.316919223777205],[139.73660804017987,37.31868102803716],[139.73720800675758,37.319384803141524],[139.73732045320764,37.32150658595433],[139.7359718597566,37.32276422184226],[139.73525366640152,37.32439787187503],[139.73525235865674,37.32539683187692],[139.73547659556016,37.32624011695431],[139.73558570048212,37.32704725999008],[139.7360502492163,37.32794663968651],[139.73601963085892,37.32839421081748],[139.7354474569426,37.3293846662478],[139.73457049887594,37.32982744491818],[139.73385863548413,37.33038637687215],[139.73265021098678,37.331516101157554],[139.73214830012992,37.33233877497777],[139.73088596482114,37.332561417309705],[139.72980426400653,37.33253654349959],[139.72980347063918,37.33311197983713],[139.729632921158,37.33330359568575],[139.7290759131773,37.33409832796045],[139.72861352572122,37.335272588601875],[139.72793675042269,37.33573943353505],[139.72728585351612,37.33666726456052],[139.7270385687082,37.33694933988537],[139.72578588371474,37.33735581273211],[139.72419688114212,37.33828529685087],[139.72389505609948,37.33918005610742],[139.72438890540877,37.340559045213816],[139.72407104347917,37.34214509394066],[139.7234596131019,37.342392183061015],[139.7211341730308,37.343317001919445],[139.7201169367766,37.343615820261974],[139.71976591220468,37.34388709044434],[139.71838245552163,37.344549232151515],[139.71695288184682,37.3458545027444],[139.71658582360388,37.346753159370685],[139.71607409332535,37.347264054256925],[139.71547187368282,37.347974794772064],[139.71518492969662,37.34887352154448],[139.71487401454667,37.3490889236436],[139.71436522444452,37.35087460752415],[139.71436749496797,37.35258081413684],[139.71484208834931,37.35339241965444],[139.71621795066267,37.35450860387827]]]},"properties":{"KEY_CODE":"074460060","PREF":"07","CITY":"446","CITY_NAME":"昭和村","S_NAME":"大字小野川","SETAI":"72"}},{"type":"Feature","geometry":{"type":"Polygon","coordinates":[[[139.65579479436428,37.33072037920867],[139.6553551865618,37.33010428026389],[139.65217546372276,37.32886249135524],[139.6508414087894,37.32775909263107],[139.65029163685008,37.326978778531],[139.64883041421,37.32584137642945],[139.64815168731334,37.32575554782314],[139.64664580560952,37.32554984999187],[139.64575620453647,37.32493849665652],[139.64470828138002,37.324013323738754],[139.6430978609606,37.32321451145274],[139.6426978457495,37.321976808782274],[139.6419791238982,37.32094217807292],[139.64191694932686,37.32034903400746],[139.64114062522444,37.31950972980731],[139.64088003720798,37.31931373081764],[139.63601810213882,37.316687896730166],[139.6369871798063,37.31501512885825],[139.6375072840669,37.314849853463],[139.63953433906437,37.31472875588929],[139.64070486985514,37.31423267544749],[139.64429646194705,37.311893216499904],[139.64580701681234,37.31046372892484],[139.64967871423605,37.31202948229614],[139.65104218172343,37.31280136217103],[139.65276472027728,37.314568245920476],[139.65497016583808,37.31595089279607],[139.6599868653445,37.31733752848065],[139.6632401947636,37.31718187204513],[139.6661732734596,37.316544563010645],[139.66960501688297,37.317431317778954],[139.67630835940886,37.31907633450393],[139.67687034290762,37.319205347409174],[139.67473241339297,37.32114428351596],[139.67008531501128,37.323999869107645],[139.6677634137597,37.324606722764045],[139.66280001252196,37.32420077343337],[139.66112413883334,37.324878680459],[139.6606200990319,37.32694233237641],[139.6597690560472,37.326565712314164],[139.65747677143762,37.32700806972913],[139.65614971201103,37.329234638298814],[139.65579479436428,37.33072037920867]]]},"properties":{"KEY_CODE":"074460070","PREF":"07","CITY":"446","CITY_NAME":"昭和村","S_NAME":"大字喰丸","SETAI":"44"}},{"type":"Feature","geometry":{"type":"Polygon","coordinates":[[[139.74342312844522,37.29420788918193],[139.73904189558138,37.295802470292614],[139.72777594480655,37.30072026055456],[139.7256485606461,37.30189714783695],[139.72069444296739,37.303490949655966],[139.71756832946934,37.30344796974243],[139.71380592745817,37.30249527940707],[139.7106047317008,37.302512020778885],[139.70940368899284,37.3028903678708],[139.70651124687976,37.305194895680245],[139.70553532893686,37.30549347637508],[139.70250957945578,37.30521043346549],[139.69966946536215,37.306036450484044],[139.69706798695313,37.306253294086005],[139.69341696213672,37.30596929001193],[139.6919138705414,37.3073062147826],[139.69047136625719,37.30965186344449],[139.68916902948808,37.31056927141029],[139.6871418929972,37.31118615384693],[139.6854164852596,37.31096422859415],[139.6834900904889,37.31120159309263],[139.68091215015622,37.31203736295404],[139.67825632546206,37.314231703484836],[139.67840208841577,37.31644893779602],[139.67799726975517,37.31802016378805],[139.67687034290762,37.319205347409174],[139.67630835940886,37.31907633450393],[139.66960501688297,37.317431317778954],[139.6661732734596,37.316544563010645],[139.6632401947636,37.31718187204513],[139.6599868653445,37.31733752848065],[139.65497016583808,37.31595089279607],[139.65276472027728,37.314568245920455],[139.65104218172343,37.31280136217103],[139.64967871423605,37.31202948229614],[139.64580701681234,37.31046372892484],[139.64531719241458,37.30743764214316],[139.64618272269294,37.306073713789026],[139.64848167413592,37.30513638911805],[139.64940778465174,37.30447312772645],[139.6522761715635,37.303443668469264],[139.65329451004055,37.30285442991616],[139.65759508289622,37.3020855164184],[139.6591795694352,37.30153001668339],[139.66224839548065,37.297771534641676],[139.66397332082656,37.29747678854113],[139.66570188049823,37.29553452800171],[139.6678346264163,37.29424103963716],[139.66986418419597,37.29373064119764],[139.67084719078485,37.29251662477651],[139.67106886647744,37.29161216292279],[139.67266270649736,37.289264427350226],[139.67536973446505,37.28799850858404],[139.67675804050717,37.286865948287044],[139.67848363890974,37.28608510016198],[139.68085532321874,37.28341410341291],[139.6823280839197,37.2822410132931],[139.68375864061758,37.280423263345355],[139.68471349789846,37.278728237292995],[139.68581283943146,37.27796927906184],[139.68885093935106,37.27759283654382],[139.69042612071908,37.27674668887496],[139.69350405403253,37.27458636425622],[139.69541069825956,37.27251219066611],[139.69845082018,37.270848863515496],[139.70032037567526,37.26892085761304],[139.70306685649524,37.26763725188359],[139.70559221863536,37.26723054237083],[139.7079368316323,37.26809698941344],[139.70976286798415,37.26764960260846],[139.71081243395543,37.267855407933034],[139.71172232279991,37.26982359737295],[139.71187226313057,37.271433238946365],[139.71302145033175,37.27297039080548],[139.71530217217895,37.273655541629005],[139.71922718321517,37.273145144378404],[139.7214855861765,37.27443798585851],[139.7225919298725,37.274676538934116],[139.72298732030714,37.27573796886149],[139.7250992199774,37.27700708512464],[139.72778957184366,37.277748111915656],[139.72822475535787,37.27899780850781],[139.7308989198626,37.27938787307866],[139.73112636448712,37.28145274604997],[139.73289992203686,37.28202320231536],[139.73251209379083,37.28279699357106],[139.7329791313439,37.28372411939635],[139.7345136176329,37.285142240483545],[139.73654302411165,37.28534157088666],[139.73530001073985,37.28742144022986],[139.73778478183868,37.28797748723611],[139.7405567145409,37.2881096123361],[139.74178991701922,37.28757917505016],[139.74281849642912,37.28923069759406],[139.74411718051715,37.290304568757215],[139.74468726380434,37.29182155362631],[139.74436487077222,37.292366636143136],[139.74342312844522,37.29420788918193]]]},"properties":{"KEY_CODE":"074460080","PREF":"07","CITY":"446","CITY_NAME":"昭和村","S_NAME":"大字両原","SETAI":"28"}},{"type":"Feature","geometry":{"type":"Polygon","coordinates":[[[139.7079368316323,37.26809698941344],[139.70559221863536,37.26723054237083],[139.70306685649524,37.26763725188359],[139.70032037567526,37.26892085761304],[139.69845082018,37.270848863515496],[139.69541069825956,37.27251219066611],[139.69350405403253,37.27458636425622],[139.69042612071908,37.27674668887496],[139.68885093935106,37.27759283654382],[139.68581283943146,37.27796927906184],[139.68471349789846,37.278728237292995],[139.68375864061758,37.280423263345355],[139.6823280839197,37.2822410132931],[139.68085532321874,37.28341410341291],[139.67848363890974,37.28608510016198],[139.67675804050717,37.286865948287044],[139.67536973446505,37.28799850858404],[139.67266270649736,37.289264427350226],[139.67106886647744,37.29161216292279],[139.67084719078485,37.29251662477651],[139.66986418419597,37.29373064119764],[139.6678346264163,37.29424103963716],[139.66570188049823,37.29553452800171],[139.66397332082656,37.29747678854113],[139.66224839548065,37.297771534641676],[139.6591795694352,37.30153001668339],[139.65759508289622,37.3020855164184],[139.65329451004055,37.30285442991616],[139.6522761715635,37.303443668469264],[139.64940778465174,37.30447312772645],[139.64848167413592,37.30513638911805],[139.64618272269294,37.306073713789026],[139.64531719241458,37.30743764214316],[139.64580701681234,37.31046372892484],[139.64429646194705,37.31189321649994],[139.64070486985514,37.31423267544749],[139.63953433906437,37.314728755889305],[139.6375072840669,37.314849853463],[139.6369871798063,37.31501512885828],[139.63601810213882,37.316687896730166],[139.63367368651183,37.30874587085863],[139.62760086768895,37.309950869828874],[139.62509007446818,37.31001028284051],[139.6185020784409,37.3096364408349],[139.61444995239333,37.309848686675906],[139.61059304480804,37.31024701088383],[139.6052574009323,37.310380768468264],[139.60103216064496,37.30993314580526],[139.59789650626362,37.308958012239835],[139.59400225859312,37.306712836677264],[139.59292977544573,37.30581182346149],[139.59195960914417,37.304211673618774],[139.5897732826646,37.303657797367],[139.58634703533275,37.30375064360995],[139.5833229894569,37.30320487911992],[139.57962352487925,37.30273740715192],[139.57813509752512,37.3022839207194],[139.57744242020368,37.300628608264596],[139.57640513228495,37.29968145464139],[139.57679871571156,37.29821182088301],[139.57770329483847,37.29786939799646],[139.57747884648342,37.29594561258956],[139.5783637020094,37.29535702802148],[139.57883975562595,37.292696678205054],[139.57839053517552,37.29044446090524],[139.5785285024579,37.28757836308423],[139.57908274832644,37.28605822470562],[139.5815706688611,37.28487438592471],[139.58235468859237,37.284174455581336],[139.58294392208978,37.28397915529539],[139.5843721281636,37.28352290212605],[139.58541976034934,37.283311797327606],[139.5862671501096,37.2831209626478],[139.5867307701953,37.28258886411638],[139.5879840885075,37.2822469441766],[139.58832399442605,37.28187861605546],[139.5882754720085,37.28100921448984],[139.58905243985447,37.28037511702576],[139.58967093143602,37.27954807445415],[139.58999071406078,37.2790484752738],[139.5901350104542,37.27886010098528],[139.5907719817789,37.278656412966065],[139.59141931360404,37.27842810483075],[139.59406478753039,37.277592805871556],[139.5946713361957,37.277274142249],[139.5949715146802,37.27647106594622],[139.5963770266354,37.2750098733138],[139.5971480273015,37.27459324609594],[139.5973963299487,37.273962252478064],[139.59727492976864,37.27340416106619],[139.59726098937503,37.27294075919058],[139.59747814280632,37.27241628958094],[139.59753158839465,37.27172760312728],[139.59520677511796,37.27022198431349],[139.59444424764814,37.26958485463923],[139.59378100989957,37.26836131979272],[139.59354621030388,37.26796729260324],[139.59285607381145,37.26714977786603],[139.59258049390996,37.26667343636102],[139.59277876693807,37.26562400931278],[139.59300604526302,37.265140531321926],[139.59332302087182,37.263865917742244],[139.59312084747347,37.26288945178706],[139.5931333718441,37.26216771516795],[139.5940228554016,37.26156674637742],[139.5943733756169,37.26104254066226],[139.59399586960183,37.26035281676511],[139.594379096263,37.25900018554741],[139.59433902449533,37.25856234215719],[139.59412310380645,37.257655122725],[139.59371971043382,37.257054475654705],[139.59307557287102,37.25606964056533],[139.59202172852304,37.25513240059841],[139.59161438026266,37.25416381451539],[139.5914930256026,37.253605838224665],[139.58932296152406,37.25363008034503],[139.5886151203489,37.25360396862288],[139.58827664586227,37.25357045629767],[139.58777424787547,37.25346281867258],[139.58740830226802,37.25240406215323],[139.58798560606198,37.24835369251655],[139.58798842939666,37.24747608041865],[139.587715601407,37.246187880621264],[139.589583345395,37.24439144409594],[139.59011729925487,37.24423667495387],[139.59128951944118,37.24337793572637],[139.59219336530487,37.24215720519605],[139.5922221804418,37.24155463639983],[139.59233579248348,37.239682639399696],[139.59322762721948,37.238543820836775],[139.5927176821588,37.23809095682423],[139.59078216564393,37.2373338693924],[139.59003075853727,37.23664353034151],[139.58995250433367,37.23586868598498],[139.59000694499795,37.23567519702491],[139.5901992106464,37.234470342243526],[139.58999978515067,37.2342233937631],[139.58996575079559,37.2337724807143],[139.59012513936068,37.23331196870687],[139.59124066316886,37.23282623781834],[139.59239567735685,37.23201659354765],[139.59246520006593,37.23170092066562],[139.59236483202423,37.23093884508456],[139.59216360291944,37.23035341134989],[139.59192411975715,37.22949207158519],[139.59170013752208,37.227995893443826],[139.59140870497265,37.22655351855263],[139.5902591060865,37.22418405448536],[139.5900859787868,37.223781436377124],[139.59007010093598,37.22250055384017],[139.59127803139452,37.221119535050335],[139.591348843534,37.2204458156358],[139.59171528656358,37.21876571416969],[139.59319059147597,37.21823762380415],[139.5949297726557,37.216310931884465],[139.59667621326253,37.21534840856312],[139.5979232068354,37.21385222484912],[139.59748889981392,37.21225949709663],[139.59956699937297,37.20931672258982],[139.60197329297725,37.20806214464681],[139.60392914433643,37.207844179006955],[139.60684833318473,37.20683575096011],[139.6089006369821,37.20648201598751],[139.61018406104068,37.20638559014477],[139.60970189358727,37.20800258960913],[139.6114919423572,37.207561582701345],[139.61227706651482,37.207727214140284],[139.61421155031454,37.2095612957928],[139.61484690716082,37.21136860700422],[139.61465230609406,37.2117933189019],[139.61208137187253,37.21264335287026],[139.61227266539322,37.21335853586808],[139.61586337777518,37.21306581304615],[139.61764847980203,37.21439227478376],[139.62066444930147,37.21431561387632],[139.62125401777146,37.215282539146614],[139.62067164762428,37.21605419834479],[139.62021975607763,37.21786841264609],[139.6190281294006,37.22084049744036],[139.62037872691,37.222544906303554],[139.62237668509874,37.22357995758992],[139.62267502045114,37.22461197898216],[139.62243512321328,37.22754947506511],[139.62282697472486,37.228263879340695],[139.6256726458466,37.227424620722225],[139.62774942370606,37.22735471038484],[139.62948665985698,37.22690994507635],[139.63092164524127,37.22765227964598],[139.63348593028127,37.22726531093338],[139.6349539412721,37.227906285413155],[139.6339858758569,37.22951882656014],[139.635219033198,37.23186961935428],[139.63684668083502,37.232144776647566],[139.6404672218305,37.23074226187845],[139.641953311529,37.23074508759815],[139.64295748155317,37.22988668014348],[139.6465524692344,37.229017301807374],[139.64784208548852,37.23002872642125],[139.64979670824812,37.23016593366641],[139.65191225261782,37.229294217956095],[139.6538092473676,37.22942366832608],[139.65474960647686,37.2298856469399],[139.6555960316492,37.23149502580678],[139.6557203561674,37.23458809978446],[139.65623197750793,37.23687283957208],[139.65724917389306,37.23947261307652],[139.65898599057803,37.24043461417745],[139.66325098327056,37.240840015963215],[139.66569215664182,37.23830665468041],[139.6661552638368,37.238167636055024],[139.66736670772522,37.239210871596555],[139.6686150586931,37.23951971505975],[139.67001597202736,37.2407917043398],[139.6718056946715,37.24591419413213],[139.6721793475978,37.246421181350904],[139.67524268230673,37.24729266591591],[139.67729523067916,37.246816788686736],[139.68120038947487,37.24737085886022],[139.6827179444323,37.24726775448255],[139.6850325489751,37.248224185474676],[139.68713077601623,37.24863482458904],[139.6897130111167,37.249870139850536],[139.69166878286504,37.24959777197236],[139.69277271920575,37.247951667110264],[139.6957558193836,37.24737615280876],[139.69737150935666,37.24776777461226],[139.6979965748945,37.24887044699573],[139.69959870660432,37.250111955378266],[139.7004943070851,37.250315885578814],[139.70207121367687,37.25353929867497],[139.70347651039953,37.25413816841302],[139.70548763397633,37.25426754543946],[139.70635654180384,37.256710983102764],[139.70746576663544,37.258686496705415],[139.70839861356993,37.258979653509236],[139.70922208066935,37.259967676717515],[139.70979084001678,37.26148032248744],[139.70943407452464,37.262759406676516],[139.70847965838806,37.263294855347404],[139.70874906186606,37.26590459438315],[139.7079368316323,37.26809698941344]]]},"properties":{"KEY_CODE":"074460090","PREF":"07","CITY":"446","CITY_NAME":"昭和村","S_NAME":"大字大芦","SETAI":"90"}}]}