{"type":"FeatureCollection","features":[{"type":"Feature","geometry":{"type":"Polygon","coordinates":[[[140.57351264722956,37.22946709807226],[140.57281173987124,37.23041973682883],[140.5733590033559,37.23097627878],[140.57152838482796,37.231576919094344],[140.56956502970746,37.230214363866374],[140.56589737370015,37.230196366777506],[140.5657273721345,37.229838663476606],[140.5637062305765,37.229760021053785],[140.56395760027712,37.228364711420035],[140.56374029122154,37.22634644687194],[140.5642284716321,37.224814945120016],[140.5644582154124,37.22456615111974],[140.56410690045118,37.22335576288522],[140.5638122359224,37.22045165127455],[140.56397851530565,37.219416618885376],[140.564779316802,37.21820621313387],[140.565335505196,37.2179348577122],[140.5655973486213,37.21745229082701],[140.56744334553858,37.21675734575852],[140.5682503135164,37.21619255827933],[140.56858696819734,37.21544848774538],[140.56986083789673,37.213390057936955],[140.570400855678,37.21146316438103],[140.5695660234301,37.21135852261697],[140.56796498956916,37.21070543316344],[140.56751435266955,37.210330468050316],[140.56721814398236,37.208590668598035],[140.56772129679965,37.20773236916528],[140.5674148236391,37.20715024809434],[140.56532651580937,37.2061950367005],[140.56519446040713,37.20503288744582],[140.5691897406268,37.20204473610251],[140.5711125358853,37.2012561719799],[140.57256408530628,37.20042953827641],[140.57294254548182,37.19925140022427],[140.57385036961486,37.19977836267451],[140.5747963322549,37.19967783884305],[140.57576381483332,37.200211174273505],[140.57611337811727,37.20083960769492],[140.57590689742315,37.203190914493824],[140.5766448388394,37.204157359100364],[140.58016493834774,37.20431715797894],[140.58134000706315,37.203570718170056],[140.582070178069,37.20532845289172],[140.5823554290496,37.20428701671943],[140.5813773232167,37.20209128638208],[140.5822986707641,37.2006121897811],[140.5828698459554,37.20054170296668],[140.58427448617218,37.20336900184685],[140.58667108650917,37.204200823164065],[140.5876803114203,37.20662158648753],[140.58873505034194,37.20704289000108],[140.58889902372857,37.20872745415119],[140.5885406955064,37.20928193801273],[140.588093697244,37.21258841952051],[140.58845262739374,37.2149168715497],[140.58826542205597,37.21624365775861],[140.58910490636268,37.21690371204833],[140.58889523962534,37.21944571115135],[140.59016341936015,37.22079602197021],[140.58826057366127,37.22144215582988],[140.58546551508428,37.221072309283365],[140.5838597172389,37.221273683799346],[140.58295648530236,37.22061384604576],[140.58139308199864,37.22060807732448],[140.5808064297918,37.22141740878458],[140.5812652111186,37.222330258215585],[140.57998419581057,37.22342245008371],[140.576689361641,37.22448163662171],[140.5760651666642,37.22540240790335],[140.57528368958515,37.225548371775396],[140.57377980195693,37.22677508437654],[140.57298884747863,37.22673693144942],[140.5728520823494,37.22883818953255],[140.57351264722956,37.22946709807226]]]},"properties":{"KEY_CODE":"075030010","PREF":"07","CITY":"503","CITY_NAME":"平田村","S_NAME":"大字永田","SETAI":"133"}},{"type":"Feature","geometry":{"type":"Polygon","coordinates":[[[140.55696878322408,37.22316590017371],[140.55525631963388,37.22336529550467],[140.55462192684243,37.22344448338068],[140.55424479815673,37.223638122966506],[140.5539877832826,37.224112767150395],[140.553922719305,37.22414878515962],[140.5535502888567,37.22436492080612],[140.55310129529775,37.22466247943157],[140.55278299633787,37.224633435175335],[140.55257414905486,37.224551491099795],[140.55190215931205,37.224432510055294],[140.55197187042134,37.22413063885321],[140.5532426732977,37.22266707728489],[140.55357351278104,37.222346019440614],[140.55432616948337,37.2213498009031],[140.5546865453264,37.22103039056939],[140.55472745825807,37.219557537727866],[140.55475058892202,37.219486155447846],[140.55503121622897,37.21924073182469],[140.55604307056413,37.21834375891033],[140.55807599642893,37.21613903888055],[140.55828444187412,37.215923194867166],[140.5579791932912,37.21587859958051],[140.55777623751004,37.21590884242787],[140.55746400453725,37.21589343284764],[140.557222432028,37.21529456179829],[140.55767164562621,37.21407676449819],[140.5576830701654,37.21375202398155],[140.556445192207,37.2129446592886],[140.5555125909837,37.21294161345377],[140.55506140730785,37.212822289627454],[140.5534794993945,37.21195447102594],[140.55234762153356,37.21138393734095],[140.55178680969385,37.21091468584676],[140.55100059408628,37.21021814478499],[140.55063660123625,37.20984146752404],[140.5503530912679,37.20927788983425],[140.55037908923197,37.20898347215327],[140.55023263034545,37.20871825532454],[140.550301035002,37.20851045131007],[140.55060103693984,37.20823155436216],[140.5517819128088,37.20736978714096],[140.55587692604416,37.206295165440096],[140.55681970408338,37.20626548840915],[140.55931854807866,37.206166458068694],[140.5602449534869,37.2059933862208],[140.56165116393552,37.20550916325925],[140.56270436448457,37.205293335242274],[140.56436771952954,37.20560411559436],[140.56453511701795,37.20606024531449],[140.56506597201815,37.20627464417372],[140.56528374132722,37.2062497890592],[140.5674148236391,37.20715024809434],[140.56772129679965,37.20773236916528],[140.56721814398236,37.208590668598035],[140.56751435266955,37.210330468050316],[140.56796498956916,37.21070543316344],[140.5695660234301,37.21135852261697],[140.570400855678,37.21146316438103],[140.56986083789673,37.213390057936955],[140.56858696819734,37.21544848774538],[140.5682503135164,37.21619255827933],[140.56744334553858,37.21675734575852],[140.5655973486213,37.21745229082701],[140.565335505196,37.2179348577122],[140.564779316802,37.21820621313387],[140.56397851530565,37.219416618885376],[140.5638122359224,37.22045165127455],[140.56410690045118,37.22335576288522],[140.5644582154124,37.22456615111974],[140.56400952899475,37.224847127869026],[140.56307819944342,37.225007448476816],[140.56276794969372,37.22493374571794],[140.56242826016643,37.22448246159364],[140.56181396373444,37.22408777311297],[140.5613457159412,37.223678386716486],[140.56084607672082,37.22357852262946],[140.55972804062617,37.222207792152346],[140.55847728944823,37.222675853261386],[140.55798126347324,37.222953725760185],[140.55774966720705,37.223010053546545],[140.55715784162481,37.223157987333416],[140.55696878322408,37.22316590017371]]]},"properties":{"KEY_CODE":"075030020","PREF":"07","CITY":"503","CITY_NAME":"平田村","S_NAME":"大字小松原","SETAI":"50"}},{"type":"Feature","geometry":{"type":"Polygon","coordinates":[[[140.5637062305765,37.229760021053785],[140.56345535442432,37.23307806471102],[140.5635930196026,37.234657817356684],[140.56320560793165,37.23642834361857],[140.56225932032126,37.23736019124568],[140.5590211605025,37.23753478355544],[140.5577980944385,37.23868019412296],[140.55655135954285,37.239133288386704],[140.55635722818013,37.241130148631015],[140.55515691688007,37.24113013794634],[140.55213025202949,37.23960635166006],[140.54985535859146,37.24178939144543],[140.54797102098868,37.242332974109885],[140.54710145104755,37.241459911099184],[140.5468938051286,37.24007936959997],[140.54603189382013,37.23804467309196],[140.5443716833082,37.237251670469114],[140.54324956724048,37.2371464611683],[140.5416762078274,37.2382395963573],[140.5407304950426,37.23737820689753],[140.53950760335437,37.23742309175503],[140.538529827187,37.23600853700006],[140.5388078495779,37.23338648115532],[140.53916886912458,37.23209828067335],[140.53834129374872,37.23200661518558],[140.5391901894186,37.230812380265455],[140.5398347327296,37.2312688132514],[140.53990587224874,37.229530512914785],[140.5409709233851,37.227827120148945],[140.53957083140577,37.227644404335464],[140.53938721669704,37.22669511643754],[140.5386011810279,37.226373565482646],[140.5380087799455,37.22619292446518],[140.53699492658953,37.226430272721075],[140.53646929484222,37.226442824435786],[140.53596460096603,37.226799778567205],[140.534928846225,37.22722590786903],[140.53421865835432,37.22708860444697],[140.53475066676813,37.22648608706683],[140.53485346091952,37.226103073210055],[140.53442509253418,37.22333486171009],[140.53433812627148,37.2230032353332],[140.53421416626102,37.22281191955283],[140.53361337724883,37.223034130838826],[140.5334221199138,37.22296232975161],[140.5332989131785,37.22285703608194],[140.5331454889102,37.22283978047198],[140.53284068767405,37.2226982495867],[140.5328589793237,37.22210088034957],[140.53290761237008,37.22175761053406],[140.53285740437508,37.22170665744121],[140.5327521189325,37.22149242209938],[140.53242523128228,37.219998100520044],[140.5327288502567,37.21809372357823],[140.5351935567151,37.21746852104004],[140.53572220362904,37.21771643196151],[140.5369661839582,37.216372621840016],[140.53851606421532,37.215697029337456],[140.54067449128675,37.21526981569655],[140.54391274299851,37.21554078359004],[140.5456159557548,37.21542511214156],[140.5465259613334,37.21631580993313],[140.5493803102901,37.21584172231516],[140.5498385239517,37.21546120077178],[140.5491172863435,37.21118706777894],[140.5502462747623,37.20862524721461],[140.55023263034545,37.20871825532454],[140.55037908923197,37.20898347215327],[140.5503530912679,37.20927788983425],[140.55063660123625,37.20984146752404],[140.55100059408628,37.21021814478499],[140.55178680969385,37.21091468584676],[140.55234762153356,37.21138393734095],[140.5534794993945,37.21195447102594],[140.55506140730785,37.212822289627454],[140.5555125909837,37.21294161345377],[140.556445192207,37.2129446592886],[140.5576830701654,37.21375202398155],[140.55767164562621,37.21407676449819],[140.557222432028,37.21529456179829],[140.55746400453725,37.21589343284764],[140.55777623751004,37.21590884242787],[140.5579791932912,37.21587859958051],[140.55828444187412,37.215923194867166],[140.55807599642893,37.21613903888055],[140.55604307056413,37.21834375891033],[140.55503121622897,37.21924073182469],[140.55475058892202,37.219486155447846],[140.55472745825807,37.219557537727866],[140.5546865453264,37.22103039056939],[140.55432616948337,37.2213498009031],[140.55357351278104,37.222346019440614],[140.5532426732977,37.22266707728489],[140.55197187042134,37.22413063885321],[140.55190215931205,37.224432510055294],[140.55257414905486,37.224551491099795],[140.55278299633787,37.224633435175335],[140.55310129529775,37.22466247943157],[140.5535502888567,37.22436492080612],[140.553922719305,37.22414878515962],[140.5539877832826,37.224112767150395],[140.55424479815673,37.223638122966506],[140.55462192684243,37.22344448338068],[140.55525631963388,37.22336529550467],[140.55696878322408,37.22316590017371],[140.55715784162481,37.223157987333416],[140.55774966720705,37.223010053546545],[140.55798126347324,37.222953725760185],[140.55847728944823,37.222675853261386],[140.55972804062617,37.222207792152346],[140.56084607672082,37.22357852262946],[140.5613457159412,37.223678386716486],[140.56181396373444,37.22408777311297],[140.56242826016643,37.22448246159364],[140.56276794969372,37.22493374571794],[140.56307819944342,37.225007448476816],[140.56400952899475,37.224847127869026],[140.5642284716321,37.224814945120016],[140.56374029122154,37.22634644687194],[140.56395760027712,37.228364711420035],[140.5637062305765,37.229760021053785]]]},"properties":{"KEY_CODE":"07503003001","PREF":"07","CITY":"503","CITY_NAME":"平田村","S_NAME":"大字下蓬田字瓦宿","SETAI":"138"}},{"type":"Feature","geometry":{"type":"Polygon","coordinates":[[[140.54797102098868,37.242332974109885],[140.54702519335493,37.24270333468453],[140.54568593406452,37.244428559825316],[140.54358895375705,37.24809062532182],[140.54220540042246,37.25007049902767],[140.54213153558496,37.25222190630442],[140.54122085205339,37.25393015427903],[140.54166450467858,37.254428318140455],[140.541201215628,37.256665397914254],[140.5395306985679,37.259090456143035],[140.53819080890543,37.25999164774015],[140.53723810768292,37.2616946179879],[140.5363918712977,37.262487121407965],[140.53641906118085,37.26316588714351],[140.53546584338238,37.264448712190074],[140.534845225184,37.26590063104356],[140.53478023035157,37.265849483150284],[140.53104985094703,37.26511406393872],[140.52557320638888,37.26458068319066],[140.522022485879,37.263317190029525],[140.51977139485794,37.262120643048505],[140.5188628974536,37.261045262195836],[140.51835380109392,37.25955108877129],[140.519480004372,37.25817881726293],[140.51923730477705,37.256666629105105],[140.51943458762653,37.25595262086488],[140.51824174769126,37.25340866212431],[140.51906704422427,37.25257359763026],[140.51864284005958,37.25119651660424],[140.5175989106752,37.24934430524055],[140.51980920805005,37.24720785721897],[140.52106254027245,37.24611784774518],[140.5219277930477,37.24507556130344],[140.5231569071983,37.24401806442611],[140.5252811367437,37.24222628274787],[140.52548120224503,37.24212106387527],[140.525878823389,37.241641295500564],[140.52674507166117,37.24008688980554],[140.5277412887407,37.23872883034635],[140.5286106651827,37.23710103326986],[140.53135019457685,37.233756866469626],[140.5338293927515,37.23142411857624],[140.53669488836366,37.22979008200022],[140.53725879481115,37.22803168171507],[140.538153919109,37.226983200457994],[140.5386011810279,37.226373565482646],[140.53938721669704,37.22669511643754],[140.53957083140577,37.227644404335464],[140.5409709233851,37.227827120148945],[140.53990587224874,37.229530512914785],[140.5398347327296,37.2312688132514],[140.5391901894186,37.230812380265455],[140.53834129374872,37.23200661518558],[140.53916886912458,37.23209828067335],[140.5388078495779,37.23338648115532],[140.538529827187,37.23600853700006],[140.53950760335437,37.23742309175503],[140.5407304950426,37.23737820689753],[140.5416762078274,37.2382395963573],[140.54324956724048,37.2371464611683],[140.5443716833082,37.237251670469114],[140.54603189382013,37.23804467309196],[140.5468938051286,37.24007936959997],[140.54710145104755,37.241459911099184],[140.54797102098868,37.242332974109885]]]},"properties":{"KEY_CODE":"07503003002","PREF":"07","CITY":"503","CITY_NAME":"平田村","S_NAME":"大字下蓬田字打違内","SETAI":"59"}},{"type":"Feature","geometry":{"type":"Polygon","coordinates":[[[140.52674507166117,37.24008688980554],[140.525878823389,37.241641295500564],[140.52548120224503,37.24212106387527],[140.5252811367437,37.24222628274787],[140.5231569071983,37.24401806442611],[140.5219277930477,37.24507556130344],[140.52106254027245,37.24611784774518],[140.51980920805005,37.24720785721897],[140.5175989106752,37.24934430524055],[140.51718243193133,37.24858260251405],[140.51682953946843,37.247937251550205],[140.51678901302367,37.2471708426584],[140.51632798998364,37.24653512545414],[140.51587569685594,37.24603649378404],[140.51569283271004,37.245211205094606],[140.51531475011288,37.24466455447454],[140.51506690230758,37.244492940959795],[140.51494481128248,37.24419529281556],[140.51483737736362,37.24386771208408],[140.5147465383535,37.2437250440934],[140.51451976031083,37.243404203602644],[140.51315791622292,37.24134765089317],[140.51280045318043,37.24101854574511],[140.51166469421108,37.23919327472796],[140.51153725373487,37.23871374271492],[140.51158747622264,37.23848676896814],[140.51158522957112,37.23823616166504],[140.51179957207077,37.238008107012554],[140.51196784699502,37.237631353733285],[140.51244105546772,37.23631006641535],[140.51248999852396,37.23594582361496],[140.51239152732458,37.23578517533826],[140.51183732954613,37.23556166758513],[140.51201538373792,37.23378265218015],[140.51141268974476,37.23314181380064],[140.5111057866598,37.23220078866822],[140.51082472672212,37.23164751392097],[140.50924800552744,37.2305587231846],[140.50867810286644,37.22898982588056],[140.50981957451117,37.22646541838798],[140.5105637318872,37.22624630616427],[140.51123400098575,37.225690682768025],[140.51143204321133,37.22530756333586],[140.5117358138386,37.22506717058989],[140.5118746591043,37.224744228822495],[140.51198584196916,37.22466009840792],[140.5122823395083,37.2244435409312],[140.5127382553276,37.223701031330044],[140.51264100347092,37.22325709031527],[140.51266858625362,37.223000397212935],[140.51272618457588,37.222767469283156],[140.5132068031794,37.22228726480676],[140.51367446879283,37.222022131750855],[140.51422809871355,37.2217771990476],[140.51421910539028,37.221750922585834],[140.51488965342463,37.221419709505774],[140.5152745291373,37.22098017599774],[140.51553716239954,37.220583724506355],[140.5158910146534,37.22036556109831],[140.5159065769452,37.22030492934323],[140.51588054938435,37.220015315682964],[140.5161450721454,37.21982413682763],[140.51663488857244,37.21966066136886],[140.5167849238076,37.21947915221927],[140.5168308555536,37.21929627181643],[140.51687078326256,37.21924830972226],[140.51716010240938,37.21912794765204],[140.5172637570905,37.219084125315604],[140.5174149522437,37.21885093350678],[140.51763343281326,37.21874787511621],[140.51791667171284,37.218841560317074],[140.5183502872769,37.21888889592583],[140.51863492604394,37.218962013095684],[140.51874120268656,37.21894070148606],[140.5191148241123,37.21886109972332],[140.51938486665014,37.21875126237732],[140.51967166923697,37.21870820650437],[140.52007672753084,37.21853816792096],[140.52080243052666,37.21821814911865],[140.52216116822703,37.217365609134845],[140.52484510907786,37.21365192396335],[140.52525549002823,37.21312463610543],[140.52597032821683,37.21286702771663],[140.52668379083332,37.21246482542136],[140.5269714051545,37.21254748158787],[140.52773301302253,37.21307242364298],[140.5279620514986,37.213351691597104],[140.53037472682388,37.21367418133186],[140.5304433172554,37.21374839999988],[140.5309897280625,37.21408450663322],[140.5320954980148,37.21478014836713],[140.53191066450202,37.21590733026604],[140.5319913413957,37.21637486408449],[140.5322147270022,37.21665851955607],[140.5327288502567,37.21809372357823],[140.53242523128228,37.219998100520044],[140.5327521189325,37.22149242209938],[140.53285740437508,37.22170665744121],[140.53290761237008,37.22175761053406],[140.5328589793237,37.22210088034957],[140.53284068767405,37.2226982495867],[140.5331454889102,37.22283978047198],[140.5332989131785,37.22285703608194],[140.5334221199138,37.22296232975161],[140.53361337724883,37.223034130838826],[140.53421416626102,37.22281191955283],[140.53433812627148,37.2230032353332],[140.53442509253418,37.22333486171009],[140.53485346091952,37.226103073210055],[140.53475066676813,37.22648608706683],[140.53421865835432,37.22708860444697],[140.534928846225,37.22722590786903],[140.53596460096603,37.226799778567205],[140.53646929484222,37.226442824435786],[140.53699492658953,37.226430272721075],[140.5380087799455,37.22619292446518],[140.538153919109,37.226983200457994],[140.53725879481115,37.22803168171507],[140.53669488836366,37.22979008200022],[140.5338293927515,37.23142411857624],[140.53135019457682,37.233756866469626],[140.5286106651827,37.23710103326986],[140.5277412887407,37.23872883034635],[140.52674507166117,37.24008688980554]]]},"properties":{"KEY_CODE":"07503003003","PREF":"07","CITY":"503","CITY_NAME":"平田村","S_NAME":"大字下蓬田字乙空釜","SETAI":"39"}},{"type":"Feature","geometry":{"type":"Polygon","coordinates":[[[140.57782481953788,37.25208991210034],[140.5775267886944,37.25324152795169],[140.57632857750244,37.254194500437876],[140.57660077668285,37.25525721064569],[140.57532649806006,37.25695194481462],[140.57684059421183,37.258764626056845],[140.5759874149331,37.25999068456571],[140.5746501334208,37.26029192618862],[140.57449162500507,37.26155107343958],[140.57239738710047,37.26360290005772],[140.5705132369402,37.26360014512832],[140.5673370310545,37.26606691107411],[140.56575590643968,37.2656688144246],[140.5645567431566,37.26592825095488],[140.56325842800246,37.2668118723881],[140.56139850147036,37.26748605062424],[140.56046155624946,37.267290892016064],[140.56057153444038,37.266508515044215],[140.5590440416382,37.26535462487238],[140.55948979772208,37.26443009853401],[140.55832801725086,37.26193877874402],[140.55890756692588,37.25951690984104],[140.5597080869602,37.257721633830364],[140.5614080912703,37.25687190853518],[140.56158837666945,37.25440573390641],[140.561301464136,37.25305035807994],[140.56005492296762,37.25265434568477],[140.55993206754297,37.25137722728186],[140.55687391093576,37.252396431839074],[140.55528392356248,37.251505441943365],[140.55403297991296,37.252169588035244],[140.54999331749062,37.25299816200108],[140.54722347220542,37.25275903907014],[140.54425434521113,37.25354958238409],[140.54122085205339,37.25393015427903],[140.54213153558496,37.25222190630442],[140.54220540042246,37.25007049902767],[140.54358895375705,37.24809062532182],[140.54568593406452,37.244428559825316],[140.54702519335493,37.24270333468453],[140.54797102098868,37.242332974109885],[140.54985535859146,37.24178939144543],[140.55213025202949,37.23960635166006],[140.55515691688007,37.24113013794634],[140.55635722818013,37.241130148631015],[140.55655135954285,37.239133288386704],[140.5577980944385,37.23868019412296],[140.5590211605025,37.23753478355544],[140.56225932032126,37.23736019124568],[140.56320560793165,37.23642834361857],[140.5635930196026,37.234657817356684],[140.56345535442432,37.23307806471102],[140.5637062305765,37.229760021053785],[140.5657273721345,37.229838663476606],[140.56589737370015,37.230196366777506],[140.56956502970746,37.230214363866374],[140.57152838482796,37.231576919094344],[140.5733590033559,37.23097627878],[140.57281173987124,37.23041973682883],[140.57351264722956,37.22946709807226],[140.57489730756026,37.22948013755265],[140.57752626523404,37.230307619657935],[140.57859440954275,37.231496844726465],[140.57949692766488,37.23184316353198],[140.58060111662223,37.233039318899706],[140.58218344150202,37.2339343792952],[140.58324823355915,37.23676975810862],[140.58258066093182,37.23810337390284],[140.58304896243362,37.23871146828015],[140.58171207638028,37.23972491802179],[140.57937054744147,37.23997157181898],[140.57898931966852,37.24166141382676],[140.5796044906391,37.2435347764406],[140.57928857818482,37.24410023161306],[140.5752609778248,37.24725345953129],[140.57522663204966,37.24830218628485],[140.57691660750098,37.250338763820565],[140.57782481953788,37.25208991210034]]]},"properties":{"KEY_CODE":"075030040","PREF":"07","CITY":"503","CITY_NAME":"平田村","S_NAME":"大字上蓬田","SETAI":"487"}},{"type":"Feature","geometry":{"type":"Polygon","coordinates":[[[140.56046155624946,37.267290892016064],[140.55905960206906,37.26755729091607],[140.5571728578255,37.26857356183375],[140.55679830508052,37.26985625595381],[140.55710507153276,37.270514153308675],[140.55616273671518,37.27172541417064],[140.55722577152244,37.27362065649449],[140.55509530711745,37.27375152008976],[140.55479168306388,37.27311316690232],[140.55421673673098,37.272830009285954],[140.55337328141613,37.27199064207052],[140.55254677592993,37.27172744848782],[140.55128681492394,37.272817269324506],[140.54555215030717,37.27272097488554],[140.5435223615396,37.27146794060536],[140.54117106153652,37.27050021148436],[140.53757464301748,37.268546227442734],[140.534845225184,37.26590063104356],[140.53546584338238,37.264448712190074],[140.53641906118085,37.26316588714351],[140.5363918712977,37.262487121407965],[140.53723810768292,37.2616946179879],[140.53819080890543,37.25999164774015],[140.5395306985679,37.259090456143035],[140.541201215628,37.256665397914254],[140.54166450467858,37.254428318140455],[140.54122085205339,37.25393015427903],[140.54425434521113,37.25354958238409],[140.54722347220542,37.25275903907014],[140.54999331749062,37.25299816200108],[140.55403297991296,37.252169588035244],[140.55528392356248,37.251505441943365],[140.55687391093576,37.252396431839074],[140.55993206754297,37.25137722728186],[140.56005492296762,37.25265434568477],[140.561301464136,37.25305035807994],[140.56158837666945,37.25440573390641],[140.5614080912703,37.25687190853518],[140.5597080869602,37.257721633830364],[140.55890756692588,37.25951690984104],[140.55832801725086,37.26193877874402],[140.55948979772208,37.26443009853401],[140.5590440416382,37.26535462487238],[140.56057153444038,37.266508515044215],[140.56046155624946,37.267290892016064]]]},"properties":{"KEY_CODE":"075030050","PREF":"07","CITY":"503","CITY_NAME":"平田村","S_NAME":"大字蓬田新田","SETAI":"76"}},{"type":"Feature","geometry":{"type":"Polygon","coordinates":[[[140.60213852584113,37.250846778469416],[140.59979925531545,37.25320379774308],[140.59632564675817,37.253848727589315],[140.59544289516802,37.253616895201056],[140.59390966023082,37.25437270015137],[140.59218908211457,37.25571764766321],[140.59100560817043,37.254277290232174],[140.58832167993128,37.25418519302878],[140.58780345779755,37.25292936541627],[140.58661511180344,37.251872666113464],[140.58511604728798,37.251278750060486],[140.5834900166862,37.251678649302015],[140.58069946623797,37.2516250555086],[140.57782481953788,37.25208991210034],[140.57691660750098,37.250338763820565],[140.57522663204966,37.24830218628485],[140.5752609778248,37.24725345953129],[140.57928857818482,37.24410023161306],[140.5796044906391,37.2435347764406],[140.57898931966852,37.24166141382676],[140.57937054744147,37.23997157181898],[140.58171207638028,37.23972491802179],[140.58304896243362,37.23871146828015],[140.58258066093182,37.23810337390284],[140.58324823355915,37.23676975810862],[140.58503071914114,37.23508088703752],[140.58594938626726,37.23330257792988],[140.58807655889433,37.2316194946464],[140.58886689092543,37.22922951693288],[140.59105345794703,37.22671671243006],[140.59256936031215,37.22633840960125],[140.59425765659407,37.226313503346965],[140.59613381703173,37.227676453130265],[140.59703361259503,37.22900666823976],[140.5969748894217,37.23077586852448],[140.59755817133112,37.23146552266321],[140.59882512682992,37.23160024239716],[140.59984005240824,37.23241535751445],[140.5997357287873,37.23327573051615],[140.59889167951317,37.23402558207926],[140.59860041891417,37.23585963964016],[140.5993589632636,37.236757508900894],[140.601565409261,37.23792629312692],[140.60183768339138,37.2389603502248],[140.6012222066011,37.23985276307068],[140.6020710748722,37.24144385583322],[140.6007610770565,37.24306305594532],[140.60093272069844,37.244150001482346],[140.60213807582474,37.246275481272626],[140.60291639150546,37.24677403667862],[140.60263099169737,37.248538635361605],[140.60284622131093,37.24981071629329],[140.60213852584113,37.250846778469416]]]},"properties":{"KEY_CODE":"075030060","PREF":"07","CITY":"503","CITY_NAME":"平田村","S_NAME":"大字九生滝","SETAI":"47"}},{"type":"Feature","geometry":{"type":"Polygon","coordinates":[[[140.59703361259503,37.22900666823976],[140.59613381703173,37.227676453130265],[140.59425765659407,37.226313503346965],[140.59256936031215,37.22633840960125],[140.59105345794703,37.22671671243006],[140.58886689092543,37.22922951693288],[140.58807655889433,37.2316194946464],[140.58594938626726,37.23330257792988],[140.58503071914114,37.23508088703752],[140.58324823355915,37.23676975810862],[140.58218344150202,37.2339343792952],[140.58060111662223,37.233039318899706],[140.57949692766488,37.23184316353198],[140.57859440954275,37.231496844726465],[140.57752626523404,37.230307619657935],[140.57489730756026,37.22948013755265],[140.57351264722956,37.22946709807226],[140.5728520823494,37.22883818953255],[140.57298884747863,37.22673693144942],[140.57377980195693,37.22677508437654],[140.57528368958515,37.225548371775396],[140.5760651666642,37.22540240790335],[140.576689361641,37.22448163662171],[140.57998419581057,37.22342245008371],[140.5812652111186,37.222330258215585],[140.5808064297918,37.22141740878458],[140.58139308199864,37.22060807732448],[140.58295648530236,37.22061384604576],[140.5838597172389,37.221273683799346],[140.58546551508428,37.221072309283365],[140.58826057366127,37.22144215582988],[140.59016341936015,37.22079602197021],[140.58889523962534,37.21944571115135],[140.58910490636268,37.21690371204833],[140.58826542205597,37.21624365775861],[140.58845262739374,37.2149168715497],[140.588093697244,37.21258841952051],[140.5892247659843,37.21211151872673],[140.5896173928821,37.215969360118955],[140.59052841665593,37.21666133107764],[140.59236659141806,37.21648780300268],[140.5938729138506,37.21479831446248],[140.59589124434095,37.21463568498775],[140.5962806214512,37.21277847383022],[140.59742326338443,37.211343997959204],[140.59852879051883,37.21087729725518],[140.60065342465035,37.210660373848874],[140.6024185917999,37.2086339847753],[140.60458695618814,37.20680783094775],[140.60659139981453,37.20662368580282],[140.60690530688154,37.20568196287175],[140.60824274654095,37.20424019390618],[140.6124910804975,37.20440096771578],[140.61382700057413,37.205394493085755],[140.6132830313107,37.207001746236216],[140.6129053652045,37.207727081667926],[140.61251720512664,37.209203629656706],[140.61258261359248,37.210008270915644],[140.6125081599755,37.21049633738116],[140.61236047389,37.210744548175505],[140.6115349615657,37.211223333362945],[140.6107443387394,37.21294905573632],[140.61115330267717,37.21362838578591],[140.61043340786443,37.214933224288266],[140.60837719713243,37.21601365867371],[140.60653643413116,37.21528722409579],[140.60535176944833,37.215203157172375],[140.60424710054707,37.21734778204755],[140.6018782003294,37.2185467189502],[140.60210039382196,37.220845317662274],[140.60293628156137,37.22181137631429],[140.60151950506017,37.22252033410129],[140.6005524435635,37.22354061769383],[140.59944102067237,37.226147042724264],[140.59810573086196,37.22682008955939],[140.5977452710768,37.228323016625836],[140.59703361259503,37.22900666823976]]]},"properties":{"KEY_CODE":"075030070","PREF":"07","CITY":"503","CITY_NAME":"平田村","S_NAME":"大字鴇子","SETAI":"57"}},{"type":"Feature","geometry":{"type":"Polygon","coordinates":[[[140.55306235591533,37.1888754458267],[140.55114203034836,37.18860251307522],[140.55011277312906,37.18907236928161],[140.54986003706614,37.189870521013454],[140.5487294627086,37.19103369630558],[140.54719753169996,37.191042908418005],[140.54560223327348,37.19181728473561],[140.54519810071173,37.192817811508434],[140.54391306017243,37.19326619138637],[140.5423240682052,37.19243315192286],[140.5403459014501,37.19203338462467],[140.539280366799,37.19080831081181],[140.5377783012256,37.1901528015561],[140.5381662640885,37.18906059572223],[140.5376954609333,37.18678712729221],[140.53799150130502,37.18612982441688],[140.53635349816216,37.18436732040569],[140.53442580446793,37.18407796706382],[140.53512191322125,37.180712773476635],[140.53620267399577,37.18068449035295],[140.53864019732478,37.17983046973595],[140.54056693966086,37.17730013582807],[140.54280086466653,37.17554159299773],[140.54484578214408,37.174437950629375],[140.54564844796684,37.173248731966936],[140.5465332981576,37.17282651614799],[140.54679300100798,37.17172749478978],[140.54814771283262,37.1722171483613],[140.5492263183,37.1748950646888],[140.5499409044698,37.17563818789318],[140.55103860408406,37.175330109396064],[140.55318250977646,37.173564887600165],[140.554332786378,37.17300358448317],[140.55536607128607,37.17166943099895],[140.55762862893386,37.1710424075075],[140.55875562763387,37.170464661130076],[140.56018510520863,37.170626570910116],[140.55957204332412,37.1698110113046],[140.56061015147642,37.16916395152323],[140.561340238368,37.17094826372276],[140.5613727917051,37.17186487654143],[140.5605930323143,37.17191527240311],[140.5595450109816,37.17327152331128],[140.55988155438763,37.17438177801437],[140.56244084381962,37.173960594850314],[140.56305036896578,37.17581462103848],[140.56471777211155,37.176278785532695],[140.5674535616065,37.174846880810435],[140.56844981427037,37.176189638723805],[140.56864897945908,37.177512406122],[140.57020020798524,37.17738135204046],[140.57186335752678,37.1781103523099],[140.57401821207142,37.178311995504245],[140.57339350212223,37.176161610803106],[140.57276647768307,37.17554762282518],[140.57314078450733,37.174659881552905],[140.5761465093347,37.17298062158779],[140.57660591897346,37.17198476970311],[140.58199888390465,37.17411693598966],[140.5823944262824,37.175052503877204],[140.58175000903083,37.176221945624384],[140.58044816888258,37.17686239356077],[140.57926378768812,37.17797108817837],[140.57770456877859,37.178380034490495],[140.57699667110984,37.1790254499937],[140.5757575860388,37.17902152043353],[140.57464136591594,37.18025448744483],[140.57354082233607,37.180330207352746],[140.57165341671632,37.182499612222855],[140.5727138784899,37.18500469374298],[140.5747357030052,37.18483621495776],[140.5775864866839,37.18552235128792],[140.57850461338163,37.18515121921446],[140.58049945927857,37.186049347302784],[140.58061481671714,37.18680835660203],[140.5790091038012,37.18631933807496],[140.57531178792627,37.18566570898424],[140.57274318026592,37.18569948651394],[140.57108192515324,37.183718107322605],[140.56812425600123,37.18510965005655],[140.568533070033,37.18571930584703],[140.56622984437718,37.184844975074945],[140.56699835361474,37.18414215438876],[140.56705503529915,37.18299838603511],[140.56432860302777,37.18443177134534],[140.56322032595105,37.18460768928657],[140.56209307382736,37.18558358779302],[140.56098079248764,37.18577091414731],[140.55624542265818,37.184520543606034],[140.55517598089685,37.18230159378104],[140.554410005114,37.18150538733865],[140.55278616863384,37.18112811194817],[140.55228995331078,37.18039319465682],[140.54941635090688,37.17912823779744],[140.54752520075124,37.18074253831141],[140.54703997287731,37.18201319910078],[140.5502480812067,37.18344050544003],[140.5513430301452,37.184139852783034],[140.5527473552189,37.185768976108605],[140.55306235591533,37.1888754458267]]]},"properties":{"KEY_CODE":"075030080","PREF":"07","CITY":"503","CITY_NAME":"平田村","S_NAME":"大字小平","SETAI":"142"}},{"type":"Feature","geometry":{"type":"Polygon","coordinates":[[[140.55060103693984,37.20823155436216],[140.54917206179246,37.20847798456576],[140.54941142576408,37.207463098251566],[140.54759497055824,37.20664898311441],[140.5462607015815,37.20720244563287],[140.54623137727856,37.20590026427256],[140.543719355949,37.20368581689778],[140.5424647855479,37.20374244971526],[140.54338290715364,37.202264242839284],[140.54338481060904,37.20142030287552],[140.54493799695243,37.201246844861],[140.54683813557986,37.20053978206456],[140.54639407952772,37.1988026364806],[140.54491153150332,37.198714934806425],[140.5441969021698,37.19756173046813],[140.5414527521423,37.196689967795464],[140.54119173405405,37.19598317822577],[140.54378948690987,37.19466095598009],[140.54391306017243,37.19326619138637],[140.54519810071173,37.192817811508434],[140.54560223327348,37.19181728473561],[140.54719753169996,37.191042908418005],[140.5487294627086,37.19103369630558],[140.54986003706614,37.189870521013454],[140.55011277312906,37.18907236928161],[140.55114203034836,37.18860251307522],[140.55306235591533,37.1888754458267],[140.5552049664311,37.18916178296823],[140.5556639517437,37.19016822704861],[140.55650639297167,37.190432588151495],[140.55846849686273,37.18973635746261],[140.5590798680865,37.18989510440273],[140.55990569512144,37.191215797169306],[140.55983506122607,37.19333297377357],[140.56092647581096,37.19333487289022],[140.56207822214046,37.19404628946988],[140.56343453585762,37.19349700483506],[140.56468533735352,37.19520124004215],[140.56479379672436,37.19584907147488],[140.56606374867087,37.19673809545917],[140.56740503942083,37.199075021451264],[140.56875968915608,37.20016243952049],[140.5711125358853,37.2012561719799],[140.5691897406268,37.20204473610251],[140.56519446040713,37.20503288744582],[140.56532651580937,37.2061950367005],[140.56528374132722,37.2062497890592],[140.56506597201815,37.20627464417372],[140.56453511701795,37.20606024531449],[140.56436771952954,37.20560411559436],[140.5627043644845,37.205293335242274],[140.56165116393552,37.20550916325925],[140.5602449534869,37.2059933862208],[140.55931854807866,37.206166458068694],[140.55681970408338,37.20626548840915],[140.55587692604416,37.206295165440096],[140.5517819128088,37.20736978714096],[140.55060103693984,37.20823155436216]]]},"properties":{"KEY_CODE":"07503009001","PREF":"07","CITY":"503","CITY_NAME":"平田村","S_NAME":"大字西山字沼ノ平","SETAI":"61"}},{"type":"Feature","geometry":{"type":"Polygon","coordinates":[[[140.51763343281326,37.21874787511621],[140.5174149522437,37.21885093350678],[140.5172637570905,37.219084125315604],[140.51716010240938,37.21912794765204],[140.51687078326256,37.21924830972226],[140.5168308555536,37.21929627181643],[140.5167849238076,37.21947915221927],[140.51663488857244,37.21966066136886],[140.5161450721454,37.21982413682763],[140.51588054938435,37.220015315682964],[140.5159065769452,37.22030492934323],[140.5158910146534,37.22036556109831],[140.51553716239954,37.220583724506355],[140.5152745291373,37.22098017599774],[140.51488965342463,37.221419709505774],[140.51421910539028,37.221750922585834],[140.51335934304004,37.22016244683484],[140.51220648113912,37.21972751548201],[140.51040282893757,37.21784339394794],[140.51112453668475,37.216374541049326],[140.51025383875768,37.216197465825424],[140.51075416619557,37.215418948178964],[140.50986748957334,37.214708053092146],[140.51030945844036,37.21407306036683],[140.50765530050472,37.21001065888906],[140.5069570926247,37.209222493305866],[140.5051048773307,37.20846930997075],[140.50471880458716,37.20671601252143],[140.50338282901888,37.20550959866007],[140.5020645934685,37.2034853053126],[140.49991454507153,37.201653507947825],[140.49872309003604,37.19985346717331],[140.49916558764815,37.199127276791785],[140.4980476181865,37.198314943283506],[140.49896016918348,37.19853411610726],[140.5011514514483,37.19970971671794],[140.50290237319638,37.2003621601526],[140.5034897468554,37.20022972771389],[140.50714052590513,37.20149734704962],[140.50861164373083,37.20069937646343],[140.51044328707795,37.20176843748245],[140.51177117545396,37.20190375982108],[140.5145857559641,37.202647235979555],[140.51880313445045,37.202534093290744],[140.51939267357977,37.20287085501537],[140.52102776699866,37.20236309615336],[140.5231411162163,37.2022094744274],[140.52553146012056,37.200664104454894],[140.5268427161437,37.19941096037896],[140.52855094251203,37.1993415663463],[140.5294506163192,37.197911008953994],[140.53185432934475,37.19840476780733],[140.53297620041025,37.19750157987618],[140.53365242830083,37.19501606508137],[140.5346227480006,37.19391453000425],[140.5344844801301,37.19271069231631],[140.53539086734767,37.19228562884557],[140.5366168141179,37.18993918994424],[140.5377783012256,37.1901528015561],[140.539280366799,37.19080831081181],[140.5403459014501,37.19203338462467],[140.5423240682052,37.19243315192286],[140.54391306017243,37.19326619138637],[140.54378948690987,37.19466095598009],[140.54119173405405,37.19598317822577],[140.5414527521423,37.196689967795464],[140.5441969021698,37.19756173046813],[140.54491153150332,37.198714934806425],[140.54639407952772,37.1988026364806],[140.54683813557986,37.20053978206456],[140.54493799695243,37.201246844861],[140.54338481060904,37.20142030287552],[140.54338290715364,37.202264242839284],[140.5424647855479,37.20374244971526],[140.543719355949,37.20368581689778],[140.54623137727856,37.20590026427256],[140.5462607015815,37.20720244563287],[140.54759497055824,37.20664898311441],[140.54941142576408,37.207463098251566],[140.54917206179246,37.20847798456576],[140.55060103693984,37.20823155436216],[140.550301035002,37.20851045131007],[140.5502462747623,37.20862524721461],[140.5491172863435,37.21118706777894],[140.5498385239517,37.21546120077178],[140.5493803102901,37.21584172231516],[140.5465259613334,37.21631580993313],[140.5456159557548,37.21542511214156],[140.54391274299851,37.21554078359004],[140.54067449128675,37.21526981569655],[140.53851606421532,37.215697029337456],[140.5369661839582,37.216372621840016],[140.53572220362904,37.21771643196151],[140.5351935567151,37.21746852104004],[140.5327288502567,37.21809372357823],[140.5322147270022,37.21665851955607],[140.5319913413957,37.21637486408449],[140.53191066450202,37.21590733026604],[140.5320954980148,37.21478014836713],[140.5309897280625,37.21408450663322],[140.5304433172554,37.21374839999988],[140.53037472682388,37.21367418133186],[140.52796205149866,37.213351691597104],[140.52773301302253,37.21307242364298],[140.5269714051545,37.21254748158787],[140.52668379083332,37.21246482542136],[140.52597032821683,37.21286702771663],[140.52525549002823,37.21312463610543],[140.52484510907786,37.21365192396335],[140.52216116822703,37.217365609134845],[140.52080243052666,37.21821814911865],[140.52007672753084,37.21853816792096],[140.51967166923697,37.21870820650437],[140.51938486665014,37.21875126237732],[140.5191148241123,37.21886109972332],[140.51874120268656,37.21894070148606],[140.51863492604394,37.218962013095684],[140.5183502872769,37.21888889592583],[140.51791667171284,37.218841560317074],[140.51763343281326,37.21874787511621]]]},"properties":{"KEY_CODE":"07503009002","PREF":"07","CITY":"503","CITY_NAME":"平田村","S_NAME":"大字西山字煙石","SETAI":"128"}},{"type":"Feature","geometry":{"type":"Polygon","coordinates":[[[140.60824274654095,37.20424019390618],[140.60690530688154,37.20568196287175],[140.60659139981453,37.20662368580282],[140.60458695618814,37.20680783094775],[140.6024185917999,37.2086339847753],[140.60065342465035,37.210660373848874],[140.59852879051883,37.21087729725518],[140.59742326338443,37.211343997959204],[140.5962806214512,37.21277847383022],[140.59589124434095,37.21463568498775],[140.5938729138506,37.21479831446248],[140.59236659141806,37.21648780300268],[140.59052841665593,37.21666133107764],[140.5896173928821,37.215969360118955],[140.5892247659843,37.21211151872673],[140.588093697244,37.21258841952051],[140.5885406955064,37.20928193801273],[140.58889902372857,37.20872745415119],[140.58873505034194,37.20704289000108],[140.5876803114203,37.20662158648753],[140.58667108650917,37.204200823164065],[140.58427448617218,37.20336900184685],[140.5828698459554,37.20054170296668],[140.5822986707641,37.2006121897811],[140.5813773232167,37.20209128638208],[140.5823554290496,37.20428701671943],[140.582070178069,37.20532845289172],[140.58134000706315,37.203570718170056],[140.58016493834774,37.20431715797894],[140.5766448388394,37.204157359100364],[140.57590689742315,37.203190914493824],[140.57611337811727,37.20083960769492],[140.5775692319951,37.19929299772501],[140.57915424116922,37.19950155634173],[140.5802008365753,37.198861814066596],[140.5810595451261,37.19677108380128],[140.5827673745225,37.195308561463605],[140.58337850953689,37.194176782953264],[140.58292187931895,37.19300261713693],[140.58424254878474,37.19264720118453],[140.58484144161903,37.19320447428978],[140.5865049397228,37.19348592247879],[140.58774487857323,37.19409992732045],[140.5891435024871,37.19357626367298],[140.59005658212436,37.193709118758065],[140.59133135938848,37.19310526226407],[140.59200176910917,37.19357531167498],[140.59121229845482,37.19422239297459],[140.58915394740285,37.19498457611541],[140.58903274445498,37.19589925628067],[140.59024723834918,37.19834627930484],[140.5931635115908,37.19863539502753],[140.5955397038228,37.19824927828165],[140.59768316893027,37.19829854270562],[140.5980468311182,37.19715166224141],[140.60083940783568,37.19645087409688],[140.6031040519864,37.19433253940886],[140.6053209705427,37.19452071350904],[140.60560494236458,37.195418688833676],[140.60522610055668,37.19839842908876],[140.6065391426272,37.20024794524097],[140.60644210769652,37.201156711244295],[140.60764990693156,37.202010065746386],[140.6069832789886,37.20382139765216],[140.60824274654095,37.20424019390618]]]},"properties":{"KEY_CODE":"075030100","PREF":"07","CITY":"503","CITY_NAME":"平田村","S_NAME":"大字東山","SETAI":"48"}},{"type":"Feature","geometry":{"type":"Polygon","coordinates":[[[140.6053209705427,37.19452071350904],[140.6031040519864,37.19433253940886],[140.60083940783568,37.19645087409688],[140.5980468311182,37.19715166224141],[140.59768316893027,37.19829854270562],[140.5955397038228,37.19824927828165],[140.5931635115908,37.19863539502753],[140.59024723834918,37.19834627930484],[140.58903274445498,37.19589925628067],[140.58915394740285,37.19498457611541],[140.59121229845482,37.19422239297459],[140.59200176910917,37.19357531167498],[140.59133135938848,37.19310526226407],[140.59005658212436,37.193709118758065],[140.5891435024871,37.19357626367298],[140.58774487857323,37.19409992732045],[140.5865049397228,37.19348592247879],[140.58484144161903,37.19320447428978],[140.58424254878474,37.19264720118453],[140.58292187931895,37.19300261713693],[140.58337850953689,37.194176782953264],[140.5827673745225,37.195308561463605],[140.5810595451261,37.19677108380128],[140.5802008365753,37.198861814066596],[140.57915424116922,37.19950155634173],[140.5775692319951,37.19929299772501],[140.57611337811727,37.20083960769492],[140.57576381483332,37.200211174273505],[140.57652992547395,37.19883052575155],[140.57773679240884,37.197760938382274],[140.5787539923869,37.19891132454047],[140.57932923882095,37.198531642988385],[140.5794053784436,37.19707660801802],[140.5809234748093,37.19655511547022],[140.57986236952715,37.196093232002994],[140.57970222650403,37.195255522533174],[140.5780677686784,37.193883463700395],[140.57598721780954,37.19424357157175],[140.574464252383,37.19390603674545],[140.57314805135,37.190841238203674],[140.57348321853704,37.189696164008716],[140.574905289753,37.189606323766874],[140.57155685483875,37.187437969867304],[140.5700738219601,37.18586941656021],[140.568533070033,37.18571930584703],[140.56812425600123,37.18510965005655],[140.57108192515324,37.183718107322605],[140.57274318026592,37.18569948651394],[140.57531178792627,37.18566570898424],[140.5790091038012,37.18631933807496],[140.58061481671714,37.18680835660203],[140.58182515594038,37.18702487330291],[140.58188508084115,37.187978528629785],[140.583854805868,37.18884267730245],[140.58478144189314,37.18821082906904],[140.58596570220334,37.189634500589115],[140.58714245563476,37.18994521836865],[140.58785461473408,37.18928485872877],[140.5884075980249,37.18733680334203],[140.5874376017244,37.18673741928885],[140.58486759383973,37.18713812142366],[140.58278439727948,37.18712821545495],[140.58378934471878,37.186426471732595],[140.58480219502556,37.18489959398076],[140.5856847891644,37.18491567553029],[140.58693413860286,37.18423472953766],[140.58836461410215,37.18411749093881],[140.58975084270338,37.183173056828146],[140.59057831723703,37.18308132180793],[140.58928966391457,37.18139534805906],[140.59035252207724,37.18047120385712],[140.59090239354373,37.17895483190296],[140.592612886941,37.17852057946577],[140.59249364340693,37.1767251258152],[140.59194578664673,37.176354466261515],[140.59191971497,37.1747772134739],[140.5910741363482,37.17438585624273],[140.5909563325526,37.173284661190976],[140.59185253652703,37.171623292450036],[140.59165882275792,37.17065542570139],[140.58880889486412,37.16866654636543],[140.5883860025868,37.16741731554573],[140.58496866742212,37.1665842320667],[140.58408564961982,37.16588919912648],[140.5828873784013,37.16596132244041],[140.58155356373285,37.16544595037826],[140.58170805288293,37.165153518332126],[140.58176532618782,37.16494913663756],[140.5810555096022,37.16373208805247],[140.5813119671683,37.16353095803906],[140.5821158899748,37.163292513231546],[140.58211536146092,37.162766061329016],[140.58209211223996,37.1622905114921],[140.58204206372085,37.162246262360185],[140.58193807609993,37.16206605986661],[140.58279891957272,37.161553885897355],[140.5830178948565,37.1614509857982],[140.58317302256356,37.160850474895426],[140.58337012353022,37.16073278822043],[140.58338771638728,37.160626090256976],[140.5831817157123,37.160065454439206],[140.5833549152574,37.159638720964665],[140.58312333048843,37.159016435010656],[140.5832544777312,37.15882052757725],[140.58346502252928,37.158434950084654],[140.5837424963997,37.158084363338205],[140.5847649911516,37.15795082329462],[140.58543303451276,37.15851190884692],[140.58609596523155,37.15849433119815],[140.58653426300472,37.15746666149882],[140.5864285185151,37.15686139579794],[140.58656627597975,37.15658856620677],[140.58735558608785,37.15642980081403],[140.58827101196846,37.15630578179228],[140.58842759431124,37.15644072980721],[140.58862726622644,37.156451286011155],[140.5890698521607,37.156353923845536],[140.5897259705552,37.15618423481943],[140.5914477385801,37.15575056992187],[140.59168363985745,37.15568992788736],[140.59251344185904,37.15587970453143],[140.59266270087278,37.15602060661621],[140.59276899572015,37.15666725748621],[140.59307955076247,37.15742207300927],[140.59366844975742,37.15790892092332],[140.59577409878577,37.157425426442295],[140.59642445533194,37.15740942042124],[140.59710653599933,37.15761792146855],[140.59861736419933,37.15777629970459],[140.5993012412707,37.15759518109748],[140.5995628679618,37.15741678647826],[140.60051130657106,37.15767951427623],[140.60104470712696,37.157796375699704],[140.60163626503697,37.15781028617962],[140.60238083211456,37.157569057353214],[140.60288270366576,37.15739529374458],[140.60395892907476,37.15770764060192],[140.60467141640936,37.157478222342434],[140.60513090994414,37.15733253171933],[140.606510532733,37.157570088208956],[140.6068441284401,37.15761135056452],[140.60715653297518,37.15786050042793],[140.60740578917847,37.15798904270453],[140.60788033698137,37.158181306176225],[140.61008822300937,37.15795756634178],[140.61048507300538,37.15785316649069],[140.612606599193,37.15782833227183],[140.61314362421297,37.1584074304414],[140.61318918083865,37.15979506303202],[140.61422965467492,37.160788242673625],[140.61355348711444,37.16195914110691],[140.6121331494525,37.16291668462469],[140.61237009354699,37.16356462726005],[140.6116736244407,37.16455260337908],[140.61163956260097,37.16584478507931],[140.60900492789597,37.16726629890533],[140.60869282919157,37.16786898213705],[140.60959435989636,37.16957341731339],[140.60924471058013,37.171054565534426],[140.60943351397094,37.17219026392461],[140.60838043027383,37.17290824939964],[140.60707809880185,37.17247156245541],[140.60558162388534,37.17294982692493],[140.60569134197024,37.17408252574484],[140.60312825787304,37.17544909739338],[140.60195530868043,37.17695437148993],[140.60129497429622,37.17938873040236],[140.6031896200013,37.180900899137214],[140.60455774990814,37.181660741949536],[140.6049828037087,37.18449416253759],[140.60603814750823,37.18447897327743],[140.60732979957783,37.18598549662217],[140.60716015518824,37.18757168640166],[140.60811684149732,37.18819661959633],[140.60737681121617,37.190246522827884],[140.60794979539583,37.19107051581966],[140.6076192615164,37.192697041993355],[140.60653514271024,37.19299022358312],[140.6053209705427,37.19452071350904]]]},"properties":{"KEY_CODE":"07503011001","PREF":"07","CITY":"503","CITY_NAME":"平田村","S_NAME":"大字北方字羽貫田","SETAI":"116"}},{"type":"Feature","geometry":{"type":"Polygon","coordinates":[[[140.57576381483332,37.200211174273505],[140.5747963322549,37.19967783884305],[140.57385036961486,37.19977836267451],[140.57294254548182,37.19925140022427],[140.57256408530628,37.20042953827641],[140.5711125358853,37.2012561719799],[140.56875968915608,37.20016243952049],[140.56740503942083,37.199075021451264],[140.56606374867087,37.19673809545917],[140.56479379672436,37.19584907147488],[140.56468533735352,37.19520124004215],[140.56343453585762,37.19349700483506],[140.56207822214046,37.19404628946988],[140.56092647581096,37.19333487289022],[140.55983506122607,37.19333297377357],[140.55990569512144,37.191215797169306],[140.5590798680865,37.18989510440273],[140.55846849686273,37.18973635746261],[140.55650639297167,37.190432588151495],[140.5556639517437,37.19016822704861],[140.5552049664311,37.18916178296823],[140.55306235591533,37.1888754458267],[140.5527473552189,37.185768976108605],[140.5513430301452,37.184139852783034],[140.5502480812067,37.18344050544003],[140.54703997287731,37.18201319910078],[140.54752520075124,37.18074253831141],[140.54941635090688,37.17912823779744],[140.55228995331078,37.18039319465682],[140.55278616863384,37.18112811194817],[140.554410005114,37.18150538733865],[140.55517598089685,37.18230159378104],[140.55624542265818,37.184520543606034],[140.56098079248764,37.18577091414731],[140.56209307382736,37.18558358779302],[140.56322032595105,37.18460768928657],[140.56432860302777,37.18443177134534],[140.56705503529915,37.18299838603511],[140.56699835361474,37.18414215438876],[140.56622984437718,37.184844975074945],[140.568533070033,37.18571930584703],[140.5700738219601,37.18586941656021],[140.57155685483875,37.187437969867304],[140.574905289753,37.189606323766874],[140.57348321853704,37.189696164008716],[140.57314805135,37.190841238203674],[140.574464252383,37.19390603674545],[140.57598721780954,37.19424357157175],[140.5780677686784,37.193883463700395],[140.57970222650403,37.195255522533174],[140.57986236952715,37.196093232002994],[140.5809234748093,37.19655511547022],[140.5794053784436,37.19707660801802],[140.57932923882095,37.198531642988385],[140.5787539923869,37.19891132454047],[140.57773679240884,37.197760938382274],[140.57652992547395,37.19883052575155],[140.57576381483332,37.200211174273505]]]},"properties":{"KEY_CODE":"07503011002","PREF":"07","CITY":"503","CITY_NAME":"平田村","S_NAME":"大字北方字橋本","SETAI":"145"}},{"type":"Feature","geometry":{"type":"Polygon","coordinates":[[[140.58155356373285,37.16544595037826],[140.5828873784013,37.16596132244041],[140.58408564961982,37.16588919912648],[140.58496866742212,37.1665842320667],[140.5883860025868,37.16741731554573],[140.58880889486412,37.16866654636543],[140.59165882275792,37.17065542570139],[140.59185253652703,37.171623292450036],[140.5909563325526,37.173284661190976],[140.5910741363482,37.17438585624273],[140.59191971497,37.1747772134739],[140.59194578664673,37.176354466261515],[140.59249364340693,37.1767251258152],[140.592612886941,37.17852057946577],[140.59090239354373,37.17895483190296],[140.59035252207724,37.18047120385712],[140.58928966391457,37.18139534805906],[140.59057831723703,37.18308132180793],[140.58975084270338,37.183173056828146],[140.58836461410215,37.18411749093881],[140.58693413860286,37.18423472953766],[140.5856847891644,37.18491567553029],[140.58480219502556,37.18489959398076],[140.58378934471878,37.186426471732595],[140.58278439727948,37.18712821545495],[140.58486759383973,37.18713812142366],[140.5874376017244,37.18673741928885],[140.5884075980249,37.18733680334203],[140.58785461473408,37.18928485872877],[140.58714245563476,37.18994521836865],[140.58596570220334,37.189634500589115],[140.58478144189314,37.18821082906904],[140.583854805868,37.18884267730245],[140.58188508084115,37.187978528629785],[140.58182515594038,37.18702487330291],[140.58061481671714,37.18680835660203],[140.58049945927857,37.186049347302784],[140.57850461338163,37.18515121921446],[140.5775864866839,37.18552235128792],[140.5747357030052,37.18483621495776],[140.5727138784899,37.18500469374298],[140.57165341671632,37.182499612222855],[140.57354082233607,37.180330207352746],[140.57464136591594,37.18025448744483],[140.5757575860388,37.17902152043353],[140.57699667110984,37.1790254499937],[140.57770456877859,37.178380034490495],[140.57926378768812,37.17797108817837],[140.58044816888258,37.17686239356077],[140.58175000903083,37.176221945624384],[140.5823944262824,37.175052503877204],[140.58199888390465,37.17411693598966],[140.57660591897346,37.17198476970311],[140.5761465093347,37.17298062158779],[140.57314078450733,37.174659881552905],[140.57276647768307,37.17554762282518],[140.57339350212223,37.176161610803106],[140.57401821207142,37.178311995504245],[140.57186335752678,37.1781103523099],[140.57020020798524,37.17738135204046],[140.56864897945908,37.177512406122],[140.56844981427037,37.176189638723805],[140.5674535616065,37.174846880810435],[140.56471777211155,37.176278785532695],[140.56305036896578,37.17581462103848],[140.56244084381962,37.173960594850314],[140.55988155438763,37.17438177801437],[140.5595450109816,37.17327152331128],[140.5605930323143,37.17191527240311],[140.5613727917051,37.17186487654143],[140.561340238368,37.17094826372276],[140.56061015147642,37.16916395152323],[140.55957204332412,37.1698110113046],[140.56018510520863,37.170626570910116],[140.55875562763387,37.170464661130076],[140.55762862893386,37.1710424075075],[140.55536607128607,37.17166943099895],[140.55382415116844,37.171452387617045],[140.55244303591795,37.17017539858593],[140.5532302414831,37.169131036588176],[140.55442900132314,37.16666216226487],[140.55629509021327,37.166197586412935],[140.55597921931502,37.164533000853545],[140.55689072160004,37.162600746153174],[140.55798705401187,37.16208007590433],[140.56029137552838,37.16177714826813],[140.5621756965317,37.16224298118433],[140.5626947335407,37.1624819711103],[140.56321779770286,37.164067475894036],[140.56333170315528,37.164793514425654],[140.5646674676391,37.167499639989266],[140.56528115328345,37.168308064667606],[140.56569098009174,37.16830553879124],[140.56739621008762,37.16773934720332],[140.56812468148988,37.167521108430165],[140.56904549077757,37.166916939046224],[140.57015257050332,37.16715232363438],[140.5716830353003,37.16694330520462],[140.57383203183159,37.165503977967525],[140.5749604756858,37.16499216739938],[140.57552516079687,37.16533775608197],[140.5764747249982,37.16540658593203],[140.57751419382345,37.165108056486375],[140.57854987760527,37.165329521406946],[140.57953957784778,37.16631356142614],[140.580084704439,37.16647402749566],[140.5805283902872,37.16629312523063],[140.58155356373285,37.16544595037826]]]},"properties":{"KEY_CODE":"075030120","PREF":"07","CITY":"503","CITY_NAME":"平田村","S_NAME":"大字駒形","SETAI":"86"}},{"type":"Feature","geometry":{"type":"Polygon","coordinates":[[[140.55536607128607,37.17166943099895],[140.554332786378,37.17300358448317],[140.55318250977646,37.173564887600165],[140.55103860408406,37.175330109396064],[140.5499409044698,37.17563818789318],[140.5492263183,37.1748950646888],[140.54814771283262,37.1722171483613],[140.54679300100798,37.17172749478978],[140.5465332981576,37.17282651614799],[140.54564844796684,37.173248731966936],[140.54484578214408,37.174437950629375],[140.54280086466653,37.17554159299773],[140.54056693966086,37.17730013582807],[140.53864019732478,37.17983046973595],[140.53620267399577,37.18068449035295],[140.53512191322125,37.180712773476635],[140.53442625740064,37.180043172898785],[140.53231115443631,37.17910247875095],[140.53160224403004,37.177646981243235],[140.53311431188646,37.17622482616153],[140.53245175446924,37.175493943396944],[140.53331332314633,37.17371796155195],[140.5332798622266,37.17269889763394],[140.5325446983183,37.17122240715022],[140.53084870897192,37.170525597895086],[140.52935297833318,37.17042916619432],[140.52980729191069,37.1692689873557],[140.53077099537614,37.169053555895125],[140.53136909660685,37.167418588304834],[140.53027978615773,37.16730782007364],[140.52855145702722,37.166431365086495],[140.52775018236107,37.16641851023863],[140.5282813268582,37.164643217436385],[140.5299270962103,37.16387616438848],[140.530420399348,37.16211016526831],[140.5319173198959,37.161678286330094],[140.53220110589464,37.16074930674175],[140.53498945882004,37.1606389234696],[140.53756094948457,37.160211045980226],[140.5389173936472,37.159222192188196],[140.54190080929985,37.157950141466515],[140.54352985565203,37.15799421396708],[140.54490919311732,37.157959009603154],[140.54636420725964,37.15810095577753],[140.54647418929747,37.1583479656022],[140.54671119140573,37.15921845258266],[140.54853053453655,37.159455045446876],[140.54979114184138,37.157531437434194],[140.5502339363367,37.157388811986095],[140.5510704637854,37.15759904721872],[140.55216425445207,37.15868504931793],[140.55323684302908,37.1582371465272],[140.55401767960814,37.15825395652019],[140.55473736624367,37.15891698362559],[140.55492802582518,37.15950521883034],[140.55545982153123,37.15951810972687],[140.55671623545422,37.15859012601612],[140.5572865483317,37.15840903279706],[140.55791371389034,37.15924487552365],[140.5591174775166,37.159851066889296],[140.56019517602397,37.16103677537041],[140.56029137552838,37.16177714826813],[140.55798705401187,37.16208007590433],[140.55689072160004,37.162600746153174],[140.55597921931502,37.164533000853545],[140.55629509021327,37.166197586412935],[140.55442900132314,37.16666216226487],[140.5532302414831,37.169131036588176],[140.55244303591795,37.17017539858593],[140.55382415116844,37.171452387617045],[140.55536607128607,37.17166943099895]]]},"properties":{"KEY_CODE":"07503013001","PREF":"07","CITY":"503","CITY_NAME":"平田村","S_NAME":"大字中倉字暮坪","SETAI":"63"}},{"type":"Feature","geometry":{"type":"Polygon","coordinates":[[[140.5377783012256,37.1901528015561],[140.5366168141179,37.18993918994424],[140.53539086734767,37.19228562884557],[140.5344844801301,37.19271069231631],[140.5346227480006,37.19391453000425],[140.53365242830083,37.19501606508137],[140.53297620041025,37.19750157987618],[140.53185432934475,37.19840476780733],[140.5294506163192,37.197911008953994],[140.52855094251203,37.1993415663463],[140.5268427161437,37.19941096037896],[140.52553146012056,37.200664104454894],[140.5231411162163,37.2022094744274],[140.52102776699866,37.20236309615336],[140.51939267357977,37.20287085501537],[140.51880313445045,37.202534093290744],[140.5145857559641,37.202647235979555],[140.51177117545396,37.20190375982108],[140.51044328707795,37.20176843748245],[140.50861164373083,37.20069937646343],[140.50714052590513,37.20149734704962],[140.5034897468554,37.20022972771389],[140.50290237319638,37.2003621601526],[140.5011514514483,37.19970971671794],[140.49896016918348,37.19853411610726],[140.4980476181865,37.198314943283506],[140.49957667665893,37.197671920687725],[140.50034718231777,37.195759899879896],[140.49783846665537,37.19463294914728],[140.49712512483163,37.1939523747171],[140.49563934330754,37.19349378777949],[140.49674327840432,37.19182124755544],[140.49707449721754,37.19025158617975],[140.49882023266005,37.188110938364574],[140.50048891302762,37.18830657390376],[140.50291214937826,37.18765186589066],[140.50421469213566,37.18688222098908],[140.50511070742078,37.18528048553199],[140.50483713104896,37.18477670467515],[140.50627976603406,37.18372619626093],[140.5060476393445,37.18300563408437],[140.50689781663172,37.18215193372673],[140.50645449660485,37.18184841911497],[140.50801785933132,37.18038480806602],[140.5093848407021,37.18017435558319],[140.51007152807435,37.179621824292624],[140.50967054991668,37.17839985552535],[140.51098334250042,37.178198922532026],[140.5122018313768,37.177553867998014],[140.51211276400542,37.17607893104704],[140.51390121021367,37.175164982697645],[140.51483277403628,37.17509030501707],[140.51614502790554,37.174686565881956],[140.5175589956601,37.17542475066981],[140.5191057753086,37.17488875577342],[140.52157799559177,37.17559776268964],[140.52274379926467,37.175229381677646],[140.52459470870602,37.1755994583077],[140.52557825103455,37.176712901657815],[140.52597184913967,37.17523439609778],[140.52572476245973,37.17410274070824],[140.52449319397653,37.173720434084636],[140.52415114700415,37.17300609600483],[140.5255046127019,37.17275036429555],[140.52605773071147,37.17196000527961],[140.52733706252454,37.171987973895575],[140.52800822515934,37.1710689986381],[140.52935297833318,37.17042916619432],[140.53084870897192,37.170525597895086],[140.5325446983183,37.17122240715022],[140.5332798622266,37.17269889763394],[140.53331332314633,37.17371796155195],[140.53245175446924,37.175493943396944],[140.53311431188646,37.17622482616153],[140.53160224403004,37.177646981243235],[140.53231115443631,37.17910247875095],[140.53442625740064,37.180043172898785],[140.53512191322125,37.180712773476635],[140.53442580446793,37.18407796706382],[140.53635349816216,37.18436732040569],[140.53799150130502,37.18612982441688],[140.5376954609333,37.18678712729221],[140.5381662640885,37.18906059572223],[140.5377783012256,37.1901528015561]]]},"properties":{"KEY_CODE":"07503013002","PREF":"07","CITY":"503","CITY_NAME":"平田村","S_NAME":"大字中倉字小種石","SETAI":"78"}}]}