{"type":"FeatureCollection","features":[{"type":"Feature","geometry":{"type":"Polygon","coordinates":[[[140.4681996928547,37.16232092923087],[140.46727184872037,37.16247767363399],[140.4651341059345,37.16193805832151],[140.46278906130124,37.16082040058158],[140.46265565090172,37.164823536691756],[140.46320676818544,37.16621642662434],[140.46400408039656,37.16698468481346],[140.45951216585993,37.16755308406991],[140.45841255807625,37.16724603075705],[140.45795854676106,37.16613604264422],[140.45805445689206,37.16452197841469],[140.45860841509958,37.16377922933775],[140.45777627813746,37.162905943155764],[140.45782877678326,37.1616705772727],[140.45732699885218,37.159715193292065],[140.45469784979767,37.15789613908142],[140.45451077667676,37.15645864176044],[140.45375959655792,37.156256723413534],[140.4536948885855,37.15462561882446],[140.4524105445362,37.154229638598046],[140.45250437768414,37.153484319867005],[140.45147833105608,37.15240783602699],[140.45254123330741,37.151690131624434],[140.453660988092,37.15178608151144],[140.45403727366676,37.15241313514931],[140.45587326493398,37.15213677486738],[140.454778844224,37.15116641801867],[140.45403045640285,37.14979929924982],[140.45300881193987,37.1487844739829],[140.45399232145508,37.14840523126666],[140.4557395549818,37.14887810901027],[140.45790363248454,37.14849911417574],[140.45825840632313,37.14926213967361],[140.46068838507952,37.151105542782545],[140.46365401623112,37.151948129064394],[140.46495769483246,37.15289179451525],[140.46669555577938,37.15514763553538],[140.46774997411063,37.155764826351714],[140.4669427418336,37.158262981712014],[140.46773883736589,37.158981169003965],[140.4682019136818,37.16033296982514],[140.4681996928547,37.16232092923087]]]},"properties":{"KEY_CODE":"075010010","PREF":"07","CITY":"501","CITY_NAME":"石川町","S_NAME":"字屋敷ノ入","SETAI":"453"}},{"type":"Feature","geometry":{"type":"Polygon","coordinates":[[[140.45790363248454,37.14849911417574],[140.4557395549818,37.14887810901027],[140.45399232145508,37.14840523126666],[140.45300881193987,37.1487844739829],[140.45314684356495,37.147437709248436],[140.45430291870895,37.14753008517456],[140.45803342802392,37.14694682049191],[140.45790363248454,37.14849911417574]]]},"properties":{"KEY_CODE":"075010020","PREF":"07","CITY":"501","CITY_NAME":"石川町","S_NAME":"字新町","SETAI":"84"}},{"type":"Feature","geometry":{"type":"Polygon","coordinates":[[[140.45300881193987,37.1487844739829],[140.45403045640285,37.14979929924982],[140.454778844224,37.15116641801867],[140.45587326493398,37.15213677486738],[140.45403727366676,37.15241313514931],[140.453660988092,37.15178608151144],[140.45254123330741,37.151690131624434],[140.45147833105608,37.15240783602699],[140.45120173921342,37.15181608736122],[140.4493613804034,37.1521893402535],[140.4489250435314,37.15191767873866],[140.4484219705151,37.149717405730534],[140.44931827386222,37.14783871323948],[140.44733952524032,37.148923972610845],[140.44680997760713,37.14963542622498],[140.44675089533203,37.151002613984154],[140.4462107964953,37.15109122207803],[140.4451727228617,37.14948547233186],[140.4453195678009,37.148565786808206],[140.44555564144844,37.14748942216721],[140.44429624363147,37.14556335602969],[140.44580262358582,37.14535756618513],[140.44777453894497,37.14606489528567],[140.448562687683,37.14637120498971],[140.45043410628816,37.145599060413595],[140.45284306937853,37.1459608297575],[140.45314684356495,37.147437709248436],[140.45300881193987,37.1487844739829]]]},"properties":{"KEY_CODE":"075010030","PREF":"07","CITY":"501","CITY_NAME":"石川町","S_NAME":"字矢ノ目田","SETAI":"242"}},{"type":"Feature","geometry":{"type":"Polygon","coordinates":[[[140.45803342802392,37.14694682049191],[140.45430291870895,37.14753008517456],[140.45314684356495,37.147437709248436],[140.45284306937853,37.1459608297575],[140.45319494204435,37.14515868711992],[140.4567046115899,37.14440941752977],[140.45696889709373,37.143419758031435],[140.45540187175567,37.14259170091937],[140.4569276737484,37.14254905952146],[140.4585125445024,37.14112315150971],[140.4598415908774,37.14122737506282],[140.46127224669178,37.14065759988716],[140.46308762543487,37.14052090624264],[140.46448518924427,37.139798921629634],[140.46478270686126,37.13905102827782],[140.46510963452457,37.139133978416204],[140.46617867630047,37.14228318491058],[140.46724684525077,37.14253359728249],[140.46733230421552,37.146186817138414],[140.46213597117057,37.1470673586377],[140.45803342802392,37.14694682049191]]]},"properties":{"KEY_CODE":"075010040","PREF":"07","CITY":"501","CITY_NAME":"石川町","S_NAME":"字南町","SETAI":"91"}},{"type":"Feature","geometry":{"type":"Polygon","coordinates":[[[140.45284306937853,37.1459608297575],[140.45043410628816,37.145599060413595],[140.448562687683,37.14637120498971],[140.44777453894497,37.14606489528567],[140.4481988992324,37.14547063437046],[140.4477686486634,37.14465354895507],[140.44797804201337,37.14221895707561],[140.45073155722068,37.1418518950673],[140.45176534027402,37.14202251250531],[140.4536466479557,37.142981677922776],[140.45540187175567,37.14259170091937],[140.45696889709373,37.143419758031435],[140.4567046115899,37.14440941752977],[140.45319494204435,37.14515868711992],[140.45284306937853,37.1459608297575]]]},"properties":{"KEY_CODE":"075010050","PREF":"07","CITY":"501","CITY_NAME":"石川町","S_NAME":"字下泉","SETAI":"179"}},{"type":"Feature","geometry":{"type":"Polygon","coordinates":[[[140.45540187175567,37.14259170091937],[140.4536466479557,37.142981677922776],[140.45176534027402,37.14202251250531],[140.45073155722068,37.1418518950673],[140.44797804201337,37.14221895707561],[140.44640804423105,37.141793553019504],[140.44498500633253,37.14036860285648],[140.44518265648762,37.13920415815014],[140.44547452616644,37.138377569407275],[140.44363400253735,37.13524431200942],[140.4424523763586,37.13478692705466],[140.44162709451112,37.13476024421285],[140.43985360464657,37.13285068395226],[140.43897566464832,37.13189278362119],[140.4377163105845,37.13034812239885],[140.4375773903647,37.130056242593724],[140.4367184404276,37.12774175013648],[140.43730524335555,37.12887320433822],[140.43772517565492,37.128752944076965],[140.4384617270389,37.128749204717934],[140.43940837875823,37.12713864396892],[140.43959227467997,37.126569867388035],[140.4400983907643,37.12623057101163],[140.44143586361065,37.126163419486176],[140.44362150785253,37.12703744557596],[140.44506608685217,37.1288538057416],[140.44623338513816,37.13188829922786],[140.44740737818339,37.13273210059662],[140.4503322002571,37.13242266183397],[140.45069238763477,37.13240867953906],[140.45221681806814,37.132956404314605],[140.45277735435002,37.13311863828822],[140.4533703002026,37.13311554213515],[140.4537573528186,37.13317645734008],[140.45447153904118,37.134223788343654],[140.45490475019702,37.13487623723724],[140.45528181758982,37.13539979591445],[140.45555047903164,37.13567421362147],[140.4565481506126,37.1361798689603],[140.45980913246112,37.1370305890792],[140.46133819324683,37.13677026160461],[140.46178775663665,37.13576489457273],[140.46365068090427,37.1347542807557],[140.4636705003413,37.135322934286705],[140.46456562678847,37.135796046886526],[140.46416810356192,37.13640930134925],[140.46478270686126,37.13905102827782],[140.46448518924427,37.139798921629634],[140.46308762543487,37.14052090624264],[140.46127224669178,37.14065759988716],[140.4598415908774,37.14122737506282],[140.4585125445024,37.14112315150971],[140.4569276737484,37.14254905952146],[140.45540187175567,37.14259170091937]]]},"properties":{"KEY_CODE":"075010060","PREF":"07","CITY":"501","CITY_NAME":"石川町","S_NAME":"字大室","SETAI":"232"}},{"type":"Feature","geometry":{"type":"Polygon","coordinates":[[[140.4453195678009,37.148565786808206],[140.4442648512381,37.147583856503395],[140.44264676458334,37.1486642891519],[140.4402131139498,37.148068421988846],[140.43918146997342,37.1480887528113],[140.43766602992397,37.14702815080096],[140.43524912933245,37.14719030343683],[140.43323051535958,37.14473629510246],[140.43248653276598,37.1453795693576],[140.43220963481144,37.144287580091174],[140.43121664953213,37.144224297008904],[140.4332171568286,37.141981394928656],[140.43559331073652,37.141498960775586],[140.43624346052468,37.14039425538292],[140.4372111586926,37.14093719545004],[140.4381611319297,37.140072711510314],[140.4396214785566,37.13958831279855],[140.4418024541071,37.139372092470786],[140.44390134217144,37.13881439520033],[140.4440885537596,37.13942978346034],[140.44518265648762,37.13920415815014],[140.44498500633253,37.14036860285648],[140.44640804423105,37.141793553019504],[140.44797804201337,37.14221895707561],[140.4477686486634,37.14465354895507],[140.4481988992324,37.14547063437046],[140.44777453894497,37.14606489528567],[140.44580262358582,37.14535756618513],[140.44429624363147,37.14556335602969],[140.44555564144844,37.14748942216721],[140.4453195678009,37.148565786808206]]]},"properties":{"KEY_CODE":"075010070","PREF":"07","CITY":"501","CITY_NAME":"石川町","S_NAME":"字当町","SETAI":"160"}},{"type":"Feature","geometry":{"type":"Polygon","coordinates":[[[140.43248653276598,37.1453795693576],[140.43160485802494,37.1454259046598],[140.4314249184371,37.14662995221662],[140.42959026240112,37.146560968548584],[140.4288612694686,37.14525511101788],[140.42931224275796,37.14402936226602],[140.428890901671,37.14297624747212],[140.42762670608923,37.14314077323634],[140.42717178369568,37.14179340487306],[140.42557425099528,37.139664805514116],[140.42537790976175,37.13894143355824],[140.42741724692712,37.137716351826235],[140.4278210980621,37.13602880658347],[140.42503245764686,37.13460924040892],[140.4234100983643,37.1328227409478],[140.42590937131578,37.130953130875994],[140.42749574495932,37.128323346049875],[140.42900820303117,37.12762612492146],[140.4307720350876,37.12791371048756],[140.4315138410054,37.12678287777973],[140.43286246701078,37.126718273820096],[140.43454616847043,37.12773963810331],[140.4367184404276,37.12774175013648],[140.4375773903647,37.130056242593724],[140.4377163105845,37.13034812239885],[140.43897566464832,37.13189278362119],[140.43985360464657,37.13285068395226],[140.44162709451118,37.13476024421285],[140.4424523763586,37.13478692705466],[140.44363400253735,37.13524431200942],[140.44547452616644,37.138377569407275],[140.44518265648762,37.13920415815014],[140.4440885537596,37.13942978346034],[140.44390134217144,37.13881439520033],[140.4418024541071,37.139372092470786],[140.4396214785566,37.13958831279855],[140.4381611319297,37.140072711510314],[140.4372111586926,37.14093719545004],[140.43624346052468,37.14039425538292],[140.43559331073652,37.141498960775586],[140.4332171568286,37.141981394928656],[140.43121664953213,37.144224297008904],[140.43220963481144,37.144287580091174],[140.43248653276598,37.1453795693576]]]},"properties":{"KEY_CODE":"075010080","PREF":"07","CITY":"501","CITY_NAME":"石川町","S_NAME":"字松木下","SETAI":"152"}},{"type":"Feature","geometry":{"type":"Polygon","coordinates":[[[140.42293668464464,37.165230374091266],[140.42247807010844,37.16586956599651],[140.42109545945948,37.165804754150585],[140.4204806523682,37.16513519193399],[140.41821635978613,37.16442089852844],[140.41771611715572,37.16328372047376],[140.41624679854823,37.16343907161636],[140.41600976090118,37.16432291592571],[140.41656020800164,37.165601922729465],[140.415961013589,37.16732186390085],[140.41285987719635,37.16964350709438],[140.41308694197997,37.17016836207709],[140.40959808336635,37.171763113675816],[140.4095756254683,37.17170774735469],[140.40937939201442,37.17126615929177],[140.40886311355354,37.168532754055185],[140.40898227419018,37.16794897817111],[140.41039932056432,37.166918895655996],[140.41211510792678,37.16615922563422],[140.4135072865582,37.165119371211105],[140.41362282714883,37.1632602344092],[140.41453616770093,37.16225734323219],[140.414336277581,37.16118077400758],[140.41268411944856,37.16095153314461],[140.40909761928646,37.161171675341166],[140.40770019802181,37.1598932941137],[140.40790647935637,37.15897293561479],[140.4094102007507,37.15716648759826],[140.41034743090694,37.15524901151821],[140.41110702544114,37.15435059616533],[140.41357934353675,37.152976704747175],[140.41411436664558,37.15118725927264],[140.4136920255149,37.149706554666025],[140.41291109312468,37.14901333829945],[140.4106934746466,37.14793674772381],[140.4094775478215,37.14692438815989],[140.4083312503944,37.1453136284545],[140.4087544148317,37.14447620732705],[140.4115276075877,37.14305401396786],[140.41296516607508,37.14275047421868],[140.41616484865736,37.140955358805634],[140.418344507099,37.14033172564096],[140.4209646263619,37.140328634501],[140.4221343298461,37.13936391180203],[140.42537790976175,37.13894143355824],[140.42557425099528,37.139664805514116],[140.42717178369568,37.14179340487306],[140.42762670608923,37.14314077323634],[140.428890901671,37.14297624747212],[140.42931224275796,37.14402936226602],[140.4288612694686,37.14525511101788],[140.42959026240112,37.146560968548584],[140.4314249184371,37.14662995221662],[140.43160485802494,37.1454259046598],[140.43248653276598,37.1453795693576],[140.43323051535958,37.14473629510246],[140.43524912933245,37.14719030343683],[140.43766602992397,37.14702815080096],[140.43918146997342,37.1480887528113],[140.43822614023455,37.14847012158614],[140.4374887867418,37.15069049395258],[140.4367457792997,37.15173028107161],[140.43528518417145,37.152038865796946],[140.4338671456403,37.15106417513612],[140.43288216673415,37.15246364219019],[140.4318259442055,37.1529538877873],[140.43039121756928,37.15511451905744],[140.4293806547744,37.155673789310725],[140.43091661914008,37.156313608914154],[140.4306417484747,37.15727792860687],[140.42952301923376,37.15760851986169],[140.42818899534316,37.1574288643622],[140.425792140763,37.15780045661909],[140.42487503998566,37.158290230530476],[140.4257154882398,37.15908318047584],[140.42625599031837,37.16035712233396],[140.4248659468273,37.16085439609988],[140.42516667175724,37.16169671593001],[140.42433951325452,37.162373656520515],[140.4250804823968,37.16413180692301],[140.42293668464464,37.165230374091266]]]},"properties":{"KEY_CODE":"075010090","PREF":"07","CITY":"501","CITY_NAME":"石川町","S_NAME":"字下ノ内","SETAI":"141"}},{"type":"Feature","geometry":{"type":"Polygon","coordinates":[[[140.45633115028056,37.17035704535511],[140.45570839241657,37.16954318350069],[140.45302004877826,37.16996503400016],[140.45243595545932,37.169173624848746],[140.45056197055254,37.16888779262193],[140.44949391395673,37.16967394686708],[140.45025972926265,37.171817098717064],[140.45006410214526,37.173059484972605],[140.45039917234112,37.17488828987584],[140.44750777247407,37.175841741254274],[140.4453147893053,37.174195650549045],[140.44768891865098,37.17222512062281],[140.447609265285,37.1712159956066],[140.44547020357135,37.169874602879865],[140.44557387025162,37.16894710906728],[140.44515065912918,37.16542731284661],[140.44391116347379,37.163429052702924],[140.44364658971134,37.162131459768744],[140.44169644389987,37.163005287607064],[140.43989912782794,37.163432176534315],[140.43715677311687,37.16306931267076],[140.43557900791194,37.16345418716862],[140.43413724000263,37.16464549101029],[140.43261164385143,37.16517459073709],[140.4309364749613,37.16641096160274],[140.42927367455863,37.169226962866446],[140.42805458894122,37.17079406613113],[140.42666298181123,37.17002951612029],[140.42545492229434,37.16860811052645],[140.42438732960227,37.16590449425493],[140.42293668464464,37.165230374091266],[140.4250804823968,37.16413180692301],[140.42433951325452,37.162373656520515],[140.42516667175724,37.16169671593001],[140.4248659468273,37.16085439609988],[140.42625599031837,37.16035712233396],[140.4257154882398,37.15908318047584],[140.42487503998566,37.158290230530476],[140.425792140763,37.15780045661909],[140.42818899534316,37.1574288643622],[140.42952301923376,37.15760851986169],[140.4306417484747,37.15727792860687],[140.43091661914008,37.156313608914154],[140.4293806547744,37.155673789310725],[140.43039121756928,37.15511451905744],[140.4318259442055,37.1529538877873],[140.43288216673415,37.15246364219019],[140.4338671456403,37.15106417513612],[140.43528518417145,37.152038865796946],[140.4367457792997,37.15173028107161],[140.4374887867418,37.15069049395258],[140.43822614023455,37.14847012158614],[140.43918146997342,37.1480887528113],[140.4402131139498,37.148068421988846],[140.44264676458334,37.1486642891519],[140.4442648512381,37.147583856503395],[140.4453195678009,37.148565786808206],[140.4451727228617,37.14948547233186],[140.4462107964953,37.15109122207803],[140.44675089533203,37.151002613984154],[140.44680997760713,37.14963542622498],[140.44733952524032,37.148923972610845],[140.44931827386222,37.14783871323948],[140.4484219705151,37.149717405730534],[140.4489250435314,37.15191767873866],[140.4493613804034,37.1521893402535],[140.45120173921342,37.15181608736122],[140.45147833105608,37.15240783602699],[140.45250437768414,37.153484319867005],[140.4524105445362,37.154229638598046],[140.4536948885855,37.15462561882446],[140.45375959655792,37.156256723413534],[140.45451077667676,37.15645864176044],[140.45469784979767,37.15789613908142],[140.45732699885218,37.159715193292065],[140.45782877678326,37.1616705772727],[140.45777627813746,37.162905943155764],[140.45860841509958,37.16377922933775],[140.45805445689206,37.16452197841469],[140.45795854676106,37.16613604264422],[140.45841255807625,37.16724603075705],[140.45951216585993,37.16755308406991],[140.45983013844437,37.168038147292584],[140.4571066750945,37.16903514651714],[140.45711373130527,37.17027274168723],[140.45633115028056,37.17035704535511]]]},"properties":{"KEY_CODE":"075010100","PREF":"07","CITY":"501","CITY_NAME":"石川町","S_NAME":"字弥吾","SETAI":"290"}},{"type":"Feature","geometry":{"type":"Polygon","coordinates":[[[140.40790647935637,37.15897293561479],[140.40596014613408,37.15898925057808],[140.40462439367255,37.15944273697246],[140.40338640381415,37.158406768291165],[140.40196919821344,37.153927087627864],[140.4012730218994,37.15050488108646],[140.40002987069315,37.15010433470357],[140.39747611258483,37.148039835796595],[140.39701883312966,37.147082662102534],[140.3944525117067,37.14889286994642],[140.39237821145036,37.14752549827587],[140.39163094008396,37.14662655697952],[140.39014919309136,37.14619296134953],[140.38934171847646,37.142544173806485],[140.38907844284108,37.14018024763134],[140.38752952290596,37.13565394915934],[140.38682996388908,37.13430145344544],[140.38700535326421,37.13306032326729],[140.38634803928525,37.13089922105947],[140.3872127288682,37.12692671987639],[140.38736897280216,37.12540893579038],[140.38917050747156,37.124007621732744],[140.39022582403643,37.12260141467676],[140.391567526785,37.12181062481293],[140.3940669675061,37.121835559051],[140.39593448262573,37.12144231218753],[140.39848733808086,37.121947121248134],[140.3997620267529,37.12196751224922],[140.39984832503615,37.12196280687681],[140.40343538394833,37.12161615024286],[140.40395980020054,37.121591735198194],[140.40419065063065,37.121349574171084],[140.40429665546208,37.12088505595406],[140.40469145317445,37.119922965138905],[140.40576446656158,37.12057160148155],[140.4078101286184,37.11810263563353],[140.40859829957915,37.11674389576632],[140.40866861094938,37.11866160602311],[140.40936004792033,37.11938562664937],[140.4128052502692,37.11996838221662],[140.41553964366068,37.1194373491623],[140.4161367122615,37.119356978215976],[140.41719957722913,37.119651446612764],[140.4174354397655,37.12122563152365],[140.41718552804687,37.1222011998428],[140.4159258906788,37.123718669191426],[140.41810083487573,37.125177506541654],[140.4189684269544,37.12646225491438],[140.4204147894308,37.12757982314124],[140.42138818190162,37.131058899286224],[140.4234100983643,37.1328227409478],[140.42503245764686,37.13460924040892],[140.4278210980621,37.13602880658347],[140.42741724692712,37.137716351826235],[140.42537790976175,37.13894143355824],[140.4221343298461,37.13936391180203],[140.4209646263619,37.140328634501],[140.418344507099,37.14033172564096],[140.41616484865736,37.140955358805634],[140.41296516607508,37.14275047421868],[140.4115276075877,37.14305401396786],[140.4087544148317,37.14447620732705],[140.4083312503944,37.1453136284545],[140.4094775478215,37.14692438815989],[140.4106934746466,37.14793674772381],[140.41291109312468,37.14901333829945],[140.4136920255149,37.149706554666025],[140.41411436664558,37.15118725927264],[140.41357934353675,37.152976704747175],[140.41110702544114,37.15435059616533],[140.41034743090694,37.15524901151821],[140.4094102007507,37.15716648759826],[140.40790647935637,37.15897293561479]]]},"properties":{"KEY_CODE":"075010110","PREF":"07","CITY":"501","CITY_NAME":"石川町","S_NAME":"大字沢井","SETAI":"325"}},{"type":"Feature","geometry":{"type":"Polygon","coordinates":[[[140.38934171847646,37.142544173806485],[140.38686052670948,37.144016590101664],[140.38396879188534,37.14368693352475],[140.38611028162745,37.146148296738616],[140.38833608338132,37.15161273863018],[140.38848313914934,37.153000277832966],[140.38997503879378,37.1551832277048],[140.39092502011798,37.155924796863445],[140.3935611685212,37.15684770123363],[140.39409454415966,37.15773229668026],[140.3933800416665,37.158404833898885],[140.39378066444718,37.15895854014653],[140.39493764143475,37.158818384022844],[140.3959001165112,37.159559149165084],[140.3939918614622,37.15923238469661],[140.39142687581898,37.15915888803788],[140.39011093827398,37.158771892583005],[140.3886557323382,37.15756853769376],[140.38787118727754,37.156457841143514],[140.38783115458673,37.1563659440453],[140.38833567850818,37.15565591560191],[140.38909177529342,37.15453525402361],[140.38746492522944,37.15435948309794],[140.38565471702236,37.15500231566894],[140.38500784848276,37.154538010883684],[140.38385178787016,37.153681898811435],[140.38317841393962,37.15247484561424],[140.3827721812081,37.151439451173886],[140.38239810409542,37.150257542972334],[140.38101375052122,37.14778699067672],[140.37906980457763,37.14544875963396],[140.37807505075216,37.144575668622714],[140.37635324013,37.14366262200075],[140.37376552394127,37.1424476270102],[140.37212139798217,37.14135133410394],[140.3711946742373,37.140677394385854],[140.3702130666483,37.13987388140227],[140.36968472935968,37.13933032990504],[140.36891952531224,37.138459013930294],[140.36820393918754,37.13707009714962],[140.3682631741534,37.13466664977214],[140.3688656617942,37.13219977323197],[140.36857586210175,37.12887925538377],[140.36788280906666,37.12726734486234],[140.3671134507039,37.12644172286659],[140.3693589555494,37.12404117700318],[140.36898891162096,37.12362369184076],[140.3699526233864,37.1224466584918],[140.37096514958256,37.12253265754529],[140.37295674834073,37.122739352957225],[140.37428075101647,37.12295076532284],[140.37574641138877,37.12315208021265],[140.37592372055957,37.1231797079189],[140.37753617235606,37.12359652561245],[140.38345019131748,37.12570487358357],[140.3872127288682,37.12692671987639],[140.38634803928525,37.13089922105947],[140.38700535326421,37.13306032326729],[140.38682996388908,37.13430145344544],[140.38752952290596,37.13565394915934],[140.38907844284108,37.14018024763134],[140.38934171847646,37.142544173806485]]]},"properties":{"KEY_CODE":"075010120","PREF":"07","CITY":"501","CITY_NAME":"石川町","S_NAME":"大字赤羽","SETAI":"120"}},{"type":"Feature","geometry":{"type":"Polygon","coordinates":[[[140.40790647935637,37.15897293561479],[140.40770019802181,37.1598932941137],[140.40909761928646,37.161171675341166],[140.41268411944856,37.16095153314461],[140.414336277581,37.16118077400758],[140.41453616770093,37.16225734323219],[140.41362282714883,37.1632602344092],[140.4135072865582,37.165119371211105],[140.41211510792678,37.16615922563422],[140.41039932056432,37.166918895655996],[140.40898227419018,37.16794897817111],[140.40886311355354,37.168532754055185],[140.40937939201442,37.17126615929177],[140.40890043013994,37.17076413243849],[140.4063424864647,37.169355979727804],[140.40446426889477,37.169297109786676],[140.40382458303236,37.16798644702403],[140.40479223644724,37.166413124005786],[140.40507632562833,37.164687786603245],[140.40459903817364,37.1629899165985],[140.40468223519315,37.16147224409817],[140.40410260702123,37.16103066777076],[140.40198428993435,37.160695250330186],[140.39990402233923,37.15967004030927],[140.3991940517405,37.1588538991545],[140.3977507973429,37.159889330297304],[140.3959001165112,37.159559149165084],[140.39493764143475,37.158818384022844],[140.39378066444718,37.15895854014653],[140.3933800416665,37.158404833898885],[140.39409454415966,37.15773229668026],[140.3935611685212,37.15684770123363],[140.39092502011798,37.155924796863445],[140.38997503879378,37.1551832277048],[140.38848313914934,37.153000277832966],[140.38833608338132,37.15161273863018],[140.38611028162745,37.146148296738616],[140.38396879188534,37.14368693352475],[140.38686052670948,37.144016590101664],[140.38934171847646,37.142544173806485],[140.39014919309136,37.14619296134953],[140.39163094008396,37.14662655697952],[140.39237821145036,37.14752549827587],[140.3944525117067,37.14889286994642],[140.39701883312966,37.147082662102534],[140.39747611258483,37.148039835796595],[140.40002987069315,37.15010433470357],[140.4012730218994,37.15050488108646],[140.40196919821344,37.153927087627864],[140.40338640381415,37.158406768291165],[140.40462439367255,37.15944273697246],[140.40596014613408,37.15898925057808],[140.40790647935637,37.15897293561479]]]},"properties":{"KEY_CODE":"075010130","PREF":"07","CITY":"501","CITY_NAME":"石川町","S_NAME":"大字新屋敷","SETAI":"73"}},{"type":"Feature","geometry":{"type":"Polygon","coordinates":[[[140.4636705003413,37.135322934286705],[140.46365068090427,37.1347542807557],[140.46178775663665,37.13576489457273],[140.46133819324683,37.13677026160461],[140.45980913246112,37.1370305890792],[140.4565481506126,37.1361798689603],[140.45555047903164,37.13567421362147],[140.45528181758982,37.13539979591445],[140.45490475019702,37.13487623723724],[140.45447153904118,37.134223788343654],[140.4537573528186,37.13317645734008],[140.4533703002026,37.13311554213515],[140.45277735435002,37.13311863828822],[140.45221681806814,37.132956404314605],[140.45069238763477,37.13240867953906],[140.4503322002571,37.13242266183397],[140.44740737818339,37.13273210059662],[140.44623338513816,37.13188829922786],[140.44506608685217,37.1288538057416],[140.44362150785253,37.12703744557596],[140.44143586361065,37.126163419486176],[140.4400983907643,37.12623057101163],[140.43959227467997,37.126569867388035],[140.43940837875823,37.12713864396892],[140.4384617270389,37.12874920471794],[140.43772517565492,37.128752944076965],[140.43730524335555,37.12887320433822],[140.4367184404276,37.12774175013648],[140.43454616847043,37.12773963810331],[140.43286246701078,37.126718273820096],[140.4315138410054,37.12678287777973],[140.4307720350876,37.12791371048756],[140.42900820303117,37.12762612492146],[140.42749574495932,37.128323346049875],[140.42590937131578,37.130953130875994],[140.4234100983643,37.1328227409478],[140.42138818190162,37.131058899286224],[140.4204147894308,37.12757982314124],[140.4189684269544,37.12646225491438],[140.41810083487573,37.125177506541654],[140.4159258906788,37.123718669191426],[140.41718552804687,37.1222011998428],[140.4174354397655,37.12122563152365],[140.41855233468746,37.12108362390479],[140.41886431430626,37.12103343692064],[140.41923128428272,37.120983050251404],[140.41930050140508,37.120952578333814],[140.41933762236812,37.120892342571956],[140.42015800432696,37.120561913019074],[140.42058149228734,37.120714840103226],[140.42069131163123,37.12070507476871],[140.42120676187577,37.12059150093776],[140.4219786311819,37.12053670708187],[140.422283381679,37.12067177321652],[140.42256566656155,37.12051760633964],[140.4229299115986,37.12011775587905],[140.423007579533,37.12006647116448],[140.42323327557057,37.12007457333396],[140.42342096693622,37.12003435757877],[140.4235820602978,37.11992007414789],[140.42361468978925,37.119865491129175],[140.42413197321767,37.11962806733303],[140.42574234593008,37.11825612451517],[140.42611690101543,37.11818899548935],[140.4268782210537,37.118374641072],[140.42716631143793,37.11842536908771],[140.42770337518976,37.11838142916132],[140.42796512862114,37.11810006869191],[140.42914930753858,37.11619214611405],[140.43014395249145,37.11474374667513],[140.4314458034593,37.11355307591589],[140.43225807040744,37.11307540607982],[140.43296017447378,37.11285242840842],[140.43348218642757,37.1127001934668],[140.43356254723707,37.11269105744768],[140.43567522519507,37.11143337531241],[140.43620858123953,37.111272128182826],[140.43640631398526,37.11122114099427],[140.43686546762385,37.11124725182722],[140.43719550140733,37.11123557777385],[140.43814709304496,37.11105128750952],[140.44008833174053,37.10999931835492],[140.44140554048337,37.10997512519252],[140.44398083849742,37.10954809777055],[140.44455658133063,37.10920622585871],[140.4448206571094,37.10902780789272],[140.44552017627677,37.10848563624038],[140.44623820114384,37.107928580004724],[140.44740254315255,37.1078727148508],[140.44890565246186,37.10850057768104],[140.44945508154436,37.10866232307985],[140.45005399184203,37.10877382430689],[140.45153461438733,37.10777901989017],[140.45238159372508,37.10737817269989],[140.45410455059454,37.107657039780754],[140.454151070359,37.11069509959438],[140.45495328572957,37.111834351824264],[140.4546272354079,37.112383147135425],[140.45570979981665,37.11308873248517],[140.45633222378007,37.11417548026513],[140.45700815867875,37.11430815232555],[140.45827645132474,37.117493376699535],[140.46784906092216,37.116607045659734],[140.46842446677005,37.11653582021106],[140.46952357826905,37.11605712065306],[140.46965639221457,37.1160703471765],[140.46996777003295,37.1161749123446],[140.47011592939532,37.116220227970274],[140.47039007813396,37.116361036909275],[140.47056970156913,37.11657845540031],[140.4702341859898,37.11717612745715],[140.47021912371693,37.11778608731374],[140.4703441456603,37.11825892967057],[140.4694373738708,37.11973094399472],[140.4693569723994,37.11976720891396],[140.46898496108292,37.119783635511716],[140.46863976259218,37.119789074608356],[140.46789045991008,37.119721276787274],[140.46735673410166,37.12050620648668],[140.4670397828142,37.120672918775284],[140.46687605496527,37.12120109102827],[140.46628281212222,37.12183560591812],[140.46603391463748,37.122098823573815],[140.4659501912075,37.122275059413205],[140.46561329749028,37.12300866620662],[140.4653920478817,37.12363042298119],[140.46508734913616,37.12418806562358],[140.46516728154234,37.124901498331674],[140.46530783398265,37.12508731068365],[140.4658862318825,37.12535681751168],[140.46676058875497,37.12615928904084],[140.4668932439315,37.126477846525624],[140.4668757344636,37.12679720367736],[140.46673526210554,37.1271530521718],[140.46738923689546,37.12719545959555],[140.46830219934574,37.12617294326543],[140.47070501667625,37.125349961421186],[140.47134642543185,37.12642983218971],[140.4711250898148,37.12762339061992],[140.4695471095031,37.127925714426006],[140.46863702947658,37.128699145688934],[140.46781959294725,37.13272996114617],[140.46695300173417,37.13509769831993],[140.46534170749214,37.13541745956139],[140.4636705003413,37.135322934286705]]]},"properties":{"KEY_CODE":"075010140","PREF":"07","CITY":"501","CITY_NAME":"石川町","S_NAME":"大字山形","SETAI":"151"}},{"type":"Feature","geometry":{"type":"Polygon","coordinates":[[[140.4837149465605,37.12185035011181],[140.4823100992945,37.12196553920991],[140.48112773509567,37.12162323440141],[140.4801694080768,37.122001086239685],[140.4791278917365,37.12163757776658],[140.4794951646059,37.12040238266961],[140.47603728862418,37.121654488568474],[140.4749611531378,37.12249279045929],[140.47362970756973,37.1223959277335],[140.47070501667625,37.125349961421186],[140.46830219934574,37.12617294326543],[140.46738923689546,37.12719545959555],[140.46673526210554,37.1271530521718],[140.4668757344636,37.12679720367736],[140.4668932439315,37.126477846525624],[140.46676058875497,37.12615928904084],[140.4658862318825,37.12535681751168],[140.46530783398265,37.12508731068365],[140.46516728154234,37.124901498331674],[140.46508734913616,37.12418806562358],[140.4653920478817,37.12363042298119],[140.46561329749028,37.12300866620662],[140.4659501912075,37.122275059413205],[140.46603391463748,37.122098823573815],[140.46628281212222,37.12183560591812],[140.46687605496527,37.12120109102827],[140.4670397828142,37.120672918775284],[140.46735673410166,37.12050620648668],[140.46789045991008,37.119721276787274],[140.46863976259218,37.119789074608356],[140.46898496108292,37.119783635511716],[140.4693569723994,37.11976720891396],[140.4694373738708,37.11973094399472],[140.4703441456603,37.11825892967057],[140.47021912371693,37.11778608731374],[140.4702341859898,37.11717612745715],[140.47056970156913,37.11657845540031],[140.47039007813396,37.116361036909275],[140.47011592939532,37.116220227970274],[140.46996777003295,37.1161749123446],[140.46965639221457,37.1160703471765],[140.46952357826905,37.11605712065306],[140.46842446677005,37.11653582021106],[140.46784906092216,37.116607045659734],[140.45827645132474,37.117493376699535],[140.45700815867875,37.11430815232555],[140.45633222378007,37.11417548026513],[140.45570979981665,37.11308873248517],[140.4546272354079,37.112383147135425],[140.45495328572957,37.111834351824264],[140.454151070359,37.11069509959438],[140.45410455059454,37.107657039780754],[140.45427161988624,37.10771227505791],[140.45482158971208,37.10755732814713],[140.45550687799664,37.107573657999],[140.45591304397334,37.10773112685474],[140.45659715724992,37.10836079263402],[140.45787887822704,37.110086551844745],[140.4590802446364,37.11112469223579],[140.45948704752513,37.11135684112979],[140.46028116920826,37.11172168852631],[140.46110582161086,37.1112585268211],[140.46164033169683,37.11037434738784],[140.4617334809833,37.110184403741236],[140.4621409757441,37.109893390148386],[140.46270802814763,37.109035362947274],[140.462816050292,37.10832197889193],[140.46297574597276,37.10776693423922],[140.46268156534398,37.10762642516683],[140.46217449979474,37.107503586691635],[140.46219484722897,37.10746081744899],[140.46258419737973,37.10712476973825],[140.4629343262207,37.10669670556699],[140.46279816535088,37.106335072664656],[140.46241455461768,37.105934483064146],[140.46213725140603,37.10586252251986],[140.4619159717547,37.1055865957666],[140.46184270282978,37.104777019109584],[140.46200505819567,37.10454883503066],[140.46219080137715,37.1044602714613],[140.46250581351566,37.104262041438446],[140.46291459878682,37.10452965153677],[140.46323881356852,37.104960194879574],[140.46342852943005,37.10545234671231],[140.46355672020363,37.105647522035],[140.46376986202407,37.10692980355893],[140.46450850533776,37.107477047287404],[140.46492369289467,37.107559952307234],[140.4651525408835,37.10772896569538],[140.46568245483388,37.107855822190764],[140.46596461016787,37.10790732993494],[140.46691703387293,37.10865737040962],[140.4669547808707,37.10913674144477],[140.46710259373643,37.109659454932356],[140.46713688169686,37.109723407169604],[140.46747890660063,37.110006985292515],[140.47300784880036,37.106080835047294],[140.4775652379747,37.10344264692001],[140.47854640432683,37.10617606055979],[140.48023779236482,37.105550785164446],[140.4815676865088,37.10645762097945],[140.4819294572577,37.10763458004082],[140.48299454633093,37.10853939648847],[140.4820569111641,37.10972014275914],[140.4811468422232,37.1099870711523],[140.48071674879478,37.11105246909452],[140.48032913206544,37.111269021355554],[140.47996449880395,37.111423564898445],[140.47995389786954,37.11196507326603],[140.47992754021462,37.11227680980993],[140.48001646647123,37.112665358167376],[140.47997275051227,37.11288440027261],[140.48019722120654,37.11345785645667],[140.48014531938193,37.113685745433166],[140.48018953479024,37.11417612429843],[140.48031960815683,37.114529037821484],[140.4799615279506,37.11480956186758],[140.4797083907789,37.114928086106524],[140.47966482997887,37.11516036304128],[140.48017287592668,37.115751425986346],[140.48042693425978,37.11659273509326],[140.482399194821,37.11853579310232],[140.48286233370936,37.1208473849772],[140.4837149465605,37.12185035011181]]]},"properties":{"KEY_CODE":"075010150","PREF":"07","CITY":"501","CITY_NAME":"石川町","S_NAME":"大字南山形","SETAI":"63"}},{"type":"Feature","geometry":{"type":"Polygon","coordinates":[[[140.48692127204322,37.122359934456924],[140.48400539980432,37.12230494972302],[140.4837149465605,37.12185035011181],[140.48286233370936,37.1208473849772],[140.482399194821,37.11853579310232],[140.48042693425978,37.11659273509326],[140.48017287592668,37.115751425986346],[140.47966482997887,37.11516036304128],[140.4797083907789,37.114928086106524],[140.4799615279506,37.11480956186758],[140.48031960815683,37.114529037821484],[140.48018953479024,37.11417612429843],[140.48014531938193,37.113685745433166],[140.48019722120654,37.11345785645667],[140.47997275051227,37.11288440027261],[140.48001646647123,37.112665358167376],[140.47992754021462,37.11227680980993],[140.47995389786954,37.11196507326603],[140.47996449880395,37.111423564898445],[140.48032913206544,37.111269021355554],[140.48071674879478,37.11105246909452],[140.4811468422232,37.1099870711523],[140.4820569111641,37.10972014275914],[140.48299454633093,37.10853939648847],[140.4819294572577,37.10763458004082],[140.4815676865088,37.10645762097945],[140.48023779236482,37.105550785164446],[140.47854640432683,37.10617606055979],[140.4775652379747,37.10344264692001],[140.47300784880036,37.106080835047294],[140.46747890660063,37.110006985292515],[140.46713688169686,37.109723407169604],[140.46710259373643,37.109659454932356],[140.4669547808707,37.10913674144477],[140.46691703387293,37.10865737040962],[140.46596461016787,37.10790732993494],[140.46568245483388,37.107855822190764],[140.4651525408835,37.10772896569538],[140.46492369289467,37.107559952307234],[140.46450850533776,37.107477047287404],[140.46376986202407,37.10692980355893],[140.46355672020363,37.105647522035],[140.46342852943005,37.10545234671231],[140.46323881356852,37.104960194879574],[140.46291459878682,37.10452965153677],[140.46261804146127,37.10417464184801],[140.46288307190835,37.10282723561695],[140.46269106622174,37.10125801984429],[140.46201310139503,37.10122134390418],[140.46197116765674,37.099542490043454],[140.46289463706373,37.09831788992975],[140.46227699192295,37.09680077263499],[140.4622165357367,37.09557188218235],[140.46455833688984,37.09482530850861],[140.46595655637174,37.09359352055757],[140.46570178900248,37.0926641052048],[140.46628833311135,37.091502881605045],[140.46512746361483,37.090313090126465],[140.465691180232,37.087648151062034],[140.46552258949228,37.08641604168628],[140.46454050319525,37.08462631209791],[140.46480701151256,37.084073087091454],[140.46429726356735,37.08256223486377],[140.46512637973171,37.08105700318807],[140.4651247447784,37.079058098079784],[140.46576816754057,37.0772293136],[140.46769968320118,37.07830802894226],[140.47006185227337,37.07825278126846],[140.4715111420415,37.07848379692648],[140.4739351754752,37.07819789292299],[140.47526189926063,37.078408142957066],[140.4772599517871,37.076836924605345],[140.47825133065712,37.07766290817516],[140.47977335445577,37.0776887949786],[140.47985077150486,37.079282953385174],[140.4821220252957,37.079180968709935],[140.4846373290761,37.07961912394277],[140.48790075522004,37.07884838667429],[140.48897982256065,37.078970352441694],[140.48970475440717,37.07838525672446],[140.49055780472682,37.07920564220236],[140.49069447290677,37.082543030819615],[140.4911329248797,37.083277212855506],[140.49277788692112,37.08319445755525],[140.49279633659918,37.08478908679961],[140.49355295073258,37.08510169261185],[140.49661445104735,37.08456529807173],[140.4977136814505,37.08548917750201],[140.49868303054362,37.08677606307739],[140.4986990149749,37.08814592191569],[140.4997738687134,37.08955407604954],[140.5001352028173,37.089566981114835],[140.50156115633027,37.0902125332811],[140.5022860580054,37.090895728728846],[140.5050107451758,37.092620735789055],[140.50562315537664,37.09331235963375],[140.50573562064358,37.094487224391976],[140.50602303226302,37.09529550139106],[140.5076603591314,37.09545387341705],[140.50769785522482,37.095970548184454],[140.50743534803402,37.0969870800791],[140.5064229394358,37.097403523594366],[140.50428560762708,37.09889498632376],[140.50274825406075,37.098444965383294],[140.5021357903994,37.09948654082495],[140.50203579205578,37.100053056910276],[140.5014358147566,37.10100289456578],[140.50047335065247,37.10272769418475],[140.50002338014056,37.103794178488535],[140.49856101400988,37.10466905247857],[140.4978360449325,37.10555219017244],[140.4970111203632,37.10590210290226],[140.49676114744497,37.10633540312973],[140.49621117231445,37.10674362529465],[140.4953237003802,37.107893494924085],[140.49527653368426,37.10806405862344],[140.49373217037495,37.110334479344935],[140.49360966494152,37.111713958446266],[140.49411923005277,37.11220759335198],[140.49335469050365,37.11321659629453],[140.49209462053628,37.11404600197778],[140.49155257777358,37.11585745170957],[140.4916124095467,37.11737122640343],[140.49158644483333,37.11747408391891],[140.49116147910559,37.11879940206554],[140.4895659761365,37.120621223933966],[140.48676712164385,37.12157821640917],[140.48692127204322,37.122359934456924]]]},"properties":{"KEY_CODE":"075010160","PREF":"07","CITY":"501","CITY_NAME":"石川町","S_NAME":"大字板橋","SETAI":"142"}},{"type":"Feature","geometry":{"type":"Polygon","coordinates":[[[140.47236378638385,37.14165430990989],[140.4710215860247,37.141213295185125],[140.47143314263883,37.14017275170509],[140.4699746116335,37.140506186983636],[140.46825611924953,37.13895476927516],[140.46739878315861,37.13981168754335],[140.46622158181776,37.1398692229089],[140.46510963452457,37.139133978416204],[140.46478270686126,37.13905102827782],[140.46416810356192,37.13640930134925],[140.46456562678847,37.135796046886526],[140.4636705003413,37.135322934286705],[140.46534170749214,37.13541745956139],[140.46695300173417,37.13509769831993],[140.46781959294725,37.13272996114617],[140.46863702947658,37.128699145688934],[140.4695471095031,37.127925714426006],[140.4711250898148,37.12762339061992],[140.47134642543185,37.12642983218971],[140.47070501667625,37.125349961421186],[140.47362970756973,37.1223959277335],[140.4749611531378,37.12249279045929],[140.47603728862418,37.121654488568474],[140.4794951646059,37.12040238266961],[140.4791278917365,37.12163757776658],[140.4801694080768,37.122001086239685],[140.48112773509567,37.12162323440141],[140.4823100992945,37.12196553920991],[140.4837149465605,37.12185035011181],[140.48400539980432,37.12230494972302],[140.48692127204322,37.122359934456924],[140.48498467612606,37.122994366576535],[140.48379885839836,37.12382312838905],[140.4831995704911,37.12491986116274],[140.48337792810014,37.12647394583597],[140.4829792677197,37.12748446649889],[140.48364438736905,37.1281098451967],[140.48415672838865,37.1310239710232],[140.48354028189956,37.132314534009],[140.4834417234294,37.13357536583593],[140.4839481117615,37.13534334794213],[140.48125858972753,37.13895486361871],[140.47986382133644,37.139833884975836],[140.4733513781807,37.1412643204823],[140.47236378638385,37.14165430990989]]]},"properties":{"KEY_CODE":"075010170","PREF":"07","CITY":"501","CITY_NAME":"石川町","S_NAME":"大字北山形","SETAI":"46"}},{"type":"Feature","geometry":{"type":"Polygon","coordinates":[[[140.48070864076254,37.15275160808857],[140.47609395394284,37.15399876913652],[140.47231829817915,37.15569362586117],[140.4704449778555,37.155393663471635],[140.46774997411063,37.155764826351714],[140.46669555577938,37.15514763553538],[140.46495769483246,37.15289179451525],[140.46365401623112,37.151948129064394],[140.46068838507952,37.151105542782545],[140.45825840632313,37.14926213967361],[140.45790363248454,37.14849911417574],[140.45803342802392,37.14694682049191],[140.46213597117057,37.1470673586377],[140.46733230421552,37.146186817138414],[140.46724684525077,37.14253359728249],[140.46617867630047,37.14228318491058],[140.46510963452457,37.139133978416204],[140.46622158181776,37.1398692229089],[140.46739878315861,37.13981168754335],[140.46825611924953,37.13895476927516],[140.4699746116335,37.140506186983636],[140.47143314263883,37.14017275170509],[140.4710215860247,37.141213295185125],[140.47236378638385,37.14165430990989],[140.47167818063562,37.142339614841575],[140.47182472621327,37.14319693202039],[140.4735880356397,37.14516819755863],[140.47815408078932,37.146698933911864],[140.47850390905748,37.14710091137779],[140.47831028335278,37.14891256545125],[140.47886618167166,37.15015110301521],[140.47941436891887,37.151266692967994],[140.48070864076254,37.15275160808857]]]},"properties":{"KEY_CODE":"075010180","PREF":"07","CITY":"501","CITY_NAME":"石川町","S_NAME":"大字双里","SETAI":"535"}},{"type":"Feature","geometry":{"type":"Polygon","coordinates":[[[140.49393636829896,37.14001262444349],[140.49301167949193,37.140721611722526],[140.49288626729955,37.14250515310559],[140.49169423778403,37.14363428717521],[140.48860292283533,37.1432007968064],[140.48813598375648,37.143922505366405],[140.48673511757892,37.144444999852546],[140.48697966423526,37.14536708199102],[140.48927494929055,37.14558340406456],[140.48889985964072,37.14629715101489],[140.48785967910212,37.146312336872334],[140.48775096984957,37.14741018591025],[140.48459481291712,37.14744637014416],[140.48332362030453,37.14809658414298],[140.48281847926523,37.146610193657374],[140.48182779367778,37.146598930901064],[140.4809315857208,37.14739370786534],[140.4800545357845,37.14729739973948],[140.47881190161138,37.148827116573955],[140.47886618167166,37.15015110301521],[140.47831028335278,37.14891256545125],[140.47850390905748,37.14710091137779],[140.47815408078932,37.146698933911864],[140.4735880356397,37.14516819755863],[140.47182472621327,37.14319693202039],[140.47167818063562,37.142339614841575],[140.47236378638385,37.14165430990989],[140.4733513781807,37.1412643204823],[140.47986382133644,37.139833884975836],[140.48125858972753,37.13895486361871],[140.4839481117615,37.13534334794213],[140.48716008535317,37.13665042322319],[140.48879346903365,37.13784137983473],[140.49027628685994,37.13826522435984],[140.49182657558922,37.13929466749617],[140.49393636829896,37.14001262444349]]]},"properties":{"KEY_CODE":"075010190","PREF":"07","CITY":"501","CITY_NAME":"石川町","S_NAME":"大字形見","SETAI":"82"}},{"type":"Feature","geometry":{"type":"Polygon","coordinates":[[[140.50042879490107,37.12408796363939],[140.50017250829066,37.12493581232731],[140.50184671484382,37.125366683424765],[140.5020002643555,37.125761675573116],[140.49995109543966,37.12640361305218],[140.50292821424506,37.12729495441026],[140.50475941258054,37.12744386269346],[140.50029444203065,37.12825213052159],[140.50041351629105,37.12905816208591],[140.49970243926896,37.130451333405404],[140.49977680014595,37.1316992271988],[140.49821185759822,37.13248505770956],[140.49812457040338,37.133102309425055],[140.49865183811522,37.13610615981302],[140.49778873883503,37.13728129157329],[140.4954949916998,37.13799343521344],[140.49511049489055,37.13907443017265],[140.4939867003665,37.1394440871227],[140.49393636829896,37.14001262444349],[140.49182657558922,37.13929466749617],[140.49027628685994,37.13826522435984],[140.48879346903365,37.13784137983473],[140.48716008535317,37.13665042322319],[140.4839481117615,37.13534334794213],[140.4834417234294,37.13357536583593],[140.48354028189956,37.132314534009],[140.48415672838865,37.1310239710232],[140.48364438736905,37.1281098451967],[140.4829792677197,37.12748446649889],[140.48337792810014,37.12647394583597],[140.4831995704911,37.12491986116274],[140.48379885839836,37.12382312838905],[140.48498467612606,37.122994366576535],[140.48692127204322,37.122359934456924],[140.48676712164385,37.12157821640917],[140.4895659761365,37.120621223933966],[140.49116147910559,37.11879940206554],[140.49632962691499,37.12192745694738],[140.50042879490107,37.12408796363939]]]},"properties":{"KEY_CODE":"075010200","PREF":"07","CITY":"501","CITY_NAME":"石川町","S_NAME":"大字谷沢","SETAI":"95"}},{"type":"Feature","geometry":{"type":"Polygon","coordinates":[[[140.52790709352357,37.13301662850826],[140.52785705899942,37.133833202913266],[140.52665866995986,37.13465557882391],[140.52649465817512,37.134908003968036],[140.52487714210645,37.13429053599631],[140.52388040602287,37.134709302844215],[140.52331304131857,37.131503378796104],[140.52095997670068,37.12993452784032],[140.52049515252466,37.12902568576631],[140.51816772418894,37.12837961966081],[140.51672427888101,37.1255986409012],[140.51687455948152,37.12448244179848],[140.5150511458431,37.12288295951245],[140.5153461543959,37.12210955091361],[140.51419364893667,37.12078793909409],[140.51259338737339,37.12011915885713],[140.51051199720087,37.1206776916122],[140.50869249376848,37.11915010519666],[140.50759463335635,37.11946017988036],[140.50527587059014,37.11931201925161],[140.50437688898495,37.12063800216725],[140.5047616527752,37.12164049719342],[140.50431932665848,37.12225082009661],[140.50485514367517,37.123288434857216],[140.50626614557103,37.124910405009715],[140.50418675756234,37.124081595593694],[140.50430019672112,37.12339160656295],[140.50268256244894,37.12275150577755],[140.50256688405415,37.1235037388977],[140.50142369237597,37.123403373767026],[140.50042879490107,37.12408796363939],[140.49632962691499,37.12192745694738],[140.49116147910559,37.11879940206554],[140.49158644483333,37.11747408391891],[140.49293464994471,37.11733229579395],[140.49414070940983,37.11747985329375],[140.49672556027215,37.11878422008727],[140.49907615875742,37.11975049608046],[140.49967949169397,37.119638911508254],[140.49991209084246,37.11958192159365],[140.50009034515742,37.11938788472355],[140.500296581193,37.11912166943058],[140.50063185512872,37.11794755239107],[140.50053498593923,37.11774316014544],[140.500550162061,37.117584322054604],[140.5005188395926,37.11718560887302],[140.50443915108053,37.11730372430443],[140.50566050123666,37.11713730091093],[140.50754807742274,37.1163772820284],[140.5100086255017,37.11494355724487],[140.51185925753632,37.115210028061675],[140.51380910662184,37.1147352270641],[140.5143715509676,37.114726935417],[140.51513393684152,37.11600172315],[140.5161462970292,37.11661845270345],[140.51684622929406,37.116901798562594],[140.51734613966872,37.117235007560716],[140.51832097961616,37.119409728184536],[140.5211956721677,37.12047642038141],[140.52369544190026,37.120626426596026],[140.52434530265117,37.12150136780946],[140.52493272548915,37.123251238298614],[140.5265325118051,37.12410943158344],[140.52719493302217,37.12450936717557],[140.52726987364264,37.12570085770453],[140.52800729809348,37.12639250688709],[140.52926963059016,37.12720898802449],[140.52966960143297,37.12790063396007],[140.53053192583366,37.129675480746336],[140.53061941385081,37.12983378807537],[140.5309568839924,37.130208723968856],[140.53131932566956,37.130358725270185],[140.53131934494448,37.130633705836765],[140.53094436842073,37.13106696808695],[140.52986943621565,37.13173349481285],[140.52949447907915,37.131825173341824],[140.52790709352357,37.13301662850826]]]},"properties":{"KEY_CODE":"075010210","PREF":"07","CITY":"501","CITY_NAME":"石川町","S_NAME":"大字坂路","SETAI":"51"}},{"type":"Feature","geometry":{"type":"Polygon","coordinates":[[[140.50443915108053,37.11730372430443],[140.5005188395926,37.11718560887302],[140.500550162061,37.117584322054604],[140.50053498593923,37.11774316014544],[140.50063185512872,37.11794755239107],[140.500296581193,37.11912166943058],[140.50009034515742,37.11938788472355],[140.49991209084246,37.11958192159365],[140.49967949169397,37.119638911508254],[140.49907615875742,37.11975049608046],[140.49672556027215,37.11878422008727],[140.49414070940983,37.11747985329375],[140.49293464994471,37.11733229579395],[140.4916124095467,37.11737122640343],[140.49155257777358,37.11585745170957],[140.49209462053628,37.11404600197778],[140.49335469050365,37.11321659629453],[140.49411923005286,37.11220759335198],[140.49612161424025,37.111198665388784],[140.49723590457475,37.1114180897948],[140.4988107653404,37.11117655602848],[140.49962313935845,37.11145995361378],[140.5021478891339,37.11161004718099],[140.50391021510188,37.11120188241563],[140.50724735948796,37.1119519571801],[140.5078847664805,37.112910081972174],[140.5091846215129,37.11316853991537],[140.50983452744552,37.113768520772076],[140.5100086255017,37.11494355724487],[140.50754807742274,37.1163772820284],[140.50566050123666,37.11713730091093],[140.50443915108053,37.11730372430443]]]},"properties":{"KEY_CODE":"075010220","PREF":"07","CITY":"501","CITY_NAME":"石川町","S_NAME":"大字谷地","SETAI":"27"}},{"type":"Feature","geometry":{"type":"Polygon","coordinates":[[[140.52935297833318,37.17042916619432],[140.52800822515934,37.1710689986381],[140.52733706252454,37.171987973895575],[140.52605773071147,37.17196000527961],[140.5255046127019,37.17275036429555],[140.52415114700415,37.17300609600483],[140.52449319397653,37.173720434084636],[140.52572476245973,37.17410274070824],[140.52597184913967,37.17523439609778],[140.52557825103455,37.176712901657815],[140.52459470870602,37.1755994583077],[140.52274379926467,37.175229381677646],[140.52157799559177,37.17559776268964],[140.5191057753086,37.17488875577342],[140.5175589956601,37.17542475066981],[140.51614502790554,37.174686565881956],[140.51483277403628,37.17509030501707],[140.51301126693278,37.171292435547656],[140.5132496256907,37.17024464573345],[140.5150345171212,37.16944587799107],[140.51512334032125,37.16889145980547],[140.5143551089072,37.16665305368073],[140.5127134880362,37.1646506211449],[140.5114548639615,37.16243436259504],[140.50863803852982,37.161313584873064],[140.507885862017,37.16300210794793],[140.50679663191696,37.16243980886562],[140.50379868063357,37.16360569823049],[140.503022220312,37.16356974080247],[140.50034589749228,37.16594186391839],[140.4980005434148,37.16621556331847],[140.49707757316185,37.167379089015725],[140.49703268898236,37.168172959085354],[140.49590984563199,37.16800154386179],[140.49568121425244,37.16692731842365],[140.4948077394718,37.166304505193125],[140.49474126079082,37.16548288453701],[140.4936454150319,37.16500337004257],[140.4921140142585,37.16349814284035],[140.49091255649495,37.16398803430765],[140.48693769244258,37.16321166666472],[140.48783396560256,37.16202942762853],[140.48593391020455,37.16206594467121],[140.48669604713677,37.16130136027177],[140.48577117797504,37.16071417759304],[140.4840437640384,37.16049866935295],[140.48467974491652,37.159531053259464],[140.48373710594717,37.1577311059097],[140.48298933556603,37.15723297104572],[140.48246153099973,37.15578844018066],[140.48298720463973,37.15491380168503],[140.48140064171784,37.15417624169921],[140.48070864076254,37.15275160808857],[140.47941436891887,37.151266692967994],[140.47886618167166,37.15015110301521],[140.47881190161138,37.148827116573955],[140.4800545357845,37.14729739973948],[140.4809315857208,37.14739370786534],[140.48182779367778,37.146598930901064],[140.48281847926523,37.146610193657374],[140.48332362030453,37.14809658414298],[140.48459481291712,37.14744637014416],[140.48775096984957,37.14741018591025],[140.48785967910212,37.146312336872334],[140.48889985964072,37.14629715101489],[140.48927494929055,37.14558340406456],[140.48697966423526,37.14536708199102],[140.48673511757892,37.144444999852546],[140.48813598375648,37.143922505366405],[140.48860292283533,37.1432007968064],[140.49169423778403,37.14363428717521],[140.49288626729955,37.14250515310559],[140.49301167949193,37.140721611722526],[140.49393636829896,37.14001262444349],[140.4939867003665,37.1394440871227],[140.49511049489055,37.13907443017265],[140.4954949916998,37.13799343521344],[140.49778873883503,37.13728129157329],[140.49865183811522,37.13610615981302],[140.49812457040338,37.133102309425055],[140.49821185759822,37.13248505770956],[140.49977680014595,37.1316992271988],[140.49970243926896,37.130451333405404],[140.50041351629105,37.12905816208591],[140.50029444203065,37.12825213052159],[140.50475941258054,37.12744386269346],[140.50292821424506,37.12729495441026],[140.49995109543966,37.12640361305218],[140.5020002643555,37.125761675573116],[140.50184671484382,37.125366683424765],[140.50017250829066,37.12493581232731],[140.50042879490107,37.12408796363939],[140.50142369237597,37.123403373767026],[140.50256688405415,37.1235037388977],[140.50268256244894,37.12275150577755],[140.50430019672112,37.12339160656295],[140.50418675756234,37.124081595593694],[140.50626614557103,37.124910405009715],[140.50485514367517,37.123288434857216],[140.50431932665848,37.12225082009661],[140.5047616527752,37.12164049719342],[140.50437688898495,37.12063800216725],[140.50527587059014,37.11931201925161],[140.50759463335635,37.11946017988036],[140.50869249376848,37.11915010519666],[140.51051199720087,37.1206776916122],[140.51259338737339,37.12011915885713],[140.51419364893667,37.12078793909409],[140.5153461543959,37.12210955091361],[140.5150511458431,37.12288295951245],[140.51687455948152,37.12448244179848],[140.51672427888101,37.1255986409012],[140.51816772418894,37.12837961966081],[140.52049515252466,37.12902568576631],[140.52095997670068,37.12993452784032],[140.52331304131857,37.131503378796104],[140.52388040602287,37.134709302844215],[140.52487714210645,37.13429053599631],[140.52649465817512,37.134908003968036],[140.5262446342082,37.13641608333476],[140.52660699778644,37.138215896017066],[140.52649440699574,37.139457401562375],[140.52641933617795,37.14132375975334],[140.52675675724117,37.141748759774735],[140.52804406253404,37.14288198563905],[140.52993140529568,37.142773717763845],[140.53044382465234,37.14366527678247],[140.5312561961222,37.14435689923637],[140.53201863108782,37.144890201522465],[140.532743515785,37.14539858921781],[140.5342308569041,37.14639014120711],[140.5367555511946,37.14783173098528],[140.5373429626001,37.148431581130346],[140.53818041908136,37.14869005707336],[140.5389053541547,37.148840074746396],[140.53929280613627,37.14901504168034],[140.53888027085853,37.15028151924549],[140.53790527584965,37.15175639953747],[140.5390656281099,37.15219325238688],[140.53925660192442,37.153208762749905],[140.53880513187312,37.15388939623197],[140.53773018840147,37.15448931035431],[140.53754267437483,37.155205969825516],[140.53759264804722,37.15615579814192],[140.5388299948796,37.15703910382749],[140.5394299168773,37.15787239270332],[140.53889240191882,37.15884710711826],[140.5389173936472,37.159222192188196],[140.53756094948457,37.160211045980226],[140.53498945882004,37.1606389234696],[140.53220110589464,37.16074930674175],[140.5319173198959,37.161678286330094],[140.530420399348,37.16211016526831],[140.5299270962103,37.16387616438848],[140.5282813268582,37.164643217436385],[140.52775018236107,37.16641851023863],[140.52855145702722,37.166431365086495],[140.53027978615773,37.16730782007364],[140.53136909660685,37.167418588304834],[140.53077099537614,37.169053555895125],[140.52980729191069,37.1692689873557],[140.52935297833318,37.17042916619432]]]},"properties":{"KEY_CODE":"075010230","PREF":"07","CITY":"501","CITY_NAME":"石川町","S_NAME":"大字中田","SETAI":"167"}},{"type":"Feature","geometry":{"type":"Polygon","coordinates":[[[140.49563934330754,37.19349378777949],[140.49391355716523,37.193944819790765],[140.49197172592025,37.19350519735405],[140.4902723278131,37.19394194847735],[140.4901233064642,37.19508621005468],[140.48532416276922,37.19801457602427],[140.48458764116148,37.198064663128726],[140.48393934494817,37.198925836455906],[140.4816112783514,37.200006975505495],[140.47902390724767,37.20225586571602],[140.47626200905847,37.20374926535858],[140.47407226802613,37.20305950892866],[140.47224381403305,37.20322819321383],[140.47105207948553,37.20263973089513],[140.4708589483614,37.20179766153454],[140.46946687553702,37.20101398893873],[140.46709264822883,37.20028173724065],[140.4641376777462,37.200303413771046],[140.4625564196239,37.199347339484575],[140.4605103212686,37.19896267438597],[140.45857701329996,37.199553126073624],[140.459104830965,37.19828285755667],[140.4585858936337,37.19646645680604],[140.45897298990437,37.19412572343805],[140.4586165279245,37.191419172008686],[140.45863217485106,37.18985888017684],[140.4590810243324,37.18932893442294],[140.4582830563083,37.18849819719853],[140.4575935705035,37.186199320333905],[140.4587235805852,37.184280302536926],[140.4572356906279,37.18321213885092],[140.45466474752027,37.181642049112114],[140.45369143938214,37.180312704875995],[140.45321680064635,37.17803421074672],[140.45342727205818,37.176282112357065],[140.45496361486482,37.174782703422174],[140.4552003849814,37.172971113846806],[140.45633115028056,37.17035704535511],[140.45711373130527,37.17027274168723],[140.4571066750945,37.16903514651714],[140.45983013844437,37.168038147292584],[140.45951216585993,37.16755308406991],[140.46400408039656,37.16698468481346],[140.46320676818544,37.16621642662434],[140.46265565090172,37.164823536691756],[140.46278906130124,37.16082040058158],[140.4651341059345,37.16193805832151],[140.46727184872037,37.16247767363399],[140.4681996928547,37.16232092923087],[140.46829975196243,37.16355971046743],[140.46718069886185,37.166203782729696],[140.46766696273306,37.166563602429754],[140.4676354407231,37.16845702969681],[140.4662242189332,37.170042716403024],[140.46576990903208,37.17124842390976],[140.46654678822077,37.171536302898694],[140.46889990001108,37.17375415241242],[140.46930588010702,37.17617354259241],[140.4702530126867,37.177973389707354],[140.4718040788614,37.17876564070105],[140.4729226861847,37.180166698084406],[140.47323713458567,37.18179623994182],[140.4772450855646,37.18414597051197],[140.47612098239094,37.18563455320531],[140.4766599026646,37.18624340805635],[140.47919776490087,37.18603334079653],[140.4814327386039,37.18630556790334],[140.48211161894093,37.18670468507279],[140.48221286499657,37.18768325508747],[140.4854459357365,37.18866492434368],[140.4850449337601,37.1868962854777],[140.48559979239576,37.186362136017515],[140.48729805342717,37.18669239549827],[140.4880042615909,37.18643083462181],[140.48767560795486,37.18479344944301],[140.48903893639732,37.18607790559669],[140.4919719886206,37.185693742122034],[140.49080083696387,37.18702925408851],[140.4895712395416,37.18718728262535],[140.4897385630377,37.18776251220405],[140.49359151965734,37.18750162447416],[140.4953709325643,37.189023331366656],[140.49541145037782,37.189784552947245],[140.49809939732012,37.18849175897663],[140.49815623049,37.18724507827529],[140.49887970181257,37.187557542210456],[140.49956112220403,37.18694335101931],[140.50053695375206,37.1879561345156],[140.50235776658837,37.18707883884259],[140.50291214937826,37.18765186589066],[140.50048891302762,37.18830657390376],[140.49882023266005,37.188110938364574],[140.49707449721754,37.19025158617975],[140.49674327840432,37.19182124755544],[140.49563934330754,37.19349378777949]]]},"properties":{"KEY_CODE":"075010240","PREF":"07","CITY":"501","CITY_NAME":"石川町","S_NAME":"大字母畑","SETAI":"235"}},{"type":"Feature","geometry":{"type":"Polygon","coordinates":[[[140.50291214937826,37.18765186589066],[140.50235776658837,37.18707883884259],[140.50053695375206,37.1879561345156],[140.49956112220403,37.18694335101931],[140.49887970181257,37.187557542210456],[140.49815623049,37.18724507827529],[140.49809939732012,37.18849175897663],[140.49541145037782,37.189784552947245],[140.4953709325643,37.189023331366656],[140.49359151965734,37.18750162447416],[140.4897385630377,37.18776251220405],[140.4895712395416,37.18718728262535],[140.49080083696387,37.18702925408851],[140.4919719886206,37.185693742122034],[140.48903893639732,37.18607790559669],[140.48767560795486,37.18479344944301],[140.4880042615909,37.18643083462181],[140.48729805342717,37.18669239549827],[140.48559979239576,37.186362136017515],[140.4850449337601,37.1868962854777],[140.4854459357365,37.18866492434368],[140.48221286499657,37.18768325508747],[140.48211161894093,37.18670468507279],[140.4814327386039,37.18630556790334],[140.47919776490087,37.18603334079653],[140.4766599026646,37.18624340805635],[140.47612098239094,37.18563455320531],[140.4772450855646,37.18414597051197],[140.47323713458567,37.18179623994182],[140.4729226861847,37.180166698084406],[140.4718040788614,37.17876564070105],[140.4702530126867,37.177973389707354],[140.46930588010702,37.17617354259241],[140.46889990001108,37.17375415241242],[140.46654678822077,37.171536302898694],[140.46576990903208,37.17124842390976],[140.4662242189332,37.170042716403024],[140.4676354407231,37.16845702969681],[140.46998045277448,37.1680781836488],[140.47129400430222,37.168280005130626],[140.47212767427453,37.16929448644092],[140.47396708466897,37.1694476814469],[140.47460228449205,37.1685855839821],[140.4764046381422,37.167069905603185],[140.4782718395412,37.1673676280774],[140.48130736917253,37.169400069984164],[140.48206415948232,37.16938685201712],[140.48326970115093,37.16834044739132],[140.48449722630264,37.16975473562932],[140.48858767184018,37.171456035816895],[140.48920817643835,37.172428140294876],[140.49030159867297,37.17300331404797],[140.49205020164484,37.17324086585037],[140.49314707569596,37.1744441023993],[140.4931688502643,37.17502858229081],[140.49479379585685,37.17593156437188],[140.49481530963243,37.17647936785384],[140.49804088080472,37.17669514726403],[140.50014171723194,37.176125454351315],[140.50181220193048,37.17602926220238],[140.502981304793,37.17711500412109],[140.5071012598446,37.179216728229136],[140.50801785933132,37.18038480806602],[140.50645449660485,37.18184841911497],[140.50689781663172,37.18215193372673],[140.5060476393445,37.18300563408437],[140.50627976603406,37.18372619626093],[140.50483713104896,37.18477670467515],[140.50511070742078,37.18528048553199],[140.50421469213566,37.18688222098908],[140.50291214937826,37.18765186589066]]]},"properties":{"KEY_CODE":"075010250","PREF":"07","CITY":"501","CITY_NAME":"石川町","S_NAME":"大字湯郷渡","SETAI":"84"}},{"type":"Feature","geometry":{"type":"Polygon","coordinates":[[[140.51483277403628,37.17509030501707],[140.51390121021367,37.175164982697645],[140.51211276400542,37.17607893104704],[140.5122018313768,37.177553867998014],[140.51098334250042,37.178198922532026],[140.50967054991668,37.17839985552535],[140.51007152807435,37.179621824292624],[140.5093848407021,37.18017435558319],[140.50801785933132,37.18038480806602],[140.5071012598446,37.179216728229136],[140.502981304793,37.17711500412109],[140.50181220193048,37.17602926220238],[140.50014171723194,37.176125454351315],[140.49804088080472,37.17669514726403],[140.49481530963243,37.17647936785384],[140.49479379585685,37.17593156437188],[140.4931688502643,37.17502858229081],[140.49314707569596,37.1744441023993],[140.49205020164484,37.17324086585037],[140.49030159867297,37.17300331404797],[140.48920817643835,37.172428140294876],[140.48858767184018,37.171456035816895],[140.48449722630264,37.16975473562932],[140.48326970115093,37.16834044739132],[140.48206415948232,37.16938685201712],[140.48130736917253,37.169400069984164],[140.4782718395412,37.1673676280774],[140.4764046381422,37.167069905603185],[140.47460228449205,37.1685855839821],[140.47396708466897,37.1694476814469],[140.47212767427453,37.16929448644092],[140.47129400430222,37.168280005130626],[140.46998045277448,37.1680781836488],[140.4676354407231,37.16845702969681],[140.46766696273306,37.166563602429754],[140.46718069886185,37.166203782729696],[140.46829975196243,37.16355971046743],[140.4681996928547,37.16232092923087],[140.4682019136818,37.16033296982514],[140.46773883736589,37.158981169003965],[140.4669427418336,37.158262981712014],[140.46774997411063,37.155764826351714],[140.4704449778555,37.155393663471635],[140.47231829817915,37.15569362586117],[140.47609395394284,37.15399876913652],[140.48070864076254,37.15275160808857],[140.48140064171784,37.15417624169921],[140.48298720463973,37.15491380168503],[140.48246153099973,37.15578844018066],[140.48298933556603,37.15723297104572],[140.48373710594717,37.1577311059097],[140.48467974491652,37.159531053259464],[140.4840437640384,37.16049866935295],[140.48577117797504,37.16071417759304],[140.48669604713677,37.16130136027177],[140.48593391020455,37.16206594467121],[140.48783396560256,37.16202942762853],[140.48693769244258,37.16321166666472],[140.49091255649495,37.16398803430765],[140.4921140142585,37.16349814284035],[140.4936454150319,37.16500337004257],[140.49474126079082,37.16548288453701],[140.4948077394718,37.166304505193125],[140.49568121425244,37.16692731842365],[140.49590984563199,37.16800154386179],[140.49703268898236,37.168172959085354],[140.49707757316185,37.167379089015725],[140.4980005434148,37.16621556331847],[140.50034589749228,37.16594186391839],[140.503022220312,37.16356974080247],[140.50379868063357,37.16360569823049],[140.50679663191696,37.16243980886562],[140.507885862017,37.16300210794793],[140.50863803852982,37.161313584873064],[140.5114548639615,37.16243436259504],[140.5127134880362,37.1646506211449],[140.5143551089072,37.16665305368073],[140.51512334032125,37.16889145980547],[140.5150345171212,37.16944587799107],[140.5132496256907,37.17024464573345],[140.51301126693278,37.171292435547656],[140.51483277403628,37.17509030501707]]]},"properties":{"KEY_CODE":"075010260","PREF":"07","CITY":"501","CITY_NAME":"石川町","S_NAME":"大字北山","SETAI":"100"}},{"type":"Feature","geometry":{"type":"Polygon","coordinates":[[[140.4308654995666,37.188698510249914],[140.4288438066563,37.190156815458174],[140.42745390187213,37.190430183095906],[140.42379981019033,37.19024780002545],[140.4217512697774,37.18953399099885],[140.42027688558284,37.18953187333836],[140.4197528457741,37.188954512324905],[140.41774305061264,37.18868242234771],[140.41720862612505,37.187519087563864],[140.41777908062792,37.18674201082206],[140.41796987203364,37.185296028033974],[140.41661963540216,37.184356075393076],[140.416397407357,37.18298731388664],[140.41523541311125,37.181786216489236],[140.41544192032262,37.1799526725375],[140.41508755731212,37.17976263880663],[140.40983221361708,37.18231112509865],[140.4075273503568,37.18225852670236],[140.40858575419657,37.18044099838498],[140.4088962730842,37.179347081644465],[140.40881161186837,37.17828352315005],[140.40875348591368,37.177858444206755],[140.40820164807258,37.1765977763896],[140.40808351837725,37.17603260805592],[140.40863281067158,37.174584330543645],[140.40889374504417,37.17422831317803],[140.40934053377694,37.17349017333972],[140.4097553408526,37.17249325234095],[140.40959808336635,37.171763113675816],[140.41308694197997,37.17016836207709],[140.41285987719635,37.16964350709438],[140.415961013589,37.16732186390085],[140.41656020800164,37.165601922729465],[140.41600976090118,37.16432291592571],[140.41624679854823,37.16343907161636],[140.41771611715572,37.16328372047376],[140.41821635978613,37.16442089852844],[140.4204806523682,37.16513519193399],[140.42109545945948,37.165804754150585],[140.42247807010844,37.16586956599651],[140.42293668464464,37.165230374091266],[140.42438732960227,37.16590449425493],[140.42545492229434,37.16860811052645],[140.42666298181123,37.17002951612029],[140.42581008315693,37.170501658983724],[140.4279560199046,37.17166977833989],[140.42822268121108,37.173442391728585],[140.4268960339462,37.17648055002196],[140.42594139378468,37.17771662593576],[140.4267645680745,37.17858484111834],[140.42554135778488,37.17949841803153],[140.42507505155288,37.180677277794274],[140.4252230137723,37.18176155219205],[140.4258365041471,37.181773623709304],[140.4265504284922,37.18411924552483],[140.4282212742393,37.187060503594836],[140.4308654995666,37.188698510249914]]]},"properties":{"KEY_CODE":"075010270","PREF":"07","CITY":"501","CITY_NAME":"石川町","S_NAME":"大字中野","SETAI":"343"}},{"type":"Feature","geometry":{"type":"Polygon","coordinates":[[[140.4586165279245,37.191419172008686],[140.45759005768855,37.19243214569598],[140.45425225861894,37.19307229003785],[140.45340709043558,37.19364568659802],[140.45321042944704,37.19477832706248],[140.45197187739558,37.195424168414995],[140.44979058370433,37.194182266730934],[140.44572179254456,37.19399411888137],[140.44413625105202,37.193693801090866],[140.4406814960194,37.194032566629026],[140.43883092747984,37.1942568899717],[140.43722971462662,37.193080359029615],[140.43381708530956,37.193427300108574],[140.43218723503875,37.19392130468025],[140.43061476351775,37.192999674867714],[140.42995530248916,37.190433813301674],[140.4308654995666,37.188698510249914],[140.4282212742393,37.187060503594836],[140.4265504284922,37.18411924552483],[140.4258365041471,37.181773623709304],[140.4252230137723,37.18176155219205],[140.42507505155288,37.180677277794274],[140.42554135778488,37.17949841803153],[140.4267645680745,37.17858484111834],[140.42991266715688,37.17980985394322],[140.43130046972155,37.18000962934244],[140.43250347908622,37.18102879746393],[140.434048656745,37.181320954446775],[140.43447879315414,37.18089067067829],[140.43662234594885,37.181290428065246],[140.43963140702454,37.17689850597079],[140.4420590844756,37.1767699768345],[140.44275996492942,37.17645056022701],[140.44378959928102,37.177455998941994],[140.44483727091946,37.177503892267374],[140.44563939988728,37.1786322824194],[140.4477443597685,37.17860689055039],[140.44616282870248,37.18207765010226],[140.4454394391613,37.18292724722134],[140.45006326621703,37.18463471753872],[140.45222046464096,37.18433131618053],[140.45334047745058,37.18365736535204],[140.45551700930295,37.18382309256572],[140.4572356906279,37.18321213885092],[140.4587235805852,37.184280302536926],[140.4575935705035,37.186199320333905],[140.4582830563083,37.18849819719853],[140.4590810243324,37.18932893442294],[140.45863217485106,37.18985888017684],[140.4586165279245,37.191419172008686]]]},"properties":{"KEY_CODE":"075010280","PREF":"07","CITY":"501","CITY_NAME":"石川町","S_NAME":"大字曲木","SETAI":"135"}},{"type":"Feature","geometry":{"type":"Polygon","coordinates":[[[140.4572356906279,37.18321213885092],[140.45551700930295,37.18382309256572],[140.45334047745058,37.18365736535204],[140.45222046464096,37.18433131618053],[140.45006326621703,37.18463471753872],[140.4454394391613,37.18292724722134],[140.44616282870248,37.18207765010226],[140.4477443597685,37.17860689055039],[140.44563939988728,37.1786322824194],[140.44483727091946,37.177503892267374],[140.44378959928102,37.177455998941994],[140.44275996492942,37.17645056022701],[140.4420590844756,37.1767699768345],[140.43963140702454,37.17689850597079],[140.43662234594885,37.181290428065246],[140.43447879315414,37.18089067067829],[140.434048656745,37.181320954446775],[140.43250347908622,37.18102879746393],[140.43130046972155,37.18000962934244],[140.42991266715688,37.17980985394322],[140.4267645680745,37.17858484111834],[140.42594139378468,37.17771662593576],[140.4268960339462,37.17648055002196],[140.42822268121108,37.173442391728585],[140.4279560199046,37.17166977833989],[140.42581008315693,37.170501658983724],[140.42666298181123,37.17002951612029],[140.42805458894122,37.17079406613113],[140.42927367455863,37.169226962866446],[140.4309364749613,37.16641096160274],[140.43261164385143,37.16517459073709],[140.43413724000263,37.16464549101029],[140.43557900791194,37.16345418716862],[140.43715677311687,37.16306931267076],[140.43989912782794,37.163432176534315],[140.44169644389987,37.163005287607064],[140.44364658971134,37.162131459768744],[140.44391116347379,37.163429052702924],[140.44515065912918,37.16542731284661],[140.44557387025162,37.16894710906728],[140.44547020357135,37.169874602879865],[140.447609265285,37.1712159956066],[140.44768891865098,37.17222512062281],[140.4453147893053,37.174195650549045],[140.44750777247407,37.175841741254274],[140.45039917234112,37.17488828987584],[140.45006410214526,37.173059484972605],[140.45025972926265,37.171817098717064],[140.44949391395673,37.16967394686708],[140.45056197055254,37.16888779262193],[140.45243595545932,37.169173624848746],[140.45302004877826,37.16996503400016],[140.45570839241657,37.16954318350069],[140.45633115028056,37.17035704535511],[140.4552003849814,37.172971113846806],[140.45496361486482,37.174782703422174],[140.45342727205818,37.176282112357065],[140.45321680064635,37.17803421074672],[140.45369143938214,37.180312704875995],[140.45466474752027,37.181642049112114],[140.4572356906279,37.18321213885092]]]},"properties":{"KEY_CODE":"075010290","PREF":"07","CITY":"501","CITY_NAME":"石川町","S_NAME":"大字塩沢","SETAI":"416"}}]}