{"type":"FeatureCollection","features":[{"type":"Feature","geometry":{"type":"Polygon","coordinates":[[[130.71492751436267,33.69181183800846],[130.71468495181998,33.6929827469759],[130.71379755444056,33.6941002362888],[130.7124825885368,33.693582650593356],[130.71158902937086,33.69376786422035],[130.71166272323242,33.69308135825441],[130.71143843374216,33.69168972000237],[130.71064644594287,33.6883133509792],[130.7103721262103,33.68724809929767],[130.7096236416766,33.686094312340266],[130.71024896823468,33.68621370508784],[130.70997427090077,33.68507188700526],[130.7106053870221,33.68510746737406],[130.7111000712558,33.685928580907756],[130.71242160649945,33.687157526059465],[130.71291335172393,33.68823864118698],[130.71331990780186,33.68815012711651],[130.7137903862909,33.68995992364916],[130.71389329660167,33.69107196564509],[130.71482003320253,33.69170712302191],[130.71492751436267,33.69181183800846]]]},"properties":{"KEY_CODE":"40401001001","PREF":"40","CITY":"401","CITY_NAME":"小竹町","S_NAME":"大字勝野小竹","SETAI":"171"}},{"type":"Feature","geometry":{"type":"Polygon","coordinates":[[[130.71064644594287,33.6883133509792],[130.70935573053063,33.68829763085693],[130.70874360890073,33.688659459240775],[130.7085614639692,33.689187986695586],[130.70798317432627,33.6894028049491],[130.7059359538456,33.68891194703734],[130.705568824632,33.68797861523689],[130.70472155672496,33.6873937406203],[130.70425600238738,33.68652286328013],[130.7046642638099,33.68560851611561],[130.70560248742996,33.68516352191271],[130.70597549122874,33.684255494212714],[130.7047275725865,33.68410669551564],[130.70152945497045,33.68433483817899],[130.70213202942395,33.68370132891699],[130.70173998898372,33.68354914236351],[130.70229405990918,33.68343101097077],[130.70256006049135,33.6828538854466],[130.70207467291317,33.682407098095474],[130.70277261951733,33.68208312665268],[130.70545007177594,33.68237152565287],[130.70636073856954,33.68308171414776],[130.70764450834912,33.683297781256925],[130.7082560771098,33.683840085938996],[130.70939228401247,33.68428500896922],[130.70997427090077,33.68507188700526],[130.71024896823468,33.68621370508784],[130.7096236416766,33.686094312340266],[130.7103721262103,33.68724809929767],[130.71064644594287,33.6883133509792]]]},"properties":{"KEY_CODE":"40401001002","PREF":"40","CITY":"401","CITY_NAME":"小竹町","S_NAME":"大字勝野峰畑","SETAI":"197"}},{"type":"Feature","geometry":{"type":"Polygon","coordinates":[[[130.6975653518875,33.68920155509833],[130.6969545584804,33.689033883841624],[130.69622649692946,33.68927223593949],[130.6935526255746,33.68916546236145],[130.69100718642375,33.690344746003504],[130.68970477033682,33.68958809396859],[130.6895181034254,33.68852274220185],[130.6882912048505,33.687309303778314],[130.6879262372597,33.68653442773442],[130.68715276362755,33.686153706070954],[130.6867805639879,33.68538466415442],[130.68769532052121,33.68424314417893],[130.68818862568557,33.684370973939586],[130.68875067757986,33.68512478077874],[130.6902663182627,33.68491592478214],[130.6893748809024,33.6835586675352],[130.68951455087426,33.68330127097592],[130.69094115980346,33.684840270577006],[130.69131534246128,33.6847574511413],[130.6910810152651,33.68391656167667],[130.6916392673684,33.68472599709195],[130.69271032652242,33.68488011676658],[130.69248290508267,33.683964790515944],[130.69341363645032,33.684620313397645],[130.69478708112393,33.68515273147418],[130.69568905924464,33.685717220940184],[130.6968677313784,33.685802114456344],[130.69852485940632,33.68551954410625],[130.70173998898372,33.68354914236351],[130.70213202942395,33.68370132891699],[130.70152945497045,33.68433483817899],[130.70079798888295,33.685111659249664],[130.69974135438474,33.6857849100763],[130.6980454542978,33.68659986333364],[130.69818305527394,33.68808612518361],[130.6976315910594,33.689079710483576],[130.6975653518875,33.68920155509833]]]},"properties":{"KEY_CODE":"40401001003","PREF":"40","CITY":"401","CITY_NAME":"小竹町","S_NAME":"大字勝野芦北","SETAI":"50"}},{"type":"Feature","geometry":{"type":"Polygon","coordinates":[[[130.71298485950882,33.701095238684104],[130.7125526267724,33.701644387630516],[130.71153092336385,33.702085855211244],[130.71105875017108,33.702773396662735],[130.70958647546405,33.70320301104854],[130.70879919900844,33.7037875165179],[130.707518451829,33.70564776425442],[130.70641736795417,33.70539253498424],[130.70819533884,33.70164898833493],[130.70566828818565,33.70085379836592],[130.7061502392508,33.69981288751009],[130.70660329235056,33.69883438585526],[130.70741830003692,33.69689209761617],[130.70867645534815,33.69424170300364],[130.7075507929302,33.69395754495986],[130.70787779643086,33.693291155179125],[130.70454669528505,33.69116498356929],[130.70553670427887,33.690682073856344],[130.70655533344194,33.69006805816233],[130.7059359538456,33.68891194703734],[130.70798317432627,33.6894028049491],[130.7085614639692,33.689187986695586],[130.70874360890073,33.688659459240775],[130.70935573053063,33.68829763085693],[130.71064644594287,33.6883133509792],[130.71143843374216,33.69168972000237],[130.71166272323242,33.69308135825441],[130.71158902937086,33.69376786422035],[130.7124825885368,33.693582650593356],[130.71379755444056,33.6941002362888],[130.7134305065377,33.6943753800397],[130.71196622151106,33.69666191774653],[130.7131142620704,33.698356010476815],[130.71180411832904,33.70082141072544],[130.71298485950882,33.701095238684104]]]},"properties":{"KEY_CODE":"40401001004","PREF":"40","CITY":"401","CITY_NAME":"小竹町","S_NAME":"大字勝野勝野","SETAI":"175"}},{"type":"Feature","geometry":{"type":"Polygon","coordinates":[[[130.70553670427887,33.690682073856344],[130.70454669528505,33.69116498356929],[130.70787779643086,33.693291155179125],[130.7075507929302,33.69395754495986],[130.70867645534815,33.69424170300364],[130.70741830003692,33.69689209761617],[130.70660329235056,33.69883438585526],[130.70615023925075,33.69981288751007],[130.70509084020048,33.69951590104744],[130.70496554391343,33.699446777977386],[130.70477539866712,33.69864503276866],[130.7038575540783,33.6982573639354],[130.7027320929308,33.69712192757451],[130.7016203922902,33.696552876836044],[130.70103818873483,33.69581568701245],[130.70056571874525,33.694797693773396],[130.6979108443448,33.694792265276796],[130.69779414002025,33.69325723751677],[130.6973333246321,33.691641132226124],[130.69732291301727,33.68990715303252],[130.6975653518875,33.68920155509833],[130.6976315910594,33.689079710483576],[130.69963559259318,33.68978016806187],[130.70062983796365,33.688658248721296],[130.70121862933362,33.68856683349675],[130.70287234279482,33.69006366469315],[130.70325242649986,33.68970222100443],[130.7049104287909,33.68934490371303],[130.70553670427887,33.690682073856344]]]},"properties":{"KEY_CODE":"40401001005","PREF":"40","CITY":"401","CITY_NAME":"小竹町","S_NAME":"大字勝野勝野","SETAI":"228"}},{"type":"Feature","geometry":{"type":"Polygon","coordinates":[[[130.7059359538456,33.68891194703734],[130.70655533344194,33.69006805816233],[130.70553670427887,33.690682073856344],[130.7049104287909,33.68934490371303],[130.70325242649986,33.68970222100443],[130.70287234279482,33.69006366469315],[130.70121862933362,33.68856683349675],[130.70062983796365,33.688658248721296],[130.69963559259318,33.68978016806187],[130.6976315910594,33.689079710483576],[130.69818305527394,33.68808612518361],[130.6980454542978,33.68659986333364],[130.69974135438474,33.6857849100763],[130.70079798888295,33.685111659249664],[130.70152945497045,33.68433483817899],[130.7047275725865,33.68410669551564],[130.70597549122874,33.684255494212714],[130.70560248742996,33.68516352191271],[130.7046642638099,33.68560851611561],[130.70425600238738,33.68652286328013],[130.70472155672496,33.6873937406203],[130.705568824632,33.68797861523689],[130.7059359538456,33.68891194703734]]]},"properties":{"KEY_CODE":"40401001006","PREF":"40","CITY":"401","CITY_NAME":"小竹町","S_NAME":"大字勝野七福","SETAI":"381"}},{"type":"Feature","geometry":{"type":"Polygon","coordinates":[[[130.70718224992004,33.707012145884896],[130.70650242303822,33.70723066003117],[130.7054718772601,33.70740036137204],[130.70500437639743,33.70763867592789],[130.70427519444,33.708158766678885],[130.7036405372547,33.70862723484099],[130.7025878796902,33.708375329269025],[130.7029010978437,33.70714404126485],[130.7020134988789,33.70692669249862],[130.7005745144054,33.70700118104722],[130.69955825523397,33.706767371251736],[130.6977620332895,33.704100234214195],[130.69900413676882,33.70393245487209],[130.6984652300689,33.702474021974076],[130.6990973112518,33.70155072602018],[130.69899179783715,33.70137309159091],[130.69885013367204,33.70090253725683],[130.6979122584746,33.69972701120488],[130.69739314089162,33.699450728255805],[130.69668324958104,33.69909409512705],[130.6963206331785,33.698838129809005],[130.6969975043841,33.69800588839265],[130.69835161690878,33.69698680032442],[130.69998404679095,33.696041570063],[130.70103818873483,33.69581568701245],[130.7016203922902,33.696552876836044],[130.7027320929308,33.69712192757451],[130.7038575540783,33.6982573639354],[130.70477539866712,33.69864503276866],[130.70496554391343,33.699446777977386],[130.70509084020048,33.69951590104744],[130.70615023925075,33.69981288751007],[130.70566828818565,33.70085379836592],[130.70819533884,33.70164898833493],[130.70641736795417,33.70539253498424],[130.707518451829,33.70564776425442],[130.70718224992004,33.707012145884896]]]},"properties":{"KEY_CODE":"40401001007","PREF":"40","CITY":"401","CITY_NAME":"小竹町","S_NAME":"大字勝野中央","SETAI":"131"}},{"type":"Feature","geometry":{"type":"Polygon","coordinates":[[[130.68391155970414,33.69762874303002],[130.68268019220653,33.69837756173085],[130.6826629087031,33.69897620945742],[130.68337121240285,33.69879501745974],[130.682900689324,33.69973696681299],[130.68319197017976,33.700329151054255],[130.6840428058298,33.70011042179773],[130.68361665462504,33.70131397201792],[130.68393249869274,33.701973913033854],[130.6846053303698,33.702063966379626],[130.68345015811278,33.70290047801226],[130.683101888301,33.70137034473025],[130.6822875334721,33.69956316002667],[130.68082414608102,33.69942674340646],[130.67966359204334,33.69899093901674],[130.6791568027026,33.699132553474975],[130.6789432312078,33.69864974598791],[130.67776988486278,33.69812316011395],[130.67737117473587,33.698374939629154],[130.6768229385063,33.697720852982364],[130.6762293014197,33.69822768493362],[130.67530537089863,33.69826646676589],[130.67461875032262,33.6976972439459],[130.67508268467893,33.69714753206875],[130.67502507621873,33.696288611718806],[130.6740521934232,33.69623385025519],[130.67332844604022,33.69648905310669],[130.67268698471565,33.696042016171994],[130.6724954445024,33.695393011242544],[130.6726641415565,33.69447551695535],[130.67170118573193,33.69372979738811],[130.67145733105426,33.69257086260271],[130.67058451616884,33.691704353657364],[130.67061376105306,33.69107150235933],[130.67151387922357,33.69069188289676],[130.67118247641838,33.69024122521336],[130.67206893482376,33.68951533823082],[130.6720583110344,33.68892239345473],[130.67290553992711,33.6881494123535],[130.67427378778723,33.688471783119134],[130.67496578710129,33.688409362730084],[130.67512561355764,33.68814844012737],[130.67508807756667,33.687707442306234],[130.67517497641555,33.686570091167084],[130.67698670990626,33.68436026735277],[130.67773708411576,33.68303220492376],[130.6784585330545,33.683312477042264],[130.6810653847918,33.6832732449066],[130.6818703915394,33.683436496073554],[130.6828015746808,33.68549954023245],[130.6839793071924,33.68545585919245],[130.68464453688546,33.6853721154854],[130.6850975158491,33.68643180250612],[130.6856840982413,33.68624965357009],[130.6860651397131,33.685555362704946],[130.6867805639879,33.68538466415442],[130.68715276362755,33.686153706070954],[130.6879262372597,33.68653442773442],[130.6882912048505,33.687309303778314],[130.6895181034254,33.68852274220185],[130.68970477033682,33.68958809396859],[130.69100718642375,33.690344746003504],[130.6935526255746,33.68916546236145],[130.69622649692946,33.68927223593949],[130.6969545584804,33.689033883841624],[130.6975653518875,33.68920155509833],[130.69732291301727,33.68990715303252],[130.6973333246321,33.691641132226124],[130.69599389740512,33.691650593723786],[130.69532312292964,33.691876823670334],[130.6945150424593,33.69173189823945],[130.69434973997787,33.692747275454735],[130.69477165170466,33.693659850817774],[130.69558307101968,33.69380576945349],[130.69541688339686,33.69470864848665],[130.6979108443448,33.694792265276796],[130.70056571874525,33.694797693773396],[130.70103818873483,33.69581568701245],[130.69998404679095,33.696041570063],[130.69835161690878,33.69698680032442],[130.6969975043841,33.69800588839265],[130.6963206331785,33.698838129809005],[130.69564733018223,33.69908773911487],[130.6952764035555,33.699147897591445],[130.69508335758016,33.69910811296912],[130.69460312261953,33.69907205764478],[130.69435549287766,33.69907214779754],[130.6928688617388,33.69924984656681],[130.6923601856562,33.69939164925929],[130.69171670095005,33.69894019516024],[130.6924478803994,33.698276193408915],[130.69159146242413,33.69807301097094],[130.69141573338842,33.6979335884879],[130.6912580709729,33.69761338309918],[130.69112351611392,33.697443350704255],[130.69053771970735,33.69716278815393],[130.6910308869251,33.69660336971869],[130.69096293718366,33.69621890690514],[130.69084802913113,33.696357813120464],[130.69060509017174,33.69672508551494],[130.68992188206255,33.6965635230236],[130.6897973949516,33.69656898983365],[130.6895610292708,33.69635728835671],[130.6887717534175,33.69606704826142],[130.68879022631728,33.6958091327467],[130.68848706521325,33.69624011194616],[130.68822990195193,33.69606864001077],[130.6879612045489,33.69548229919552],[130.68705975783126,33.69596452261393],[130.68623768746966,33.69526470037581],[130.68542520652946,33.69604532127042],[130.685802056405,33.696445127806],[130.68481882309842,33.69731928158446],[130.68397396022462,33.69738002859563],[130.68396602436957,33.697482783662046],[130.68396558984054,33.69760274594302],[130.68391155970414,33.69762874303002]],[[130.68918993477624,33.69267867716779],[130.6890355820744,33.69402564654112],[130.69098872470536,33.69449617724272],[130.69277335956184,33.694516550685115],[130.69246042497397,33.693627841116594],[130.69210617199053,33.69355926268325],[130.69243344045395,33.69230654653187],[130.69229201352312,33.692048936876894],[130.69113406241877,33.692069996854386],[130.69068834776567,33.692444905695986],[130.68918993477624,33.69267867716779]]]},"properties":{"KEY_CODE":"40401002001","PREF":"40","CITY":"401","CITY_NAME":"小竹町","S_NAME":"大字新多新多","SETAI":"274"}},{"type":"Feature","geometry":{"type":"Polygon","coordinates":[[[130.6973333246321,33.691641132226124],[130.69779414002025,33.69325723751677],[130.6979108443448,33.694792265276796],[130.69541688339686,33.69470864848665],[130.69558307101968,33.69380576945349],[130.69477165170466,33.693659850817774],[130.69434973997787,33.692747275454735],[130.6945150424593,33.69173189823945],[130.69532312292964,33.691876823670334],[130.69599389740512,33.691650593723786],[130.6973333246321,33.691641132226124]]]},"properties":{"KEY_CODE":"40401002002","PREF":"40","CITY":"401","CITY_NAME":"小竹町","S_NAME":"大字新多栄町","SETAI":"193"}},{"type":"Feature","geometry":{"type":"Polygon","coordinates":[[[130.68918993477624,33.69267867716779],[130.69068834776567,33.692444905695986],[130.69113406241877,33.692069996854386],[130.69229201352312,33.692048936876894],[130.69243344045395,33.69230654653187],[130.69210617199053,33.69355926268325],[130.69246042497397,33.693627841116594],[130.69277335956184,33.694516550685115],[130.69098872470536,33.69449617724272],[130.6890355820744,33.69402564654112],[130.68918993477624,33.69267867716779]]]},"properties":{"KEY_CODE":"40401002003","PREF":"40","CITY":"401","CITY_NAME":"小竹町","S_NAME":"大字新多本町","SETAI":"193"}},{"type":"Feature","geometry":{"type":"Polygon","coordinates":[[[130.69212664648128,33.69946453970675],[130.6912527988866,33.699770681522565],[130.69035346530234,33.69935619804741],[130.68882149487874,33.699341355847636],[130.68746122851536,33.69911813636058],[130.68639905263962,33.69918355665842],[130.68513147987136,33.699964074821686],[130.68511463527386,33.7021615616122],[130.68467780027947,33.70334282913624],[130.6840274649552,33.703570740848406],[130.68342466542458,33.70348522793306],[130.6826378630119,33.70287317643902],[130.68241659362758,33.70224059565405],[130.68168273463976,33.70153512608868],[130.6814922887524,33.70057020358174],[130.6809517390778,33.70004950444799],[130.68082414608102,33.69942674340646],[130.6822875334721,33.69956316002667],[130.683101888301,33.70137034473025],[130.68345015811278,33.70290047801226],[130.6846053303698,33.702063966379626],[130.68393249869274,33.701973913033854],[130.68361665462504,33.70131397201792],[130.6840428058298,33.70011042179773],[130.68319197017976,33.700329151054255],[130.682900689324,33.69973696681299],[130.68337121240285,33.69879501745974],[130.6826629087031,33.69897620945742],[130.68268019220653,33.69837756173085],[130.68391155970414,33.69762874303002],[130.68396558984054,33.69760274594302],[130.68396602436957,33.697482783662046],[130.68397396022462,33.69738002859563],[130.68481882309842,33.69731928158446],[130.685802056405,33.696445127806],[130.68542520652946,33.69604532127042],[130.68623768746966,33.69526470037581],[130.68705975783126,33.69596452261393],[130.6879612045489,33.69548229919552],[130.68822990195193,33.69606864001077],[130.68848706521325,33.69624011194616],[130.68879022631728,33.6958091327467],[130.6887717534175,33.69606704826142],[130.6895610292708,33.69635728835671],[130.6897973949516,33.69656898983365],[130.68992188206255,33.6965635230236],[130.69060509017172,33.69672508551494],[130.69084802913113,33.696357813120464],[130.69096293718366,33.69621890690514],[130.6910308869251,33.69660336971869],[130.69053771970735,33.69716278815393],[130.69112351611392,33.697443350704255],[130.6912580709729,33.69761338309918],[130.69141573338842,33.6979335884879],[130.69159146242413,33.69807301097094],[130.6924478803994,33.698276193408915],[130.69171670095005,33.69894019516024],[130.69212664648128,33.69946453970675]]]},"properties":{"KEY_CODE":"40401002004","PREF":"40","CITY":"401","CITY_NAME":"小竹町","S_NAME":"大字新多毛勝","SETAI":"38"}},{"type":"Feature","geometry":{"type":"Polygon","coordinates":[[[130.7006736070549,33.71612206576928],[130.7005295865401,33.717210757758025],[130.69862533454983,33.7169201846619],[130.6979463921191,33.71644662545956],[130.69592982104848,33.71671751950263],[130.69593679909053,33.71661525351573],[130.69626043967273,33.71460484730053],[130.69719833534324,33.71504995586797],[130.69774762343008,33.713907667656024],[130.69705560217193,33.71352607123582],[130.69675315176949,33.71270220570409],[130.69715507811964,33.7120086298313],[130.696619932852,33.711123537607506],[130.69690900720144,33.71042341649782],[130.69699610709256,33.70904189463428],[130.69669476454024,33.708704084660624],[130.6970957975577,33.70784897660848],[130.6972212598517,33.706877877309665],[130.6968673959871,33.7063890517603],[130.69665749339467,33.70494917475944],[130.69696236303466,33.70427564734254],[130.6977620332895,33.704100234214195],[130.69955825523397,33.706767371251736],[130.7005745144054,33.70700118104722],[130.7020134988789,33.70692669249862],[130.7029010978437,33.70714404126485],[130.7025878796902,33.708375329269025],[130.7036405372547,33.70862723484099],[130.70235726215836,33.709438951391796],[130.70142427148633,33.71144663762108],[130.70107612095086,33.712473762913305],[130.70052897064159,33.713615505671335],[130.7004973607314,33.71464818774468],[130.70052624556902,33.71494207476105],[130.7006736070549,33.71612206576928]]]},"properties":{"KEY_CODE":"404010030","PREF":"40","CITY":"401","CITY_NAME":"小竹町","S_NAME":"大字新山崎","SETAI":"43"}},{"type":"Feature","geometry":{"type":"Polygon","coordinates":[[[130.71437568141707,33.724883611644216],[130.71310811102938,33.72585629682757],[130.71223031681268,33.72597696359127],[130.71217857094422,33.72534082004156],[130.71174703461742,33.725135669303796],[130.71153617641045,33.72512749999604],[130.71100602683984,33.725325469329555],[130.71070518714063,33.72481764944614],[130.7101185806989,33.724907284680384],[130.70807353806183,33.72562005125952],[130.7074399958277,33.72514122987474],[130.7064824726441,33.7254450956539],[130.70450324981607,33.7255801207844],[130.70397042250525,33.72587561462446],[130.7029297581263,33.72575694927164],[130.7021183348333,33.72456162323894],[130.70147495821243,33.724767308547804],[130.70046973323304,33.72419019711465],[130.69963809405928,33.72341563143102],[130.69887638806864,33.72252978895358],[130.69824011715278,33.722316198832644],[130.6969693851987,33.722451286199814],[130.69671675772443,33.72055702981111],[130.69585186836125,33.720179580215344],[130.69592982104848,33.71671751950263],[130.6979463921191,33.71644662545956],[130.69862533454983,33.7169201846619],[130.7005295865401,33.717210757758025],[130.7006736070549,33.71612206576928],[130.70052624556902,33.71494207476105],[130.7004973607314,33.71464818774468],[130.70052897064159,33.71361550567131],[130.70107612095086,33.712473762913305],[130.70142427148633,33.71144663762108],[130.70235726215836,33.709438951391796],[130.7040426042569,33.70840567438944],[130.70427519444,33.708158766678885],[130.70500437639743,33.70763867592789],[130.7054718772601,33.70740036137204],[130.70650242303822,33.70723066003117],[130.70715911284023,33.707205314879324],[130.7075764692224,33.71165920553447],[130.70775431341767,33.712782977273065],[130.70821806452153,33.713437290683274],[130.70947189292738,33.71448703377437],[130.70981022167356,33.71490133039483],[130.71068667355638,33.71685549778431],[130.71146905349778,33.71892179253813],[130.71246113915024,33.72005774167289],[130.71324997805746,33.72208021561663],[130.71381144892183,33.724240786673136],[130.71437568141707,33.724883611644216]]]},"properties":{"KEY_CODE":"404010040","PREF":"40","CITY":"401","CITY_NAME":"小竹町","S_NAME":"大字南良津","SETAI":"130"}},{"type":"Feature","geometry":{"type":"Polygon","coordinates":[[[130.71680945378688,33.7109779255106],[130.71652642748805,33.711017002680954],[130.715737823046,33.71234006493619],[130.71430991900564,33.71201131476738],[130.7138849356148,33.71221756743432],[130.71337251569324,33.71182809678126],[130.71084477990436,33.713830219807114],[130.70947189292738,33.71448703377437],[130.70821806452153,33.713437290683274],[130.70775431341767,33.712782977273065],[130.7075764692224,33.71165920553447],[130.70715911284023,33.707205314879324],[130.70718224992004,33.707012145884896],[130.707518451829,33.70564776425442],[130.70879919900844,33.7037875165179],[130.70958647546405,33.70320301104854],[130.71105875017108,33.702773396662735],[130.71153092336385,33.702085855211244],[130.7125526267724,33.701644387630516],[130.71298485950882,33.701095238684104],[130.7140652429932,33.7013595937557],[130.71412511909548,33.70173977417212],[130.71578891634613,33.70119439057588],[130.71714862836947,33.7013379906266],[130.7171388134092,33.70082387564052],[130.71818713278788,33.70074429077742],[130.7170734020921,33.70168369302562],[130.71660915422817,33.702185163329744],[130.71620126622685,33.70248557638059],[130.7154548369211,33.70305626968677],[130.71492760533948,33.70348770813188],[130.71672509931352,33.70423059615195],[130.71616797297034,33.70442767716744],[130.71624449524174,33.704900030992995],[130.71578081658188,33.70546912301677],[130.7169625355606,33.70573199455267],[130.71637196479568,33.70523816871523],[130.71667973552022,33.70499803462963],[130.71819979357846,33.705038794356625],[130.7195784356791,33.70594974140012],[130.7211864440127,33.70671854614592],[130.7214715624787,33.70633126452961],[130.7228959712909,33.70772276565234],[130.72096759671817,33.70891881319019],[130.72072633433302,33.70988354088225],[130.72012953413864,33.71032505538403],[130.7193841735179,33.711766442092156],[130.718574501934,33.712249939889716],[130.71680945378688,33.7109779255106]]]},"properties":{"KEY_CODE":"40401005001","PREF":"40","CITY":"401","CITY_NAME":"小竹町","S_NAME":"大字御徳御徳","SETAI":"142"}},{"type":"Feature","geometry":{"type":"Polygon","coordinates":[[[130.7159591180875,33.72154985639045],[130.71465119684416,33.72158431140343],[130.71440736890614,33.72176555951387],[130.71445806083818,33.72192255182044],[130.71400978167284,33.72199639205989],[130.71324997805746,33.72208021561663],[130.71246113915024,33.72005774167289],[130.71146905349778,33.71892179253813],[130.71068667355638,33.71685549778431],[130.70981022167356,33.71490133039483],[130.70947189292738,33.71448703377437],[130.71084477990436,33.713830219807114],[130.71337251569324,33.71182809678126],[130.7138849356148,33.71221756743432],[130.71430991900564,33.71201131476738],[130.715737823046,33.71234006493619],[130.71652642748805,33.711017002680954],[130.71680945378688,33.7109779255106],[130.718574501934,33.712249939889716],[130.7193841735179,33.711766442092156],[130.72012953413864,33.71032505538403],[130.72072633433302,33.70988354088225],[130.72096759671817,33.70891881319019],[130.7228959712909,33.70772276565234],[130.7214715624787,33.70633126452961],[130.7211864440127,33.70671854614592],[130.7195784356791,33.70594974140012],[130.71819979357846,33.705038794356625],[130.71667973552022,33.70499803462963],[130.71637196479568,33.70523816871523],[130.7169625355606,33.70573199455267],[130.71578081658188,33.70546912301677],[130.71624449524174,33.704900030992995],[130.71616797297034,33.70442767716744],[130.71672509931352,33.70423059615195],[130.71738891195005,33.70430933078017],[130.71808933271822,33.70388680349173],[130.71894004996983,33.70298595840602],[130.72031042472884,33.70272675801544],[130.7210509022487,33.701876784796994],[130.72047990107887,33.70135597010266],[130.72026248547087,33.69990751927318],[130.72125388814393,33.69978586307372],[130.7228451260672,33.70011603911883],[130.72452848058444,33.70077798626247],[130.72543902470082,33.70152193650376],[130.7260564711173,33.70238490758843],[130.72613595914694,33.70363870962552],[130.72635212825168,33.70400293232592],[130.7266066687134,33.70417650988671],[130.7266497028677,33.70422743447426],[130.72671640150895,33.70556735309807],[130.72722547529884,33.706588773324974],[130.72726144205245,33.707880412146835],[130.72761307079003,33.708717766822474],[130.72677080697906,33.709306481168376],[130.72667062322745,33.710108947482105],[130.7261426451688,33.7103436103426],[130.72591035732034,33.711801598059246],[130.72621345345422,33.7126482130603],[130.7257507468984,33.71306623627716],[130.72591894122394,33.7136922781237],[130.72576306703294,33.714676286382684],[130.72445405334508,33.71579930415337],[130.72445834682847,33.71638081057945],[130.72495849462905,33.71719243426602],[130.72143056708995,33.71824564259641],[130.72064896979612,33.71870674907008],[130.71991406883663,33.71876418301929],[130.71961823061906,33.719450250712256],[130.71876622691596,33.720142798714534],[130.71849020889297,33.71998895701322],[130.71761340099627,33.71970504217516],[130.7173847590099,33.72009843173587],[130.71708937340975,33.72040079486229],[130.71705746273443,33.72101758556074],[130.71677520512844,33.72121657013823],[130.71675736023906,33.72145187707068],[130.71662885896635,33.721601341937316],[130.7159591180875,33.72154985639045]]]},"properties":{"KEY_CODE":"40401005002","PREF":"40","CITY":"401","CITY_NAME":"小竹町","S_NAME":"大字御徳御徳","SETAI":"378"}},{"type":"Feature","geometry":{"type":"Polygon","coordinates":[[[130.72026248547087,33.69990751927318],[130.72047990107887,33.70135597010266],[130.7210509022487,33.701876784796994],[130.72031042472884,33.70272675801544],[130.71894004996983,33.70298595840602],[130.71808933271822,33.70388680349173],[130.71738891195005,33.70430933078017],[130.71672509931352,33.70423059615195],[130.71492760533948,33.70348770813188],[130.7154548369211,33.70305626968677],[130.71620126622685,33.70248557638059],[130.71660915422817,33.702185163329744],[130.7170734020921,33.70168369302562],[130.71818713278788,33.70074429077742],[130.71878155629378,33.7008755486247],[130.72026248547087,33.69990751927318]]]},"properties":{"KEY_CODE":"40401005003","PREF":"40","CITY":"401","CITY_NAME":"小竹町","S_NAME":"大字御徳御徳","SETAI":"208"}},{"type":"Feature","geometry":{"type":"Polygon","coordinates":[[[130.71427848923267,33.7322537471197],[130.71227194711338,33.73226550506472],[130.7130318735352,33.73149318277432],[130.7124251611121,33.730838563783486],[130.71220368475375,33.73075640459838],[130.7121950894827,33.731083025350976],[130.71231210915082,33.73149313071802],[130.71228559525733,33.73155583348832],[130.71217941210128,33.73183819900708],[130.71193962628973,33.732169000264804],[130.71120776249762,33.731853262508416],[130.71082152053145,33.73103114312734],[130.7101155432647,33.73124398486535],[130.71016686804623,33.729552012713775],[130.7105580032604,33.728356469401],[130.71036413998317,33.72732755640518],[130.71111246735455,33.72720371180678],[130.71205985372026,33.72656370245818],[130.71223031681268,33.72597696359127],[130.71310811102938,33.72585629682757],[130.71437568141707,33.724883611644216],[130.7156857433307,33.72570848732504],[130.71665479512126,33.72702657472229],[130.71780992456274,33.72777661088276],[130.71919869141337,33.72893706820628],[130.7195086379065,33.72915205596868],[130.719484689047,33.72918003796162],[130.71947324826027,33.729172403711125],[130.7192481818592,33.72945225123935],[130.7187132068448,33.730084728226174],[130.71859728838533,33.730179913469605],[130.7184282304742,33.73021228373446],[130.71809881911565,33.730430818572366],[130.71794254296282,33.730581840917125],[130.717825087896,33.730714707860784],[130.7176064403039,33.73075774198327],[130.7175163507648,33.73092659656843],[130.71741005971415,33.73109949858595],[130.71729561228645,33.731175807152404],[130.7170999965969,33.73128433366778],[130.71648491944438,33.731618015833746],[130.71575144524107,33.73194557687505],[130.71539917338035,33.73210671294349],[130.71494818581672,33.73227121249214],[130.71457874541832,33.73229508521654],[130.71444909491774,33.732277104314065],[130.71427848923267,33.7322537471197]]]},"properties":{"KEY_CODE":"40401006001","PREF":"40","CITY":"401","CITY_NAME":"小竹町","S_NAME":"大字赤地兵丹","SETAI":"103"}},{"type":"Feature","geometry":{"type":"Polygon","coordinates":[[[130.72518728797735,33.73130440014788],[130.72400648921655,33.731461395438316],[130.72367687613138,33.73130709836103],[130.7236038733746,33.73126551525107],[130.7235964459636,33.73126134207019],[130.72085974095322,33.73002620000451],[130.719484689047,33.72918003796162],[130.7195086379065,33.72915205596868],[130.71919869141337,33.72893706820628],[130.71780992456274,33.72777661088276],[130.71665479512126,33.72702657472229],[130.7156857433307,33.72570848732504],[130.71437568141707,33.724883611644216],[130.71381144892183,33.724240786673136],[130.7132499780574,33.722080215616636],[130.71400978167284,33.72199639205989],[130.71445806083818,33.72192255182044],[130.71440736890614,33.72176555951387],[130.71465119684416,33.72158431140343],[130.7159591180875,33.72154985639045],[130.71662885896635,33.721601341937316],[130.71675736023906,33.72145187707068],[130.71677520512844,33.72121657013823],[130.71705746273443,33.72101758556074],[130.71708937340975,33.72040079486229],[130.7173847590099,33.72009843173587],[130.71761340099627,33.71970504217516],[130.71849020889297,33.71998895701322],[130.71876622691596,33.720142798714534],[130.71961823061906,33.719450250712256],[130.71991406883663,33.71876418301929],[130.72064896979612,33.71870674907008],[130.72143056708995,33.71824564259641],[130.72495849462905,33.71719243426602],[130.72531976067046,33.71725987837571],[130.72561787785622,33.71811838497325],[130.72683386838366,33.71816222631193],[130.7269646348803,33.718872428975075],[130.72785648096834,33.72066777474634],[130.72761907076878,33.72111314508478],[130.72786661244015,33.72228893997196],[130.72740180153627,33.723349470184225],[130.72782939432733,33.72394134746299],[130.72761201312568,33.72443494677293],[130.728094936812,33.725086397033984],[130.72809584906472,33.7252640515542],[130.7279658632343,33.7252741925087],[130.72763938532864,33.72531862651765],[130.72728430058757,33.72537201255153],[130.7271312093854,33.72545712090014],[130.7270540028397,33.72551175291801],[130.72665640476157,33.72586322401669],[130.72663278875442,33.72586028313842],[130.72655818091877,33.72586666921015],[130.7265452770094,33.72590122807628],[130.72645032270918,33.726042747200886],[130.72636105798193,33.726097775938705],[130.72619188042788,33.72609155362869],[130.7261497268534,33.72607230012595],[130.72610325378966,33.726059728999076],[130.725995153429,33.7260731546087],[130.72595498414518,33.7260925091399],[130.72578004091062,33.72622849641807],[130.72573226708946,33.726240012789106],[130.7256706630604,33.72626607989649],[130.725650608857,33.7263028769761],[130.7256171965027,33.726364157034325],[130.72560474494944,33.72640871957027],[130.72561158235365,33.72650481671269],[130.72557769673404,33.72655609464285],[130.72544572205905,33.72673289169128],[130.72520434681917,33.726947344394404],[130.72518697064697,33.72698999184148],[130.72518437041117,33.72703830965918],[130.7252157952955,33.72714369044538],[130.72529014729187,33.72728995067042],[130.72566801666773,33.72786496072129],[130.72589429139575,33.728029732741234],[130.72608437364235,33.728170332010926],[130.7263455757118,33.72838695476926],[130.72666494012302,33.72865991582162],[130.72709520314362,33.72890248065106],[130.72739727203236,33.72918068514328],[130.7267194125818,33.730534062287845],[130.72677761994504,33.73060216621955],[130.72694437455783,33.730663535816255],[130.72697626441888,33.73080913987524],[130.72695489320247,33.73096765541771],[130.72683117274076,33.73115215056803],[130.72665906610598,33.731374226120835],[130.72636120142798,33.73131608809955],[130.7259731808775,33.731227811700634],[130.72518728797735,33.73130440014788]]]},"properties":{"KEY_CODE":"40401006002","PREF":"40","CITY":"401","CITY_NAME":"小竹町","S_NAME":"大字赤地赤地","SETAI":"175"}}]}