{"type":"FeatureCollection","features":[{"type":"Feature","geometry":{"type":"Polygon","coordinates":[[[139.89344825115865,35.66791676264488],[139.89156768421634,35.66834394241296],[139.89133234394245,35.6677707857865],[139.8871741748753,35.66826254744645],[139.88708357629204,35.665497401586165],[139.89228065682153,35.664925462299266],[139.89344825115865,35.66791676264488]]]},"properties":{"KEY_CODE":"12227001001","PREF":"12","CITY":"227","CITY_NAME":"浦安市","S_NAME":"当代島一丁目","SETAI":"2194"}},{"type":"Feature","geometry":{"type":"Polygon","coordinates":[[[139.89344825115865,35.66791676264488],[139.8941688253375,35.66974138969069],[139.89137815806495,35.67070298453469],[139.89006631472748,35.67134068870591],[139.88795452494654,35.67111111299596],[139.8861700746485,35.670950171260145],[139.88712011170702,35.66876259373998],[139.8871741748753,35.66826254744645],[139.89133234394245,35.6677707857865],[139.89156768421634,35.66834394241296],[139.89344825115865,35.66791676264488]]]},"properties":{"KEY_CODE":"12227001002","PREF":"12","CITY":"227","CITY_NAME":"浦安市","S_NAME":"当代島二丁目","SETAI":"2471"}},{"type":"Feature","geometry":{"type":"Polygon","coordinates":[[[139.8935646324817,35.67263466969841],[139.89302716229076,35.67240509357071],[139.89099078798233,35.672483766535905],[139.8900550654759,35.6725286516212],[139.89001832465618,35.67253046403956],[139.88965488254811,35.672545305709974],[139.88850237799738,35.67263460310903],[139.88790493950611,35.671940564514465],[139.88795452494654,35.67111111299596],[139.89006631472748,35.67134068870591],[139.89137815806495,35.67070298453469],[139.8941688253375,35.66974138969069],[139.8948586545575,35.671450446948704],[139.89328787657254,35.67185320484002],[139.8935646324817,35.67263466969841]]]},"properties":{"KEY_CODE":"12227001003","PREF":"12","CITY":"227","CITY_NAME":"浦安市","S_NAME":"当代島三丁目","SETAI":"1284"}},{"type":"Feature","geometry":{"type":"Polygon","coordinates":[[[139.89617834698907,35.66404526132837],[139.89843951007197,35.666336779984235],[139.89703659634378,35.666987462582206],[139.89344825115865,35.66791676264488],[139.89228065682153,35.664925462299266],[139.89481711521546,35.66464213099629],[139.89617834698907,35.66404526132837]]]},"properties":{"KEY_CODE":"12227002001","PREF":"12","CITY":"227","CITY_NAME":"浦安市","S_NAME":"北栄一丁目","SETAI":"1908"}},{"type":"Feature","geometry":{"type":"Polygon","coordinates":[[[139.89869532266016,35.669575546487835],[139.89784620017465,35.66963794598748],[139.8975682887933,35.67003563194968],[139.89656118485067,35.67024451583393],[139.89486678629044,35.67090645406719],[139.89498407490868,35.671434857455075],[139.8948586545575,35.671450446948704],[139.8941688253375,35.66974138969069],[139.89344825115865,35.66791676264488],[139.89703659634378,35.666987462582206],[139.89843951007197,35.666336779984235],[139.90070966736786,35.66868422180129],[139.90015684462577,35.66906931784457],[139.89869532266016,35.669575546487835]]]},"properties":{"KEY_CODE":"12227002002","PREF":"12","CITY":"227","CITY_NAME":"浦安市","S_NAME":"北栄二丁目","SETAI":"3244"}},{"type":"Feature","geometry":{"type":"Polygon","coordinates":[[[139.89936688456817,35.66199811180569],[139.90004108906984,35.662668361955234],[139.90271409294826,35.6647817406493],[139.90317315235174,35.66525055214611],[139.90138624299544,35.666409250459616],[139.90172310697162,35.66801094014872],[139.90070966736786,35.66868422180129],[139.89843951007197,35.666336779984235],[139.89617834698907,35.66404526132837],[139.896273007431,35.663999298514284],[139.89936688456817,35.66199811180569]]]},"properties":{"KEY_CODE":"12227002003","PREF":"12","CITY":"227","CITY_NAME":"浦安市","S_NAME":"北栄三丁目","SETAI":"3352"}},{"type":"Feature","geometry":{"type":"Polygon","coordinates":[[[139.9072582942119,35.66273181004612],[139.90700524680358,35.66277277679002],[139.90322637075448,35.665216049460255],[139.90317315235174,35.66525055214611],[139.90271409294826,35.6647817406493],[139.90004108906984,35.662668361955234],[139.89936688456817,35.66199811180569],[139.90269107869858,35.65982375135493],[139.90468094933144,35.65854231145309],[139.9062868569065,35.66166833616588],[139.90727294324282,35.662598210817116],[139.9072582942119,35.66273181004612]]]},"properties":{"KEY_CODE":"12227002004","PREF":"12","CITY":"227","CITY_NAME":"浦安市","S_NAME":"北栄四丁目","SETAI":"2317"}},{"type":"Feature","geometry":{"type":"Polygon","coordinates":[[[139.90203888827918,35.6520137898829],[139.90468094933144,35.65854231145309],[139.90269107869858,35.65982375135493],[139.8995449822626,35.65662457000003],[139.8990583221098,35.655923652523775],[139.90047232849432,35.65371743565213],[139.90110508927472,35.65273501592297],[139.90203888827918,35.6520137898829]]]},"properties":{"KEY_CODE":"12227003001","PREF":"12","CITY":"227","CITY_NAME":"浦安市","S_NAME":"猫実一丁目","SETAI":"914"}},{"type":"Feature","geometry":{"type":"Polygon","coordinates":[[[139.8990583221098,35.655923652523775],[139.8995449822626,35.65662457000003],[139.90269107869858,35.65982375135493],[139.89936688456817,35.66199811180569],[139.8969427937841,35.65921883918924],[139.8969518358593,35.659202884438734],[139.8990583221098,35.655923652523775]]]},"properties":{"KEY_CODE":"12227003002","PREF":"12","CITY":"227","CITY_NAME":"浦安市","S_NAME":"猫実二丁目","SETAI":"1738"}},{"type":"Feature","geometry":{"type":"Polygon","coordinates":[[[139.8969427937841,35.65921883918924],[139.89936688456817,35.66199811180569],[139.896273007431,35.663999298514284],[139.89568011108742,35.66296577230695],[139.89531668994965,35.661860755265906],[139.89468321292395,35.66092583932071],[139.89624858449022,35.65996714581477],[139.8969427937841,35.65921883918924]]]},"properties":{"KEY_CODE":"12227003003","PREF":"12","CITY":"227","CITY_NAME":"浦安市","S_NAME":"猫実三丁目","SETAI":"844"}},{"type":"Feature","geometry":{"type":"Polygon","coordinates":[[[139.89468321292395,35.66092583932071],[139.89531668994965,35.661860755265906],[139.89568011108742,35.66296577230695],[139.896273007431,35.663999298514284],[139.89617834698907,35.66404526132837],[139.89481711521546,35.66464213099629],[139.89228065682153,35.664925462299266],[139.89164905485674,35.66255822742543],[139.89248437160302,35.662287837396974],[139.89281971375496,35.661780289869924],[139.89468247366597,35.66092618794275],[139.89468321292395,35.66092583932071]]]},"properties":{"KEY_CODE":"12227003004","PREF":"12","CITY":"227","CITY_NAME":"浦安市","S_NAME":"猫実四丁目","SETAI":"1160"}},{"type":"Feature","geometry":{"type":"Polygon","coordinates":[[[139.89164905485674,35.66255822742543],[139.89228065682153,35.664925462299266],[139.88708357629204,35.665497401586165],[139.8869601930511,35.66374097927169],[139.8905974077101,35.662640580911706],[139.89164905485674,35.66255822742543]]]},"properties":{"KEY_CODE":"12227003005","PREF":"12","CITY":"227","CITY_NAME":"浦安市","S_NAME":"猫実五丁目","SETAI":"1191"}},{"type":"Feature","geometry":{"type":"Polygon","coordinates":[[[139.89869669528804,35.65310822401922],[139.90047232849432,35.65371743565213],[139.8990583221098,35.655923652523775],[139.8969518358593,35.659202884438734],[139.89397460490864,35.65553280099318],[139.89869669528804,35.65310822401922]]]},"properties":{"KEY_CODE":"12227004001","PREF":"12","CITY":"227","CITY_NAME":"浦安市","S_NAME":"堀江一丁目","SETAI":"1749"}},{"type":"Feature","geometry":{"type":"Polygon","coordinates":[[[139.89397460490864,35.65553280099318],[139.8969518358593,35.659202884438734],[139.8969427937841,35.65921883918924],[139.89624858449022,35.65996714581477],[139.89468321292395,35.66092583932071],[139.89468247366597,35.66092618794275],[139.8934547958736,35.659217108737494],[139.89210296254578,35.65653031504876],[139.89397460490864,35.65553280099318]]]},"properties":{"KEY_CODE":"12227004002","PREF":"12","CITY":"227","CITY_NAME":"浦安市","S_NAME":"堀江二丁目","SETAI":"1328"}},{"type":"Feature","geometry":{"type":"Polygon","coordinates":[[[139.89210296254578,35.65653031504876],[139.8934547958736,35.659217108737494],[139.89468247366597,35.66092618794275],[139.89281971375496,35.661780289869924],[139.89248437160302,35.662287837396974],[139.89164905485674,35.66255822742543],[139.8908541056276,35.65718504842684],[139.89210296254578,35.65653031504876]]]},"properties":{"KEY_CODE":"12227004003","PREF":"12","CITY":"227","CITY_NAME":"浦安市","S_NAME":"堀江三丁目","SETAI":"1219"}},{"type":"Feature","geometry":{"type":"Polygon","coordinates":[[[139.8908541056276,35.65718504842684],[139.89164905485674,35.66255822742543],[139.8905974077101,35.662640580911706],[139.8869601930511,35.66374097927169],[139.88706018122994,35.661777634106436],[139.88709860398924,35.658246052448696],[139.88961020073222,35.65773846367798],[139.8908541056276,35.65718504842684]]]},"properties":{"KEY_CODE":"12227004004","PREF":"12","CITY":"227","CITY_NAME":"浦安市","S_NAME":"堀江四丁目","SETAI":"2027"}},{"type":"Feature","geometry":{"type":"Polygon","coordinates":[[[139.8922267941312,35.65327366342367],[139.89397460490864,35.65553280099318],[139.89210296254578,35.65653031504876],[139.8908541056276,35.65718504842684],[139.88961020073222,35.65773846367798],[139.88709860398924,35.658246052448696],[139.88711779159087,35.65653172143815],[139.88694509618463,35.65478057423601],[139.8893528403525,35.654156515246235],[139.88946188962584,35.65435920706662],[139.8922267941312,35.65327366342367]]]},"properties":{"KEY_CODE":"12227004005","PREF":"12","CITY":"227","CITY_NAME":"浦安市","S_NAME":"堀江五丁目","SETAI":"1219"}},{"type":"Feature","geometry":{"type":"Polygon","coordinates":[[[139.89551809775713,35.65178096609174],[139.89619517727746,35.65215015168861],[139.89869669528804,35.65310822401922],[139.89397460490864,35.65553280099318],[139.8922267941312,35.65327366342367],[139.89551809775713,35.65178096609174]]]},"properties":{"KEY_CODE":"12227004006","PREF":"12","CITY":"227","CITY_NAME":"浦安市","S_NAME":"堀江六丁目","SETAI":"1180"}},{"type":"Feature","geometry":{"type":"Polygon","coordinates":[[[139.89277119645666,35.64803506961568],[139.893643936469,35.649811040777166],[139.89453440979318,35.651032081261214],[139.89518329428012,35.65155839554175],[139.89551809775713,35.65178096609174],[139.8922267941312,35.65327366342367],[139.89032357165593,35.649946271586316],[139.89277119645666,35.64803506961568]]]},"properties":{"KEY_CODE":"12227005001","PREF":"12","CITY":"227","CITY_NAME":"浦安市","S_NAME":"富士見一丁目","SETAI":"1362"}},{"type":"Feature","geometry":{"type":"Polygon","coordinates":[[[139.8922267941312,35.65327366342367],[139.88946188962584,35.65435920706662],[139.8893528403525,35.654156515246235],[139.88694509618463,35.65478057423601],[139.8864357576514,35.65258719176436],[139.8858998023256,35.65111394306937],[139.890073140622,35.64952111783766],[139.89032357165593,35.649946271586316],[139.8922267941312,35.65327366342367]]]},"properties":{"KEY_CODE":"12227005002","PREF":"12","CITY":"227","CITY_NAME":"浦安市","S_NAME":"富士見二丁目","SETAI":"1618"}},{"type":"Feature","geometry":{"type":"Polygon","coordinates":[[[139.88531746960032,35.64363241302048],[139.88717231780115,35.644874886859526],[139.8878921560713,35.645763236540304],[139.890073140622,35.64952111783766],[139.8858998023256,35.65111394306937],[139.8847307376971,35.64876324145143],[139.88356900437458,35.64574659058629],[139.88475401566788,35.644351389965124],[139.88531746960032,35.64363241302048]]]},"properties":{"KEY_CODE":"12227005003","PREF":"12","CITY":"227","CITY_NAME":"浦安市","S_NAME":"富士見三丁目","SETAI":"2354"}},{"type":"Feature","geometry":{"type":"Polygon","coordinates":[[[139.8910715767598,35.644545066562046],[139.89277119645666,35.64803506961568],[139.89032357165593,35.649946271586316],[139.890073140622,35.64952111783766],[139.8878921560713,35.645763236540304],[139.8910715767598,35.644545066562046]]]},"properties":{"KEY_CODE":"12227005004","PREF":"12","CITY":"227","CITY_NAME":"浦安市","S_NAME":"富士見四丁目","SETAI":"1539"}},{"type":"Feature","geometry":{"type":"Polygon","coordinates":[[[139.8884385145926,35.639125553723204],[139.8910715767598,35.644545066562046],[139.8878921560713,35.645763236540304],[139.88717231780115,35.644874886859526],[139.88531746960032,35.64363241302048],[139.88789136892652,35.63963352780049],[139.8884385145926,35.639125553723204]]]},"properties":{"KEY_CODE":"12227005005","PREF":"12","CITY":"227","CITY_NAME":"浦安市","S_NAME":"富士見五丁目","SETAI":"2487"}},{"type":"Feature","geometry":{"type":"Polygon","coordinates":[[[139.90362225949443,35.650754086150926],[139.90887556327382,35.65515744608522],[139.90468094933144,35.65854231145309],[139.90203888827918,35.6520137898829],[139.90362225949443,35.650754086150926]]]},"properties":{"KEY_CODE":"12227006001","PREF":"12","CITY":"227","CITY_NAME":"浦安市","S_NAME":"海楽一丁目","SETAI":"1921"}},{"type":"Feature","geometry":{"type":"Polygon","coordinates":[[[139.90887556327382,35.65515744608522],[139.91321777166567,35.65876949632876],[139.91277951103012,35.65905120147728],[139.90727294324282,35.662598210817116],[139.9062868569065,35.66166833616588],[139.90468094933144,35.65854231145309],[139.90887556327382,35.65515744608522]]]},"properties":{"KEY_CODE":"12227006002","PREF":"12","CITY":"227","CITY_NAME":"浦安市","S_NAME":"海楽二丁目","SETAI":"1459"}},{"type":"Feature","geometry":{"type":"Polygon","coordinates":[[[139.89997029414096,35.64772096989901],[139.90361211453902,35.65074571203443],[139.90362225949443,35.650754086150926],[139.90203888827918,35.6520137898829],[139.90110508927472,35.65273501592297],[139.90047232849432,35.65371743565213],[139.89869669528804,35.65310822401922],[139.89619517727746,35.65215015168861],[139.89551809775713,35.65178096609174],[139.89518329428012,35.65155839554175],[139.89997029414096,35.64772096989901]]]},"properties":{"KEY_CODE":"12227007001","PREF":"12","CITY":"227","CITY_NAME":"浦安市","S_NAME":"東野一丁目","SETAI":"1435"}},{"type":"Feature","geometry":{"type":"Polygon","coordinates":[[[139.8966306405041,35.64491782058651],[139.89997029414096,35.64772096989901],[139.89518329428012,35.65155839554175],[139.89453440979318,35.651032081261214],[139.893643936469,35.649811040777166],[139.89277119645666,35.64803506961568],[139.8966306405041,35.64491782058651]]]},"properties":{"KEY_CODE":"12227007002","PREF":"12","CITY":"227","CITY_NAME":"浦安市","S_NAME":"東野二丁目","SETAI":"1794"}},{"type":"Feature","geometry":{"type":"Polygon","coordinates":[[[139.8904027222184,35.63971436415749],[139.89295034831216,35.641855147667215],[139.89368097692977,35.642483101940236],[139.8939405995245,35.642701412213995],[139.8966306405041,35.64491782058651],[139.89277119645666,35.64803506961568],[139.8910715767598,35.644545066562046],[139.8884385145926,35.639125553723204],[139.88893866146734,35.638737453244005],[139.88909553798058,35.638611575529964],[139.8904027222184,35.63971436415749]]]},"properties":{"KEY_CODE":"12227007003","PREF":"12","CITY":"227","CITY_NAME":"浦安市","S_NAME":"東野三丁目","SETAI":"731"}},{"type":"Feature","geometry":{"type":"Polygon","coordinates":[[[139.91120555599596,35.6489377480846],[139.91388570718337,35.65116535856007],[139.91129700792672,35.65321429684406],[139.9086363015748,35.65098245383235],[139.91120555599596,35.6489377480846]]]},"properties":{"KEY_CODE":"12227008001","PREF":"12","CITY":"227","CITY_NAME":"浦安市","S_NAME":"美浜一丁目","SETAI":"1230"}},{"type":"Feature","geometry":{"type":"Polygon","coordinates":[[[139.90863819418894,35.64678939522928],[139.91120555599596,35.6489377480846],[139.9086363015748,35.65098245383235],[139.9060463067682,35.64882463492758],[139.90861404967515,35.646772755354114],[139.90863819418894,35.64678939522928]]]},"properties":{"KEY_CODE":"12227008002","PREF":"12","CITY":"227","CITY_NAME":"浦安市","S_NAME":"美浜二丁目","SETAI":"869"}},{"type":"Feature","geometry":{"type":"Polygon","coordinates":[[[139.9060463067682,35.64882463492758],[139.9086363015748,35.65098245383235],[139.91129700792672,35.65321429684406],[139.90887556327382,35.65515744608522],[139.90362225949443,35.650754086150926],[139.90361211453902,35.65074571203443],[139.9060112102961,35.64885529019181],[139.9060463067682,35.64882463492758]]]},"properties":{"KEY_CODE":"12227008003","PREF":"12","CITY":"227","CITY_NAME":"浦安市","S_NAME":"美浜三丁目","SETAI":"431"}},{"type":"Feature","geometry":{"type":"Polygon","coordinates":[[[139.91129700792672,35.65321429684406],[139.91589766224664,35.65704029375017],[139.91321777166567,35.65876949632876],[139.90887556327382,35.65515744608522],[139.91129700792672,35.65321429684406]]]},"properties":{"KEY_CODE":"12227008004","PREF":"12","CITY":"227","CITY_NAME":"浦安市","S_NAME":"美浜四丁目","SETAI":"485"}},{"type":"Feature","geometry":{"type":"Polygon","coordinates":[[[139.91388570718337,35.65116535856007],[139.9161525604956,35.65315598688822],[139.91778352250606,35.65576114816093],[139.91589766224664,35.65704029375017],[139.91129700792672,35.65321429684406],[139.91388570718337,35.65116535856007]]]},"properties":{"KEY_CODE":"12227008005","PREF":"12","CITY":"227","CITY_NAME":"浦安市","S_NAME":"美浜五丁目","SETAI":"969"}},{"type":"Feature","geometry":{"type":"Polygon","coordinates":[[[139.9136384370535,35.647021101090594],[139.91629164466488,35.64925614129077],[139.91388570718337,35.65116535856007],[139.91120555599596,35.6489377480846],[139.9136384370535,35.647021101090594]]]},"properties":{"KEY_CODE":"12227009001","PREF":"12","CITY":"227","CITY_NAME":"浦安市","S_NAME":"入船一丁目","SETAI":"407"}},{"type":"Feature","geometry":{"type":"Polygon","coordinates":[[[139.91101926727399,35.64488164341834],[139.9136384370535,35.647021101090594],[139.91120555599596,35.6489377480846],[139.90863819418894,35.64678939522928],[139.91101926727399,35.64488164341834]]]},"properties":{"KEY_CODE":"12227009002","PREF":"12","CITY":"227","CITY_NAME":"浦安市","S_NAME":"入船二丁目","SETAI":"779"}},{"type":"Feature","geometry":{"type":"Polygon","coordinates":[[[139.9152922594068,35.64466327913315],[139.91859772721136,35.64742240643196],[139.91629164466488,35.64925614129077],[139.9136384370535,35.647021101090594],[139.91101926727399,35.64488164341834],[139.9133394442339,35.64303653610657],[139.9152922594068,35.64466327913315]]]},"properties":{"KEY_CODE":"12227009003","PREF":"12","CITY":"227","CITY_NAME":"浦安市","S_NAME":"入船三丁目","SETAI":"604"}},{"type":"Feature","geometry":{"type":"Polygon","coordinates":[[[139.91859772721136,35.64742240643196],[139.92090175586966,35.649305174501265],[139.92379316608455,35.65170561628476],[139.92121246718204,35.65338858865365],[139.91860248229236,35.65118933480816],[139.91629164466488,35.64925614129077],[139.91859772721136,35.64742240643196]]]},"properties":{"KEY_CODE":"12227009004","PREF":"12","CITY":"227","CITY_NAME":"浦安市","S_NAME":"入船四丁目","SETAI":"1320"}},{"type":"Feature","geometry":{"type":"Polygon","coordinates":[[[139.91860248229236,35.65118933480816],[139.92121246718204,35.65338858865365],[139.91804423549166,35.65544339304467],[139.91811036993195,35.6555681673487],[139.91778352250606,35.65576114816093],[139.9161525604956,35.65315598688822],[139.91860248229236,35.65118933480816]]]},"properties":{"KEY_CODE":"12227009005","PREF":"12","CITY":"227","CITY_NAME":"浦安市","S_NAME":"入船五丁目","SETAI":"307"}},{"type":"Feature","geometry":{"type":"Polygon","coordinates":[[[139.91629164466488,35.64925614129077],[139.91860248229236,35.65118933480816],[139.9161525604956,35.65315598688822],[139.91388570718337,35.65116535856007],[139.91629164466488,35.64925614129077]]]},"properties":{"KEY_CODE":"12227009006","PREF":"12","CITY":"227","CITY_NAME":"浦安市","S_NAME":"入船六丁目","SETAI":"805"}},{"type":"Feature","geometry":{"type":"Polygon","coordinates":[[[139.90237077505557,35.64576766220827],[139.9060112102961,35.64885529019181],[139.90361211453902,35.65074571203443],[139.89997029414096,35.64772096989901],[139.90237077505557,35.64576766220827]]]},"properties":{"KEY_CODE":"12227010001","PREF":"12","CITY":"227","CITY_NAME":"浦安市","S_NAME":"富岡一丁目","SETAI":"330"}},{"type":"Feature","geometry":{"type":"Polygon","coordinates":[[[139.90499986252945,35.64373789463674],[139.90861404967515,35.646772755354114],[139.9060463067682,35.64882463492758],[139.9060112102961,35.64885529019181],[139.90237077505557,35.64576766220827],[139.90499986252945,35.64373789463674]]]},"properties":{"KEY_CODE":"12227010002","PREF":"12","CITY":"227","CITY_NAME":"浦安市","S_NAME":"富岡二丁目","SETAI":"532"}},{"type":"Feature","geometry":{"type":"Polygon","coordinates":[[[139.90163246226854,35.64091620052783],[139.90499986252945,35.64373789463674],[139.90237077505557,35.64576766220827],[139.8990641780174,35.64297752896568],[139.90163246226854,35.64091620052783]]]},"properties":{"KEY_CODE":"12227010003","PREF":"12","CITY":"227","CITY_NAME":"浦安市","S_NAME":"富岡三丁目","SETAI":"1349"}},{"type":"Feature","geometry":{"type":"Polygon","coordinates":[[[139.8990641780174,35.64297752896568],[139.90237077505557,35.64576766220827],[139.89997029414096,35.64772096989901],[139.8966306405041,35.64491782058651],[139.8990641780174,35.64297752896568]]]},"properties":{"KEY_CODE":"12227010004","PREF":"12","CITY":"227","CITY_NAME":"浦安市","S_NAME":"富岡四丁目","SETAI":"334"}},{"type":"Feature","geometry":{"type":"Polygon","coordinates":[[[139.9073879750538,35.64184041997733],[139.91101926727399,35.64488164341834],[139.90863819418894,35.64678939522928],[139.90861404967515,35.646772755354114],[139.90499986252945,35.64373789463674],[139.9073879750538,35.64184041997733]]]},"properties":{"KEY_CODE":"12227011001","PREF":"12","CITY":"227","CITY_NAME":"浦安市","S_NAME":"今川一丁目","SETAI":"961"}},{"type":"Feature","geometry":{"type":"Polygon","coordinates":[[[139.90971557720272,35.64001204930739],[139.91013391717374,35.64035281650104],[139.91334626827157,35.64303382029739],[139.9133394442339,35.64303653610657],[139.91101926727399,35.64488164341834],[139.9073879750538,35.64184041997733],[139.90971557720272,35.64001204930739]]]},"properties":{"KEY_CODE":"12227011002","PREF":"12","CITY":"227","CITY_NAME":"浦安市","S_NAME":"今川二丁目","SETAI":"1009"}},{"type":"Feature","geometry":{"type":"Polygon","coordinates":[[[139.90633477195888,35.637193208107284],[139.90971557720272,35.64001204930739],[139.9073879750538,35.64184041997733],[139.90401617896822,35.63902161008996],[139.90633477195888,35.637193208107284]]]},"properties":{"KEY_CODE":"12227011003","PREF":"12","CITY":"227","CITY_NAME":"浦安市","S_NAME":"今川三丁目","SETAI":"639"}},{"type":"Feature","geometry":{"type":"Polygon","coordinates":[[[139.90401617896822,35.63902161008996],[139.9073879750538,35.64184041997733],[139.90499986252945,35.64373789463674],[139.90163246226854,35.64091620052783],[139.90401617896822,35.63902161008996]]]},"properties":{"KEY_CODE":"12227011004","PREF":"12","CITY":"227","CITY_NAME":"浦安市","S_NAME":"今川四丁目","SETAI":"612"}},{"type":"Feature","geometry":{"type":"Polygon","coordinates":[[[139.89539901398504,35.639911561272044],[139.8990641780174,35.64297752896568],[139.8966306405041,35.64491782058651],[139.8939405995245,35.642701412213995],[139.89368097692977,35.642483101940236],[139.89295034831216,35.641855147667215],[139.89539901398504,35.639911561272044]]]},"properties":{"KEY_CODE":"12227012001","PREF":"12","CITY":"227","CITY_NAME":"浦安市","S_NAME":"弁天一丁目","SETAI":"811"}},{"type":"Feature","geometry":{"type":"Polygon","coordinates":[[[139.89796141502757,35.637843034160035],[139.90163246226854,35.64091620052783],[139.8990641780174,35.64297752896568],[139.89539901398504,35.639911561272044],[139.89796141502757,35.637843034160035]]]},"properties":{"KEY_CODE":"12227012002","PREF":"12","CITY":"227","CITY_NAME":"浦安市","S_NAME":"弁天二丁目","SETAI":"691"}},{"type":"Feature","geometry":{"type":"Polygon","coordinates":[[[139.89410834361692,35.63461126756375],[139.89779529227005,35.63770320134029],[139.89796141502757,35.637843034160035],[139.89539901398504,35.639911561272044],[139.89154761370796,35.6366882398774],[139.89410834361692,35.63461126756375]]]},"properties":{"KEY_CODE":"12227012003","PREF":"12","CITY":"227","CITY_NAME":"浦安市","S_NAME":"弁天三丁目","SETAI":"465"}},{"type":"Feature","geometry":{"type":"Polygon","coordinates":[[[139.89154761370796,35.6366882398774],[139.89539901398504,35.639911561272044],[139.89295034831216,35.641855147667215],[139.8904027222184,35.63971436415749],[139.8890955379806,35.63861157552996],[139.8903748976791,35.63760950394915],[139.89154761370796,35.6366882398774]]]},"properties":{"KEY_CODE":"12227012004","PREF":"12","CITY":"227","CITY_NAME":"浦安市","S_NAME":"弁天四丁目","SETAI":"535"}},{"type":"Feature","geometry":{"type":"Polygon","coordinates":[[[139.9025110604353,35.63395954822938],[139.90633477195888,35.637193208107284],[139.90401617896822,35.63902161008996],[139.90163246226854,35.64091620052783],[139.89796141502757,35.637843034160035],[139.89779529227005,35.63770320134029],[139.9025110604353,35.63395954822938]]]},"properties":{"KEY_CODE":"12227013001","PREF":"12","CITY":"227","CITY_NAME":"浦安市","S_NAME":"鉄鋼通り一丁目","SETAI":"12"}},{"type":"Feature","geometry":{"type":"Polygon","coordinates":[[[139.9025110604353,35.63395954822938],[139.89779529227005,35.63770320134029],[139.89410834361692,35.63461126756375],[139.89418056348933,35.63455239373486],[139.89452538199313,35.63484604606368],[139.89920614732827,35.631137152963646],[139.9025110604353,35.63395954822938]]]},"properties":{"KEY_CODE":"12227013002","PREF":"12","CITY":"227","CITY_NAME":"浦安市","S_NAME":"鉄鋼通り二丁目","SETAI":"0"}},{"type":"Feature","geometry":{"type":"Polygon","coordinates":[[[139.8984715913828,35.6305098331258],[139.893829340831,35.63425420220035],[139.89418056348933,35.63455239373486],[139.89410834361692,35.63461126756375],[139.89103585493578,35.63205481430938],[139.89196810025985,35.63130255539594],[139.89579296090548,35.628252401630654],[139.8984715913828,35.6305098331258]]]},"properties":{"KEY_CODE":"12227013003","PREF":"12","CITY":"227","CITY_NAME":"浦安市","S_NAME":"鉄鋼通り三丁目","SETAI":"11"}},{"type":"Feature","geometry":{"type":"Polygon","coordinates":[[[139.89103585493578,35.63205481430938],[139.88916765843175,35.633638110786364],[139.8877220079574,35.634703210409924],[139.88416517376257,35.63752677207591],[139.87938032993316,35.64134839650149],[139.87605781200614,35.63910485261194],[139.87677917693625,35.63883978583779],[139.87513272795837,35.637483629191046],[139.87244193358933,35.63302634969891],[139.87255169065654,35.62553340384369],[139.88834224451378,35.621878261564184],[139.89276407614125,35.62555194594419],[139.8930621536791,35.62597889235881],[139.89488296895047,35.62750184884261],[139.89579296090548,35.628252401630654],[139.89196810025985,35.63130255539594],[139.89103585493578,35.63205481430938]]]},"properties":{"KEY_CODE":"12227014001","PREF":"12","CITY":"227","CITY_NAME":"浦安市","S_NAME":"舞浜","SETAI":"3"}},{"type":"Feature","geometry":{"type":"Polygon","coordinates":[[[139.88416517376257,35.63752677207591],[139.88655042832522,35.6378155478764],[139.88893866146734,35.638737453244005],[139.8884385145926,35.639125553723204],[139.88789136892652,35.63963352780049],[139.88531746960032,35.64363241302048],[139.88475401566788,35.644351389965124],[139.87938032993316,35.64134839650149],[139.88416517376257,35.63752677207591]]]},"properties":{"KEY_CODE":"12227014002","PREF":"12","CITY":"227","CITY_NAME":"浦安市","S_NAME":"舞浜二丁目","SETAI":"875"}},{"type":"Feature","geometry":{"type":"Polygon","coordinates":[[[139.89103585493578,35.63205481430938],[139.89410834361692,35.63461126756375],[139.89154761370796,35.6366882398774],[139.8903748976791,35.63760950394915],[139.88909553798058,35.638611575529964],[139.88893866146734,35.638737453244005],[139.88655042832522,35.6378155478764],[139.88416517376257,35.63752677207591],[139.8877220079574,35.634703210409924],[139.88916765843175,35.633638110786364],[139.89103585493578,35.63205481430938]]]},"properties":{"KEY_CODE":"12227014003","PREF":"12","CITY":"227","CITY_NAME":"浦安市","S_NAME":"舞浜三丁目","SETAI":"755"}},{"type":"Feature","geometry":{"type":"Polygon","coordinates":[[[139.92514018762697,35.64711898925216],[139.92465503858725,35.647518166358786],[139.9230734280402,35.64754225284899],[139.92090175586966,35.649305174501265],[139.91859772721136,35.64742240643196],[139.9228848110612,35.64403020885127],[139.92510148656774,35.64587865926625],[139.92564127187242,35.64610294519316],[139.9266355489001,35.64591201337847],[139.92514018762697,35.64711898925216]]]},"properties":{"KEY_CODE":"12227015001","PREF":"12","CITY":"227","CITY_NAME":"浦安市","S_NAME":"日の出一丁目","SETAI":"1568"}},{"type":"Feature","geometry":{"type":"Polygon","coordinates":[[[139.92762792293004,35.64924155726888],[139.92379316608455,35.65170561628476],[139.92090175586966,35.649305174501265],[139.9230734280402,35.64754225284899],[139.92465503858725,35.647518166358786],[139.92514018762697,35.64711898925216],[139.92762792293004,35.64924155726888]]]},"properties":{"KEY_CODE":"12227015002","PREF":"12","CITY":"227","CITY_NAME":"浦安市","S_NAME":"日の出二丁目","SETAI":"835"}},{"type":"Feature","geometry":{"type":"Polygon","coordinates":[[[139.92863051101173,35.6443227722502],[139.93047008930156,35.64583503570945],[139.9314061183588,35.64679063598244],[139.92762792293004,35.64924155726888],[139.92514018762697,35.64711898925216],[139.9266355489001,35.64591201337847],[139.92863051101173,35.6443227722502]]]},"properties":{"KEY_CODE":"12227015003","PREF":"12","CITY":"227","CITY_NAME":"浦安市","S_NAME":"日の出三丁目","SETAI":"1020"}},{"type":"Feature","geometry":{"type":"Polygon","coordinates":[[[139.92863051101173,35.6443227722502],[139.9266355489001,35.64591201337847],[139.92564127187242,35.64610294519316],[139.92510148656774,35.64587865926625],[139.9228848110612,35.64403020885127],[139.92295097795494,35.643978645696286],[139.92423426195512,35.642965304305875],[139.9258178412827,35.644292721542136],[139.92680027313168,35.64351151774754],[139.92761254232875,35.64348037037191],[139.92863051101173,35.6443227722502]]]},"properties":{"KEY_CODE":"12227015004","PREF":"12","CITY":"227","CITY_NAME":"浦安市","S_NAME":"日の出四丁目","SETAI":"245"}},{"type":"Feature","geometry":{"type":"Polygon","coordinates":[[[139.9320980377062,35.641520207614285],[139.92863051101173,35.6443227722502],[139.92761254232875,35.64348037037191],[139.92680027313168,35.64351151774754],[139.9258178412827,35.644292721542136],[139.92423426195512,35.642965304305875],[139.9291262187366,35.63905210905585],[139.9320980377062,35.641520207614285]]]},"properties":{"KEY_CODE":"12227015005","PREF":"12","CITY":"227","CITY_NAME":"浦安市","S_NAME":"日の出五丁目","SETAI":"1259"}},{"type":"Feature","geometry":{"type":"Polygon","coordinates":[[[139.9320980377062,35.641520207614285],[139.93533791368554,35.644227693634164],[139.9314061183588,35.64679063598244],[139.93047008930156,35.64583503570945],[139.92863051101173,35.6443227722502],[139.9320980377062,35.641520207614285]]]},"properties":{"KEY_CODE":"12227015006","PREF":"12","CITY":"227","CITY_NAME":"浦安市","S_NAME":"日の出六丁目","SETAI":"630"}},{"type":"Feature","geometry":{"type":"Polygon","coordinates":[[[139.93224878256137,35.63660787421339],[139.93413271280798,35.6376411052808],[139.9323637792888,35.63909556778011],[139.93559709111062,35.64174681769711],[139.93714218647955,35.64299819998482],[139.93533791368554,35.644227693634164],[139.9320980377062,35.641520207614285],[139.9291262187366,35.63905210905585],[139.93224878256137,35.63660787421339]]]},"properties":{"KEY_CODE":"12227015007","PREF":"12","CITY":"227","CITY_NAME":"浦安市","S_NAME":"日の出七丁目","SETAI":"179"}},{"type":"Feature","geometry":{"type":"Polygon","coordinates":[[[139.93714218647955,35.64299819998482],[139.93559709111062,35.64174681769711],[139.9323637792888,35.63909556778012],[139.93413271280798,35.6376411052808],[139.93942812399482,35.64051968733664],[139.93950398343475,35.64109649502321],[139.93714218647955,35.64299819998482]]]},"properties":{"KEY_CODE":"12227015008","PREF":"12","CITY":"227","CITY_NAME":"浦安市","S_NAME":"日の出八丁目","SETAI":"0"}},{"type":"Feature","geometry":{"type":"Polygon","coordinates":[[[139.91957160666365,35.64127448709277],[139.92295097795494,35.643978645696286],[139.9228848110612,35.64403020885127],[139.91859772721136,35.64742240643196],[139.9152922594068,35.64466327913315],[139.91957160666365,35.64127448709277]]]},"properties":{"KEY_CODE":"12227016001","PREF":"12","CITY":"227","CITY_NAME":"浦安市","S_NAME":"明海一丁目","SETAI":"552"}},{"type":"Feature","geometry":{"type":"Polygon","coordinates":[[[139.91760786870648,35.639611342759686],[139.91957160666365,35.64127448709277],[139.9152922594068,35.64466327913315],[139.9133394442339,35.64303653610657],[139.91334626827157,35.64303382029739],[139.91760786870648,35.639611342759686]]]},"properties":{"KEY_CODE":"12227016002","PREF":"12","CITY":"227","CITY_NAME":"浦安市","S_NAME":"明海二丁目","SETAI":"171"}},{"type":"Feature","geometry":{"type":"Polygon","coordinates":[[[139.92039040402202,35.63738903137077],[139.92235190472346,35.63902733993307],[139.92243082527008,35.63909393129583],[139.91957160666365,35.64127448709277],[139.91760786870648,35.639611342759686],[139.92039040402202,35.63738903137077]]]},"properties":{"KEY_CODE":"12227016003","PREF":"12","CITY":"227","CITY_NAME":"浦安市","S_NAME":"明海三丁目","SETAI":"491"}},{"type":"Feature","geometry":{"type":"Polygon","coordinates":[[[139.92243082527008,35.63909393129583],[139.92321365498935,35.639779458417],[139.92319780545327,35.641927287989276],[139.92423426195512,35.642965304305875],[139.92295097795494,35.643978645696286],[139.91957160666365,35.64127448709277],[139.92243082527008,35.63909393129583]]]},"properties":{"KEY_CODE":"12227016004","PREF":"12","CITY":"227","CITY_NAME":"浦安市","S_NAME":"明海四丁目","SETAI":"813"}},{"type":"Feature","geometry":{"type":"Polygon","coordinates":[[[139.92584252877487,35.636288658746004],[139.9291262187366,35.63905210905585],[139.92423426195512,35.642965304305875],[139.92319780545327,35.641927287989276],[139.92321365498935,35.639779458417],[139.92243082527008,35.63909393129583],[139.92235190472346,35.63902733993307],[139.92584252877487,35.636288658746004]]]},"properties":{"KEY_CODE":"12227016005","PREF":"12","CITY":"227","CITY_NAME":"浦安市","S_NAME":"明海五丁目","SETAI":"947"}},{"type":"Feature","geometry":{"type":"Polygon","coordinates":[[[139.92584252877487,35.636288658746004],[139.92235190472346,35.63902733993307],[139.92039040402202,35.63738903137077],[139.92373642021133,35.634709479334774],[139.9238348418622,35.634630601608094],[139.92584252877487,35.636288658746004]]]},"properties":{"KEY_CODE":"12227016006","PREF":"12","CITY":"227","CITY_NAME":"浦安市","S_NAME":"明海六丁目","SETAI":"549"}},{"type":"Feature","geometry":{"type":"Polygon","coordinates":[[[139.92573834292202,35.63305623776297],[139.93224878256137,35.63660787421339],[139.9291262187366,35.63905210905585],[139.92584252877487,35.636288658746004],[139.9238348418622,35.634630601608094],[139.92573834292202,35.63305623776297]]]},"properties":{"KEY_CODE":"12227016007","PREF":"12","CITY":"227","CITY_NAME":"浦安市","S_NAME":"明海七丁目","SETAI":"0"}},{"type":"Feature","geometry":{"type":"Polygon","coordinates":[[[139.91760786870648,35.639611342759686],[139.91334626827157,35.64303382029739],[139.91013391717374,35.64035281650104],[139.91241658571053,35.638563172824696],[139.9131543875607,35.63892991073494],[139.91394789945372,35.638813492465616],[139.91511976237703,35.63789304066635],[139.91535838921908,35.63771270687554],[139.91760786870648,35.639611342759686]]]},"properties":{"KEY_CODE":"12227017001","PREF":"12","CITY":"227","CITY_NAME":"浦安市","S_NAME":"高洲一丁目","SETAI":"770"}},{"type":"Feature","geometry":{"type":"Polygon","coordinates":[[[139.90862689262883,35.63537831973086],[139.91241658571053,35.638563172824696],[139.91013391717374,35.64035281650104],[139.90971557720272,35.64001204930739],[139.90633477195888,35.637193208107284],[139.90862689262883,35.63537831973086]]]},"properties":{"KEY_CODE":"12227017002","PREF":"12","CITY":"227","CITY_NAME":"浦安市","S_NAME":"高洲二丁目","SETAI":"437"}},{"type":"Feature","geometry":{"type":"Polygon","coordinates":[[[139.91511976237703,35.63789304066635],[139.91394789945372,35.638813492465616],[139.9131543875607,35.63892991073494],[139.91241658571053,35.638563172824696],[139.90862689262883,35.63537831973086],[139.911811105403,35.63286451867523],[139.9136473322523,35.63440411141574],[139.9127630562459,35.63510905713925],[139.9135243148125,35.63573778129719],[139.9130988776399,35.63610742653909],[139.91317888926636,35.63628905622514],[139.9148254236189,35.63767107168376],[139.91511976237703,35.63789304066635]]]},"properties":{"KEY_CODE":"12227017003","PREF":"12","CITY":"227","CITY_NAME":"浦安市","S_NAME":"高洲三丁目","SETAI":"475"}},{"type":"Feature","geometry":{"type":"Polygon","coordinates":[[[139.91523089865777,35.633141577507786],[139.918086437079,35.63541666784751],[139.91815477006384,35.63547510271133],[139.91687254317307,35.63649313678208],[139.91643069855166,35.63684903365128],[139.91535838921908,35.63771270687554],[139.9148254236189,35.63767107168376],[139.91317888926636,35.63628905622514],[139.9130988776399,35.63610742653909],[139.9135243148125,35.63573778129719],[139.9127630562459,35.63510905713925],[139.9136473322523,35.63440411141574],[139.91523089865777,35.633141577507786]]]},"properties":{"KEY_CODE":"12227017004","PREF":"12","CITY":"227","CITY_NAME":"浦安市","S_NAME":"高洲四丁目","SETAI":"733"}},{"type":"Feature","geometry":{"type":"Polygon","coordinates":[[[139.91815477006384,35.63547510271133],[139.92039040402202,35.63738903137077],[139.91760786870648,35.639611342759686],[139.91535838921908,35.63771270687554],[139.91643069855166,35.63684903365128],[139.91687254317307,35.63649313678208],[139.91815477006384,35.63547510271133]]]},"properties":{"KEY_CODE":"12227017005","PREF":"12","CITY":"227","CITY_NAME":"浦安市","S_NAME":"高洲五丁目","SETAI":"1105"}},{"type":"Feature","geometry":{"type":"Polygon","coordinates":[[[139.92077318946968,35.63312322204586],[139.9229901891472,35.63405806755319],[139.92373642021133,35.634709479334774],[139.92039040402202,35.63738903137077],[139.91815477006384,35.63547510271133],[139.918086437079,35.63541666784751],[139.92078661386248,35.63328186977016],[139.92077318946968,35.63312322204586]]]},"properties":{"KEY_CODE":"12227017006","PREF":"12","CITY":"227","CITY_NAME":"浦安市","S_NAME":"高洲六丁目","SETAI":"487"}},{"type":"Feature","geometry":{"type":"Polygon","coordinates":[[[139.92077318946968,35.63312322204586],[139.92078661386248,35.63328186977016],[139.918086437079,35.63541666784751],[139.91523089865777,35.633141577507786],[139.9177109199199,35.631169917851956],[139.9194708212313,35.63255272134094],[139.92077318946968,35.63312322204586]]]},"properties":{"KEY_CODE":"12227017007","PREF":"12","CITY":"227","CITY_NAME":"浦安市","S_NAME":"高洲七丁目","SETAI":"312"}},{"type":"Feature","geometry":{"type":"Polygon","coordinates":[[[139.9177109199199,35.631169917851956],[139.91523089865777,35.633141577507786],[139.9136473322523,35.63440411141574],[139.911811105403,35.63286451867523],[139.91593835594273,35.62967502332325],[139.9177109199199,35.631169917851956]]]},"properties":{"KEY_CODE":"12227017008","PREF":"12","CITY":"227","CITY_NAME":"浦安市","S_NAME":"高洲八丁目","SETAI":"548"}},{"type":"Feature","geometry":{"type":"Polygon","coordinates":[[[139.91744220636804,35.628507266697596],[139.92573834292202,35.63305623776297],[139.9238348418622,35.634630601608094],[139.92373642021133,35.634709479334774],[139.9229901891472,35.63405806755319],[139.92077318946968,35.63312322204586],[139.9194708212313,35.63255272134094],[139.9177109199199,35.631169917851956],[139.91593835594273,35.62967502332325],[139.91744220636804,35.628507266697596]]]},"properties":{"KEY_CODE":"12227017009","PREF":"12","CITY":"227","CITY_NAME":"浦安市","S_NAME":"高洲九丁目","SETAI":"6"}},{"type":"Feature","geometry":{"type":"Polygon","coordinates":[[[139.911811105403,35.63286451867523],[139.90862689262883,35.63537831973086],[139.90633477195888,35.637193208107284],[139.9025110604353,35.63395954822938],[139.89920614732827,35.631137152963646],[139.9000754092637,35.631673797446986],[139.90080473731533,35.631114528589116],[139.90040885793903,35.63077832018822],[139.9015191531429,35.62990088297495],[139.90182608344188,35.629904296795274],[139.90522696050675,35.63277138592569],[139.90670105759088,35.631698720874006],[139.906907186351,35.6313299417556],[139.90471754208784,35.62950830640023],[139.90473412745732,35.62859649327604],[139.90991812972015,35.624462242170296],[139.91000203506297,35.624463982836694],[139.91744220636804,35.628507266697596],[139.91593835594273,35.62967502332325],[139.911811105403,35.63286451867523]]]},"properties":{"KEY_CODE":"122270180","PREF":"12","CITY":"227","CITY_NAME":"浦安市","S_NAME":"港","SETAI":"19"}},{"type":"Feature","geometry":{"type":"Polygon","coordinates":[[[139.89276407614125,35.62555194594419],[139.89353752038045,35.62493770668763],[139.89621107411813,35.61744047961954],[139.89757929018464,35.61667449050726],[139.9058163048335,35.62142990767824],[139.9053187966848,35.62185114560348],[139.90686770304595,35.62313285780449],[139.89942846917577,35.62906107277343],[139.89864849568067,35.62842423748826],[139.8973884830543,35.6294362674512],[139.8984715913828,35.6305098331258],[139.8972845584165,35.629491956272716],[139.8957929609055,35.628252401630654],[139.89488296895047,35.62750184884261],[139.8930621536791,35.62597889235881],[139.89276407614125,35.62555194594419]]]},"properties":{"KEY_CODE":"122270190","PREF":"12","CITY":"227","CITY_NAME":"浦安市","S_NAME":"千鳥","SETAI":"1"}}]}