{"type":"FeatureCollection","features":[{"type":"Feature","geometry":{"type":"Polygon","coordinates":[[[140.41372088982837,35.90737407018859],[140.40784998691487,35.909093351471],[140.40334341466786,35.909873008805214],[140.4004076001186,35.909543069477266],[140.39245467384234,35.908447192369344],[140.3889116467548,35.90717677976238],[140.39034511370286,35.90415978755516],[140.3909066759762,35.90301145319594],[140.3952907142845,35.90441066257082],[140.39498043750862,35.90508080562263],[140.39598031229815,35.90531325887168],[140.39602827702626,35.90521837575984],[140.3965709261665,35.90490633602595],[140.3963128301917,35.9045712427919],[140.39560119938338,35.903898601236364],[140.39666563888525,35.90273100902707],[140.39776656263103,35.90350344746564],[140.39864665189236,35.90493232503111],[140.40013108431128,35.904357513893494],[140.40074718948597,35.90387466941873],[140.40075406679384,35.902198337212],[140.4016160030353,35.90184349781701],[140.40220422637825,35.90113986539465],[140.40216550191994,35.900328901420664],[140.40296771567785,35.899850418997374],[140.40505114437727,35.900192417172995],[140.4064437539091,35.89850135602916],[140.40644367667767,35.89756492010923],[140.40864748916576,35.89759175689351],[140.4086738878681,35.8966520161754],[140.4095854474728,35.896652489101726],[140.40956303475804,35.89568445531896],[140.41064073347687,35.89567810321833],[140.4115095921233,35.89657561676686],[140.41126251289327,35.89733971026806],[140.41228840074635,35.89991227898031],[140.41286439115325,35.89976812587929],[140.41325717538763,35.90110755480708],[140.4121159567342,35.90145017853419],[140.4111576568448,35.901775906644346],[140.41139209206648,35.90247157244122],[140.4124962091405,35.90221301704877],[140.41269145860068,35.90275596465845],[140.41165503636807,35.90317697619099],[140.41218826836544,35.90331270143623],[140.41233281607015,35.90375138305134],[140.41372088982837,35.90737407018859]]]},"properties":{"KEY_CODE":"123420010","PREF":"12","CITY":"342","CITY_NAME":"神崎町","S_NAME":"神崎本宿","SETAI":"508"}},{"type":"Feature","geometry":{"type":"Polygon","coordinates":[[[140.40296771567785,35.899850418997374],[140.40216550191994,35.900328901420664],[140.40220422637825,35.90113986539465],[140.4016160030353,35.90184349781701],[140.40075406679384,35.902198337212],[140.40074718948597,35.90387466941873],[140.40013108431128,35.904357513893494],[140.39864665189236,35.90493232503111],[140.39776656263103,35.90350344746564],[140.39666563888525,35.90273100902707],[140.39417735319546,35.90103294479123],[140.3906258681133,35.89849858008003],[140.39455770167675,35.89487741301324],[140.39516472555522,35.89533468961666],[140.39531751722578,35.89452484132631],[140.3957692305063,35.89421171861479],[140.39727128957094,35.894921241988904],[140.39780483794226,35.89479676502843],[140.39918291840854,35.894766772363255],[140.40026641529195,35.89520249393626],[140.4005487519243,35.8967754333932],[140.40181308814363,35.8977605705561],[140.40227247209683,35.89919857300033],[140.40296771567785,35.899850418997374]]]},"properties":{"KEY_CODE":"123420020","PREF":"12","CITY":"342","CITY_NAME":"神崎町","S_NAME":"神崎神宿","SETAI":"100"}},{"type":"Feature","geometry":{"type":"Polygon","coordinates":[[[140.37671937582704,35.902913805427715],[140.37524880156906,35.90063473960208],[140.3751317696588,35.90025814611767],[140.3756705655792,35.89918768847851],[140.37561114817441,35.89859940995983],[140.3760124602605,35.89509336114634],[140.37625414033656,35.894636206296205],[140.3802837900301,35.89141650142022],[140.3819315817655,35.89110652443618],[140.3867896221352,35.89459098254415],[140.38745666485016,35.895081875924916],[140.38670339101097,35.89577384641554],[140.38775243017702,35.89653609350689],[140.38318467356453,35.90072875605702],[140.38353277875714,35.90158515440559],[140.38167740012332,35.901604865360746],[140.38050577383206,35.904160636295316],[140.37671937582704,35.902913805427715]]]},"properties":{"KEY_CODE":"123420030","PREF":"12","CITY":"342","CITY_NAME":"神崎町","S_NAME":"松崎","SETAI":"16"}},{"type":"Feature","geometry":{"type":"Polygon","coordinates":[[[140.39598031229815,35.90531325887168],[140.39498043750862,35.905080805622646],[140.3952907142845,35.90441066257082],[140.3909066759762,35.90301145319596],[140.39034511370286,35.90415978755516],[140.3889116467548,35.90717677976238],[140.3874047815758,35.90656577849356],[140.38050577383206,35.904160636295316],[140.38167740012332,35.901604865360746],[140.38353277875714,35.90158515440559],[140.38318467356453,35.90072875605702],[140.38775243017702,35.89653609350689],[140.3906258681133,35.89849858008003],[140.39417735319546,35.90103294479123],[140.39666563888525,35.90273100902707],[140.39560119938338,35.903898601236364],[140.3963128301917,35.9045712427919],[140.3965709261665,35.90490633602595],[140.39602827702626,35.90521837575984],[140.39598031229815,35.90531325887168]]]},"properties":{"KEY_CODE":"123420040","PREF":"12","CITY":"342","CITY_NAME":"神崎町","S_NAME":"向野","SETAI":"25"}},{"type":"Feature","geometry":{"type":"Polygon","coordinates":[[[140.39780483794226,35.89479676502843],[140.39727128957094,35.894921241988904],[140.3957692305063,35.89421171861479],[140.39531751722578,35.89452484132631],[140.39516472555522,35.89533468961666],[140.39455770167675,35.89487741301324],[140.3906258681133,35.89849858008003],[140.38775243017702,35.89653609350689],[140.38670339101097,35.89577384641553],[140.38745666485016,35.895081875924916],[140.3867896221352,35.89459098254415],[140.3819315817655,35.89110652443618],[140.38223500128876,35.89103627446983],[140.38371154133057,35.8900858374733],[140.3842250783214,35.889483670746515],[140.38527358583565,35.88537935362947],[140.3871536246243,35.88590551247199],[140.38827833679423,35.886458095110704],[140.38960457912074,35.88607593048147],[140.3918573333166,35.88584420851591],[140.39236582771795,35.88545196264348],[140.39293271725543,35.885980039593804],[140.39312101749317,35.88664548145585],[140.39380641317086,35.88703112612981],[140.3938426661228,35.88779723896692],[140.39508713992242,35.88834677397533],[140.3961242925205,35.88811957150553],[140.39626504782916,35.888597850695966],[140.39770776429486,35.88873800204496],[140.39832326090624,35.890567466951765],[140.3981074461265,35.8915666886453],[140.3974037118558,35.893387263909005],[140.39780483794226,35.89479676502843]]]},"properties":{"KEY_CODE":"123420050","PREF":"12","CITY":"342","CITY_NAME":"神崎町","S_NAME":"小松","SETAI":"109"}},{"type":"Feature","geometry":{"type":"Polygon","coordinates":[[[140.40956303475804,35.89568445531896],[140.4095854474728,35.896652489101726],[140.4086738878681,35.8966520161754],[140.40864748916576,35.89759175689351],[140.40644367667767,35.89756492010923],[140.4064437539091,35.89850135602916],[140.40505114437727,35.900192417172995],[140.40296771567785,35.899850418997374],[140.40227247209683,35.89919857300033],[140.40181308814363,35.8977605705561],[140.4005487519243,35.8967754333932],[140.40026641529195,35.89520249393626],[140.39918291840854,35.894766772363255],[140.39780483794226,35.89479676502843],[140.3974037118558,35.893387263909005],[140.3981074461265,35.8915666886453],[140.39832326090624,35.890567466951765],[140.39770776429486,35.88873800204496],[140.39857122117067,35.888564920783054],[140.39925118843658,35.88880661711424],[140.3994483630831,35.88839480702181],[140.40052424133913,35.888172288964554],[140.40140831190942,35.88842155262623],[140.40262907068822,35.88827569742962],[140.40335934862114,35.88765860715991],[140.40468660320457,35.887728320681816],[140.40517131971595,35.888539732103034],[140.40576059302447,35.88869308055503],[140.40553870759402,35.89041892080328],[140.40577423867106,35.89044032765471],[140.40549990925606,35.89249067227203],[140.40639937561713,35.89258507386081],[140.4067576052429,35.89319617632076],[140.4059489710585,35.89415321815943],[140.40683102182138,35.89479208725477],[140.40771231063675,35.894774319167674],[140.40755078688105,35.89543080285859],[140.40815723335373,35.895670016467534],[140.40956303475804,35.89568445531896]]]},"properties":{"KEY_CODE":"123420060","PREF":"12","CITY":"342","CITY_NAME":"神崎町","S_NAME":"並木","SETAI":"93"}},{"type":"Feature","geometry":{"type":"Polygon","coordinates":[[[140.41372088982837,35.90737407018859],[140.41233281607015,35.90375138305134],[140.41218826836544,35.90331270143623],[140.41165503636807,35.90317697619099],[140.41269145860068,35.90275596465845],[140.4124962091405,35.90221301704877],[140.41139209206648,35.90247157244122],[140.4111576568448,35.901775906644346],[140.4121159567342,35.90145017853419],[140.41325717538763,35.90110755480704],[140.41377792391594,35.90094139670156],[140.41425015779697,35.90056264373247],[140.4146525162384,35.900144856958],[140.41496425365676,35.899950186276605],[140.41583019606108,35.89982171342487],[140.41660643658042,35.89984624129644],[140.41756955846,35.899974418959346],[140.41842799833668,35.90026549484305],[140.41889203209607,35.90041332447121],[140.41944446038835,35.900448751516684],[140.42014687371264,35.9009152850781],[140.42022114906123,35.900101244694085],[140.42131927924316,35.900163456061144],[140.42139302171074,35.899460073718274],[140.42146857170724,35.898714424761195],[140.42214579595586,35.899204566824466],[140.42253698094473,35.89953557539862],[140.42310119142,35.89992149158436],[140.4238813527912,35.90055813579016],[140.42420323535077,35.900786383854495],[140.42474746176623,35.901888717725555],[140.4251459554138,35.90258045815221],[140.42495824707885,35.903207360969326],[140.42598823817187,35.90352082029222],[140.42544460373136,35.90463426929623],[140.4275884300984,35.90532634534565],[140.43057006911525,35.90647083247452],[140.4289212533193,35.90934682080006],[140.4246419042388,35.90703221857804],[140.42012922213243,35.9064494119483],[140.4163833683608,35.906613931193185],[140.41372088982837,35.90737407018859]]]},"properties":{"KEY_CODE":"123420070","PREF":"12","CITY":"342","CITY_NAME":"神崎町","S_NAME":"今","SETAI":"30"}},{"type":"Feature","geometry":{"type":"Polygon","coordinates":[[[140.4289212533193,35.90934682080006],[140.43057006911525,35.90647083247452],[140.4275884300984,35.90532634534565],[140.42544460373136,35.90463426929623],[140.42598823817187,35.90352082029222],[140.42495824707885,35.903207360969326],[140.4251459554138,35.90258045815221],[140.42474746176623,35.901888717725555],[140.4252649489425,35.90169999745679],[140.42633743057496,35.90124170458466],[140.42650842745255,35.90165454442983],[140.4275535864258,35.90212822514001],[140.42807843310436,35.901647042113716],[140.42888670980992,35.90164245914937],[140.4293245759446,35.90207592073588],[140.42989312316632,35.9022842669564],[140.4301119595036,35.90227255444235],[140.4306469735219,35.903879624643345],[140.43168269805597,35.90363672467184],[140.4332411102621,35.90423591033492],[140.43410013614186,35.90482529746211],[140.4337987808943,35.90538064928044],[140.43514231148538,35.906073860371094],[140.43550528439457,35.90632040754093],[140.43601775324666,35.9066658123345],[140.43648696229724,35.907132298197176],[140.43682745726747,35.90742676540878],[140.43742234146086,35.90821516575077],[140.43674009895128,35.908615909440485],[140.4360486746316,35.909863769949595],[140.43587488271706,35.910309078559365],[140.43551961678605,35.91107263722344],[140.434874359014,35.911743048390825],[140.4310612492025,35.91053211468615],[140.4289212533193,35.90934682080006]]]},"properties":{"KEY_CODE":"123420080","PREF":"12","CITY":"342","CITY_NAME":"神崎町","S_NAME":"高谷","SETAI":"20"}},{"type":"Feature","geometry":{"type":"Polygon","coordinates":[[[140.42492085586403,35.88518228246224],[140.42520938683734,35.88556426774037],[140.42541210729837,35.886638473130596],[140.42537033084,35.88735269992384],[140.42506505747284,35.887915747944724],[140.42503499075792,35.8882459773552],[140.4247772205135,35.88796965158202],[140.42121875614873,35.8864688216664],[140.41891199253965,35.88543971308655],[140.41863846015642,35.88540305578359],[140.41816889924948,35.884867920384536],[140.41754640413254,35.88416227141519],[140.4165971676237,35.883117947210174],[140.41623455099264,35.88270227232028],[140.41608357434248,35.8825272425615],[140.41599987431553,35.882446527358546],[140.41266505944333,35.880431211608844],[140.41210985001388,35.88011277644052],[140.41156699755754,35.879773998457665],[140.4114338129766,35.87918841934808],[140.4113447669582,35.87894886302248],[140.41145890220113,35.877494904206046],[140.411852940506,35.87623903240914],[140.41339925964826,35.873123684034354],[140.41533599873,35.87282199680022],[140.41672768797056,35.8718739389375],[140.41704790357636,35.87074137749299],[140.41643492329234,35.86902162553821],[140.41677247890587,35.8689494644082],[140.41750918455008,35.87039355035559],[140.4187740529559,35.870975479155405],[140.41986612248903,35.87027389977712],[140.41992115383337,35.86984775432566],[140.42073409305553,35.87037790035794],[140.4214790143363,35.87046585884482],[140.42266427894978,35.87112930820698],[140.42495500135794,35.873081954040195],[140.4248825645495,35.8732417232065],[140.42492390619628,35.873623406062585],[140.42501910734242,35.87487651544058],[140.42495844777454,35.87550245294555],[140.4249614946873,35.875516591663825],[140.42434566873558,35.875105556274825],[140.42340639770165,35.874361622905624],[140.42222012778498,35.87385535622191],[140.42081769883825,35.87362221673552],[140.42075413915202,35.87401798427829],[140.4208358567222,35.874158559805295],[140.42112871910572,35.874474764044685],[140.42142525797075,35.874842599270636],[140.42133256423625,35.87579620581417],[140.42141359269115,35.8766319773795],[140.4205217342069,35.87630839474691],[140.42029750079627,35.87600759344197],[140.42045202283182,35.87653404818721],[140.41947124213414,35.87721452641052],[140.41872963605738,35.87690997762827],[140.4184610093556,35.877000385134274],[140.41830870422967,35.87676722715924],[140.41831910658533,35.87631793752468],[140.41797128041406,35.87672658672422],[140.41816966202504,35.87714241959232],[140.4179354859319,35.87767025302949],[140.41795517628827,35.877759234338946],[140.41847473043327,35.87719516020173],[140.4187009768031,35.87753486035333],[140.41858889957618,35.87782974440472],[140.4182214787594,35.878063329403595],[140.41795316695436,35.87831475040544],[140.4183051392864,35.8785497759849],[140.41860455711483,35.878662317950074],[140.4187940077211,35.878476289998076],[140.41950390787795,35.878357920205325],[140.4202136031181,35.87896625543611],[140.4205109713824,35.879263011513316],[140.4205868792349,35.87923166718831],[140.42065531882812,35.878828560284255],[140.4210320776382,35.87891580058164],[140.42098991060874,35.879005082960326],[140.4210447804932,35.879345613789894],[140.42129798182347,35.88010345781071],[140.4211601822159,35.88014285927889],[140.42055898869066,35.8799637647077],[140.42016117639346,35.879920012066975],[140.42079917701685,35.880384308977334],[140.42129023428984,35.88066311209507],[140.4215255349499,35.88093693077023],[140.42123706625162,35.88152119314142],[140.42283079043324,35.8824780315487],[140.4236982255886,35.884041954228],[140.42416210417605,35.884634145782975],[140.42492085586403,35.88518228246224]]]},"properties":{"KEY_CODE":"123420090","PREF":"12","CITY":"342","CITY_NAME":"神崎町","S_NAME":"武田","SETAI":"78"}},{"type":"Feature","geometry":{"type":"Polygon","coordinates":[[[140.42808534523786,35.88406717916046],[140.42768862108903,35.88498484032577],[140.4269721526678,35.885607481196104],[140.42707190988293,35.88585977155316],[140.42698590792352,35.88609776954285],[140.42599620598043,35.887524587871106],[140.42552175364727,35.88817281993244],[140.42503499075792,35.8882459773552],[140.42506505747284,35.887915747944724],[140.42537033084,35.88735269992384],[140.42541210729837,35.886638473130596],[140.42520938683734,35.88556426774037],[140.42492085586403,35.88518228246224],[140.42416210417605,35.884634145782975],[140.4236982255886,35.884041954228],[140.42283079043327,35.88247803154871],[140.42123706625162,35.88152119314142],[140.4215255349499,35.88093693077023],[140.42129023428984,35.88066311209507],[140.42079917701685,35.880384308977334],[140.42016117639346,35.879920012066975],[140.42055898869066,35.8799637647077],[140.4211601822159,35.88014285927889],[140.42129798182347,35.88010345781071],[140.4210447804932,35.879345613789894],[140.42098991060874,35.879005082960326],[140.4210320776382,35.87891580058164],[140.42065531882812,35.878828560284255],[140.4205868792349,35.87923166718831],[140.4205109713824,35.879263011513316],[140.4202136031181,35.87896625543611],[140.4195039078779,35.87835792020531],[140.4187940077211,35.878476289998076],[140.41860455711483,35.878662317950074],[140.4183051392864,35.8785497759849],[140.41795316695436,35.87831475040544],[140.4182214787594,35.878063329403595],[140.41858889957618,35.87782974440472],[140.4187009768031,35.87753486035333],[140.41847473043327,35.87719516020173],[140.41795517628827,35.877759234338946],[140.4179354859319,35.87767025302949],[140.41816966202504,35.87714241959232],[140.41797128041406,35.87672658672422],[140.41831910658533,35.87631793752468],[140.41830870422967,35.87676722715924],[140.4184610093556,35.877000385134274],[140.41872963605738,35.87690997762827],[140.41947124213414,35.87721452641052],[140.42045202283182,35.87653404818721],[140.42029750079627,35.87600759344197],[140.4205217342069,35.87630839474691],[140.42141359269115,35.8766319773795],[140.42133256423625,35.87579620581417],[140.42142525797075,35.874842599270636],[140.42112871910572,35.874474764044685],[140.4208358567222,35.874158559805295],[140.42075413915202,35.87401798427829],[140.42081769883825,35.87362221673552],[140.42222012778498,35.87385535622191],[140.42340639770165,35.874361622905624],[140.42434566873558,35.875105556274825],[140.425095042166,35.87563370743261],[140.42569138070016,35.875635188638775],[140.42660784151255,35.87671474949912],[140.4278338305001,35.877768325403515],[140.42812276533417,35.878697279322424],[140.42763558297952,35.87932858928286],[140.42715948995507,35.880563226639325],[140.42684108332054,35.88271744527473],[140.42745950257412,35.883798107042075],[140.4282665672117,35.88355303343653],[140.42808534523786,35.88406717916046]]]},"properties":{"KEY_CODE":"123420100","PREF":"12","CITY":"342","CITY_NAME":"神崎町","S_NAME":"新","SETAI":"22"}},{"type":"Feature","geometry":{"type":"Polygon","coordinates":[[[140.43244753055146,35.87292084204511],[140.43225291361756,35.872961065972795],[140.4317501870678,35.87338856930487],[140.4316301950454,35.87348126067474],[140.43157443974394,35.87359703723409],[140.43143768207867,35.87368075430388],[140.43133574340897,35.8737008885841],[140.43086365056857,35.87363528658783],[140.43058962143317,35.87348717709624],[140.4304633589478,35.8733673642566],[140.4304235042428,35.873302039268225],[140.4300726793486,35.87300202538169],[140.42990912892964,35.87268586509232],[140.4297062693602,35.87237141190242],[140.42956556411937,35.87228634906955],[140.42921796052133,35.87223058279593],[140.4289140715885,35.87218941118544],[140.42779945811108,35.87220696291541],[140.4269118364472,35.87232577214522],[140.42663696351008,35.87241093831846],[140.42651327081228,35.87249538645701],[140.4261967127012,35.872675220206894],[140.42605429360862,35.87267896714122],[140.42510910983535,35.87296325968646],[140.4249711222604,35.87305688648986],[140.42495500135794,35.873081954040195],[140.42266427894978,35.87112930820698],[140.4214790143363,35.87046585884482],[140.42073409305553,35.87037790035794],[140.41992115383337,35.86984775432566],[140.4197792304574,35.86920287160972],[140.42007315592716,35.867920438647175],[140.4193639891317,35.86643670035903],[140.4221558673305,35.866487138331536],[140.42292795201558,35.86607776908067],[140.42247802817909,35.865133579886816],[140.4231759854874,35.86508291747997],[140.422931843738,35.8645792565835],[140.42323688243084,35.86387598193963],[140.4229306963805,35.8620166351849],[140.42317207865028,35.861671357553114],[140.42273063885943,35.861104385734855],[140.4227834126305,35.86019532949356],[140.42445108171862,35.86089760026266],[140.42486283907635,35.86196726841569],[140.42541829976082,35.862550278765],[140.42691075048631,35.86315617270426],[140.42765111535417,35.86376442923652],[140.43018675059278,35.863327653308886],[140.43145788819598,35.86365837143534],[140.432046091065,35.86411273205043],[140.43278729014648,35.86352884716317],[140.43409940163312,35.86391087752811],[140.4361305955361,35.86371724570466],[140.43752716039631,35.86338005098918],[140.4384012378194,35.8634102002284],[140.43887758883605,35.864375842546906],[140.4392726208112,35.8642557542202],[140.439752753099,35.865238924041165],[140.43897008649304,35.865486202769326],[140.4400294166976,35.86627784988656],[140.44034755136485,35.867353595052776],[140.4401096477061,35.8674217987151],[140.43965122743495,35.86787060114199],[140.43975418163961,35.86837610718547],[140.43977082281384,35.868782585550605],[140.439862111722,35.86978320810837],[140.4398970158809,35.87042326283393],[140.4396795762362,35.87045929587978],[140.43968823821493,35.87133393309067],[140.43916448248623,35.87058602120781],[140.43517792703975,35.871266219977684],[140.43486864159175,35.871318980688706],[140.43495780626102,35.871463169095115],[140.43501475907757,35.87206715203983],[140.43456983115792,35.87257433729627],[140.43442562441038,35.872656592818764],[140.4340557792023,35.87272713246063],[140.43351983337945,35.872809820940965],[140.4326976304663,35.87297017451157],[140.43244753055146,35.87292084204511]]]},"properties":{"KEY_CODE":"123420110","PREF":"12","CITY":"342","CITY_NAME":"神崎町","S_NAME":"毛成","SETAI":"57"}},{"type":"Feature","geometry":{"type":"Polygon","coordinates":[[[140.41992115383337,35.86984775432566],[140.41986612248903,35.87027389977712],[140.4187740529559,35.870975479155405],[140.41750918455008,35.87039355035559],[140.41677247890587,35.8689494644082],[140.41643492329234,35.86902162553821],[140.41704790357636,35.87074137749299],[140.41672768797056,35.8718739389375],[140.41533599873,35.87282199680022],[140.41339925964826,35.873123684034354],[140.411852940506,35.87623903240914],[140.41145890220113,35.877494904206046],[140.4113447669582,35.87894886302248],[140.4114338129766,35.87918841934808],[140.41156699755754,35.879773998457665],[140.41103886501648,35.87927551861487],[140.41078962932792,35.87917337507348],[140.41043122869127,35.879062872233305],[140.40516220991123,35.87644262001424],[140.4039303848132,35.87417076157912],[140.4032259390057,35.87446814300992],[140.4029366315203,35.87354001757647],[140.40236179753265,35.873077992177805],[140.40149193677857,35.87290971140736],[140.4008172013655,35.87416852625884],[140.39999292435664,35.874539532784134],[140.39977611450058,35.873872448523905],[140.40055333042326,35.87384176142561],[140.4006266420373,35.873101438111476],[140.4011769453451,35.87262655598602],[140.3995874123598,35.87148033832133],[140.40024020090482,35.87155298657222],[140.39958623607416,35.87022300709235],[140.39830338898506,35.870344647473374],[140.397979786951,35.86996104565536],[140.39851857453525,35.86963763063654],[140.3998001175346,35.869607708976574],[140.40044146244563,35.86834003704372],[140.4004739726137,35.86810721419844],[140.4006766967405,35.867548184234614],[140.40048237962196,35.867006506435516],[140.40040141766053,35.866838348965615],[140.40034881841518,35.86675927394175],[140.40029274096392,35.866659495619956],[140.40013120952642,35.86636552459383],[140.39997163414236,35.866194128195204],[140.3999307584421,35.86605461692414],[140.39981873162498,35.865951581535285],[140.39969376103116,35.86580449959125],[140.39936584592988,35.865281238007285],[140.39942209902756,35.864816990836225],[140.39920886946436,35.86342131955989],[140.39909889366294,35.86305896081976],[140.39864255755268,35.86287903894961],[140.39782005417212,35.86306496771173],[140.39734402480875,35.86276705655755],[140.39739905648472,35.862251255544116],[140.39746267377433,35.86185438018687],[140.39757303462548,35.861644756455824],[140.39783418791473,35.86114521457046],[140.39787978908186,35.860660318494595],[140.39780592180438,35.86033189945441],[140.3977829727718,35.860206369149324],[140.3977688863978,35.86012933113966],[140.39772468856282,35.85968504561406],[140.39773597478478,35.85917273486848],[140.3977195128632,35.85869947547355],[140.397731998066,35.8584967099196],[140.396840545162,35.858107685034895],[140.39708455325257,35.85826556411739],[140.397202410247,35.858345002877044],[140.39738552354964,35.85892311201608],[140.3973027885727,35.859015373587404],[140.39733295392926,35.85937795607361],[140.39728263602697,35.85956437791752],[140.39730863351846,35.86002246229024],[140.39667890427128,35.86015637590428],[140.3962832350783,35.86009965122448],[140.3946941435459,35.8588101297219],[140.394697942393,35.858564055965864],[140.3943769795521,35.85795626827628],[140.3942543149181,35.85751970689759],[140.39537635589016,35.856991302430956],[140.3965401629887,35.856121091204564],[140.39853692523985,35.85524853732715],[140.39815600101812,35.854725242691266],[140.39524385432298,35.854226282830105],[140.39500808038903,35.85576493154823],[140.3948910898238,35.85581324744233],[140.39397516855877,35.85592839487105],[140.39381316737607,35.85603370996657],[140.39332175471293,35.85621446501725],[140.39317334859126,35.8560760805276],[140.39280613468205,35.85594256330104],[140.3924595270178,35.85480808657396],[140.39245087145434,35.85478896525447],[140.3924245938705,35.85474822123932],[140.39414653642845,35.85475338994394],[140.39407750671805,35.852838796528495],[140.4005963587035,35.85323667241654],[140.40331921320188,35.853639040950696],[140.4036244216488,35.85538395735569],[140.4038475208316,35.85533329254005],[140.4049328071138,35.85692458120127],[140.40542187054245,35.85690105231967],[140.40581882653854,35.85629078200766],[140.40751077038735,35.85677843718404],[140.40894544025167,35.85810796029474],[140.40946387092134,35.85825055396126],[140.40879127268948,35.85903033606918],[140.40945995617795,35.858677258083645],[140.41152926269893,35.859832214528026],[140.41093827871416,35.860533379625316],[140.4126847268948,35.86131312812316],[140.4138688823248,35.86256459083252],[140.41522389462605,35.86355227079259],[140.4165835627734,35.864768738299375],[140.4178710773717,35.86602601060164],[140.4193639891317,35.86643670035903],[140.42007315592716,35.867920438647175],[140.4197792304574,35.86920287160972],[140.41992115383337,35.86984775432566]]]},"properties":{"KEY_CODE":"123420120","PREF":"12","CITY":"342","CITY_NAME":"神崎町","S_NAME":"古原","SETAI":"139"}},{"type":"Feature","geometry":{"type":"Polygon","coordinates":[[[140.40576059302447,35.88869308055503],[140.40517131971595,35.888539732103034],[140.40468660320457,35.887728320681816],[140.40335934862114,35.88765860715991],[140.40262907068822,35.88827569742962],[140.40140831190942,35.88842155262623],[140.40052424133913,35.888172288964554],[140.3994483630831,35.88839480702181],[140.39925118843658,35.88880661711424],[140.39857122117067,35.888564920783054],[140.39770776429486,35.88873800204496],[140.39626504782916,35.888597850695966],[140.3961242925205,35.88811957150553],[140.39508713992242,35.88834677397533],[140.3938426661228,35.88779723896692],[140.39380641317086,35.88703112612981],[140.39312101749317,35.88664548145585],[140.39293271725543,35.885980039593804],[140.39236582771795,35.88545196264348],[140.3927364722466,35.88497248816877],[140.39222190898656,35.884181502365166],[140.3919215875863,35.88286034017628],[140.39382115744147,35.88120090912375],[140.39473680428964,35.88124459704598],[140.3956088629601,35.8794001480987],[140.3964135253017,35.87815443883582],[140.3972179413716,35.8773728530277],[140.3983244674174,35.877005000355375],[140.3998567403267,35.875084341353976],[140.39999292435664,35.874539532784134],[140.4008172013655,35.87416852625884],[140.40149193677857,35.87290971140736],[140.40236179753265,35.873077992177805],[140.4029366315203,35.87354001757647],[140.4032259390057,35.87446814300992],[140.4039303848132,35.87417076157912],[140.40516220991123,35.87644262001424],[140.41043122869127,35.879062872233305],[140.40991846214422,35.88000498165378],[140.4095263821221,35.88010656198167],[140.40941369175687,35.88061410982296],[140.4093237061601,35.88110296595973],[140.40917526988073,35.88126929854153],[140.4088909146645,35.8819506213407],[140.4086085557903,35.88208410039543],[140.407853775082,35.8821891083615],[140.40741059632518,35.88202220769185],[140.40700077100308,35.88335158337385],[140.40745175190338,35.88363336173215],[140.40667463130094,35.88481671854672],[140.40730586296098,35.88645085827168],[140.40688838707217,35.88712581411147],[140.40703646112092,35.887906077784],[140.4072661479321,35.88843057875356],[140.40576059302447,35.88869308055503]]]},"properties":{"KEY_CODE":"123420130","PREF":"12","CITY":"342","CITY_NAME":"神崎町","S_NAME":"植房","SETAI":"62"}},{"type":"Feature","geometry":{"type":"Polygon","coordinates":[[[140.41816889924948,35.884867920384536],[140.4186384601564,35.88540305578359],[140.4187843103274,35.88545642564706],[140.41874874029435,35.886264418466425],[140.41876209426852,35.886520273295666],[140.418649168996,35.88699401933423],[140.41802385885296,35.88802119551153],[140.41700227791978,35.888446963527315],[140.4163224734597,35.88815282717768],[140.41609100364425,35.887765252187926],[140.41563983530344,35.88746662115729],[140.41486411840955,35.887395613350066],[140.41467396909687,35.88765587843889],[140.41437822588225,35.8874583202069],[140.41425246798954,35.887301195111675],[140.41387816881218,35.88723540434262],[140.4134188236641,35.88689962257235],[140.41316509085797,35.886281177167554],[140.41267815074093,35.88595678848795],[140.41217703086403,35.88592421450924],[140.41213386696884,35.88592010928079],[140.41163291150679,35.88561880061847],[140.41136195251312,35.885827923077485],[140.4114742669391,35.886041452401315],[140.41128200508243,35.88625644647945],[140.4110451735892,35.886054782289804],[140.41097742814588,35.88625791066706],[140.41093084408388,35.88673504608181],[140.4108823732227,35.886733201742196],[140.41092202187275,35.88424551710552],[140.4106674200225,35.88267669734239],[140.41070543073204,35.88238289953822],[140.4096944505003,35.88235181387364],[140.40880195911498,35.88223607991502],[140.4083343001681,35.88229129253211],[140.407853775082,35.8821891083615],[140.4086085557903,35.88208410039543],[140.4088909146645,35.8819506213407],[140.40917526988073,35.88126929854153],[140.4093237061601,35.88110296595973],[140.40941369175687,35.88061410982296],[140.4095263821221,35.88010656198167],[140.40991846214422,35.88000498165378],[140.41043122869127,35.879062872233305],[140.41078962932792,35.87917337507348],[140.41103886501648,35.87927551861487],[140.4114375534086,35.879690118404916],[140.4115669975576,35.87977399845771],[140.41210985001388,35.88011277644052],[140.41266505944333,35.880431211608844],[140.41599987431553,35.882446527358546],[140.41608357434248,35.8825272425615],[140.41623455099264,35.88270227232028],[140.4165971676237,35.883117947210174],[140.41754640413254,35.88416227141519],[140.41816889924948,35.884867920384536]]]},"properties":{"KEY_CODE":"123420140","PREF":"12","CITY":"342","CITY_NAME":"神崎町","S_NAME":"立野","SETAI":"18"}},{"type":"Feature","geometry":{"type":"Polygon","coordinates":[[[140.42888670980992,35.90164245914937],[140.42807843310436,35.901647042113716],[140.4275535864258,35.90212822514001],[140.42650842745255,35.90165454442983],[140.42633743057496,35.90124170458466],[140.42602000395215,35.90021761511567],[140.4250419179894,35.89852469517617],[140.4226875743025,35.89698658948845],[140.42208414113213,35.89607191641039],[140.4210952697432,35.8922439227828],[140.42047021878884,35.89148649570762],[140.41857496275608,35.89183543681201],[140.41771844901086,35.89239054940397],[140.41717544128574,35.89130685888187],[140.41761449030486,35.89096767362472],[140.417284213948,35.88963381268372],[140.41599312075869,35.888881051545034],[140.41614229379948,35.888238438413545],[140.41486411840955,35.887395613350066],[140.41563983530344,35.88746662115729],[140.41609100364425,35.887765252187926],[140.4163224734597,35.88815282717768],[140.41700227791978,35.888446963527315],[140.41802385885296,35.88802119551153],[140.418649168996,35.88699401933423],[140.41876209426852,35.886520273295666],[140.41874874029435,35.886264418466425],[140.4187843103274,35.88545642564706],[140.41863846015642,35.88540305578359],[140.41891199253965,35.88543971308655],[140.42121875614873,35.8864688216664],[140.4247772205135,35.88796965158202],[140.42503499075792,35.8882459773552],[140.42593978085304,35.88992792002315],[140.42635551861562,35.89251840686283],[140.42643657090701,35.89395175745148],[140.42917104557603,35.901651662450405],[140.42888670980992,35.90164245914937]]]},"properties":{"KEY_CODE":"123420150","PREF":"12","CITY":"342","CITY_NAME":"神崎町","S_NAME":"大貫","SETAI":"87"}},{"type":"Feature","geometry":{"type":"Polygon","coordinates":[[[140.41771844901086,35.89239054940397],[140.41857496275608,35.89183543681201],[140.42047021878884,35.89148649570762],[140.4210952697432,35.8922439227828],[140.42208414113213,35.89607191641039],[140.4226875743025,35.89698658948845],[140.4250419179894,35.89852469517617],[140.42602000395215,35.90021761511567],[140.42633743057496,35.90124170458466],[140.4252649489425,35.90169999745679],[140.42474746176623,35.90188871772554],[140.42420323535077,35.900786383854495],[140.4238813527912,35.90055813579016],[140.42310119142,35.89992149158436],[140.42253698094473,35.89953557539862],[140.42214579595586,35.899204566824466],[140.42146857170724,35.89871442476118],[140.42139302171074,35.899460073718274],[140.42131927924316,35.900163456061144],[140.42022114906123,35.90010124469413],[140.42014687371264,35.9009152850781],[140.41944446038835,35.900448751516684],[140.41889203209607,35.90041332447121],[140.41842799833668,35.90026549484305],[140.41756955846,35.899974418959346],[140.41660643658042,35.89984624129644],[140.41583019606108,35.89982171342487],[140.41496425365676,35.899950186276605],[140.4146525162384,35.900144856958],[140.41425015779697,35.90056264373247],[140.41377792391594,35.90094139670156],[140.41325717538763,35.90110755480708],[140.41286439115325,35.89976812587929],[140.41228840074635,35.89991227898031],[140.41126251289327,35.89733971026806],[140.4115095921233,35.89657561676686],[140.41064073347687,35.89567810321833],[140.40956303475804,35.89568445531896],[140.40815723335373,35.895670016467534],[140.40755078688105,35.89543080285859],[140.40771231063675,35.894774319167674],[140.40683102182138,35.89479208725477],[140.4059489710585,35.89415321815943],[140.4067576052429,35.89319617632076],[140.40639937561713,35.89258507386081],[140.40549990925606,35.89249067227203],[140.40577423867106,35.89044032765471],[140.40553870759402,35.89041892080328],[140.40576059302447,35.88869308055503],[140.4072661479321,35.88843057875356],[140.40703646112092,35.887906077784],[140.40792322345337,35.88752103887502],[140.4109314334628,35.88681593491738],[140.41097957907755,35.88729571988228],[140.41164657049345,35.88812061513218],[140.41239047598373,35.88976452075616],[140.41372181480892,35.889800543538236],[140.4146507522473,35.890724524008924],[140.4142621677118,35.89106164264953],[140.4153547047431,35.891546973095295],[140.41587853144316,35.89136722647749],[140.41717077993297,35.892593974760054],[140.41771844901086,35.89239054940397]]]},"properties":{"KEY_CODE":"123420160","PREF":"12","CITY":"342","CITY_NAME":"神崎町","S_NAME":"郡","SETAI":"345"}},{"type":"Feature","geometry":{"type":"Polygon","coordinates":[[[140.41070543073204,35.88238289953822],[140.4106674200225,35.88267669734239],[140.41092202187275,35.88424551710552],[140.4108823732227,35.886733201742196],[140.41093084408388,35.88673504608181],[140.4109314334628,35.88681593491738],[140.40792322345337,35.88752103887502],[140.40703646112092,35.887906077784],[140.40688838707217,35.88712581411147],[140.40730586296098,35.88645085827168],[140.40667463130094,35.88481671854672],[140.40745175190338,35.88363336173215],[140.40700077100308,35.88335158337385],[140.40741059632518,35.88202220769185],[140.407853775082,35.8821891083615],[140.4083343001681,35.88229129253211],[140.40880195911498,35.88223607991502],[140.4096944505003,35.88235181387364],[140.41070543073204,35.88238289953822]]]},"properties":{"KEY_CODE":"123420170","PREF":"12","CITY":"342","CITY_NAME":"神崎町","S_NAME":"成城台","SETAI":"159"}},{"type":"Feature","geometry":{"type":"Polygon","coordinates":[[[140.41486411840955,35.887395613350066],[140.41614229379948,35.888238438413545],[140.41599312075869,35.888881051545034],[140.417284213948,35.88963381268372],[140.41761449030486,35.89096767362472],[140.41717544128574,35.89130685888187],[140.41771844901086,35.89239054940397],[140.41717077993297,35.892593974760054],[140.41587853144316,35.89136722647749],[140.4153547047431,35.891546973095295],[140.4142621677118,35.89106164264953],[140.4146507522473,35.890724524008924],[140.41372181480892,35.889800543538236],[140.41239047598373,35.88976452075616],[140.41164657049345,35.88812061513218],[140.41097957907755,35.88729571988228],[140.4109314334628,35.88681593491738],[140.41093084408388,35.88673504608181],[140.41097742814588,35.88625791066706],[140.4110451735892,35.886054782289804],[140.41128200508243,35.88625644647945],[140.4114742669391,35.886041452401315],[140.41136195251312,35.885827923077485],[140.41163291150679,35.88561880061847],[140.41213386696884,35.88592010928079],[140.41217703086403,35.88592421450924],[140.41267815074093,35.88595678848795],[140.41316509085797,35.886281177167554],[140.4134188236641,35.88689962257235],[140.41387816881218,35.88723540434262],[140.41425246798954,35.887301195111675],[140.41437822588225,35.8874583202069],[140.41467396909687,35.88765587843889],[140.41486411840955,35.887395613350066]]]},"properties":{"KEY_CODE":"123420180","PREF":"12","CITY":"342","CITY_NAME":"神崎町","S_NAME":"四季の丘","SETAI":"421"}}]}