{"type":"FeatureCollection","features":[{"type":"Feature","geometry":{"type":"Polygon","coordinates":[[[134.1462782686869,33.28760717190437],[134.14781125608906,33.28910647046556],[134.14883134152478,33.28887852288739],[134.14920400073427,33.2883648913864],[134.149444439482,33.28889846367166],[134.15151176062352,33.28967931188289],[134.1527715803945,33.28964119826332],[134.15335036479576,33.29013360475083],[134.15351038927278,33.290884653320965],[134.15452765104826,33.29191354004642],[134.15283790881438,33.29490473386681],[134.1530156813612,33.29623474468474],[134.15254408869384,33.29772022771847],[134.15339474619557,33.29871089056427],[134.15403643954556,33.300170540192596],[134.15494084988592,33.30096845405904],[134.15566485697096,33.302094174905726],[134.1556285983687,33.30397763237793],[134.15507023881096,33.3051501329102],[134.15495251221012,33.30606459549441],[134.15580384654496,33.30931526351864],[134.15574158977543,33.310907563357524],[134.15615353610863,33.31211495298748],[134.1561804489575,33.31336301784644],[134.15566894227183,33.31434507691801],[134.15449023474807,33.31572968414449],[134.1523504649096,33.31725532485094],[134.15126972277594,33.31729727614988],[134.14890821744746,33.3166385862404],[134.14580478326138,33.315058751975435],[134.1441057525994,33.313344657325075],[134.14329579698858,33.31198861532756],[134.14318336521208,33.31095105993986],[134.14256251715074,33.309428981374204],[134.14041754242413,33.30752789714454],[134.13889299208714,33.305645803890414],[134.13872313025206,33.30452383034364],[134.13775850524453,33.3030879913009],[134.13816704813715,33.30205198033718],[134.1383496157278,33.30055466204355],[134.13822661276592,33.29968368815339],[134.13902215787516,33.29865455687057],[134.13891576089728,33.29782372024983],[134.13781365355013,33.29624027651691],[134.14019941526428,33.29505847771646],[134.1409379941932,33.29415658329541],[134.14004306058365,33.293498465921346],[134.14067970345295,33.29246364123437],[134.14206766629113,33.290956963670354],[134.14279012609964,33.29123182739091],[134.14395257153413,33.290313294389364],[134.1441106635984,33.2897633409662],[134.14349500500967,33.288828781425394],[134.14440698045658,33.28888806181333],[134.1452163712086,33.28755837115432],[134.1462782686869,33.28760717190437]]]},"properties":{"KEY_CODE":"392020010","PREF":"39","CITY":"202","CITY_NAME":"室戸市","S_NAME":"浮津","SETAI":"893"}},{"type":"Feature","geometry":{"type":"Polygon","coordinates":[[[134.1892022472076,33.356902572888906],[134.18927466872043,33.358669497183726],[134.18881493142496,33.36058210647435],[134.18770565892163,33.36122501506592],[134.18686931518658,33.36112717361405],[134.18427822955348,33.35988866909449],[134.18263942719227,33.36009614405583],[134.17934425120538,33.36176962988757],[134.17797042421762,33.36308845203899],[134.17621900231535,33.36368464801195],[134.17417372270657,33.36406317151784],[134.17213999322522,33.36572299200536],[134.1703076557665,33.36617431519873],[134.17015662828757,33.36669803512993],[134.168796505116,33.36599882590088],[134.16819957891124,33.365227530755966],[134.16820123609205,33.36411415809076],[134.1666650719816,33.36266736952924],[134.16630006876892,33.362014421502955],[134.16593961698916,33.36018256259989],[134.16615856259963,33.35860952880416],[134.1618191207876,33.357863994030396],[134.16142225019976,33.357931593976986],[134.16217808433916,33.356492703137924],[134.16272229706638,33.35592161906828],[134.16297138533835,33.354729774495475],[134.16145092423363,33.354223840444625],[134.15986966322035,33.354205196446365],[134.15938261681146,33.353801961675664],[134.158531177791,33.35187554791261],[134.15850016870965,33.35008346997693],[134.15769309245212,33.34826117175986],[134.1576692944238,33.34719378475715],[134.1567479708075,33.346554247863594],[134.15574162263601,33.3463640935442],[134.15222008046155,33.343238660617786],[134.15203482069822,33.342415923394675],[134.15366978989823,33.340649156617076],[134.15532439120545,33.339794526750104],[134.1573886377621,33.33791665380445],[134.15852991707237,33.337044840528904],[134.15872020384091,33.33661091640395],[134.15829081173817,33.335287398587454],[134.1567325381538,33.33399694293194],[134.15657311539093,33.332200401418696],[134.15586882705736,33.32833973048316],[134.1543299596221,33.32655926632729],[134.1542217399041,33.32465350062238],[134.15198055013363,33.321537687834336],[134.15197375927562,33.31892584964994],[134.1523504649096,33.31725532485094],[134.15449023474807,33.31572968414449],[134.15566894227183,33.31434507691801],[134.1561804489575,33.31336301784644],[134.15615353610863,33.31211495298748],[134.15574158977543,33.310907563357524],[134.15580384654496,33.30931526351864],[134.15495251221012,33.30606459549441],[134.15507023881096,33.3051501329102],[134.1556285983687,33.30397763237793],[134.15566485697096,33.302094174905726],[134.15494084988592,33.30096845405904],[134.15403643954556,33.300170540192596],[134.15339474619557,33.29871089056427],[134.15254408869384,33.29772022771847],[134.1530156813612,33.29623474468474],[134.15283790881438,33.29490473386681],[134.15452765104826,33.29191354004642],[134.15351038927278,33.290884653320965],[134.15335036479576,33.29013360475083],[134.1527715803945,33.28964119826332],[134.15151176062352,33.28967931188289],[134.149444439482,33.28889846367166],[134.14920400073427,33.2883648913864],[134.14883134152478,33.28887852288739],[134.14781125608906,33.28910647046556],[134.1462782686869,33.28760717190437],[134.14448797872308,33.28705541736204],[134.1458409202762,33.287081733779075],[134.14647718390688,33.28630657559283],[134.14729343141437,33.28736451554781],[134.14956277081518,33.28631029550751],[134.14918726103758,33.28590829786532],[134.14793917189402,33.28656224937959],[134.14691192674258,33.28600224199616],[134.14819368602826,33.28541034592796],[134.14963229098342,33.28436796539863],[134.15026448098575,33.28496642359954],[134.15053556519376,33.28471837561372],[134.15353298197977,33.286897647515154],[134.15531210789018,33.28758078110756],[134.1577570613946,33.28757500036395],[134.15728121883427,33.28871399276706],[134.1583822410972,33.28937917556161],[134.1585922899291,33.29019067681326],[134.1581750101951,33.29040501973148],[134.15583383252041,33.29023815751057],[134.15481580320483,33.29039643630243],[134.15496934141245,33.290715780439164],[134.15626879765125,33.291107611803355],[134.1572751880425,33.291667039632515],[134.16057206507827,33.29267048616145],[134.16279016283033,33.29371753323698],[134.16415603962184,33.294590139177835],[134.1659007673579,33.295043875984184],[134.16584433213936,33.29392015632907],[134.16645863223283,33.294547481769364],[134.16760961167128,33.2949307303063],[134.16838827900693,33.29479626796176],[134.16854159456955,33.29562284693215],[134.16988747606268,33.29599672631657],[134.1700923963192,33.29660357018824],[134.17204954160968,33.29724696853976],[134.17317551558372,33.297004540464016],[134.17328949290987,33.29791738752201],[134.17373325237463,33.298658691024926],[134.17360850481933,33.29918604425828],[134.17594848078704,33.300259457407485],[134.1768179770941,33.30133793546149],[134.18011139919574,33.30268999198992],[134.17954009064985,33.304978296225016],[134.1800008121498,33.30667118644629],[134.18004098264353,33.309103508104194],[134.18025084125682,33.310197690764554],[134.18167428077768,33.31079970295404],[134.18236617172548,33.31150773243653],[134.18261783475234,33.31313119159117],[134.18253176977413,33.3154647693195],[134.18192658906702,33.31750867704105],[134.17792756350843,33.31910081283156],[134.17307160719594,33.32146450107796],[134.17236165347396,33.323065684959374],[134.1728683656334,33.32533904012949],[134.1736532953024,33.326418042074735],[134.17455512555216,33.327006489888646],[134.17578030106682,33.32955197723544],[134.17672058902596,33.33016914489648],[134.17792384739434,33.33140716731365],[134.1784798073552,33.332378150336176],[134.1784241194831,33.33351485312847],[134.17776424525118,33.33490585447311],[134.17835443142454,33.33590464995135],[134.17989138074012,33.33644715968608],[134.1876546983916,33.33829496644744],[134.18807340028587,33.338826603470494],[134.18688140415867,33.340904193116906],[134.1867582772353,33.34170807295995],[134.187235260205,33.344201804708554],[134.18894789609087,33.34588285175359],[134.18762075713613,33.3493082457139],[134.18774176417892,33.351521743761076],[134.18842280964463,33.35251651737325],[134.18911615681068,33.352888922956545],[134.18908080744166,33.35529469983014],[134.1892022472076,33.356902572888906]]]},"properties":{"KEY_CODE":"392020020","PREF":"39","CITY":"202","CITY_NAME":"室戸市","S_NAME":"室津","SETAI":"775"}},{"type":"Feature","geometry":{"type":"Polygon","coordinates":[[[134.1523504649096,33.31725532485094],[134.15197375927562,33.31892584964994],[134.15198055013363,33.321537687834336],[134.1542217399041,33.32465350062238],[134.1543299596221,33.32655926632729],[134.15586882705736,33.32833973048316],[134.15657311539093,33.332200401418696],[134.1567325381538,33.33399694293194],[134.15829081173817,33.335287398587454],[134.15872020384091,33.33661091640395],[134.15852991707237,33.337044840528904],[134.1573886377621,33.33791665380445],[134.15532439120545,33.339794526750104],[134.15366978989823,33.340649156617076],[134.15203482069822,33.342415923394675],[134.15222008046155,33.343238660617786],[134.15574162263601,33.3463640935442],[134.1567479708075,33.346554247863594],[134.1576692944238,33.34719378475715],[134.15769309245212,33.34826117175986],[134.15850016870965,33.35008346997693],[134.158531177791,33.35187554791261],[134.15938261681146,33.353801961675664],[134.15986966322035,33.354205196446365],[134.16145092423363,33.354223840444625],[134.16297138533835,33.354729774495475],[134.16272229706638,33.35592161906828],[134.16217808433916,33.356492703137924],[134.16142225019976,33.357931593976986],[134.16035934074688,33.35839858011038],[134.1595772215301,33.35782472090159],[134.1587216443227,33.356516544039266],[134.15743204897677,33.35574886782636],[134.15508253810705,33.35403571930429],[134.1541535183449,33.35378721104622],[134.15228467292005,33.35366608656142],[134.15093031765116,33.35376148701469],[134.14996223711964,33.353288186056815],[134.14921265039868,33.35250335057984],[134.14759339289415,33.35168318903154],[134.14622468345226,33.35122337048563],[134.14491366205138,33.35120743314283],[134.14318810956104,33.35162930902199],[134.1420102683645,33.35078970105471],[134.14159912802884,33.34937943553892],[134.14056927430335,33.34785461962681],[134.139670650578,33.34713128192089],[134.13820901280263,33.34508856798298],[134.1364836291111,33.34365942594929],[134.13552573755905,33.3431603501875],[134.1342620478288,33.34309847346467],[134.1329296647623,33.34371906331334],[134.13046808366687,33.34299437715147],[134.13000146808798,33.34257003251101],[134.1295557958691,33.34051258002536],[134.1273934958017,33.33825788670249],[134.12570962791884,33.33786219276024],[134.12506938070658,33.33695639110354],[134.12490173981044,33.33438610982788],[134.12450905002342,33.33182929146284],[134.12365576175054,33.330204353003836],[134.1234578102511,33.32920808318973],[134.1234404202543,33.32533677705255],[134.12319033192622,33.323617808394744],[134.1231314327476,33.32168636432486],[134.12205855821963,33.31963650495715],[134.12051583507392,33.3180396878562],[134.1178069669685,33.316215395428564],[134.1155329429679,33.31494991063899],[134.1139558535945,33.31331213169913],[134.1124230250264,33.31204960905779],[134.11196718317862,33.31119681604097],[134.11199740155416,33.30981957141982],[134.11239988689954,33.30820548019338],[134.11232438149833,33.30721648916124],[134.1117937390569,33.30676595086606],[134.1119039184532,33.30619384899649],[134.11161332726064,33.304515810620885],[134.10948401284335,33.30464250522152],[134.10944538203262,33.30357055493426],[134.1089059736714,33.30228111380282],[134.10899759304533,33.30186676041887],[134.1085119583615,33.30059325333869],[134.10740507188456,33.29859964843429],[134.10808141329673,33.297351074528684],[134.1071397677667,33.297042810114746],[134.10893833262443,33.295969045451486],[134.1091359082243,33.29550910210677],[134.1103912328332,33.294764433565064],[134.11023058184253,33.29435854859335],[134.11084305421872,33.293654920791724],[134.11145372031243,33.29407659753363],[134.11408427583575,33.293622642591785],[134.11229103955097,33.294209525881946],[134.11271213423174,33.29485215069065],[134.1145019045786,33.294684564657835],[134.11430339187177,33.29378657217864],[134.11493658744448,33.29374646182824],[134.11640655415079,33.29467329714897],[134.11705839799583,33.29483865736793],[134.11858875761746,33.29595453814888],[134.11940866166512,33.29710729236842],[134.11952397664038,33.29792726977719],[134.12040488609526,33.29874698263315],[134.1212709871126,33.299138460208304],[134.12341307922821,33.29928368946643],[134.1249201090882,33.29905881432647],[134.129738119674,33.298618733194274],[134.13188952472404,33.29811907530484],[134.13610832441734,33.29694513348508],[134.13781365355013,33.29624027651691],[134.13891576089728,33.29782372024983],[134.13902215787516,33.29865455687057],[134.13822661276592,33.29968368815339],[134.1383496157278,33.30055466204355],[134.13816704813715,33.30205198033718],[134.13775850524453,33.3030879913009],[134.13872313025206,33.30452383034364],[134.13889299208714,33.305645803890414],[134.14041754242413,33.30752789714454],[134.14256251715074,33.309428981374204],[134.14318336521208,33.31095105993986],[134.14329579698858,33.31198861532756],[134.1441057525994,33.313344657325075],[134.14580478326138,33.315058751975435],[134.14890821744746,33.3166385862404],[134.15126972277594,33.31729727614988],[134.1523504649096,33.31725532485094]]]},"properties":{"KEY_CODE":"392020030","PREF":"39","CITY":"202","CITY_NAME":"室戸市","S_NAME":"元","SETAI":"637"}},{"type":"Feature","geometry":{"type":"Polygon","coordinates":[[[134.1577570613946,33.28757500036395],[134.159895654992,33.28742457646646],[134.16058703475818,33.287044615407076],[134.16160758786808,33.28714953041683],[134.16267559485385,33.288117081905206],[134.16377297951053,33.28783262185633],[134.16471177396875,33.28842526877972],[134.16546636943755,33.28817637364087],[134.1676340061101,33.286663173819655],[134.17022250307065,33.28627656482395],[134.17252041285505,33.28640628966956],[134.17536126521233,33.28566602062631],[134.17846832147376,33.28626964275724],[134.1780224358714,33.28695220669393],[134.17942933639856,33.28686741109469],[134.17915880327627,33.28821100663904],[134.17854346965916,33.288295982722275],[134.17929057863455,33.28918059252188],[134.17932675794282,33.29106206347417],[134.18000256181244,33.29180648357378],[134.17963272737273,33.2928876342139],[134.1805898952687,33.29367586098994],[134.18076464496176,33.294262073377375],[134.18045324791203,33.295220472585235],[134.1808520085681,33.296118299820726],[134.18180279215306,33.29677505743162],[134.18194588881954,33.2974521217269],[134.18133556193112,33.29888372905347],[134.18219753390966,33.299577233799674],[134.18154197734282,33.30109975624889],[134.18067473413979,33.30181184447421],[134.18011139919574,33.30268999198992],[134.1768179770941,33.30133793546149],[134.17594848078704,33.300259457407485],[134.17360850481933,33.29918604425828],[134.17373325237463,33.298658691024926],[134.17328949290987,33.29791738752201],[134.17317551558372,33.297004540464016],[134.17204954160968,33.29724696853976],[134.1700923963192,33.29660357018824],[134.16988747606268,33.29599672631657],[134.16854159456955,33.29562284693215],[134.16838827900693,33.29479626796176],[134.16760961167128,33.2949307303063],[134.16645863223283,33.294547481769364],[134.16584433213936,33.29392015632907],[134.1659007673579,33.295043875984184],[134.16415603962184,33.294590139177835],[134.16279016283033,33.29371753323698],[134.16057206507827,33.29267048616145],[134.1572751880425,33.291667039632515],[134.15626879765125,33.291107611803355],[134.15496934141245,33.290715780439164],[134.15481580320483,33.29039643630243],[134.15583383252041,33.29023815751057],[134.1581750101951,33.29040501973148],[134.1585922899291,33.29019067681326],[134.1583822410972,33.28937917556161],[134.15728121883427,33.28871399276706],[134.1577570613946,33.28757500036395]]]},"properties":{"KEY_CODE":"392020040","PREF":"39","CITY":"202","CITY_NAME":"室戸市","S_NAME":"領家","SETAI":"150"}},{"type":"Feature","geometry":{"type":"Polygon","coordinates":[[[134.17015662828757,33.36669803512993],[134.1704439226974,33.368384864031846],[134.17035502289625,33.369530863296916],[134.1714851582691,33.3717385297058],[134.171438456176,33.372429181497054],[134.17187964266384,33.3742424711841],[134.17173663726655,33.37514398090582],[134.17296880873937,33.37856820473488],[134.17190465396035,33.38020940909831],[134.1718402460345,33.38167737199045],[134.17119447425517,33.38340402910353],[134.17221669712288,33.38603619251212],[134.1726156076796,33.38739127788462],[134.17360326911393,33.38850932912353],[134.17635929485238,33.390250766529704],[134.17904588305984,33.39095496550123],[134.17966451355392,33.39155387241306],[134.18018466971895,33.39393354517777],[134.18004745315045,33.394271467665675],[134.18052375706392,33.39560776696935],[134.1800912547995,33.39730596935751],[134.179103996103,33.397490597327824],[134.17710853022146,33.396403098069335],[134.17600111989685,33.3965687406416],[134.17458345443362,33.397405898501006],[134.17396917345732,33.39856273045693],[134.17322198392142,33.398908651330885],[134.17110444233074,33.399236861664996],[134.16985679028832,33.39883795169447],[134.16692616268648,33.40039468869893],[134.16567263239205,33.400559294964424],[134.16505742628135,33.40096672449996],[134.16542597414454,33.40256346836041],[134.1640854285374,33.40429518383758],[134.16418605747094,33.40675357925319],[134.163920773074,33.407872219088226],[134.16472510250773,33.40985482817541],[134.16624120531299,33.412132660721035],[134.1668534426498,33.413459311484],[134.16747547249096,33.41415114305487],[134.1683595566438,33.414544958639034],[134.169202305029,33.416143442105344],[134.17025959838074,33.41738515925114],[134.17072198767983,33.41851404354576],[134.17068252095842,33.419226389235114],[134.17010308641997,33.42081974029284],[134.16934529953247,33.42196456903253],[134.16895331728657,33.42353569885105],[134.169693330458,33.426072747381454],[134.1706251387674,33.42652520415697],[134.1709864654302,33.42718684322222],[134.1708692911301,33.42899555529967],[134.17251654245206,33.430749610064034],[134.17412276093572,33.431717224244714],[134.17441103356492,33.43323991351879],[134.17528750887394,33.433776144362035],[134.17642233606063,33.434999076503225],[134.1778977935698,33.43557686141087],[134.17837765124764,33.43700608678645],[134.17780071059752,33.43794296179349],[134.1760128404912,33.437376582928934],[134.174626716944,33.437450616478635],[134.1738977151343,33.43776860849263],[134.1733655559202,33.43850713459542],[134.17274575362805,33.44006345273205],[134.17120250538045,33.44086067792516],[134.16920873691154,33.44122877734442],[134.16665432594215,33.442084559831535],[134.16628185723528,33.442386005223725],[134.16560711326417,33.44386186843557],[134.16268253195284,33.44591582627493],[134.15900522964728,33.44431438912627],[134.15876044105997,33.44326124343819],[134.15814121514646,33.44261840643407],[134.15674617682862,33.441846912669234],[134.15524268333107,33.4406805984886],[134.1505132976612,33.4396641100836],[134.14897124846638,33.439454685327966],[134.14770469793328,33.43861830141225],[134.1468664150051,33.43626513982305],[134.14597565390443,33.43515137425417],[134.1446373930165,33.43393413767165],[134.14115560987318,33.431670921740825],[134.138960380523,33.43081164717027],[134.13667807200594,33.428879001159416],[134.13523612666197,33.4279169994859],[134.13445851330573,33.42708284813849],[134.13363513352394,33.425094489942715],[134.13329182769533,33.42335678709433],[134.1321276201068,33.42238228516625],[134.1300603515865,33.421783526456835],[134.12950272139858,33.42102464841026],[134.12878991087422,33.41917131402114],[134.12877542164057,33.4185628708051],[134.1292773213116,33.41752493972813],[134.13020919989845,33.41635938571587],[134.13172669354046,33.41508459247171],[134.13292580227414,33.41367272174909],[134.13504090191813,33.41176400566943],[134.13631865623373,33.41037846304638],[134.13628703118155,33.40918221220165],[134.13557348339006,33.40800264746422],[134.13284850863153,33.4058049883411],[134.13083126300194,33.403723536143154],[134.12976969820966,33.40198785605057],[134.1291892018926,33.39934920863108],[134.128376091067,33.39825501723112],[134.12736587984972,33.39732623057762],[134.12740891280663,33.394908744784466],[134.12726200963507,33.39341772808724],[134.1269437593034,33.39264176193691],[134.1243084847117,33.39143515003426],[134.12345985273217,33.3908349189515],[134.1226165851508,33.389797831878276],[134.12094247732233,33.388772341044586],[134.1191121550552,33.3883227186398],[134.1170841375929,33.38829883134059],[134.11551638717665,33.38777841551754],[134.11443923994315,33.3865428584513],[134.11284938404242,33.38432488005622],[134.11220955006124,33.38401884641784],[134.10894877671907,33.38388328622702],[134.10679546752397,33.383628788741525],[134.10515882496838,33.38305017954796],[134.10341251530906,33.38143248080051],[134.1024369299468,33.38118224926485],[134.10083874437686,33.38161513966961],[134.09895142727947,33.38241522620717],[134.09735535619566,33.380929499906635],[134.09680140572195,33.38012853948617],[134.09724627658028,33.37768393799255],[134.09697763023578,33.37693598460745],[134.0958980533555,33.3758781045976],[134.09441016714598,33.375088914191515],[134.09312170320513,33.3740298570321],[134.09227032450102,33.37366948516916],[134.09036289961057,33.372353777247575],[134.09019760004315,33.37177805960768],[134.0906192324461,33.36973314646529],[134.08983394674758,33.366330624726096],[134.08993345753015,33.36570546701109],[134.09113682892522,33.36373868430918],[134.0911276822775,33.363086359491604],[134.09014384614926,33.361968684008524],[134.0902960596796,33.36016813503642],[134.08995782274658,33.358885265681366],[134.08984203379606,33.357106639629],[134.08851930898936,33.3567650609591],[134.0857650764874,33.35534428771616],[134.0843297084908,33.354327580740126],[134.08266383850994,33.35169144799447],[134.08240113728172,33.35096470094074],[134.08137853892998,33.34987792940638],[134.08078009776898,33.34887052262275],[134.07930695071568,33.346981335843665],[134.07805353167024,33.34588767053232],[134.07665651134158,33.34557587099579],[134.07599722400016,33.34592836103867],[134.07532835664617,33.34718163648947],[134.0738248751233,33.346661890198874],[134.0742756222092,33.346101620635494],[134.07410369924966,33.34561282929718],[134.0745062902007,33.3445911156836],[134.07582033950794,33.34299167558436],[134.07576635518248,33.34230212198879],[134.07635598427555,33.34195308984726],[134.0777719397556,33.34050736067301],[134.07868398744148,33.34018385801743],[134.07819015797102,33.33975067904731],[134.08013487616947,33.33753955037352],[134.08040230719172,33.3368854715005],[134.08198840500856,33.33681396196402],[134.08359067371975,33.33643130175348],[134.08466754213717,33.33586622470489],[134.08705826049803,33.33500544089788],[134.08849933203186,33.334131120046735],[134.09125179040367,33.333085471169824],[134.0921131968654,33.33291539437828],[134.09268137703648,33.33385677842589],[134.0929843374308,33.3337101300272],[134.0925028913544,33.332565481113626],[134.09302654940302,33.33248631426397],[134.09972882811542,33.32928971584835],[134.10153876730314,33.32805187441195],[134.1027453314022,33.32701080143699],[134.10428377406268,33.32472464422629],[134.1038765411376,33.32454718319852],[134.10312986003606,33.32576364293355],[134.10304260662383,33.32541332321057],[134.10437293466026,33.32348795214053],[134.1053449814803,33.32286821480237],[134.10607655736965,33.320722142271336],[134.10691160419233,33.31616085929391],[134.10661875066629,33.315594233501066],[134.10700155289166,33.31504410853497],[134.10673808234003,33.313754183858784],[134.10839705534622,33.31186867885806],[134.10832427062283,33.310975441669974],[134.10913850674729,33.309620669628764],[134.10888184832146,33.307767152176744],[134.1093467733294,33.30745105695784],[134.10963923923438,33.30580852096569],[134.10948401284335,33.30464250522152],[134.11161332726064,33.304515810620885],[134.1119039184532,33.30619384899649],[134.1117937390569,33.30676595086606],[134.11232438149833,33.30721648916124],[134.11239988689954,33.30820548019338],[134.11199740155416,33.30981957141982],[134.11196718317862,33.31119681604097],[134.1124230250264,33.31204960905779],[134.1139558535945,33.31331213169913],[134.1155329429679,33.31494991063899],[134.1178069669685,33.316215395428564],[134.12051583507392,33.3180396878562],[134.12205855821963,33.31963650495715],[134.1231314327476,33.32168636432486],[134.12319033192622,33.323617808394744],[134.1234404202543,33.32533677705255],[134.1234578102511,33.32920808318973],[134.12365576175054,33.330204353003836],[134.12450905002342,33.33182929146284],[134.12490173981044,33.33438610982788],[134.12506938070658,33.33695639110354],[134.12570962791884,33.33786219276024],[134.1273934958017,33.33825788670249],[134.1295557958691,33.34051258002536],[134.13000146808798,33.34257003251101],[134.13046808366687,33.34299437715147],[134.1329296647623,33.34371906331334],[134.1342620478288,33.34309847346467],[134.13552573755905,33.3431603501875],[134.1364836291111,33.34365942594929],[134.13820901280263,33.34508856798298],[134.139670650578,33.34713128192089],[134.14056927430335,33.34785461962681],[134.14159912802884,33.34937943553892],[134.1420102683645,33.35078970105471],[134.14318810956104,33.35162930902199],[134.14491366205138,33.35120743314283],[134.14622468345226,33.35122337048563],[134.14759339289415,33.35168318903154],[134.14921265039868,33.35250335057984],[134.14996223711964,33.353288186056815],[134.15093031765116,33.35376148701469],[134.15228467292005,33.35366608656142],[134.1541535183449,33.35378721104622],[134.15508253810705,33.35403571930429],[134.15743204897677,33.35574886782636],[134.1587216443227,33.356516544039266],[134.1595772215301,33.35782472090159],[134.16035934074688,33.35839858011038],[134.16142225019976,33.357931593976986],[134.1618191207876,33.357863994030396],[134.16615856259963,33.35860952880416],[134.16593961698916,33.36018256259989],[134.16630006876892,33.362014421502955],[134.1666650719816,33.36266736952924],[134.16820123609205,33.36411415809076],[134.16819957891124,33.365227530755966],[134.168796505116,33.36599882590088],[134.17015662828757,33.36669803512993]]]},"properties":{"KEY_CODE":"392020050","PREF":"39","CITY":"202","CITY_NAME":"室戸市","S_NAME":"吉良川町","SETAI":"903"}},{"type":"Feature","geometry":{"type":"Polygon","coordinates":[[[134.13305649446949,33.474583331449274],[134.13210030941994,33.474557887556635],[134.13184976330817,33.47417539308244],[134.13040350023118,33.47312301538601],[134.12907798633358,33.47169091593836],[134.12878284121592,33.470158755287585],[134.12719524908,33.468335150182504],[134.12514369892887,33.466936068347394],[134.12458628504382,33.46583778552283],[134.12391201912794,33.46507782624876],[134.12197602629638,33.46370565103964],[134.12105793672828,33.46366548641309],[134.11959132535333,33.46202378475709],[134.11877779707368,33.46134719958681],[134.11863387336257,33.46050530772895],[134.11761742415428,33.460226114165366],[134.1164546855199,33.45905156459007],[134.11556658857214,33.45946439049464],[134.11413668210352,33.45891152995789],[134.11282833887782,33.45808920692579],[134.11156723068163,33.456668694834526],[134.11173759529703,33.45573735553629],[134.11121190749725,33.45355157003898],[134.1104115427751,33.45209772384232],[134.1090090339368,33.450836834233094],[134.1089087610442,33.44906206250805],[134.10824720968938,33.44772990409822],[134.1082892404842,33.44680331908031],[134.10818212479907,33.44666874055891],[134.10824506110188,33.44625486708611],[134.10770141320023,33.44500999229643],[134.10744145668446,33.444613209729305],[134.10743960194674,33.44405662589165],[134.10719282032056,33.443489202321295],[134.10625249776461,33.442885564752714],[134.10566972484426,33.44281087109657],[134.10495158453696,33.443090106280124],[134.10441973239486,33.44323229437713],[134.103173928949,33.44278002847882],[134.1025921569297,33.442257301556026],[134.10205145798054,33.44201526119768],[134.10093625872517,33.44170190900447],[134.09989525366527,33.44140541060685],[134.09936411636656,33.44135283476645],[134.09856568864328,33.44103101628953],[134.09850816509686,33.4410416520032],[134.09813936866593,33.44126399558719],[134.09802431906542,33.44128526448162],[134.09719486728767,33.44063616996453],[134.0964531741984,33.440186569579524],[134.09612379203855,33.44015368388665],[134.09548431564434,33.43990519156157],[134.09530796957498,33.43968721462733],[134.0949315058906,33.43939264511008],[134.09481609629498,33.438460961531725],[134.09537673151803,33.43771553522946],[134.0956770371754,33.43741251466618],[134.09578832529485,33.4371379865947],[134.09471763496688,33.43580599311808],[134.0945923451569,33.43553430180856],[134.09469788274345,33.43502889753874],[134.09456657418278,33.434779671963845],[134.09432194646848,33.434508593877354],[134.09466331191692,33.434191609315505],[134.09561027629837,33.43338920783578],[134.0958391585943,33.433167546540645],[134.09580199683174,33.432852356556765],[134.09569834151375,33.43273912908559],[134.09512752882333,33.43229041993277],[134.09480656802705,33.43198695244314],[134.09444698521784,33.43174745699691],[134.09397221388133,33.43120694910559],[134.09371524506386,33.430929021326875],[134.0929896753721,33.43041384070822],[134.09267569647255,33.43022578707085],[134.0913563881519,33.42950665675294],[134.09065310143467,33.429242901792456],[134.08977917863663,33.42868014979195],[134.08888578489453,33.42827946719351],[134.0878150958691,33.42812603378044],[134.08745801540488,33.42794676306463],[134.08711308655717,33.42743490978451],[134.08711596251158,33.42725223783632],[134.08723448661195,33.42682947552666],[134.08706338236615,33.4261703088122],[134.0869846214202,33.4257795137139],[134.08736420402232,33.42534004946718],[134.08747882937507,33.42525331785209],[134.08764253200488,33.425131905153904],[134.0874463307227,33.42440738255475],[134.0874904728795,33.42393675583072],[134.08770098914874,33.42343603393145],[134.0879742111866,33.423083188382506],[134.0883320214248,33.42277301607929],[134.08837163363287,33.422545369178174],[134.0883542327461,33.42240759420066],[134.0874711843584,33.421405446090056],[134.08714302631768,33.42093486255897],[134.08664014470727,33.42017903738923],[134.08660569562994,33.41994829116],[134.0875420847197,33.41790361045472],[134.0863437604486,33.41649286248979],[134.08500053703258,33.41645960638602],[134.08405264957042,33.41619185483627],[134.08397193801045,33.41611813504675],[134.08358971142638,33.41554785762408],[134.0828896893676,33.41604744372128],[134.08224222133248,33.41641240772661],[134.08214343855167,33.41639906983569],[134.08180859582242,33.41614907224269],[134.08137660497573,33.41552045043871],[134.08022134300273,33.41468328002952],[134.07959652202558,33.41474134952338],[134.07897174798669,33.41480631697105],[134.07850473520375,33.41447077960263],[134.07715509530485,33.414085954183314],[134.07704798137715,33.41374699385304],[134.07644178399366,33.41351547319656],[134.0762560049036,33.413409515420234],[134.07612973332837,33.413284296981686],[134.07551177202805,33.41219986714042],[134.074996458148,33.41264687717882],[134.07486930404906,33.41269914074263],[134.07458138955465,33.412700485501],[134.0741021075187,33.41237188594698],[134.07361355319654,33.411572875374844],[134.07312856889322,33.411314922823685],[134.07259895123832,33.410841802714735],[134.0722517879184,33.410588383597705],[134.07205842261777,33.41026704802118],[134.07202817958319,33.41004318642352],[134.07130588777767,33.40935209709909],[134.07077623007743,33.409177079914016],[134.07007220148387,33.4090769736236],[134.06978848435256,33.40894279387356],[134.06914064708627,33.40845231595364],[134.0690496404114,33.40806157487206],[134.06918907918862,33.407686987944885],[134.0692748482986,33.40759357261444],[134.0695405896465,33.40735107980835],[134.0696499412788,33.40709554024717],[134.06956806779363,33.40683574192905],[134.0693271086638,33.406471546843775],[134.0696181123254,33.40600320616423],[134.07004455493578,33.40580480346007],[134.0707145374927,33.40543120961135],[134.07090942212653,33.40504773737551],[134.07070202046998,33.404779893716444],[134.07052257830802,33.40469630213148],[134.0691454662303,33.40417884047531],[134.06884195600387,33.40398895763877],[134.0678340379362,33.4030096789606],[134.06751984087092,33.402759545529165],[134.06747759894915,33.40259430507253],[134.06766488070718,33.40198862518954],[134.06802434426916,33.400997851766775],[134.06807302512124,33.40089766887749],[134.06834862824024,33.399971066186374],[134.06831543203612,33.399922966008766],[134.0672988717349,33.39949514148455],[134.0659015855816,33.398714068275396],[134.06526296973334,33.39727642647164],[134.06542177228602,33.396725999334116],[134.06569009038648,33.395940707878246],[134.06471389500197,33.39570396568369],[134.06409833585982,33.395587883046986],[134.06332332875468,33.39530195369196],[134.0626759333528,33.39502920605643],[134.06149110920708,33.39464345451899],[134.06116630357553,33.39465870915203],[134.06080756714118,33.394512169804614],[134.06047003545044,33.39446200376002],[134.0602971866099,33.394438664281154],[134.0600635201388,33.39423812212836],[134.0597185930015,33.39400015278735],[134.05945865961866,33.39386693210865],[134.05907559596383,33.39377561901134],[134.05895487581788,33.39354871055956],[134.05861618282182,33.39331933925982],[134.05803242328383,33.39303423080847],[134.05752684836617,33.39282030220191],[134.05689866008524,33.39259132228726],[134.0565438016153,33.39239995282763],[134.0563640865007,33.392274955214354],[134.0563063439113,33.392247638233535],[134.05572197842034,33.39218480361891],[134.0555695727842,33.39214069259157],[134.05510431455141,33.39205664182598],[134.05462081761658,33.39200884442751],[134.0544022460054,33.39191335966118],[134.05383091128306,33.3919503818602],[134.0534698300764,33.392076091641854],[134.05318173003457,33.3920394555599],[134.05293427012037,33.39193029141365],[134.05258571938563,33.39176469875674],[134.05227158288398,33.39151110629111],[134.0518274463524,33.39107899939741],[134.0517269716787,33.39090869620468],[134.0516812022499,33.39082965413816],[134.05086045745955,33.39045076081084],[134.05049801166905,33.390040541079166],[134.0502208957187,33.389790194963396],[134.04982899284312,33.389269827449176],[134.04902501724573,33.38862031066328],[134.04883086377987,33.38847990407943],[134.04828672897636,33.388268644450854],[134.048125406362,33.388121151143764],[134.04808435446398,33.38780599770599],[134.04771877389985,33.38703779203397],[134.04745932037963,33.386835192430055],[134.0474471404589,33.386537133413036],[134.04727691506676,33.38628285089804],[134.04682780473857,33.386136629283406],[134.04654316623734,33.3859931645109],[134.0462596198981,33.386021998434906],[134.04598593876696,33.386309245390414],[134.04573607156942,33.386465430660344],[134.0455009130637,33.3863389690309],[134.04556539173618,33.38548818901429],[134.0445905056814,33.384879920005275],[134.043203138254,33.384496657250565],[134.04252494546736,33.3842308288724],[134.0414923910741,33.384481772293704],[134.04124199929666,33.38454834814409],[134.0409617926674,33.384453068288394],[134.04076313757287,33.38424715177037],[134.04066995271907,33.38414245874888],[134.03984941698354,33.38377727745556],[134.03921917844514,33.38359737179848],[134.03917443578032,33.383592530472576],[134.0374262306747,33.382243826177145],[134.03687871696405,33.38115196914085],[134.03621375339623,33.380668898772505],[134.0347295870243,33.37870053894483],[134.03410615180016,33.378329420338574],[134.03373955868867,33.37741441335694],[134.03437992751108,33.377041957087116],[134.03454931664677,33.37575815036401],[134.0353595807205,33.37574922147822],[134.0350487515119,33.37518972327913],[134.0358842922065,33.37562342394141],[134.03673518510166,33.374544926528245],[134.03669376743503,33.373762432935536],[134.03720385163865,33.373703404362594],[134.03716543935343,33.37235734133421],[134.03810087070016,33.370712199207354],[134.03908165168792,33.37066555568124],[134.03835946374636,33.37013490863089],[134.0378667925098,33.37057437199917],[134.03704422202168,33.37066181129226],[134.03697592788504,33.370046174035934],[134.03841272452465,33.36988161467227],[134.0406930108123,33.371608006544626],[134.04205076336507,33.37169043494017],[134.04434212551604,33.37139901415693],[134.04687093846437,33.370763015569274],[134.0481765233492,33.37058227361756],[134.05138742611723,33.369401180032],[134.05259229678617,33.368768193148384],[134.0542252031283,33.36735243040152],[134.05506107895383,33.36683291149198],[134.05602725401837,33.36585202261416],[134.05822641711717,33.36395125762401],[134.05937105419846,33.36316248651137],[134.06149626064706,33.364633422214716],[134.06058633834536,33.363163307242324],[134.06167236441442,33.36428096139134],[134.06072180182701,33.36301028387139],[134.05978663513898,33.36295592647841],[134.06136408658094,33.36247536329326],[134.06217603323827,33.36191712333894],[134.06280244104587,33.36092240397367],[134.0635148320902,33.36042501480014],[134.0643133670977,33.35913736876924],[134.06581538522758,33.358300930051215],[134.06678678663795,33.35732894924268],[134.0677506264077,33.35602520534885],[134.06819933232387,33.354974469638364],[134.06990978372087,33.35219117337167],[134.06938122922008,33.352034899522174],[134.07049096331687,33.35120113440884],[134.07026266578566,33.35062510496438],[134.07100727088329,33.35047647660154],[134.0717362085074,33.34973822379758],[134.07153640044086,33.34908542099879],[134.07240231213126,33.34892361440678],[134.0731374695897,33.348316983519396],[134.0738248751233,33.346661890198874],[134.07532835664617,33.34718163648947],[134.07599722400016,33.34592836103867],[134.07665651134158,33.34557587099579],[134.07805353167024,33.34588767053232],[134.07930695071568,33.346981335843665],[134.08078009776898,33.34887052262275],[134.08137853892998,33.34987792940638],[134.08240113728172,33.35096470094074],[134.08266383850994,33.35169144799447],[134.0843297084908,33.354327580740126],[134.0857650764874,33.35534428771616],[134.08851930898936,33.3567650609591],[134.08984203379606,33.357106639629],[134.08995782274658,33.358885265681366],[134.0902960596796,33.36016813503642],[134.09014384614926,33.361968684008524],[134.0911276822775,33.363086359491604],[134.09113682892522,33.36373868430918],[134.08993345753015,33.36570546701109],[134.08983394674758,33.366330624726096],[134.0906192324461,33.36973314646529],[134.09019760004315,33.37177805960768],[134.09036289961057,33.372353777247575],[134.09227032450102,33.37366948516916],[134.09312170320513,33.3740298570321],[134.09441016714598,33.375088914191515],[134.0958980533555,33.3758781045976],[134.09697763023578,33.37693598460745],[134.09724627658028,33.37768393799255],[134.09680140572195,33.38012853948617],[134.09735535619566,33.380929499906635],[134.09895142727947,33.38241522620717],[134.10083874437686,33.38161513966961],[134.1024369299468,33.38118224926485],[134.10341251530906,33.38143248080051],[134.10515882496838,33.38305017954796],[134.10679546752397,33.383628788741525],[134.10894877671907,33.38388328622702],[134.11220955006124,33.38401884641784],[134.11284938404242,33.38432488005622],[134.11443923994315,33.3865428584513],[134.11551638717665,33.38777841551754],[134.1170841375929,33.38829883134059],[134.1191121550552,33.3883227186398],[134.12094247732233,33.388772341044586],[134.1226165851508,33.389797831878276],[134.12345985273217,33.3908349189515],[134.1243084847117,33.39143515003426],[134.1269437593034,33.39264176193691],[134.12726200963507,33.39341772808724],[134.12740891280663,33.394908744784466],[134.12736587984972,33.39732623057762],[134.128376091067,33.39825501723112],[134.1291892018926,33.39934920863108],[134.12976969820966,33.40198785605057],[134.13083126300194,33.403723536143154],[134.13284850863153,33.4058049883411],[134.13557348339006,33.40800264746422],[134.13628703118155,33.40918221220165],[134.13631865623373,33.41037846304638],[134.13504090191813,33.41176400566943],[134.13292580227414,33.41367272174909],[134.13172669354046,33.41508459247171],[134.13020919989845,33.41635938571587],[134.1292773213116,33.41752493972813],[134.12877542164057,33.4185628708051],[134.12878991087422,33.41917131402114],[134.12950272139858,33.42102464841026],[134.1300603515865,33.421783526456835],[134.1321276201068,33.42238228516625],[134.13329182769533,33.42335678709433],[134.13363513352394,33.425094489942715],[134.13445851330573,33.42708284813849],[134.13523612666197,33.4279169994859],[134.13667807200594,33.428879001159416],[134.138960380523,33.43081164717027],[134.14115560987318,33.431670921740825],[134.1446373930165,33.43393413767165],[134.14597565390443,33.43515137425417],[134.1468664150051,33.43626513982305],[134.14770469793328,33.43861830141225],[134.14897124846638,33.439454685327966],[134.1505132976612,33.4396641100836],[134.15524268333107,33.4406805984886],[134.15674617682862,33.441846912669234],[134.15814121514646,33.44261840643407],[134.15876044105997,33.44326124343819],[134.15900522964728,33.44431438912627],[134.16268253195284,33.44591582627493],[134.1631948531695,33.44817366083901],[134.16293973215102,33.450891893160986],[134.1633618217456,33.45195042617737],[134.1643924940613,33.452985264943756],[134.16462119321105,33.45422840421835],[134.16428668404518,33.45506654858655],[134.1627597392791,33.456013119832214],[134.16206109813805,33.45669107808994],[134.1609441402776,33.4582776801408],[134.15792272186516,33.45898915911516],[134.15705342976426,33.45938796370879],[134.15479892300206,33.45958464454465],[134.1533511144271,33.46136704206014],[134.15280251829031,33.46407578743502],[134.15149578851882,33.465330442199104],[134.1477953094932,33.467416474459675],[134.14600650320983,33.467151377487276],[134.14415551923278,33.46843408710333],[134.1434930500742,33.46872570709601],[134.14200569365414,33.469267264873835],[134.14128076353836,33.46940056088655],[134.14009332512356,33.46969216259942],[134.13969337595847,33.470075455605475],[134.13905594529595,33.47014210922002],[134.13770602515177,33.470908670457774],[134.13730729664505,33.47209891817226],[134.13687428630107,33.472835499614376],[134.13524655614594,33.4734150628079],[134.1346549884725,33.47412188333345],[134.1340228978909,33.4742883317622],[134.13305649446949,33.474583331449274]]]},"properties":{"KEY_CODE":"392020060","PREF":"39","CITY":"202","CITY_NAME":"室戸市","S_NAME":"羽根町","SETAI":"733"}},{"type":"Feature","geometry":{"type":"Polygon","coordinates":[[[134.23545423165947,33.44217542859495],[134.23406382204328,33.44281572162869],[134.23424345259696,33.44415325030572],[134.23265951770205,33.44485443898041],[134.23228457599023,33.445687659386536],[134.2308847425579,33.447895711591066],[134.22965988118466,33.44852894488666],[134.22879753231072,33.44965375866417],[134.22763463538234,33.450075492555605],[134.22780354947065,33.450856441879814],[134.22916003830878,33.452945036298765],[134.22988785749413,33.454974872730375],[134.2292404624649,33.455216662740824],[134.2286352514879,33.45720276516553],[134.22804779277493,33.457877649582294],[134.227910345502,33.459269088029394],[134.22654811239633,33.4609354779054],[134.22423578769846,33.46102707325155],[134.22283597805776,33.46141863313305],[134.22148605363765,33.4611436594153],[134.22057367769415,33.461868566299295],[134.220979748314,33.46237031144319],[134.22040626338853,33.46296011938364],[134.21957319179327,33.46284599523357],[134.21764917180053,33.46333314366411],[134.2170594242327,33.46320057803463],[134.21668657858677,33.46540971395707],[134.21589920087956,33.465568004810876],[134.21531174605775,33.46670949952469],[134.21429936506632,33.46714276513301],[134.2129495672352,33.46865082291068],[134.2126371517573,33.47002558881805],[134.21107479088752,33.47031715496241],[134.21048739028072,33.47092540600503],[134.20878754082653,33.471875314962105],[134.20873752159272,33.47297521880521],[134.20786258677833,33.475158319789045],[134.20776264091563,33.476424858816415],[134.20737745528552,33.477977205270605],[134.20661268394417,33.479349567947594],[134.2051253598132,33.47966625163537],[134.20451288527457,33.480182863249894],[134.20306305076787,33.480791144429006],[134.20303102967316,33.48144440007339],[134.2022679411699,33.48371811920743],[134.2013007512293,33.4847573599021],[134.20018934239775,33.48524281383424],[134.19803856533125,33.48664878268299],[134.1964785110852,33.48702320117984],[134.19510254999528,33.487660523430925],[134.19303902582553,33.48676550980159],[134.19220159117074,33.48591561751149],[134.1914565371353,33.48558826635724],[134.19002675707003,33.48530736506963],[134.189914281705,33.48526572914654],[134.18860190985365,33.4852907148876],[134.18774765068738,33.48558486401301],[134.1854771722079,33.48497413457386],[134.18487723031012,33.48495746739165],[134.18275243584242,33.484932480171],[134.18097756924715,33.4849825189951],[134.17957773281248,33.484332586313535],[134.17782786408932,33.484465917844055],[134.1759780567946,33.48442425937013],[134.17554057060445,33.484374282641724],[134.17414070677816,33.48334104129897],[134.17220341165458,33.48294110943342],[134.17222838333342,33.481841214168],[134.17095352341317,33.48080798541072],[134.16980362932048,33.48001642748791],[134.16957865368948,33.47940813616847],[134.16829129095117,33.47904986649869],[134.16745386127064,33.47948315278657],[134.1673788803839,33.47949979717478],[134.16637896729046,33.479141536516856],[134.1653790931924,33.478424925198695],[134.1637167480811,33.47795000993818],[134.16220443071512,33.4785832417516],[134.16112953043387,33.47869991714009],[134.1605920717981,33.478541588956965],[134.1597546505244,33.47849992659514],[134.1579047763187,33.47793331404903],[134.1563423161132,33.477491696946764],[134.15566738480808,33.477508345066276],[134.15459241231238,33.47668340502035],[134.15356744066634,33.47607515756208],[134.15219252771288,33.47550850550653],[134.1522425137367,33.47479193699163],[134.15140505006102,33.474525276739975],[134.151192577279,33.47436694641002],[134.15049260601504,33.473442035789056],[134.1493051758616,33.472500438221594],[134.1479552803523,33.472342062237615],[134.14720534498696,33.47137546917365],[134.1456929468204,33.470658872823854],[134.14415551923278,33.46843408710333],[134.14600650320983,33.467151377487276],[134.1477953094932,33.467416474459675],[134.15149578851882,33.465330442199104],[134.15280251829031,33.46407578743502],[134.1533511144271,33.46136704206014],[134.15479892300206,33.45958464454465],[134.15705342976426,33.45938796370879],[134.15792272186516,33.45898915911516],[134.1609441402776,33.4582776801408],[134.16206109813805,33.45669107808994],[134.1627597392791,33.456013119832214],[134.16428668404518,33.45506654858655],[134.16462119321105,33.45422840421835],[134.1643924940613,33.452985264943756],[134.1633618217456,33.45195042617737],[134.16293973215102,33.450891893160986],[134.1631948531695,33.44817366083901],[134.16268253195284,33.44591582627493],[134.16560711326417,33.44386186843557],[134.16628185723528,33.442386005223725],[134.16665432594215,33.442084559831535],[134.16920873691154,33.44122877734442],[134.17120250538045,33.44086067792516],[134.17274575362805,33.44006345273205],[134.1733655559202,33.43850713459542],[134.1738977151343,33.43776860849263],[134.174626716944,33.437450616478635],[134.1760128404912,33.437376582928934],[134.17780071059752,33.43794296179349],[134.17837765124764,33.43700608678645],[134.1778977935698,33.43557686141087],[134.17642233606063,33.434999076503225],[134.17528750887394,33.433776144362035],[134.17441103356492,33.43323991351879],[134.17412276093572,33.431717224244714],[134.17251654245206,33.430749610064034],[134.1708692911301,33.42899555529967],[134.1709864654302,33.42718684322222],[134.1706251387674,33.42652520415697],[134.169693330458,33.426072747381454],[134.16895331728657,33.42353569885105],[134.16934529953247,33.42196456903253],[134.17010308641997,33.42081974029284],[134.17068252095842,33.419226389235114],[134.17072198767983,33.41851404354576],[134.17025959838074,33.41738515925114],[134.169202305029,33.416143442105344],[134.1683595566438,33.414544958639034],[134.16747547249096,33.41415114305487],[134.1668534426498,33.413459311484],[134.16624120531299,33.412132660721035],[134.16472510250773,33.40985482817541],[134.163920773074,33.407872219088226],[134.16418605747094,33.40675357925319],[134.1640854285374,33.40429518383758],[134.16542597414454,33.40256346836041],[134.16505742628135,33.40096672449996],[134.16567263239205,33.400559294964424],[134.16692616268648,33.40039468869893],[134.16985679028832,33.39883795169447],[134.17110444233074,33.399236861664996],[134.17322198392142,33.398908651330885],[134.17396917345732,33.39856273045693],[134.17458345443362,33.397405898501006],[134.17600111989685,33.3965687406416],[134.17710853022146,33.396403098069335],[134.179103996103,33.397490597327824],[134.1800912547995,33.39730596935751],[134.18052375706392,33.39560776696935],[134.18004745315045,33.394271467665675],[134.18018466971895,33.39393354517777],[134.17966451355392,33.39155387241306],[134.17904588305984,33.39095496550123],[134.17635929485238,33.390250766529704],[134.17360326911393,33.38850932912353],[134.1726156076796,33.38739127788462],[134.17221669712288,33.38603619251212],[134.17119447425517,33.38340402910353],[134.1718402460345,33.38167737199045],[134.17190465396035,33.38020940909831],[134.17296880873937,33.37856820473488],[134.17173663726655,33.37514398090582],[134.17187964266384,33.3742424711841],[134.171438456176,33.372429181497054],[134.1714851582691,33.3717385297058],[134.17035502289625,33.369530863296916],[134.1704439226974,33.368384864031846],[134.17015662828757,33.36669803512993],[134.1703076557665,33.36617431519873],[134.17213999322522,33.36572299200536],[134.17417372270657,33.36406317151784],[134.17621900231535,33.36368464801195],[134.17797042421762,33.36308845203899],[134.17934425120538,33.36176962988757],[134.18263942719227,33.36009614405583],[134.18427822955348,33.35988866909449],[134.18686931518658,33.36112717361405],[134.18770565892163,33.36122501506592],[134.18881493142496,33.36058210647435],[134.18927466872043,33.358669497183726],[134.1892022472076,33.356902572888906],[134.19095804167907,33.357218419957036],[134.19299154295106,33.355958965236525],[134.1952928448768,33.35558276297747],[134.19688460206524,33.35555657064847],[134.1986364537518,33.354544752706005],[134.2026754239333,33.35311204864505],[134.20348786648086,33.353017266691595],[134.20306223744723,33.35380054073082],[134.20210344716315,33.354817643627264],[134.2018595932336,33.35548354599701],[134.20278336596724,33.35824820691123],[134.20315179969532,33.358238013911624],[134.20313103983233,33.35925338312911],[134.2049448713298,33.360592883730014],[134.20533759091455,33.3613200776165],[134.20534766096497,33.3638879572843],[134.2055685367819,33.36423020969054],[134.20571147099028,33.36913175006906],[134.20634717453026,33.3703931299696],[134.20740863008734,33.37128155327934],[134.2082341321134,33.37235883102384],[134.2099461105559,33.374209125092754],[134.21073736137453,33.37543267399051],[134.21173100653846,33.378782020588844],[134.21150581112602,33.379767042146305],[134.21244878013687,33.38139091536157],[134.21295571288726,33.38370885790833],[134.21289255020133,33.38531509372094],[134.2134730321755,33.38781205338194],[134.21354112802356,33.38877371877258],[134.2128976246849,33.39012539930512],[134.21129047043948,33.392073201529094],[134.2106755244518,33.391798136994346],[134.20951729954265,33.39278487495618],[134.2091257965361,33.393547219180356],[134.20944399698897,33.39381589147233],[134.20888722045433,33.39567014282314],[134.20960246763383,33.39572014029167],[134.2097840207858,33.393599342376916],[134.20966657732507,33.39316179580415],[134.21039975726532,33.39225234508252],[134.21091689936193,33.39226378053225],[134.21073872853893,33.39440535179062],[134.2111280035606,33.39441935078163],[134.21093448855794,33.39573052857644],[134.21270896409754,33.395305568163344],[134.20952431001285,33.396412173459545],[134.2084926522355,33.39708713195985],[134.20917358342456,33.39742761431485],[134.20999606651984,33.39639594250904],[134.2104276844595,33.397386150086675],[134.21012832916924,33.39770974576109],[134.21138286001036,33.39982140111693],[134.21287549601078,33.403020865063496],[134.21421121876253,33.405304253562505],[134.2149373258957,33.40588701581789],[134.215506544163,33.40724341312242],[134.2173173592774,33.410021755204895],[134.21947170372903,33.41362587744517],[134.22166716310383,33.41762824464334],[134.22187144334654,33.41840432190642],[134.22326530191438,33.42115529790543],[134.22485668876044,33.423726564883566],[134.22755169597085,33.427226360569165],[134.22904902083243,33.42945549960937],[134.23124319047332,33.432187288691885],[134.23276625364193,33.43438918749407],[134.23359746097395,33.43590179118277],[134.2341304774671,33.43648743468423],[134.23533882465526,33.4399814282556],[134.23478425008565,33.4410405905921],[134.23545423165947,33.44217542859495]]]},"properties":{"KEY_CODE":"392020070","PREF":"39","CITY":"202","CITY_NAME":"室戸市","S_NAME":"佐喜浜町","SETAI":"567"}},{"type":"Feature","geometry":{"type":"Polygon","coordinates":[[[134.20348786648086,33.353017266691595],[134.2026754239333,33.35311204864505],[134.1986364537518,33.354544752706005],[134.19688460206524,33.35555657064847],[134.1952928448768,33.35558276297747],[134.19299154295106,33.355958965236525],[134.19095804167907,33.357218419957036],[134.1892022472076,33.356902572888906],[134.18908080744166,33.35529469983014],[134.18911615681068,33.352888922956545],[134.18842280964463,33.35251651737325],[134.18774176417892,33.351521743761076],[134.18762075713613,33.3493082457139],[134.18894789609087,33.34588285175359],[134.187235260205,33.344201804708554],[134.1867582772353,33.34170807295995],[134.18688140415867,33.340904193116906],[134.18807340028587,33.338826603470494],[134.1876546983916,33.33829496644744],[134.17989138074012,33.33644715968608],[134.17835443142454,33.33590464995135],[134.17776424525118,33.33490585447311],[134.1784241194831,33.33351485312847],[134.1784798073552,33.332378150336176],[134.17792384739434,33.33140716731365],[134.17672058902596,33.33016914489648],[134.17578030106682,33.32955197723544],[134.17455512555216,33.327006489888646],[134.1736532953024,33.326418042074735],[134.1728683656334,33.32533904012949],[134.17236165347396,33.323065684959374],[134.17307160719594,33.32146450107796],[134.17792756350843,33.31910081283156],[134.18192658906702,33.31750867704105],[134.18253176977413,33.3154647693195],[134.18261783475234,33.31313119159117],[134.18236617172548,33.31150773243653],[134.18167428077768,33.31079970295404],[134.18025084125682,33.310197690764554],[134.18004098264353,33.309103508104194],[134.1800008121498,33.30667118644629],[134.17954009064985,33.304978296225016],[134.18011139919574,33.30268999198992],[134.18067473413979,33.30181184447421],[134.18154197734282,33.30109975624889],[134.18219753390966,33.299577233799674],[134.18133556193112,33.29888372905347],[134.18194588881954,33.2974521217269],[134.18180279215306,33.29677505743162],[134.1808520085681,33.296118299820726],[134.18045324791203,33.295220472585235],[134.18076464496176,33.294262073377375],[134.1805898952687,33.29367586098994],[134.17963272737273,33.2928876342139],[134.18000256181244,33.29180648357378],[134.17932675794282,33.29106206347417],[134.17929057863455,33.28918059252188],[134.17854346965916,33.288295982722275],[134.17915880327627,33.28821100663904],[134.17942933639856,33.28686741109469],[134.1780224358714,33.28695220669393],[134.17846832147376,33.28626964275724],[134.17536126521233,33.28566602062631],[134.17252041285505,33.28640628966956],[134.17022250307065,33.28627656482395],[134.1676340061101,33.286663173819655],[134.16546636943755,33.28817637364087],[134.16471177396875,33.28842526877972],[134.16377297951053,33.28783262185633],[134.16267559485385,33.288117081905206],[134.16160758786808,33.28714953041683],[134.16058703475818,33.287044615407076],[134.159895654992,33.28742457646646],[134.1577570613946,33.28757500036395],[134.15531210789018,33.28758078110756],[134.15353298197977,33.286897647515154],[134.15053556519376,33.28471837561372],[134.15026448098575,33.28496642359954],[134.14963229098342,33.28436796539863],[134.15047639561035,33.2839953597863],[134.15099750626413,33.2844876569696],[134.1533728290396,33.28269070755721],[134.15261290875483,33.2819922890723],[134.15255635062746,33.28145879270089],[134.14825621965375,33.284719326741545],[134.14605902524784,33.285652334515945],[134.1450296616278,33.285388083475766],[134.1444471174286,33.28573644871541],[134.14405289100458,33.28512355079157],[134.1454021209806,33.28537892454944],[134.1469967756323,33.28513437982673],[134.14782195473234,33.284791936564595],[134.1493084952074,33.28314487571451],[134.15035291225783,33.2828337234564],[134.15185497028298,33.281699635080294],[134.15201543698862,33.281048656470006],[134.15373767914454,33.27921096460757],[134.15307989397715,33.27780869148749],[134.15355209974655,33.27765020292786],[134.15352985323833,33.27855292677341],[134.15411644057275,33.2786111367414],[134.1541252841461,33.27792490773714],[134.15474509585357,33.277120927858206],[134.1544770100478,33.27686717641391],[134.1555262319468,33.276067248418045],[134.1567085570276,33.27454344235088],[134.15700457920389,33.27379708282265],[134.15763273966263,33.27367743190752],[134.1579158053291,33.2727760376998],[134.15830238913276,33.272795630392004],[134.15852600722013,33.27170160442629],[134.1588386423063,33.27188028186838],[134.15990996841447,33.27003063375147],[134.16043212999637,33.26980873263107],[134.1584344081336,33.26890032560675],[134.1608479041415,33.265153775801906],[134.16094438402914,33.26456987274619],[134.16011498191915,33.26289263318463],[134.16126493188318,33.26480529723278],[134.15961614513608,33.267564305006246],[134.16137852249554,33.26836136321754],[134.16344885800487,33.26518316786265],[134.16304316312127,33.26362901884895],[134.16364885583766,33.26437958954505],[134.16382286198632,33.26538945281421],[134.16283257164352,33.26686630990504],[134.16339060098744,33.26713293377567],[134.1639935607167,33.26624424910077],[134.16466485335934,33.26659049643673],[134.16481110470406,33.2673327107558],[134.1656964401748,33.265891571793325],[134.1652874531664,33.265744988635554],[134.16495974819287,33.26640949209444],[134.16437827811674,33.266164645074944],[134.1650536872269,33.264641668765066],[134.16591547810717,33.263637957671264],[134.1669132400969,33.26202486536822],[134.16753933570158,33.26037862190736],[134.1667316344046,33.260018681601146],[134.1648249498735,33.263066728282666],[134.16515153442433,33.26353385676996],[134.1641804409896,33.2632811837755],[134.16477161428145,33.26282806548975],[134.1624928501538,33.262531894834524],[134.16475687890204,33.26258197448628],[134.1659613255701,33.26062966786307],[134.16699539967257,33.25928148720442],[134.16749615188178,33.25809127276884],[134.1677569200461,33.256818484984144],[134.16928335239197,33.254739961444244],[134.1701660105918,33.25269467932886],[134.1704868075955,33.25127997979259],[134.1710673018937,33.24986118098563],[134.17234403683378,33.24799588023608],[134.17226286616165,33.247068472631994],[134.17283949282313,33.24683182332981],[134.17252861318687,33.24631593206512],[134.17329057569202,33.24548042663977],[134.1739275277208,33.245421071832105],[134.17452957025205,33.244445765411506],[134.1752913135216,33.2445678602524],[134.17559589527042,33.243985524894654],[134.17661896432858,33.2443162728006],[134.1777083042552,33.24503168558269],[134.17864895628819,33.24608603703144],[134.17850681872778,33.24658095066929],[134.1795175482243,33.247668267265276],[134.18107905387853,33.24864887793902],[134.18128462867188,33.24983798650633],[134.1810681593463,33.25042797002385],[134.18202837475872,33.252331594899516],[134.18238346887105,33.25479936715217],[134.18277870176084,33.25594054827622],[134.1845903704998,33.259113549376146],[134.1853932608628,33.26145892683752],[134.1851341462683,33.26153790001833],[134.18469328970002,33.26005886189886],[134.18386438651936,33.2604295131471],[134.18450724637955,33.26290562801686],[134.18498735269162,33.26404541796589],[134.1854767034561,33.26389754620662],[134.18508694086103,33.264707612534686],[134.1852864252055,33.26770824980088],[134.18515664850844,33.270746772640614],[134.18545916424497,33.27388478626763],[134.18585977768853,33.27459762121675],[134.18637698991452,33.27676512476387],[134.1862352069826,33.27716626379092],[134.18715172436254,33.279465011738004],[134.1870687060329,33.28134009231155],[134.18731884664177,33.28270927706438],[134.1871834090767,33.28405444483654],[134.18740212770788,33.28429218085112],[134.18703929730515,33.28552950782384],[134.1867911584666,33.287430755799306],[134.18687001360635,33.288866701242846],[134.18741089486136,33.290753643698146],[134.18730964362803,33.29249087483462],[134.1867113038932,33.292451799447875],[134.18628050780148,33.29310790987022],[134.18678155623238,33.29525115692303],[134.1879552238509,33.29498948382384],[134.18786363485782,33.29563198626319],[134.1888471076492,33.298080910467796],[134.18853424233302,33.29871474501989],[134.18851882472663,33.29989603990254],[134.18784249593196,33.3003208735162],[134.18888816940833,33.30043771267779],[134.18869840944433,33.30115740356813],[134.18956726324896,33.30185589091439],[134.18993845168671,33.30413058253645],[134.1905863382696,33.30472388494389],[134.19199557204405,33.30680251487103],[134.19253064614858,33.306843733471254],[134.19291910528764,33.30789023096616],[134.1926147196292,33.307968573659885],[134.19266928913927,33.30902774836716],[134.1930925880954,33.3108116001137],[134.19290683559387,33.31298749985032],[134.19313773014045,33.31434145588584],[134.1940231198118,33.31331220962749],[134.1933865024366,33.314563691979224],[134.19362624404104,33.31540271753259],[134.19358430273508,33.31729110874829],[134.19408484511573,33.31784101311034],[134.19394902973622,33.31885888401556],[134.19424707201807,33.31906551918838],[134.19376201969837,33.320198056259656],[134.1955713968805,33.32123294743855],[134.19621067814816,33.322876721662325],[134.19630138570614,33.323744538735205],[134.19677590466767,33.32398624042181],[134.19663091883143,33.325601945119935],[134.19889550257432,33.324946390911165],[134.19905328388302,33.32506800091194],[134.19669394128454,33.32569175877647],[134.19765111952813,33.326788049420536],[134.1971553767371,33.327120123004036],[134.19759777873287,33.32763874289855],[134.1977918334081,33.32907230113633],[134.19833796495428,33.32912962550233],[134.19813673822728,33.327742921683644],[134.1982762396989,33.32705027938452],[134.1986254724172,33.327741857390386],[134.19833879710134,33.328294617708366],[134.19858427874388,33.329708020720346],[134.1984549042471,33.33166088219383],[134.19872630017164,33.33242035050012],[134.198679886712,33.33346747404175],[134.19832010087836,33.33455060118685],[134.19858323086123,33.33588539312843],[134.19897273034536,33.33636291341505],[134.19911657309407,33.338361980966084],[134.19946886102164,33.341030767946],[134.19881013163652,33.34261509116089],[134.19921305183348,33.34382556127696],[134.19912844909683,33.34466279667379],[134.19969272784985,33.346168101346386],[134.20000602461292,33.346248394552056],[134.19983941094435,33.348378145208635],[134.20036371689702,33.34891617705882],[134.20015979070297,33.3496098169219],[134.20079583558834,33.35040961317333],[134.2016486823947,33.35038403487211],[134.20107154590968,33.35115731272314],[134.20143594463013,33.35211372440646],[134.20348786648086,33.353017266691595]]]},"properties":{"KEY_CODE":"392020080","PREF":"39","CITY":"202","CITY_NAME":"室戸市","S_NAME":"室戸岬町","SETAI":"1275"}}]}