{"type":"FeatureCollection","features":[{"type":"Feature","geometry":{"type":"Polygon","coordinates":[[[133.85908410105128,33.55523314378102],[133.85918323358482,33.555410833778865],[133.85920634760495,33.5554758570972],[133.8591899615952,33.55565292733868],[133.85921666278972,33.55575139962511],[133.85956517696457,33.556212571870255],[133.85942365477328,33.55656607511583],[133.85935939530773,33.55706767281768],[133.85930243024055,33.55712714860408],[133.8591187277562,33.55724154920632],[133.85908712738726,33.557341141261396],[133.85920293230754,33.557683372029665],[133.85977711873045,33.55847965979724],[133.85834114071952,33.55861611667163],[133.856180900289,33.55828438233426],[133.8516973000612,33.55703415612193],[133.8495800504735,33.55655496256095],[133.84841230951213,33.55535604806904],[133.8473691937903,33.55510331722589],[133.8483570077322,33.55420389990788],[133.84496660905498,33.55321769150847],[133.84188348513206,33.55171090344994],[133.84029277661966,33.55232678799231],[133.83813371724955,33.55378047471027],[133.83789741311537,33.554371045249596],[133.83686257172278,33.55343359781779],[133.83614652813105,33.55098245574342],[133.8349505437751,33.549278775703534],[133.8340690184819,33.548464202079],[133.83467900445885,33.54677851601394],[133.8361020254563,33.54655106425272],[133.83584396586835,33.544717104661856],[133.83549166597678,33.54390567981437],[133.83481262410558,33.5432867601259],[133.83323702487672,33.542620938891055],[133.8311043990463,33.54093467257829],[133.83041141189338,33.53992784898153],[133.82959035847094,33.53781749373809],[133.82867656418134,33.53618962079685],[133.82751006227608,33.534846706157566],[133.82617697869205,33.53380292003719],[133.82487179857333,33.53330606230155],[133.82411791751696,33.531846863590694],[133.82304812430712,33.5310218867453],[133.82128482960402,33.53046258704551],[133.82110698576597,33.52996515287564],[133.81836601112374,33.52983888086014],[133.8174363612784,33.52924285324172],[133.81614609646127,33.529344299574454],[133.8161825268981,33.53014359744526],[133.81504204286546,33.53077625836887],[133.81425892167846,33.530719328806065],[133.8133742906417,33.53107364951075],[133.81235997298816,33.53084906338669],[133.8099645269448,33.531091333458406],[133.80916450682972,33.53006052258976],[133.8092365601437,33.52933153007012],[133.80876506592645,33.5278844052256],[133.8081573161829,33.52815145557829],[133.80383838216716,33.52847842865624],[133.80326613843403,33.52247538892755],[133.79998179246522,33.52265509668056],[133.79980403178044,33.520722819335774],[133.79961504359648,33.52049423718684],[133.79948161725403,33.51623233786821],[133.80326373276168,33.51621686617584],[133.807774237119,33.51608385566211],[133.8124604051242,33.51585052385784],[133.8203059692646,33.5152487808276],[133.82089819444494,33.51888742104755],[133.82170530335148,33.520787992370636],[133.82216358106564,33.52117425000638],[133.8217244240176,33.52224189849886],[133.82370235700716,33.52352929715352],[133.8238759366346,33.52405540274494],[133.82581322487115,33.52610688066165],[133.82702119677396,33.52668763759074],[133.82674398002527,33.52591779550101],[133.82722265746497,33.52556240537801],[133.8270983208112,33.5243789562764],[133.8290521020604,33.52454239466495],[133.82941665781735,33.52513438450882],[133.83043115804207,33.525750165907745],[133.83268331337243,33.526288037771955],[133.8332881104458,33.52786355320114],[133.83499686469,33.52889108372425],[133.8368530393347,33.5305589616798],[133.83659966407328,33.52934315356577],[133.83603869968027,33.528671941910616],[133.83679687134364,33.527094698175866],[133.83699942158106,33.526028901463754],[133.83661994721928,33.524750207825484],[133.8370846395295,33.52303331982646],[133.8369646131764,33.52200279840261],[133.83626135751445,33.52201169546522],[133.8367388215023,33.521495451974815],[133.8382885640593,33.52095895079233],[133.83857072330062,33.521539685583136],[133.83908633844993,33.52140128411386],[133.8386394428178,33.52224162902974],[133.83781191357718,33.52239288069968],[133.83987825340947,33.523703571440365],[133.83977438705006,33.52407430658911],[133.84098322188316,33.52403573641668],[133.84154977165045,33.5236621561117],[133.8421696996115,33.52469399026539],[133.84368739255666,33.52499834258855],[133.8439888199787,33.526188761040665],[133.84514172118048,33.52632228968467],[133.8462337989242,33.52772999071733],[133.84772986995924,33.527861271621205],[133.84991990301276,33.52840186055793],[133.8508460494774,33.52835430710298],[133.85164870873223,33.528847807111845],[133.8524591581295,33.53011885132716],[133.85317781464576,33.530859021949276],[133.85344115377504,33.53228193853979],[133.85398649045916,33.53336452255007],[133.85501166585013,33.5339637049558],[133.85495100155762,33.53560362388564],[133.8561843249165,33.53580635668626],[133.85640424283656,33.53678828680073],[133.8561251976033,33.53744497209157],[133.8560782282402,33.53759063921791],[133.85603287917496,33.53787415692812],[133.8560770372079,33.53810877916132],[133.85622323999118,33.53874385451596],[133.85624509594277,33.53900562709893],[133.85637348212683,33.53974631025715],[133.85640123734848,33.5398372427055],[133.85659455368875,33.540217958067636],[133.8567182627024,33.54042459848654],[133.85676933511988,33.54052930441746],[133.8568059171066,33.54074105560214],[133.85679319603514,33.54127726175857],[133.8570618257046,33.54220231530444],[133.85717773814795,33.54233321671122],[133.85721117553916,33.54239426422342],[133.85703231015165,33.54269411942275],[133.8565332643906,33.54326781835429],[133.85646922697708,33.54344720594033],[133.85647610142806,33.54350273044567],[133.85643859807115,33.54366953819136],[133.85614161539652,33.54391834192403],[133.85603673101332,33.54405547479591],[133.85603256915488,33.54424994196214],[133.85610178916045,33.5445330977271],[133.85614956910592,33.54504345501683],[133.85621479363667,33.54541720874458],[133.85627165506662,33.545618934380876],[133.8562094182562,33.54633582142242],[133.8562823377748,33.546535597079554],[133.8563230222573,33.54670101919021],[133.85626364787382,33.54700067130252],[133.85626685244262,33.547226499612385],[133.85631328862988,33.54738901663076],[133.85642229726616,33.547475807326215],[133.85719952065662,33.54762190147675],[133.85735021903332,33.54783099820545],[133.85751915046248,33.54802475831816],[133.8576595428192,33.54822338943044],[133.85777856189387,33.54852256678005],[133.85782657790702,33.54879130644447],[133.85762423574695,33.54909231914561],[133.85756410466809,33.54948291474732],[133.85760500285411,33.5496885227209],[133.85767643181913,33.549810781073475],[133.85764746852018,33.55000799635231],[133.85744638172528,33.550329117359304],[133.8573393889879,33.550739921745624],[133.85716616259094,33.55116620358485],[133.85712743720185,33.55147537634492],[133.8583186047539,33.552960854818174],[133.8585286443774,33.553133432646675],[133.85880892855778,33.55342545437918],[133.85896901656776,33.55368429462277],[133.858996351932,33.5539358740074],[133.85913940677898,33.554226355577285],[133.8591999051357,33.55447114686128],[133.8592405452338,33.5546136075393],[133.85908410105128,33.55523314378102]]]},"properties":{"KEY_CODE":"393070010","PREF":"39","CITY":"307","CITY_NAME":"芸西村","S_NAME":"和食","SETAI":"722"}},{"type":"Feature","geometry":{"type":"Polygon","coordinates":[[[133.8099645269448,33.531091333458406],[133.81032942956205,33.5315277146422],[133.80908374265002,33.53296312432917],[133.80901191858692,33.5333383828351],[133.80729042301482,33.533808393742035],[133.8070095271007,33.53463670132313],[133.80722762727746,33.53550696558348],[133.8068209536762,33.53547330524055],[133.80629467406203,33.5364607881785],[133.80544415856795,33.53669695952079],[133.8049700281503,33.53757601105067],[133.80358753108592,33.537896319852216],[133.80292612823922,33.538619434351176],[133.80255620619872,33.53978283213184],[133.801851652904,33.54035600070746],[133.79915689678722,33.54093397192083],[133.79937895793697,33.54216698858887],[133.79877136821258,33.543000882038875],[133.7980548766724,33.54341461106315],[133.79624476341385,33.54346673273624],[133.7947559924269,33.5438523855098],[133.79406784002458,33.5445752797767],[133.79334921978602,33.54461382618335],[133.7915384362085,33.54637255827496],[133.7898522673059,33.54450217694845],[133.78734871065768,33.54161535990283],[133.78614129469273,33.540017279043056],[133.78566805028765,33.53934867595014],[133.78560566052775,33.53924850945786],[133.78540945053555,33.53855980898299],[133.7855193354317,33.53831774668553],[133.78551631511402,33.538294647278065],[133.78544845463117,33.53807882182828],[133.7853306778224,33.53785934768206],[133.78551057672917,33.5360918780399],[133.78493304517892,33.53606062759427],[133.78404491434517,33.53640872038565],[133.78338701114836,33.53646138139052],[133.78315561956003,33.53642082210914],[133.78164073198047,33.53448671389102],[133.7809685712075,33.53482846500441],[133.7799634223825,33.533890395785626],[133.7799475465074,33.53309901355444],[133.7810809209804,33.53103348530026],[133.78089763822342,33.52852211030743],[133.7788114913631,33.52840605550971],[133.7785817560455,33.52729736652674],[133.77729868147156,33.52683770725911],[133.77814285108576,33.52432318925895],[133.7772513234899,33.52445707152841],[133.77662057100682,33.5237398012136],[133.77571844964817,33.5233211289879],[133.77529356493278,33.52144639717819],[133.7741737407194,33.52078946467438],[133.77308986748542,33.520509180164886],[133.77201799724955,33.5198403487238],[133.77052198753276,33.51853858173682],[133.7701715168656,33.51734402662202],[133.77050374085076,33.51702580190227],[133.76999393030044,33.5162890252834],[133.77007564260117,33.51573832645152],[133.7705408150531,33.51544605588349],[133.7722696280701,33.5151266294148],[133.77385761758853,33.51555679144348],[133.77632923589277,33.51593621345246],[133.77981582639936,33.516604500488825],[133.7855577572374,33.516499978820185],[133.7943050151503,33.5164332919762],[133.79948161725403,33.51623233786821],[133.79961504359648,33.52049423718684],[133.79980403178044,33.520722819335774],[133.79998179246522,33.52265509668056],[133.80326613843403,33.52247538892755],[133.80383838216716,33.52847842865624],[133.8081573161829,33.52815145557829],[133.80876506592645,33.5278844052256],[133.8092365601437,33.52933153007012],[133.80916450682972,33.53006052258976],[133.8099645269448,33.531091333458406]]]},"properties":{"KEY_CODE":"393070020","PREF":"39","CITY":"307","CITY_NAME":"芸西村","S_NAME":"西分","SETAI":"547"}},{"type":"Feature","geometry":{"type":"Polygon","coordinates":[[[133.82499676154575,33.56472346109437],[133.82451941716394,33.56490025648781],[133.82326684444973,33.566658708175794],[133.8225802047005,33.56699204083647],[133.82163945193656,33.56731839160922],[133.8200396118255,33.566843418929444],[133.81931470407875,33.56567686959377],[133.8184023077668,33.564976894848314],[133.81825234236038,33.5644103114293],[133.81743993363705,33.564101987661296],[133.8161526053105,33.561977166182],[133.81594015955088,33.56103559384633],[133.8149527627846,33.55952741341895],[133.8150527989458,33.55791924671832],[133.81314048961212,33.55716094925796],[133.81204299086232,33.558722748603884],[133.81172806991512,33.55874407759807],[133.81125314216357,33.55766086303625],[133.81041572290306,33.55723590073533],[133.80852838698883,33.557777488520784],[133.80800344775847,33.5577358293462],[133.8075910077965,33.55667759611086],[133.8082284624423,33.55559437298255],[133.8071160903569,33.55476111979621],[133.80401931800446,33.55191663265054],[133.80347902373347,33.551069768801355],[133.80203397358665,33.55025199238198],[133.80123268078148,33.55075146625344],[133.79975357617812,33.550576733833346],[133.79840087313266,33.54951163272205],[133.79743412743602,33.54957038993458],[133.79639816948836,33.549207759990644],[133.79501672726633,33.549602337844355],[133.7915384362085,33.54637255827496],[133.79334921978602,33.54461382618335],[133.79406784002458,33.5445752797767],[133.7947559924269,33.5438523855098],[133.79624476341385,33.54346673273624],[133.7980548766724,33.54341461106315],[133.79877136821258,33.543000882038875],[133.79937895793697,33.54216698858887],[133.79915689678722,33.54093397192083],[133.801851652904,33.54035600070746],[133.80255620619872,33.53978283213184],[133.80292612823922,33.538619434351176],[133.80358753108592,33.537896319852216],[133.8049700281503,33.53757601105067],[133.80544415856795,33.53669695952079],[133.80629467406203,33.5364607881785],[133.8068209536762,33.53547330524055],[133.80722762727746,33.53550696558348],[133.8070095271007,33.53463670132313],[133.80729042301482,33.533808393742035],[133.80901191858692,33.5333383828351],[133.80908374265002,33.53296312432917],[133.81032942956205,33.5315277146422],[133.8099645269448,33.531091333458406],[133.81235997298816,33.53084906338669],[133.8133742906417,33.53107364951075],[133.81425892167846,33.530719328806065],[133.81504204286546,33.53077625836887],[133.8161825268981,33.53014359744526],[133.81614609646127,33.529344299574454],[133.8174363612784,33.52924285324172],[133.81836601112374,33.52983888086014],[133.82110698576597,33.52996515287564],[133.82128482960402,33.53046258704551],[133.82304812430712,33.5310218867453],[133.82411791751696,33.531846863590694],[133.82487179857333,33.53330606230155],[133.82617697869205,33.53380292003719],[133.82751006227608,33.534846706157566],[133.82867656418134,33.53618962079685],[133.82959035847094,33.53781749373809],[133.83041141189338,33.53992784898153],[133.8311043990463,33.54093467257829],[133.83323702487672,33.542620938891055],[133.83481262410558,33.5432867601259],[133.83549166597678,33.54390567981437],[133.83584396586835,33.544717104661856],[133.8361020254563,33.54655106425272],[133.83467900445885,33.54677851601394],[133.8340690184819,33.548464202079],[133.8349505437751,33.549278775703534],[133.83614652813105,33.55098245574342],[133.83686257172278,33.55343359781779],[133.83789741311537,33.554371045249596],[133.83813371724955,33.55378047471027],[133.84029277661966,33.55232678799231],[133.84188348513206,33.55171090344994],[133.84496660905498,33.55321769150847],[133.8483570077322,33.55420389990788],[133.8473691937903,33.55510331722589],[133.84570194598652,33.555653002721435],[133.84481251344036,33.55637829958656],[133.83839340335845,33.55942383894074],[133.83448174398234,33.56092605396706],[133.83388985093012,33.56207947959533],[133.83178123754573,33.565087042714055],[133.83134288660455,33.56619879098358],[133.8309836887022,33.56631541667576],[133.83043016863385,33.56624747007364],[133.8286692442381,33.56510687191139],[133.82781144659663,33.56503975142675],[133.82745253256377,33.56522579016933],[133.82662248282742,33.56518169552225],[133.8253356198538,33.564927354950036],[133.82499676154575,33.56472346109437]]]},"properties":{"KEY_CODE":"393070030","PREF":"39","CITY":"307","CITY_NAME":"芸西村","S_NAME":"馬ノ上","SETAI":"238"}},{"type":"Feature","geometry":{"type":"Polygon","coordinates":[[[133.86715462510898,33.588482162116605],[133.86720517005753,33.5888393954372],[133.86712373908253,33.589186273229394],[133.86669331791,33.58985253612947],[133.86661096429606,33.58999242578682],[133.8665332106184,33.59038324928],[133.8665637427545,33.59124147918461],[133.86646397109556,33.59167047551507],[133.8664432615732,33.592026930106556],[133.86640853733167,33.59209539416235],[133.8662446760523,33.59228824891412],[133.86508227387012,33.593300361612606],[133.86459690825805,33.593401382857614],[133.86279734871204,33.5930749853995],[133.86146002028315,33.591500151797476],[133.86043514915266,33.59110015964095],[133.85986022205367,33.59087517540904],[133.85933526805547,33.59067519897837],[133.85928529063435,33.59013358570097],[133.85821040038098,33.589500324025614],[133.858072956238,33.58870875712414],[133.85658558602321,33.58840040661271],[133.8565355874885,33.58817542202177],[133.85527327153414,33.58690890614478],[133.85417337655772,33.58605063962409],[133.85259859728714,33.58503400811306],[133.8513487256828,33.58490897392629],[133.8504238116577,33.58465896662745],[133.85029220574117,33.58424422034581],[133.8501488764232,33.58316745515274],[133.84848658634985,33.58213416267762],[133.84746172178413,33.58087591368272],[133.84606189380955,33.57925108058179],[133.84577444330463,33.57880111888654],[133.84536199813377,33.57783456415206],[133.84509952155952,33.57756792978508],[133.84311223693902,33.57685126224586],[133.84251227826667,33.577184560360514],[133.84186560222383,33.57593387469947],[133.8413094580183,33.5752181919017],[133.83950484118938,33.57360358527811],[133.83675960485667,33.57196835343766],[133.83487601696353,33.57134874614283],[133.83412844966716,33.57118881450656],[133.8325230901257,33.570984901907394],[133.83182101898498,33.56825664556915],[133.8309836887022,33.56631541667576],[133.83134288660455,33.56619879098358],[133.83178123754573,33.565087042714055],[133.83388985093012,33.56207947959533],[133.83448174398234,33.56092605396706],[133.83839340335845,33.55942383894074],[133.84481251344036,33.55637829958656],[133.84570194598652,33.555653002721435],[133.8473691937903,33.55510331722589],[133.84841230951213,33.55535604806904],[133.8495800504735,33.55655496256095],[133.8516973000612,33.55703415612193],[133.856180900289,33.55828438233426],[133.85834114071952,33.55861611667163],[133.85977711873045,33.55847965979724],[133.85996379548752,33.55881700088996],[133.86000346338886,33.55900828054601],[133.86015731790746,33.559141785524574],[133.86076620075977,33.5594873831662],[133.86091195000668,33.55960273464701],[133.86138361224516,33.559969787778584],[133.8615728867399,33.560090754757184],[133.86191681101062,33.56026199027556],[133.8621371363416,33.56070440338762],[133.8622786263949,33.56088672144474],[133.8623798439851,33.56102615242402],[133.86254187438945,33.56120080275264],[133.86312631881376,33.56144023138999],[133.86326851744641,33.561520192750415],[133.86366948154887,33.5616568135632],[133.8641260021664,33.561950216721655],[133.8645579133463,33.562102980053965],[133.86469212095628,33.56219349494129],[133.86483733012417,33.562449517875045],[133.86489443292842,33.5626933664772],[133.86541054678023,33.56328033734419],[133.86605045037814,33.56337895026381],[133.86625918377803,33.563502704923735],[133.86636029395802,33.56361532808986],[133.86649681056917,33.56370393077708],[133.8669963593199,33.563880437962],[133.86724042512364,33.56398210815153],[133.867336591209,33.56398946767672],[133.86798374701016,33.56391102610105],[133.8682022519966,33.56391707436867],[133.86857316742038,33.563979130439236],[133.8686959400636,33.56406009442271],[133.8687768556095,33.56452970766023],[133.86895417932246,33.565073634403866],[133.86902015547594,33.56525430064849],[133.8692955193951,33.56597879776975],[133.8693647240302,33.566116377943004],[133.86950853092316,33.566573335959646],[133.8695814383073,33.56703814627887],[133.86983969892788,33.56832056165176],[133.8698018628682,33.568565636610685],[133.8698966978611,33.569081099248095],[133.8696848868983,33.570653861135206],[133.8696648086799,33.571047199303706],[133.86972682651003,33.57110636216088],[133.8700376340993,33.5712843626167],[133.8703082301992,33.57142518217197],[133.87092372034968,33.57168455029462],[133.87119194010964,33.57180050829339],[133.87144767361056,33.57194806154863],[133.87172737681323,33.57233856846464],[133.87177839576304,33.572501102146674],[133.87195699137706,33.57279241084609],[133.871990470588,33.572858313952366],[133.87206467421515,33.573089670556456],[133.87203524568199,33.57316439242876],[133.87183722717128,33.57340804383995],[133.87173420661085,33.57366955126883],[133.87143526678616,33.574656984297555],[133.87133720352946,33.57473955321215],[133.87114093567598,33.57486263787262],[133.87109999630462,33.57492207271025],[133.87094795695856,33.575489936279745],[133.87054883248723,33.57633318919387],[133.87057349837897,33.57648333402685],[133.87044133550373,33.57687890806134],[133.87041546570427,33.57698905079971],[133.87036603103752,33.5771977769011],[133.8699882492251,33.5776907261158],[133.86952703664807,33.57819639250125],[133.86942782867936,33.57854498580165],[133.86942928660508,33.57862056458895],[133.86952459932405,33.578966641619836],[133.86951985345428,33.57919537906548],[133.86972166988645,33.57983777030238],[133.86975164399857,33.580156322574254],[133.8696549061535,33.58054125586151],[133.86962956688146,33.58077576016569],[133.86968759638697,33.58123969065609],[133.86969017591215,33.58156786958058],[133.86977972336194,33.58191304898615],[133.86979527734616,33.582067022966335],[133.86967131305212,33.58251138320016],[133.8696092147802,33.58271154953543],[133.8696007948641,33.58287806442309],[133.869701823051,33.58323085050059],[133.86982417363015,33.583738581740185],[133.86958475774344,33.58448371784373],[133.86947424441104,33.58459984953556],[133.86921401417143,33.58474795058161],[133.8687077797531,33.58490734252406],[133.86821722608167,33.58551832203197],[133.86795469181718,33.58594681735829],[133.86785228732063,33.58608106312513],[133.86780756276656,33.58632041310842],[133.86788754371426,33.586564186799926],[133.86784905805337,33.58666763660023],[133.8675994427437,33.58681982196253],[133.8673809641649,33.58707046048659],[133.86726744879678,33.58728366546072],[133.86725650461347,33.587451664986524],[133.86722055051467,33.58751717407935],[133.86697020943484,33.587955384215306],[133.86715462510898,33.588482162116605]]]},"properties":{"KEY_CODE":"393070040","PREF":"39","CITY":"307","CITY_NAME":"芸西村","S_NAME":"久重","SETAI":"1"}},{"type":"Feature","geometry":{"type":"Polygon","coordinates":[[[133.8251388461454,33.57995042283411],[133.82435142082252,33.579858763861765],[133.8235764794462,33.580467029621936],[133.82316401703176,33.58070032344271],[133.8217391502319,33.580341995535775],[133.82116419646857,33.58020866658876],[133.8204892702589,33.58000867268786],[133.81970186111045,33.5787421363133],[133.81931442644185,33.577525599072835],[133.81887698097782,33.57662569011229],[133.8185520262997,33.576150756377395],[133.8178895991334,33.575517489755846],[133.81730216401576,33.574867541322604],[133.81740425437243,33.57364237069148],[133.8177521666842,33.57310941573469],[133.81827712686191,33.57260946510252],[133.8188520819636,33.571976209919804],[133.81997701408375,33.57045971883353],[133.82080197735044,33.56905986929909],[133.82126444710258,33.56860159149832],[133.8218144221941,33.56736006294283],[133.82163945193656,33.56731839160922],[133.8225802047005,33.56699204083647],[133.82326684444973,33.566658708175794],[133.82451941716394,33.56490025648781],[133.82499676154575,33.56472346109437],[133.8253356198538,33.564927354950036],[133.82662248282742,33.56518169552225],[133.82745253256377,33.56522579016933],[133.82781144659663,33.56503975142675],[133.8286692442381,33.56510687191139],[133.83043016863385,33.56624747007364],[133.8309836887022,33.56631541667576],[133.83182101898498,33.56825664556915],[133.8325230901257,33.570984901907394],[133.83258333115907,33.572257260191165],[133.83225366246535,33.572859693235905],[133.83085977929642,33.57398853879153],[133.8275690497548,33.57591773607614],[133.8263088797978,33.57738409257531],[133.8251388461454,33.57995042283411]]]},"properties":{"KEY_CODE":"393070050","PREF":"39","CITY":"307","CITY_NAME":"芸西村","S_NAME":"道家","SETAI":"3"}},{"type":"Feature","geometry":{"type":"Polygon","coordinates":[[[133.8295905112091,33.583622616303835],[133.82863846057606,33.583208479432336],[133.82731363387157,33.58086704305582],[133.82656371825988,33.5803254131002],[133.82545130696334,33.58008376266603],[133.8251388461454,33.57995042283411],[133.8263088797978,33.57738409257531],[133.8275690497548,33.57591773607614],[133.83085977929642,33.57398853879153],[133.83225366246535,33.572859693235905],[133.83258333115907,33.572257260191165],[133.8325230901257,33.570984901907394],[133.83412844966716,33.57118881450656],[133.83487601696353,33.57134874614283],[133.83675960485667,33.57196835343766],[133.83950484118938,33.57360358527811],[133.8413094580183,33.5752181919017],[133.84186560222383,33.57593387469949],[133.84246568239067,33.577276474251526],[133.84112489949763,33.578276045309515],[133.83972501479968,33.57839266385115],[133.83785018322635,33.579075859459415],[133.83535042011408,33.579759026388004],[133.834087996891,33.5810088480148],[133.83243814038173,33.58173374513684],[133.83173817820594,33.582591962215],[133.83037580277454,33.58305021354506],[133.8295905112091,33.583622616303835]]]},"properties":{"KEY_CODE":"393070060","PREF":"39","CITY":"307","CITY_NAME":"芸西村","S_NAME":"国光","SETAI":"0"}}]}