{"type":"FeatureCollection","features":[{"type":"Feature","geometry":{"type":"Polygon","coordinates":[[[134.1945615230629,33.501948053125524],[134.19010139548712,33.50459393297973],[134.1889937282834,33.50563873870457],[134.1870600528087,33.508497825352755],[134.18389411752383,33.511371183191514],[134.18143116688177,33.5148076883014],[134.17902536032375,33.51728834742911],[134.1765432732597,33.519581998012306],[134.173131286769,33.5224265474078],[134.1713460542927,33.52407454437782],[134.16999478367347,33.52426526353651],[134.16534774470804,33.524499379064935],[134.1611296235742,33.52114342571739],[134.16037429772302,33.520026248881614],[134.15937588996428,33.51805526709047],[134.15883488588182,33.514828371420464],[134.15803203197927,33.51141946534379],[134.15743464683655,33.51020826300882],[134.15764576003406,33.50911444749353],[134.15864934423854,33.507164204210646],[134.1586137826998,33.50560280366665],[134.1579540814322,33.50301517965822],[134.15792653632673,33.50194065547098],[134.15864826046632,33.498591107604355],[134.15808180321181,33.497438337602425],[134.15598211293502,33.49384982196778],[134.1549183184558,33.49088851709644],[134.15514037626417,33.488635779782015],[134.15624000774451,33.48647455685863],[134.15949495715,33.484626428762276],[134.16038337066033,33.483559005116064],[134.161159685677,33.481728641472095],[134.16144660553482,33.478733724002744],[134.16220443071512,33.4785832417516],[134.1637167480811,33.47795000993818],[134.1653790931924,33.478424925198695],[134.16637896729046,33.47914153651684],[134.1673788803839,33.47949979717478],[134.16745386127064,33.47948315278657],[134.1682912909512,33.47904986649869],[134.16957865368946,33.47940813616845],[134.16980362932048,33.48001642748791],[134.17095352341317,33.48080798541072],[134.17222838333342,33.481841214168],[134.17220341165464,33.4829411094334],[134.17414070677816,33.48334104129897],[134.17554057060445,33.484374282641724],[134.1759780567946,33.48442425937013],[134.17782786408932,33.484465917844055],[134.17957773281248,33.484332586313535],[134.18097756924715,33.4849825189951],[134.18275243584242,33.484932480171],[134.18487723031012,33.48495746739165],[134.1854771722079,33.48497413457386],[134.18774765068738,33.48558486401301],[134.18860190985365,33.4852907148876],[134.189914281705,33.48526572914654],[134.19002675707003,33.48530736506963],[134.1914565371353,33.48558826635724],[134.19220159117074,33.48591561751149],[134.19303902582553,33.48676550980159],[134.19510254999528,33.487660523430925],[134.19536653903242,33.48867338377159],[134.19625641298342,33.48870896468573],[134.19691022635325,33.489006868684676],[134.19696089911736,33.49000736869343],[134.1976450858645,33.49134036798125],[134.19895578395878,33.49286307776541],[134.19904230471184,33.49337960535395],[134.19841123244797,33.49426456378463],[134.19800959417884,33.494967288609544],[134.19723584754811,33.4954849874315],[134.19672710199887,33.49567377000211],[134.19536853527296,33.49789723801737],[134.19411690595723,33.49861210735965],[134.19376837956753,33.49916063439924],[134.19351452389293,33.499782485541395],[134.19369137404206,33.50074535468475],[134.19441293807213,33.50196241451874],[134.1945615230629,33.501948053125524]]]},"properties":{"KEY_CODE":"393050010","PREF":"39","CITY":"305","CITY_NAME":"北川村","S_NAME":"大字安倉","SETAI":"2"}},{"type":"Feature","geometry":{"type":"Polygon","coordinates":[[[134.07599370497053,33.47421313136197],[134.07348069979716,33.4745571120002],[134.0720413415565,33.474814825807],[134.0693902438418,33.47573904623805],[134.06809240091832,33.47628956450432],[134.06667942924275,33.47762167145118],[134.0640609178519,33.480838080781446],[134.06063991259404,33.48040134938235],[134.05795039887747,33.47962155567344],[134.05558038123775,33.47889740964878],[134.05421476425653,33.47811305341123],[134.05349983039844,33.47691089536428],[134.05247014491442,33.47463705213369],[134.05103213734094,33.47300531915285],[134.04895644704328,33.471645835240004],[134.05126515458832,33.469980289338224],[134.0533672863479,33.468146236127644],[134.05418383269128,33.466862034057456],[134.05448103252863,33.465456923645036],[134.05403182154348,33.46405066110838],[134.0521911234543,33.46078554077604],[134.05189200860124,33.45942816899097],[134.05189290800902,33.45816866854133],[134.05319885694863,33.45568733577764],[134.05506293855487,33.45261277182327],[134.0624339837075,33.45244833736964],[134.06727720022752,33.45291299310805],[134.07130856556,33.453645734541425],[134.0747129422285,33.45436779407047],[134.0778325848892,33.455336080974554],[134.07945582247294,33.456058861886206],[134.08165200175452,33.4577918803737],[134.08405196501027,33.46046322625077],[134.08533121487017,33.46327882710774],[134.08578591786707,33.465097608929774],[134.0854894262992,33.465873058775124],[134.0855659358674,33.467593607976646],[134.08673506344059,33.469815437211956],[134.08883554132754,33.47175922764225],[134.09123260414137,33.472927533392394],[134.0921714132169,33.47376616636955],[134.09238289089265,33.474561728070405],[134.09209415664702,33.47519437342441],[134.09088603579576,33.47431646297987],[134.08798476171583,33.4733715070409],[134.08715742849512,33.47329581852114],[134.08455601299383,33.4737080627655],[134.0832283007507,33.47409919034257],[134.08189675885188,33.47424680502956],[134.07768311260753,33.47403681885068],[134.07599370497053,33.47421313136197]]]},"properties":{"KEY_CODE":"393050020","PREF":"39","CITY":"305","CITY_NAME":"北川村","S_NAME":"大字柏木","SETAI":"26"}},{"type":"Feature","geometry":{"type":"Polygon","coordinates":[[[134.04292317379372,33.46050938859013],[134.0414141429923,33.46148597989461],[134.03548500096107,33.46628692614279],[134.03169466131715,33.47105877895408],[134.03085122696268,33.47189808318744],[134.02960769882176,33.47260684876974],[134.02523316187873,33.473925992187404],[134.02450063053703,33.473310828354116],[134.02474686740854,33.472346589334705],[134.02422510586982,33.471216707136996],[134.0238832497955,33.47042589296196],[134.02410867380723,33.46980721461028],[134.02413891346956,33.469672158508814],[134.02365268568278,33.468722267915965],[134.02315711859342,33.46818096787923],[134.02300974379304,33.46728038663777],[134.02374516095048,33.46591682039308],[134.02407753839856,33.465140462569316],[134.0244078502161,33.464510205902506],[134.0239276936827,33.46358011946013],[134.02359344450846,33.46207870583522],[134.02376326577632,33.461071565578386],[134.02461571078885,33.45943613868306],[134.02527018484392,33.459085933425705],[134.02522636597254,33.45879555260916],[134.02485464281236,33.45761746240079],[134.02462886357299,33.45732989818376],[134.0242666703479,33.456482203648925],[134.02402810225988,33.45631694292796],[134.02663949485913,33.45433920097386],[134.02737498722945,33.45361009022039],[134.03141180568693,33.44804662424565],[134.03412296411355,33.449028301840535],[134.03621129998962,33.449612826553],[134.03794460682826,33.44963604491605],[134.03757694870959,33.45161066132293],[134.03630021846394,33.45169664794304],[134.03700485523484,33.45277917451707],[134.03630270726637,33.454340119981744],[134.0362688311604,33.45487001730923],[134.0414246054584,33.45453106601427],[134.04292317379372,33.46050938859013]]]},"properties":{"KEY_CODE":"393050030","PREF":"39","CITY":"305","CITY_NAME":"北川村","S_NAME":"大字加茂","SETAI":"79"}},{"type":"Feature","geometry":{"type":"Polygon","coordinates":[[[134.13442156439731,33.557025023305876],[134.12968821512388,33.55882891621174],[134.12667630444176,33.55988438984188],[134.1193117628061,33.561656246981975],[134.11546762831318,33.5623925477943],[134.10938154039238,33.5631263776535],[134.10765974747935,33.562614858876614],[134.1059726195779,33.56177551803136],[134.10434718826932,33.560423322136366],[134.10352886578647,33.55951386942665],[134.10274498830148,33.558642633336355],[134.10106194723446,33.55678715218792],[134.0996600613321,33.555701333178995],[134.08971177065834,33.55213797623373],[134.09008752735056,33.55145743087569],[134.0893584125582,33.55056285183873],[134.09045213227935,33.54916892122393],[134.09299056660933,33.547136644264434],[134.0965493675528,33.545387967004686],[134.09936853868322,33.54412528692682],[134.10160992349418,33.543498165961516],[134.1057266567123,33.54304512723722],[134.10932353889612,33.543101019122545],[134.11251606472828,33.54341278138911],[134.1153928608087,33.543912418157944],[134.11729926382122,33.544774586754635],[134.11943296707307,33.54614658659718],[134.12541501292415,33.55143370584917],[134.13064246541003,33.554973436069936],[134.132349154304,33.55639995043889],[134.13442156439731,33.557025023305876]]]},"properties":{"KEY_CODE":"393050040","PREF":"39","CITY":"305","CITY_NAME":"北川村","S_NAME":"大字久江ノ上","SETAI":"0"}},{"type":"Feature","geometry":{"type":"Polygon","coordinates":[[[134.11232336606193,33.59808509299168],[134.11069800600677,33.59825207867275],[134.11043773705302,33.59822906643837],[134.10630293247263,33.59823262006594],[134.10595013207438,33.59813459730531],[134.1039735724755,33.596660348194035],[134.10401109406024,33.594968879000135],[134.10388609151192,33.59438560554651],[134.10297364698124,33.59390231573155],[134.10213625610007,33.593269041861994],[134.10058637102912,33.59281070590159],[134.09796688316703,33.59266421433075],[134.0974630206248,33.592607122723095],[134.09688672099364,33.59254399288859],[134.0952926401824,33.59216728283652],[134.09438810787933,33.591834369433144],[134.0938068666281,33.591278173601104],[134.09361195566083,33.59040270118929],[134.09386190481294,33.589261174003155],[134.09487434601573,33.58829462597649],[134.09541177686904,33.587444735598844],[134.09581848707384,33.58578452927242],[134.0958367316021,33.58467845477408],[134.09487747351508,33.58116684425428],[134.09392443785808,33.57817929894568],[134.09371196712706,33.57650452646423],[134.09458688244186,33.57547130109462],[134.09481187390065,33.574213121482046],[134.0944414312813,33.573350418530126],[134.09264957337527,33.57172178162823],[134.08969445572416,33.57010161124908],[134.08662521904517,33.56901376780262],[134.0852503675477,33.56866379635421],[134.08407549108952,33.56757228735381],[134.08362551488366,33.566530723294136],[134.08355054014442,33.56536420395289],[134.08293810454,33.564722603820435],[134.08251316456426,33.56346444507854],[134.0831006341166,33.56118968446617],[134.08475051561362,33.55847331301837],[134.08507549715736,33.55729845230653],[134.08551292850314,33.556740162445365],[134.0864378466741,33.55645688103148],[134.08673783912926,33.55578195573753],[134.08788775489302,33.5541237962083],[134.08882515254632,33.55392380536597],[134.08957508618815,33.552598969226594],[134.08971177065834,33.55213797623373],[134.09966006133203,33.555701333178995],[134.10106194723446,33.55678715218794],[134.10274498830148,33.558642633336355],[134.10352886578647,33.55951386942665],[134.10434718826932,33.56042332213638],[134.1059726195779,33.56177551803137],[134.10765974747935,33.56261485887664],[134.10938154039238,33.5631263776535],[134.11546762831318,33.5623925477943],[134.1193117628061,33.561656246981975],[134.12667630444176,33.55988438984188],[134.12968821512388,33.55882891621174],[134.13442156439731,33.55702502330586],[134.13709101216895,33.5576018297765],[134.1397296876207,33.55812013155872],[134.142006184309,33.558423869300746],[134.1462627709629,33.55917703487115],[134.14754563411316,33.55964221918716],[134.14784938405626,33.55969898103517],[134.15035390769714,33.56016688875231],[134.15247632996972,33.560178166686796],[134.15633239343018,33.56080083281424],[134.15587907050028,33.56293001308903],[134.1559381567657,33.56532249961245],[134.15640229399617,33.568718379671566],[134.15665777369696,33.5709324608233],[134.1565972237975,33.575208814703245],[134.15618840739896,33.57877162979245],[134.15587726209753,33.580462639255714],[134.1551457143986,33.581435967256],[134.1544486996876,33.58208144784885],[134.15310807105004,33.58237262544955],[134.15050771787975,33.58302967241614],[134.1494483736057,33.58346059980374],[134.14877051778845,33.58406389382744],[134.14760863968135,33.5856444510846],[134.14728437762426,33.58643889375708],[134.14726568716628,33.58774057090395],[134.1472436278457,33.59005827863795],[134.14647344488478,33.591115946009396],[134.14520024513325,33.59176969164171],[134.1443699308085,33.59111966959927],[134.14399498281972,33.5908530364041],[134.14157018388877,33.59046972783026],[134.1398952903329,33.590203115392036],[134.13905786630386,33.589819817482194],[134.13735796297644,33.589594822523324],[134.13703302137085,33.589753128756946],[134.13665802766948,33.59006976290523],[134.13472069120783,33.59162792407236],[134.133020868383,33.591194629931366],[134.12988368783442,33.59178621690298],[134.12850880538525,33.59207780375115],[134.12767015993524,33.592489641125624],[134.1267590139317,33.59277772334059],[134.12632675256089,33.59298482652199],[134.12540916259377,33.59366091636883],[134.12412183544907,33.59496902525981],[134.12312194855818,33.596168932628586],[134.12233450993685,33.59616895736412],[134.12222650621536,33.59617950589443],[134.12222202952643,33.596177274302455],[134.12203453911297,33.59620224184588],[134.1207721345113,33.59596895906811],[134.11870196980612,33.59627777269295],[134.11758491308964,33.59655226100162],[134.11644751036474,33.59720216188551],[134.11386025033696,33.59797713523193],[134.11232336606193,33.59808509299168]]]},"properties":{"KEY_CODE":"393050050","PREF":"39","CITY":"305","CITY_NAME":"北川村","S_NAME":"大字久木","SETAI":"9"}},{"type":"Feature","geometry":{"type":"Polygon","coordinates":[[[134.096016952134,33.524771028059796],[134.0938339001029,33.524012051114205],[134.091874336468,33.52226002799649],[134.08704691108034,33.51860538700781],[134.08553058587208,33.515883222286185],[134.08526137362284,33.51458442484095],[134.0839872962191,33.513034578293215],[134.08631505771706,33.50968167492084],[134.08664190536348,33.50836833697532],[134.08607931176275,33.50637277087732],[134.08631446148544,33.50485062322653],[134.0868073795739,33.50389690383185],[134.08738535270103,33.50137215482283],[134.08779740379825,33.50034361832501],[134.09004172158782,33.499330395205455],[134.09791349364065,33.49782388850595],[134.09957253123196,33.49695908441688],[134.10044261418602,33.49467477909751],[134.10082001087417,33.492714514030425],[134.1024021585003,33.4894992915212],[134.10355297415524,33.488614345441604],[134.1078057958796,33.486849794776106],[134.10966466689024,33.485420214112594],[134.11310900588853,33.48479736145805],[134.11487150599896,33.484208403717396],[134.11613377479452,33.48408633700923],[134.11868148721146,33.48467323295893],[134.12072881637596,33.484467514320855],[134.12314574023245,33.4849632723402],[134.12572028409392,33.484735288523765],[134.12973783057186,33.48386257080908],[134.13111748552677,33.4910444212165],[134.13152637000334,33.494180598657984],[134.1297729414105,33.49574080597962],[134.1280888396767,33.497560934884845],[134.127105067838,33.49908803453515],[134.12683590945957,33.50030834716672],[134.1265400942675,33.50297319381701],[134.1248890279792,33.50432532060207],[134.12169037427768,33.50541616800096],[134.11903824668252,33.50581283526352],[134.11540822193672,33.50545534914716],[134.11441891678712,33.5052303211547],[134.10856414200174,33.50836311442408],[134.1076518069448,33.50922881538083],[134.10477768044217,33.51280181191629],[134.10259300476247,33.51518617012777],[134.10123939187028,33.516363986281405],[134.09742253125154,33.5223217876346],[134.096016952134,33.524771028059796]]]},"properties":{"KEY_CODE":"393050060","PREF":"39","CITY":"305","CITY_NAME":"北川村","S_NAME":"大字小島","SETAI":"15"}},{"type":"Feature","geometry":{"type":"Polygon","coordinates":[[[134.0640609178519,33.480838080781446],[134.0631213721298,33.48188844930785],[134.06230839272516,33.48236146454366],[134.06136994537698,33.48257730028506],[134.05815981560934,33.48356588321598],[134.05687413301666,33.4841158158533],[134.0566975394143,33.48417846071599],[134.0531018610662,33.485453973019276],[134.0517968316421,33.486046018236365],[134.0505454780412,33.486897801075585],[134.0497828917027,33.48781198156642],[134.04820020972704,33.4891371417133],[134.044908571571,33.48011768659029],[134.04354407217193,33.4780737302351],[134.0428558557612,33.4773162800912],[134.0416863829886,33.476550058710934],[134.04264951598523,33.47550460045471],[134.04343971378816,33.47377566513334],[134.04395958866465,33.47326686424818],[134.04589170717654,33.4728093605572],[134.04895644704328,33.471645835240004],[134.05103213734094,33.47300531915285],[134.05247014491442,33.47463705213369],[134.05349983039844,33.47691089536428],[134.05421476425653,33.47811305341123],[134.05558038123775,33.478897409648766],[134.05795039887747,33.47962155567344],[134.06063991259404,33.48040134938235],[134.0640609178519,33.480838080781446]]]},"properties":{"KEY_CODE":"393050070","PREF":"39","CITY":"305","CITY_NAME":"北川村","S_NAME":"大字木積","SETAI":"3"}},{"type":"Feature","geometry":{"type":"Polygon","coordinates":[[[134.15633239343018,33.56080083281424],[134.15247632996974,33.56017816668679],[134.15035390769708,33.560166888752306],[134.14784938405626,33.55969898103517],[134.14754563411316,33.55964221918716],[134.14626277096295,33.559177034871155],[134.142006184309,33.558423869300746],[134.1397296876207,33.55812013155872],[134.13709101216895,33.5576018297765],[134.13442156439731,33.557025023305876],[134.132349154304,33.55639995043889],[134.13064246541003,33.554973436069936],[134.12541501292415,33.55143370584917],[134.11943296707307,33.54614658659718],[134.11729926382122,33.544774586754635],[134.1153928608087,33.543912418157944],[134.11251606472828,33.54341278138911],[134.10932353889612,33.543101019122545],[134.1057266567123,33.54304512723722],[134.10160992349418,33.543498165961516],[134.09936853868322,33.54412528692682],[134.0965493675528,33.545387967004686],[134.09299056660933,33.547136644264434],[134.09045213227935,33.54916892122393],[134.0893584125582,33.55056285183873],[134.08793775726147,33.550532550279655],[134.08541298102796,33.54972429868869],[134.08447560445873,33.548732725881756],[134.08337570797812,33.54835780390992],[134.08266515665267,33.547200837114055],[134.0843064319748,33.54537622444862],[134.085250339428,33.54393934484242],[134.08585156174175,33.54224565413093],[134.08709651241003,33.53775780276698],[134.08809052446358,33.53570749124881],[134.08934247325286,33.53359580962984],[134.0896006117569,33.532904703139394],[134.09027517662358,33.52953924543165],[134.09148078075154,33.52765470069354],[134.09505426336565,33.52562038566723],[134.096016952134,33.524771028059796],[134.0998787404449,33.52525270926792],[134.10302819957528,33.52540562956229],[134.10753291205162,33.52498215073736],[134.11565681163444,33.524815447084],[134.11983822793098,33.52535201583167],[134.12397353542121,33.52611571773905],[134.12911010140988,33.527204830716116],[134.13144753402503,33.52825549796293],[134.13329979024584,33.52885772849008],[134.13527905152927,33.529307423334046],[134.13998074687203,33.529963779642735],[134.14367755416416,33.530680822458706],[134.1484529603308,33.532184104022],[134.15033623522973,33.53284446509191],[134.15166512722936,33.53371214099735],[134.15582189737134,33.53695137216537],[134.1568544772507,33.53796489246481],[134.15846584901902,33.5408615290099],[134.15784147750304,33.54651908766972],[134.15750595502288,33.552173524425925],[134.1576649164623,33.55396873348699],[134.15885637756622,33.556147645820246],[134.1587722493699,33.55708893547811],[134.15715587626036,33.559373120347],[134.15633239343018,33.56080083281424]]]},"properties":{"KEY_CODE":"393050080","PREF":"39","CITY":"305","CITY_NAME":"北川村","S_NAME":"大字島","SETAI":"13"}},{"type":"Feature","geometry":{"type":"Polygon","coordinates":[[[134.1970477329126,33.55344956238666],[134.1920206166162,33.55427357168521],[134.190676471747,33.55432169585871],[134.1873766374577,33.55538176290509],[134.18030583295143,33.55613789008198],[134.17807176329228,33.5559938938883],[134.1767584814177,33.556100285687045],[134.17471770771996,33.55679380870216],[134.17362392774046,33.5569230304973],[134.17002245650596,33.55662552398357],[134.1692099645405,33.55689445274116],[134.16646167588962,33.55939226044367],[134.16500611699323,33.559936653998676],[134.15933307058202,33.56090346172123],[134.15633239343018,33.56080083281424],[134.15715587626036,33.559373120347],[134.1587722493699,33.55708893547811],[134.15885637756622,33.556147645820246],[134.1576649164623,33.55396873348699],[134.15750595502288,33.552173524425925],[134.15784147750304,33.54651908766972],[134.15846584901902,33.5408615290099],[134.1589382084479,33.53869017904144],[134.1595963422693,33.53812904575739],[134.16124306896842,33.535903357870495],[134.1627001612568,33.532453798430076],[134.16384514316718,33.52880600578787],[134.16383670534762,33.52768935854328],[134.16534774470804,33.524499379064935],[134.16999478367347,33.52426526353651],[134.1713460542927,33.52407454437782],[134.173131286769,33.5224265474078],[134.1765432732597,33.519581998012306],[134.17902536032375,33.51728834742911],[134.18143116688177,33.5148076883014],[134.18389411752383,33.511371183191514],[134.1870600528087,33.508497825352755],[134.1889937282834,33.50563873870457],[134.19010139548712,33.50459393297973],[134.1945615230629,33.501948053125524],[134.19508890002737,33.50189707680153],[134.19774081672003,33.501969106509904],[134.19918077824457,33.500860632859876],[134.20002636162454,33.500665079221726],[134.20138910446735,33.50012429521547],[134.2026225798347,33.499855651051604],[134.2032168047448,33.499646852908086],[134.20303897166647,33.498611076778204],[134.20391934047717,33.497676869151924],[134.20489720665157,33.49722625675518],[134.20468153171558,33.49674942219176],[134.20576934671703,33.496710198081146],[134.20749728114413,33.497272478174494],[134.20845735361715,33.496972334573364],[134.2100960971415,33.49697024285239],[134.2105868340981,33.49804335370044],[134.21082641357327,33.500004302980805],[134.21117263460934,33.50090216475598],[134.2106011092777,33.5017392591296],[134.21046162073608,33.50307152396787],[134.21018579794992,33.50417467060926],[134.2103305907041,33.50508594390111],[134.21107243539024,33.50577611369592],[134.21320805525536,33.506672219706466],[134.21406503965233,33.5066171539031],[134.2145703719949,33.50748840356245],[134.21476342516846,33.50804604610046],[134.21556223139754,33.508671683468606],[134.21555613837023,33.5088801608949],[134.2150937187009,33.510363451516255],[134.21567489969502,33.511047194748365],[134.21585254434845,33.512565874472855],[134.21544413182934,33.51348406854317],[134.2147005693803,33.51431840065242],[134.2128430844372,33.51604342354279],[134.21177677545776,33.516293403609396],[134.21148021407672,33.51672861493028],[134.21063778962682,33.5167875239109],[134.21015727211918,33.51727073977779],[134.20905115026403,33.51768347459184],[134.20755924316114,33.51843340279338],[134.20728805956276,33.51927058414483],[134.20686325517286,33.520060566303],[134.2062131716907,33.52010380122715],[134.20478523997832,33.520404961103615],[134.20463302739216,33.520509273562865],[134.20452043417325,33.52150252358745],[134.2050426549119,33.52201187610301],[134.2049058666738,33.52256436429838],[134.20336396641133,33.52340665055344],[134.20318956226683,33.52372022812013],[134.20334825571624,33.524700871665736],[134.2029117024018,33.52540798620604],[134.20107614137004,33.52557814989612],[134.2012761517624,33.52621141868723],[134.20102619479295,33.52761124748791],[134.20070123300846,33.52889441642487],[134.20017632885333,33.529927615123036],[134.20040131564718,33.53037755579887],[134.200813782677,33.5307858630593],[134.20088880348797,33.531685746407284],[134.20113615515316,33.53345308879542],[134.20108884030503,33.53391879421184],[134.20007646869078,33.53495196370394],[134.19950084977552,33.534990395932745],[134.1987265713213,33.53509358610531],[134.19778920377053,33.53599342542738],[134.19526441153675,33.536376689391176],[134.1944644652345,33.53588507386198],[134.19306461916233,33.53736823110455],[134.19333961668872,33.5386764334186],[134.19340211515063,33.53932637758961],[134.19386456094085,33.540951225180045],[134.19406458608154,33.54248441905627],[134.1942520716127,33.544125919233565],[134.1943895486212,33.54462589148403],[134.19470205954272,33.545617436223054],[134.1946645530007,33.54577575221937],[134.19486454622833,33.5470839145079],[134.19752689925917,33.549217029816376],[134.1978018725894,33.54982529122527],[134.19825185358616,33.55061687583002],[134.1983893630749,33.55192507098921],[134.1973395066756,33.55279989690204],[134.1970477329126,33.55344956238666]]]},"properties":{"KEY_CODE":"393050090","PREF":"39","CITY":"305","CITY_NAME":"北川村","S_NAME":"大字菅ノ上","SETAI":"2"}},{"type":"Feature","geometry":{"type":"Polygon","coordinates":[[[134.08266515665267,33.547200837114055],[134.08208833385112,33.54699960171588],[134.0820383383895,33.5459830655816],[134.08147588178358,33.54545810799428],[134.0799510103603,33.54159192881383],[134.0795010547675,33.54089202876455],[134.07786366463984,33.53930060269402],[134.07781367601166,33.538625654994654],[134.07822612019717,33.53745914090134],[134.07805110804995,33.5356510464359],[134.07830107731058,33.534951120079135],[134.0775011277786,33.533642918475785],[134.07725113541034,33.53230976711975],[134.07601371950463,33.53110154496956],[134.07392637656363,33.52940172569414],[134.07347639604336,33.52932671595522],[134.07157654705838,33.52764357469242],[134.07001413110882,33.52688535641194],[134.06911645516098,33.52683480712234],[134.06911643606998,33.52608213031394],[134.0681856289265,33.52524805137754],[134.0674762056588,33.52335601910096],[134.0665920603899,33.522498840549304],[134.06692926666253,33.52111379451927],[134.0666338982802,33.52058925533001],[134.06391720300962,33.51562661143283],[134.0626210966411,33.51292711539058],[134.06106679711294,33.510918709144626],[134.05880402589528,33.5077834140528],[134.05682753135233,33.50522518550121],[134.05505004177726,33.50357996897084],[134.05346086955402,33.50252902306258],[134.052833829183,33.5018885897462],[134.05230314538883,33.50103727814325],[134.05162690879436,33.499120976311104],[134.0509703205198,33.49653278092643],[134.05050465323995,33.49557867703179],[134.0499246597771,33.494544506774204],[134.04831282287046,33.49329222737016],[134.04788686309453,33.49145755616839],[134.04820020972704,33.4891371417133],[134.0497828917027,33.48781198156642],[134.05054547804124,33.486897801075585],[134.0517968316421,33.4860460182364],[134.0531018610662,33.485453973019254],[134.0566975394143,33.48417846071599],[134.05687413301666,33.4841158158533],[134.05815981560934,33.48356588321599],[134.06136994537698,33.48257730028506],[134.06230839272516,33.48236146454366],[134.0631213721298,33.48188844930784],[134.0640609178519,33.480838080781446],[134.06489017926359,33.48493586049257],[134.06473139436798,33.48691900774022],[134.06667057038914,33.48808393314761],[134.0669083281946,33.48995404568326],[134.06781197985447,33.49175044733156],[134.0679884852921,33.49287384346996],[134.06879588133293,33.49488108487368],[134.06845661722915,33.49612712745124],[134.06826664317086,33.49931129635485],[134.06913590739114,33.500805716576515],[134.0710334358033,33.50118167805637],[134.07182600148278,33.502215045291805],[134.0712903863161,33.5036393408746],[134.07212898562426,33.505075333485244],[134.0734567645262,33.50594389270588],[134.07460766677494,33.50631875264971],[134.0768282443229,33.508253190406265],[134.08099280743227,33.510965972726844],[134.0839872962191,33.513034578293215],[134.08526137362284,33.51458442484095],[134.08553058587208,33.515883222286185],[134.08704691108034,33.51860538700781],[134.091874336468,33.52226002799649],[134.0938339001029,33.524012051114205],[134.096016952134,33.524771028059796],[134.09505426336565,33.52562038566723],[134.09148078075154,33.52765470069354],[134.09027517662358,33.52953924543165],[134.0896006117569,33.532904703139394],[134.08934247325286,33.53359580962984],[134.08809052446358,33.53570749124881],[134.08709651241003,33.53775780276698],[134.08585156174175,33.54224565413093],[134.085250339428,33.54393934484242],[134.0843064319748,33.54537622444862],[134.08266515665267,33.547200837114055]]]},"properties":{"KEY_CODE":"393050100","PREF":"39","CITY":"305","CITY_NAME":"北川村","S_NAME":"大字宗ノ上","SETAI":"14"}},{"type":"Feature","geometry":{"type":"Polygon","coordinates":[[[134.19582203445367,33.56072407161231],[134.1948523387287,33.561315521476885],[134.19325250218589,33.561707131798755],[134.19322752242783,33.56274034085057],[134.1937774842096,33.563548609350576],[134.1938899627139,33.56492346651551],[134.19491489680834,33.56546508674894],[134.195564861656,33.566498306563915],[134.19530238520593,33.568756392768734],[134.19411500668605,33.570156226676666],[134.19354005156214,33.57154774705679],[134.1928026505586,33.57276424452891],[134.19250268739708,33.573964094277535],[134.19120280873926,33.574680664016235],[134.18966546237425,33.574463962335834],[134.18774064745125,33.575747109607796],[134.18695323506105,33.57898834130958],[134.18849063857348,33.58099650339538],[134.18857811931915,33.58162973795366],[134.18761569392322,33.5824879434027],[134.1858783529137,33.58489593427406],[134.18525344133087,33.586937352272585],[134.18480347905177,33.58758727943071],[134.18490347681268,33.58837885751892],[134.1837785618666,33.589578743153844],[134.1823162454846,33.59067861423551],[134.18177878036943,33.59083690523738],[134.18059144214487,33.59187845171657],[134.1792790909005,33.593769911189064],[134.17874162310798,33.59420318620515],[134.17615442116414,33.59401982303774],[134.17482958094556,33.59494461064451],[134.17242982299913,33.595961099739824],[134.170567514159,33.59706934253132],[134.17135490462528,33.59846917876768],[134.17157989527095,33.600069027383654],[134.17009251301124,33.6011521876252],[134.1701175105176,33.60169381977943],[134.17076745773943,33.60279369092712],[134.17260476969557,33.60423521599736],[134.17339224406052,33.6054101231645],[134.17557951859126,33.60666841203198],[134.17576699091882,33.60752662690074],[134.17522957921778,33.607684947876734],[134.17434217494912,33.608559793243636],[134.17364221710676,33.60865143881982],[134.17247982874318,33.60969294837466],[134.16945511825085,33.60978454870833],[134.167930279882,33.61073446481024],[134.16679285973635,33.61089276841612],[134.16463057396157,33.610576106949104],[134.16318073015037,33.61127599211548],[134.16199332678235,33.61233421791722],[134.1604559385756,33.612900864001325],[134.1594810320017,33.61202588699663],[134.15759370557706,33.61175926403497],[134.15616884132683,33.61175924913214],[134.15588501222214,33.61130675909764],[134.15538141443747,33.61033437776634],[134.15573138036746,33.60940944579572],[134.1555313970997,33.60740967266325],[134.1551314465514,33.60562650963461],[134.15475649041272,33.605109899812845],[134.15143178384355,33.604026591685674],[134.1507568504169,33.603259995953096],[134.15080685467146,33.60263505829645],[134.1492445181215,33.600335327248175],[134.14913203960126,33.599185469281835],[134.14818213869705,33.59688567845912],[134.1475321897059,33.595960805865815],[134.14661976948048,33.59341942028653],[134.14520024513325,33.59176969164171],[134.14647344488478,33.591115946009396],[134.1472436278457,33.590058278637954],[134.14726568716628,33.58774057090395],[134.14728437762426,33.58643889375708],[134.14760863968135,33.5856444510846],[134.14877051778845,33.58406389382744],[134.1494483736057,33.58346059980374],[134.15050771787975,33.58302967241614],[134.15310807105004,33.58237262544955],[134.1544486996876,33.582081447848886],[134.1551457143986,33.581435967256],[134.15587726209753,33.580462639255714],[134.15618840739896,33.578771629792435],[134.1565972237975,33.575208814703245],[134.15665777369696,33.5709324608233],[134.15640229399617,33.568718379671566],[134.1559381567657,33.56532249961245],[134.15587907050028,33.56293001308903],[134.15633239343018,33.56080083281424],[134.15933307058202,33.56090346172123],[134.16500611699323,33.559936653998676],[134.16646167588962,33.55939226044367],[134.1692099645405,33.55689445274116],[134.17002245650596,33.55662552398357],[134.17362392774046,33.5569230304973],[134.17471770771996,33.55679380870216],[134.1767584814177,33.556100285687045],[134.17807176329228,33.5559938938883],[134.18030583295143,33.55613789008198],[134.1873766374577,33.55538176290509],[134.190676471747,33.55432169585871],[134.1920206166162,33.55427357168521],[134.1970477329126,33.55344956238666],[134.19668956328402,33.55458301009147],[134.1964146085263,33.5551662991645],[134.19660210391783,33.55622450447335],[134.19693962602935,33.557757660898915],[134.1963021943967,33.55865754517435],[134.19588975155565,33.56014903034662],[134.19582203445367,33.56072407161231]]]},"properties":{"KEY_CODE":"393050110","PREF":"39","CITY":"305","CITY_NAME":"北川村","S_NAME":"大字竹屋敷","SETAI":"0"}},{"type":"Feature","geometry":{"type":"Polygon","coordinates":[[[134.0416863829886,33.476550058710934],[134.04013264258816,33.47661742060939],[134.03804289865494,33.47627938969827],[134.03635345147245,33.4764551399248],[134.03557567801667,33.4770251442522],[134.03278683759552,33.48023409173582],[134.03158122177854,33.481488313375046],[134.03017189691454,33.48243377906542],[134.02827022230971,33.483073232155185],[134.02505871314278,33.48348244131638],[134.02432905388636,33.482838155385785],[134.0241730869,33.481700205688206],[134.0241805542646,33.48028655798581],[134.0241635455357,33.47863960541684],[134.0251174095956,33.47813165497076],[134.02523527563002,33.47707283577666],[134.02452891413162,33.476230072604956],[134.02515317529438,33.4755347151977],[134.02548989134132,33.47425793701895],[134.02523316187873,33.473925992187404],[134.02960769882176,33.47260684876974],[134.03085122696268,33.47189808318744],[134.03169466131715,33.47105877895408],[134.03548500096107,33.46628692614279],[134.0414141429923,33.46148597989461],[134.04292317379372,33.46050938859013],[134.04435116959772,33.45958520475172],[134.04761882727985,33.4578407063393],[134.04836567607856,33.457212106373504],[134.04971707471194,33.45576318359739],[134.05005242165075,33.45490345889392],[134.05014231402217,33.452946185454294],[134.05506293855487,33.45261277182327],[134.05319885694863,33.45568733577764],[134.05189290800902,33.45816866854133],[134.05189200860124,33.45942816899097],[134.0521911234543,33.46078554077604],[134.05403182154348,33.46405066110838],[134.05448103252863,33.465456923645036],[134.05418383269128,33.466862034057456],[134.0533672863479,33.468146236127644],[134.05126515458832,33.469980289338224],[134.04895644704328,33.471645835240004],[134.04589170717654,33.4728093605572],[134.04395958866465,33.47326686424818],[134.04343971378816,33.47377566513334],[134.04264951598523,33.47550460045471],[134.0416863829886,33.476550058710934]]]},"properties":{"KEY_CODE":"393050120","PREF":"39","CITY":"305","CITY_NAME":"北川村","S_NAME":"大字長山","SETAI":"46"}},{"type":"Feature","geometry":{"type":"Polygon","coordinates":[[[134.0665920603899,33.522498840549304],[134.06580551237192,33.52245084346914],[134.06467642316164,33.52241028688585],[134.06360845009772,33.521433702045776],[134.06337957669572,33.52108787895945],[134.06281491850083,33.52101648063877],[134.0619147184952,33.52139283344875],[134.06043486475434,33.52087423976153],[134.05983992400894,33.520904792715655],[134.05790204779723,33.52082340652701],[134.0557966839351,33.520487595167374],[134.0548353742728,33.51905355940364],[134.05405709360937,33.51867718664229],[134.05298911147923,33.51749731197412],[134.0495716178404,33.515442419600575],[134.04838144879588,33.514699954212915],[134.0468251008134,33.51341889974605],[134.04530260323452,33.5128195755821],[134.04359795243764,33.51258947584045],[134.04188160350736,33.512751573384904],[134.03951332787315,33.51307104356278],[134.03861702175206,33.51273034109957],[134.0363752242194,33.51088507198094],[134.0359628206957,33.51051836295235],[134.03534169340637,33.5098992580182],[134.03531852861414,33.50876472070397],[134.0354457810645,33.50820101893549],[134.03537380618897,33.50778308534205],[134.03481645616284,33.507402139471466],[134.03257990989405,33.506958797420566],[134.03194005677716,33.5063412647154],[134.03115947170545,33.50531803126662],[134.02939052159044,33.50383453831367],[134.02849304949368,33.50358830692894],[134.02842381831383,33.50341190260072],[134.02785943493026,33.50277131935316],[134.02739996943066,33.5011159398437],[134.0277351771145,33.499882214198074],[134.0279837129134,33.49812418450852],[134.02777450674355,33.49759885943265],[134.0268418968769,33.49784961812795],[134.0259057555614,33.49780460382402],[134.02555201418826,33.49745528833004],[134.0257420505625,33.4968792230242],[134.02641523474085,33.496029079684114],[134.02633506656903,33.49393946902086],[134.02710386318074,33.491574162333926],[134.02617287128484,33.49031762786173],[134.02686313708165,33.48936332404115],[134.02645885374994,33.488279934707705],[134.0262626397751,33.48754349428053],[134.02654731004662,33.48705471516854],[134.02582818236166,33.48646466986813],[134.0251273688052,33.48537511638282],[134.02505871314278,33.48348244131638],[134.02827022230971,33.483073232155185],[134.03017189691454,33.48243377906542],[134.03158122177854,33.481488313375046],[134.03278683759552,33.48023409173582],[134.03557567801667,33.4770251442522],[134.03635345147245,33.4764551399248],[134.03804289865494,33.47627938969827],[134.04013264258816,33.47661742060939],[134.0416863829886,33.476550058710934],[134.0428558557612,33.4773162800912],[134.04354407217193,33.4780737302351],[134.044908571571,33.48011768659029],[134.04820020972704,33.4891371417133],[134.04788686309453,33.49145755616839],[134.04831282287046,33.49329222737016],[134.0499246597771,33.494544506774204],[134.05050465323995,33.49557867703179],[134.0509703205198,33.49653278092643],[134.0516269087944,33.499120976311104],[134.05230314538883,33.50103727814325],[134.052833829183,33.5018885897462],[134.05346086955402,33.50252902306257],[134.05505004177726,33.50357996897085],[134.05682753135233,33.50522518550121],[134.05880402589528,33.5077834140528],[134.06106679711294,33.510918709144626],[134.0626210966411,33.51292711539058],[134.06391720300962,33.51562661143283],[134.0666338982802,33.52058925533001],[134.06692926666253,33.52111379451929],[134.0665920603899,33.522498840549304]]]},"properties":{"KEY_CODE":"393050130","PREF":"39","CITY":"305","CITY_NAME":"北川村","S_NAME":"大字西谷","SETAI":"15"}},{"type":"Feature","geometry":{"type":"Polygon","coordinates":[[[134.11868148721146,33.48467323295893],[134.11613377479452,33.48408633700923],[134.11487150599896,33.484208403717396],[134.11310900588853,33.48479736145805],[134.10966466689024,33.485420214112594],[134.10784428998898,33.48298693390918],[134.1070592556402,33.482440722181735],[134.10582008749364,33.48213423120301],[134.10468482516436,33.48210373584057],[134.10380357579834,33.48176841502369],[134.1012292739735,33.479476939403995],[134.1006136323012,33.47893734845846],[134.09958618324467,33.47879659053605],[134.09843554777794,33.479051680584135],[134.0973157770923,33.478735489374415],[134.09636147030713,33.4781825398464],[134.0963065457909,33.4780684812075],[134.09559971260882,33.47657808663682],[134.09499556958667,33.47613917403682],[134.09371801198301,33.47591694581541],[134.09209415664702,33.47519437342441],[134.09238289089265,33.474561728070405],[134.0921714132169,33.47376616636955],[134.09123260414137,33.472927533392394],[134.08883554132754,33.47175922764225],[134.08673506344059,33.469815437211956],[134.0855659358674,33.467593607976646],[134.0854894262992,33.465873058775124],[134.08578591786707,33.465097608929774],[134.08533121487017,33.46327882710774],[134.08405196501027,33.46046322625077],[134.08165200175452,33.4577918803737],[134.07945582247294,33.456058861886206],[134.0778325848892,33.455336080974554],[134.0747129422285,33.45436779407047],[134.07130856556,33.453645734541425],[134.06727720022752,33.45291299310805],[134.0624339837075,33.45244833736964],[134.05506293855487,33.45261277182327],[134.05014231402217,33.452946185454294],[134.04916253065653,33.451318311683885],[134.0453663435234,33.450322287148936],[134.04587561097958,33.44845330020354],[134.0464691972128,33.44690254482557],[134.05339686695282,33.436715594955665],[134.05376743176151,33.43665746479308],[134.05526252725736,33.43531483927469],[134.0562390785685,33.4355386576487],[134.05831379001003,33.43490786387745],[134.0594428284173,33.43492840468323],[134.0605106966413,33.43554858686381],[134.0617924847962,33.435569124450666],[134.06347058146721,33.435629925639454],[134.06412661101498,33.43546715509609],[134.06475207933875,33.43595541750952],[134.06620161478233,33.435924842242706],[134.06549975585892,33.43649450293333],[134.06513363130546,33.437928791750984],[134.06598798193662,33.43868146597934],[134.0669186602932,33.43889506596166],[134.06775776273105,33.43780654354875],[134.06813906019846,33.43820346002946],[134.06877980702185,33.43872199725554],[134.0689630834485,33.44037985392919],[134.0693596657836,33.440888704892956],[134.06952283670722,33.441004640868464],[134.07027512483648,33.44127504687412],[134.07180074027542,33.44105114844623],[134.0726245394544,33.44119363259827],[134.07368268444512,33.440927389093105],[134.075584438958,33.44160046663569],[134.07704900868254,33.44162072171984],[134.07735424972728,33.44196650390219],[134.0773542300195,33.44266558321375],[134.07735422155034,33.44312610603756],[134.07924623492835,33.44381765235269],[134.07973422463394,33.444102582732704],[134.07949009655871,33.44552657545635],[134.07945979889362,33.44595373963449],[134.08046666949141,33.44666560063706],[134.08147377003732,33.44662501989475],[134.08174818265124,33.44666556375009],[134.0830166458836,33.44736303446197],[134.08324354645737,33.44764207589431],[134.08348770409256,33.447662366991565],[134.08592884589572,33.446136653399996],[134.08702733331535,33.44664520072952],[134.08736286825516,33.447031815459106],[134.08794279485576,33.44725538226862],[134.088491890994,33.44719457231128],[134.08952930058507,33.447743646545554],[134.09004809984154,33.44837441013053],[134.09338945469085,33.44803857423027],[134.09500676027,33.44823184803446],[134.09549504180984,33.448394604810545],[134.0962122202069,33.44883203488911],[134.09718848958985,33.44883202191092],[134.09869890195984,33.44849621015947],[134.09909582286556,33.44784518605564],[134.09947714542,33.447570751112146],[134.10243715372204,33.44749934952817],[134.1044813959267,33.44788591872848],[134.105992085576,33.44782481380081],[134.10648037626493,33.44749929447514],[134.1082892404842,33.44680331908031],[134.10824720968938,33.44772990409822],[134.1089087610442,33.44906206250805],[134.1090090339368,33.450836834233094],[134.1104115427751,33.45209772384232],[134.11121190749725,33.45355157003898],[134.11173759529703,33.45573735553629],[134.11156723068163,33.456668694834526],[134.11282833887782,33.45808920692579],[134.11413668210352,33.45891152995789],[134.11556658857214,33.45946439049464],[134.1164546855199,33.45905156459007],[134.11761742415428,33.460226114165366],[134.11863387336257,33.46050530772895],[134.11877779707368,33.46134719958681],[134.11959132535333,33.46202378475709],[134.12105793672828,33.46366548641309],[134.12197602629638,33.46370565103964],[134.12391201912794,33.46507782624876],[134.12458628504382,33.46583778552283],[134.12514369892887,33.466936068347394],[134.12719524908,33.468335150182504],[134.12878284121592,33.470158755287585],[134.12907798633358,33.47169091593836],[134.13040350023118,33.47312301538601],[134.13184976330817,33.47417539308244],[134.1309824612717,33.47520918052981],[134.13050561715525,33.47650727285728],[134.13000207781525,33.478620147439486],[134.12952519842958,33.479918191193924],[134.129410280198,33.48206062603867],[134.12973783057186,33.483862570809066],[134.12572028409392,33.484735288523765],[134.12314574023245,33.4849632723402],[134.12072881637596,33.484467514320855],[134.11868148721146,33.48467323295893]]]},"properties":{"KEY_CODE":"393050140","PREF":"39","CITY":"305","CITY_NAME":"北川村","S_NAME":"大字野川","SETAI":"37"}},{"type":"Feature","geometry":{"type":"Polygon","coordinates":[[[134.05014231402217,33.452946185454294],[134.05005242165075,33.45490345889392],[134.04971707471194,33.45576318359739],[134.04836567607856,33.457212106373504],[134.04761882727985,33.4578407063393],[134.04435116959772,33.45958520475172],[134.04292317379372,33.46050938859013],[134.0414246054584,33.45453106601427],[134.0362688311604,33.45487001730923],[134.03630270726637,33.454340119981744],[134.03700485523484,33.45277917451707],[134.03630021846394,33.45169664794304],[134.03757694870959,33.45161066132293],[134.03794460682826,33.44963604491605],[134.04102758743454,33.44963369592693],[134.0453663435234,33.450322287148936],[134.04916253065653,33.451318311683885],[134.05014231402217,33.452946185454294]]]},"properties":{"KEY_CODE":"39305015001","PREF":"39","CITY":"305","CITY_NAME":"北川村","S_NAME":"大字野友乙","SETAI":"70"}},{"type":"Feature","geometry":{"type":"Polygon","coordinates":[[[134.03794460682826,33.44963604491605],[134.03621129998962,33.449612826553],[134.03412296411355,33.449028301840535],[134.03141180568693,33.44804662424565],[134.02737498722945,33.45361009022039],[134.02663949485913,33.45433920097386],[134.02402810225988,33.45631694292796],[134.02223372411396,33.45517870096697],[134.02106470068603,33.45384949548388],[134.02001817809287,33.45349174257074],[134.01865961934323,33.45118241037208],[134.01873965361463,33.45037988591345],[134.01806291574235,33.449445510702546],[134.0180573586982,33.448943707605984],[134.01871333963177,33.448058105596296],[134.02020748891496,33.44778187559977],[134.02018025141143,33.44664379684762],[134.02200700949697,33.44597170113399],[134.02241461885853,33.44673870129629],[134.0235319462862,33.44629426000514],[134.02486368951807,33.446814753423226],[134.02565569649852,33.44665545193147],[134.02594480776511,33.44703263033638],[134.02734981094721,33.445989051119966],[134.03012916361013,33.44592506076947],[134.03000723756827,33.44318468542334],[134.02990230238032,33.44082585178197],[134.0318427709174,33.439380595840014],[134.03265340857484,33.43923557053779],[134.03327676990838,33.43865263532674],[134.03534408610068,33.43853277274332],[134.03606749655071,33.43804676884597],[134.0378598338095,33.43812504781717],[134.03799928800711,33.43812183169944],[134.03873190129983,33.43789732461963],[134.03906853118465,33.438006899963945],[134.04076293250534,33.43737166833716],[134.0419460443172,33.43694432766161],[134.04347791579417,33.43674813967046],[134.04412950783302,33.43715656768865],[134.04465970993363,33.437311163252595],[134.04637461841077,33.437470707615745],[134.04691639319665,33.43719194987919],[134.0479896100001,33.436303577784116],[134.04946447515582,33.43584327148714],[134.0516407952575,33.43623116680206],[134.05202819778953,33.436616967700914],[134.05339686695282,33.436715594955665],[134.0464691972128,33.44690254482557],[134.04587561097958,33.44845330020354],[134.0453663435234,33.450322287148936],[134.04102758743454,33.44963369592693],[134.03794460682826,33.44963604491605]]]},"properties":{"KEY_CODE":"39305015002","PREF":"39","CITY":"305","CITY_NAME":"北川村","S_NAME":"大字野友甲","SETAI":"185"}},{"type":"Feature","geometry":{"type":"Polygon","coordinates":[[[134.11565681163444,33.524815447084],[134.10753291205162,33.52498215073736],[134.10302819957528,33.52540562956229],[134.0998787404449,33.52525270926792],[134.096016952134,33.524771028059796],[134.09742253125154,33.5223217876346],[134.10123939187028,33.516363986281405],[134.10259300476247,33.51518617012777],[134.10477768044217,33.51280181191629],[134.1076518069448,33.50922881538083],[134.10856414200174,33.50836311442408],[134.11441891678712,33.5052303211547],[134.11540822193672,33.50545534914716],[134.11903824668252,33.50581283526352],[134.12169037427768,33.50541616800096],[134.1248890279792,33.50432532060207],[134.1265400942675,33.50297319381701],[134.12683590945957,33.50030834716672],[134.127105067838,33.49908803453515],[134.1280888396767,33.497560934884845],[134.1297729414105,33.49574080597962],[134.13152637000334,33.494180598657984],[134.13269691407018,33.49577223933381],[134.13364003054747,33.496224296474345],[134.13621181513219,33.49827166350686],[134.137309240923,33.49964579250975],[134.13795656994463,33.50150317504394],[134.13838096737976,33.50435367057679],[134.1378355023137,33.507566881286714],[134.13693964426434,33.51066619003393],[134.136069977082,33.5116912252689],[134.13464251054566,33.51393957266878],[134.13240289287697,33.51708634509168],[134.13090554980224,33.518101009282375],[134.1293310972705,33.51865464651832],[134.12228980149044,33.519852139709926],[134.12096550584488,33.5204870888878],[134.1197260531807,33.52207001133052],[134.11565681163444,33.524815447084]]]},"properties":{"KEY_CODE":"393050160","PREF":"39","CITY":"305","CITY_NAME":"北川村","S_NAME":"大字平鍋","SETAI":"11"}},{"type":"Feature","geometry":{"type":"Polygon","coordinates":[[[134.16534774470804,33.524499379064935],[134.16383670534762,33.52768935854328],[134.16384514316718,33.52880600578787],[134.1627001612568,33.532453798430076],[134.16124306896842,33.535903357870495],[134.1595963422693,33.53812904575739],[134.1589382084479,33.53869017904144],[134.15846584901902,33.5408615290099],[134.1568544772507,33.53796489246481],[134.15582189737134,33.53695137216537],[134.15166512722936,33.53371214099735],[134.15373170872456,33.531574471849396],[134.1544163255182,33.53019865032821],[134.1546996731443,33.52743322662211],[134.15420818900168,33.52296300340062],[134.15355635669366,33.520862311174064],[134.15134474460123,33.517770447791236],[134.1486987075627,33.514804491236575],[134.14567094353322,33.511587804413054],[134.1444501317827,33.51048540469673],[134.1425582300904,33.50944892338946],[134.14035670979123,33.507078886206884],[134.13838096737976,33.50435367057679],[134.13795656994463,33.50150317504394],[134.137309240923,33.49964579250975],[134.13621181513219,33.49827166350686],[134.13364003054747,33.496224296474345],[134.13269691407018,33.49577223933381],[134.13152637000334,33.494180598657984],[134.13111748552677,33.4910444212165],[134.12973783057186,33.48386257080908],[134.129410280198,33.48206062603867],[134.12952519842958,33.47991819119391],[134.13000207781528,33.478620147439486],[134.13050561715522,33.47650727285728],[134.1309824612717,33.47520918052981],[134.13184976330814,33.474175393082426],[134.13210030941994,33.474557887556635],[134.13305649446949,33.474583331449274],[134.1340228978909,33.4742883317622],[134.1346549884725,33.47412188333345],[134.13524655614594,33.4734150628079],[134.13687428630107,33.472835499614376],[134.13730729664505,33.47209891817226],[134.13770602515177,33.470908670457774],[134.13905594529595,33.470142109220035],[134.13969337595847,33.470075455605475],[134.14009332512356,33.46969216259942],[134.14128076353836,33.46940056088655],[134.14200569365414,33.469267264873835],[134.1434930500742,33.46872570709601],[134.14415551923278,33.46843408710334],[134.1456929468204,33.470658872823854],[134.14720534498696,33.47137546917365],[134.1479552803523,33.472342062237615],[134.1493051758616,33.472500438221594],[134.15049260601504,33.473442035789056],[134.151192577279,33.47436694641002],[134.15140505006102,33.474525276739975],[134.1522425137367,33.47479193699165],[134.15219252771288,33.47550850550653],[134.15356744066634,33.47607515756208],[134.15459241231238,33.47668340502035],[134.15566738480808,33.47750834506625],[134.1563423161132,33.47749169694675],[134.1579047763187,33.47793331404903],[134.15975465052443,33.47849992659514],[134.1605920717981,33.478541588956965],[134.16112953043387,33.47869991714009],[134.16144660553482,33.478733724002744],[134.161159685677,33.481728641472095],[134.16038337066033,33.483559005116064],[134.15949495715,33.484626428762276],[134.15624000774451,33.48647455685863],[134.15514037626417,33.488635779782015],[134.1549183184558,33.49088851709644],[134.15598211293502,33.49384982196778],[134.15808180321181,33.497438337602425],[134.15864826046632,33.498591107604355],[134.15792653632673,33.50194065547098],[134.1579540814322,33.50301517965822],[134.1586137826998,33.50560280366665],[134.15864934423854,33.507164204210646],[134.15764576003406,33.50911444749353],[134.15743464683655,33.51020826300882],[134.15803203197927,33.51141946534379],[134.15883488588182,33.514828371420464],[134.15937588996428,33.51805526709047],[134.16037429772302,33.520026248881614],[134.1611296235742,33.52114342571739],[134.16534774470804,33.524499379064935]]]},"properties":{"KEY_CODE":"393050170","PREF":"39","CITY":"305","CITY_NAME":"北川村","S_NAME":"大字弘瀬","SETAI":"2"}},{"type":"Feature","geometry":{"type":"Polygon","coordinates":[[[134.15166512722936,33.53371214099735],[134.15033623522973,33.53284446509191],[134.1484529603308,33.532184104022],[134.14367755416416,33.530680822458706],[134.13998074687203,33.529963779642735],[134.13527905152927,33.529307423334046],[134.13329979024584,33.52885772849008],[134.13144753402503,33.52825549796293],[134.12911010140988,33.527204830716116],[134.12397353542121,33.52611571773905],[134.11983822793098,33.52535201583167],[134.11565681163444,33.524815447084],[134.1197260531807,33.52207001133052],[134.12096550584488,33.5204870888878],[134.12228980149044,33.519852139709926],[134.1293310972705,33.51865464651832],[134.13090554980224,33.518101009282375],[134.13240289287697,33.51708634509168],[134.13464251054566,33.51393957266878],[134.136069977082,33.5116912252689],[134.13693964426434,33.51066619003393],[134.1378355023137,33.507566881286714],[134.13838096737976,33.50435367057679],[134.14035670979123,33.507078886206884],[134.1425582300904,33.50944892338946],[134.1444501317827,33.51048540469673],[134.14567094353322,33.511587804413054],[134.1486987075627,33.514804491236575],[134.15134474460123,33.517770447791236],[134.15355635669366,33.520862311174064],[134.15420818900168,33.52296300340062],[134.1546996731443,33.52743322662211],[134.1544163255182,33.53019865032821],[134.15373170872456,33.531574471849396],[134.15166512722936,33.53371214099735]]]},"properties":{"KEY_CODE":"393050180","PREF":"39","CITY":"305","CITY_NAME":"北川村","S_NAME":"大字二タ又","SETAI":"4"}},{"type":"Feature","geometry":{"type":"Polygon","coordinates":[[[134.10966466689024,33.485420214112594],[134.1078057958796,33.486849794776106],[134.10355297415524,33.488614345441604],[134.1024021585003,33.4894992915212],[134.10082001087417,33.492714514030425],[134.10044261418602,33.49467477909751],[134.09957253123196,33.49695908441688],[134.09791349364065,33.49782388850595],[134.09004172158782,33.499330395205455],[134.08779740379825,33.50034361832501],[134.08738535270103,33.50137215482283],[134.0868073795739,33.50389690383185],[134.08631446148544,33.50485062322653],[134.08607931176275,33.50637277087732],[134.08664190536348,33.50836833697532],[134.08631505771706,33.50968167492084],[134.0839872962191,33.513034578293215],[134.08099280743227,33.510965972726844],[134.0768282443229,33.508253190406265],[134.07460766677494,33.50631875264971],[134.0734567645262,33.50594389270588],[134.07212898562426,33.505075333485244],[134.0712903863161,33.5036393408746],[134.07182600148278,33.502215045291805],[134.0710334358033,33.50118167805637],[134.06913590739114,33.500805716576515],[134.06826664317086,33.49931129635485],[134.06845661722915,33.49612712745124],[134.06879588133293,33.49488108487368],[134.0679884852921,33.49287384346996],[134.06781197985447,33.49175044733156],[134.0669083281946,33.48995404568326],[134.06667057038914,33.48808393314761],[134.06473139436798,33.48691900774022],[134.06489017926359,33.48493586049257],[134.0640609178519,33.480838080781446],[134.06667942924273,33.47762167145118],[134.06809240091832,33.47628956450432],[134.0693902438418,33.47573904623805],[134.0720413415565,33.474814825807],[134.07348069979716,33.4745571120002],[134.07599370497053,33.47421313136197],[134.07768311260753,33.47403681885068],[134.08189675885188,33.47424680502956],[134.0832283007507,33.47409919034257],[134.08455601299383,33.4737080627655],[134.08715742849512,33.47329581852114],[134.08798476171583,33.473371507040895],[134.09088603579576,33.47431646297988],[134.09209415664702,33.47519437342441],[134.09371801198301,33.47591694581541],[134.09499556958667,33.47613917403683],[134.09559971260882,33.476578086636835],[134.0963065457909,33.4780684812075],[134.09636147030713,33.4781825398464],[134.0973157770922,33.478735489374415],[134.09843554777794,33.479051680584156],[134.09958618324467,33.47879659053605],[134.1006136323012,33.47893734845846],[134.1012292739735,33.479476939403995],[134.10380357579834,33.48176841502369],[134.10468482516433,33.48210373584056],[134.10582008749364,33.48213423120301],[134.1070592556402,33.482440722181735],[134.10784428998895,33.48298693390918],[134.10966466689024,33.485420214112594]]]},"properties":{"KEY_CODE":"393050190","PREF":"39","CITY":"305","CITY_NAME":"北川村","S_NAME":"大字和田","SETAI":"16"}}]}