{"type":"FeatureCollection","features":[{"type":"Feature","geometry":{"type":"Polygon","coordinates":[[[133.59604306609543,33.75644158569146],[133.595132034774,33.756439694428174],[133.59428134665373,33.756922020496866],[133.59341618025624,33.756121225566616],[133.59201368167913,33.75656211702095],[133.5916568010103,33.75723367626307],[133.59035409310493,33.75732312170193],[133.59002094298913,33.75586977625413],[133.5904578228071,33.7546905020014],[133.59120147400992,33.75416968180807],[133.59130942436659,33.754639926169155],[133.59240444078915,33.754625506649134],[133.59311284988055,33.75377617125097],[133.59382283819988,33.75457307465472],[133.5947981926881,33.754698265553685],[133.59546695087184,33.75427250129428],[133.59667469081145,33.75456007083975],[133.59779024227527,33.755102341019914],[133.59881159310834,33.75480609631236],[133.59949767331904,33.75583423667947],[133.59918885189464,33.7562305679479],[133.598448466583,33.756227715740124],[133.5981708663314,33.75681505173429],[133.59604306609543,33.75644158569146]]]},"properties":{"KEY_CODE":"39341001001","PREF":"39","CITY":"341","CITY_NAME":"本山町","S_NAME":"本山一区","SETAI":"94"}},{"type":"Feature","geometry":{"type":"Polygon","coordinates":[[[133.59035409310493,33.75732312170193],[133.58903216189128,33.75722364881194],[133.58724943474888,33.756830336927166],[133.58718748674258,33.75510890378255],[133.58762274357704,33.754454697348955],[133.58906114799504,33.7539467723767],[133.58918336936594,33.75350467200384],[133.58982181866241,33.75383949791329],[133.5904578228071,33.7546905020014],[133.59002094298913,33.75586977625413],[133.59035409310493,33.75732312170193]]]},"properties":{"KEY_CODE":"39341001002","PREF":"39","CITY":"341","CITY_NAME":"本山町","S_NAME":"本山二区","SETAI":"48"}},{"type":"Feature","geometry":{"type":"Polygon","coordinates":[[[133.59496492547453,33.76080186021369],[133.59411710407406,33.76071313255344],[133.59331421751492,33.76009508077005],[133.5923027834597,33.76003922014524],[133.5908378326608,33.76050395692136],[133.58858536432885,33.760707078713175],[133.5863192572861,33.760592978173904],[133.58647339861443,33.75946702959571],[133.586915491068,33.758396664119346],[133.58837139540165,33.758153442880655],[133.58844789169024,33.75732381858987],[133.5875973083694,33.75733260434427],[133.58724943474888,33.756830336927166],[133.58903216189128,33.75722364881194],[133.59035409310493,33.75732312170193],[133.5916568010103,33.75723367626307],[133.59201368167913,33.75656211702095],[133.59341618025624,33.756121225566616],[133.59428134665373,33.756922020496866],[133.595132034774,33.756439694428174],[133.59604306609543,33.75644158569146],[133.59642271264644,33.75713074799355],[133.59525311011186,33.759613532264765],[133.59496492547453,33.76080186021369]]]},"properties":{"KEY_CODE":"39341001003","PREF":"39","CITY":"341","CITY_NAME":"本山町","S_NAME":"本山三区","SETAI":"132"}},{"type":"Feature","geometry":{"type":"Polygon","coordinates":[[[133.58724943474888,33.756830336927166],[133.5875973083694,33.75733260434427],[133.58844789169024,33.75732381858987],[133.58837139540165,33.758153442880655],[133.586915491068,33.758396664119346],[133.58647339861443,33.75946702959571],[133.5863192572861,33.760592978173904],[133.58397446119156,33.759994681293456],[133.58210817837997,33.75885503223211],[133.58168387590626,33.75913432810005],[133.58106423900074,33.75806771922024],[133.58006585162073,33.75731636377647],[133.57876832800022,33.758243205704524],[133.57827841713635,33.757579133912586],[133.57893702026863,33.75746044188929],[133.57914240073094,33.75679902230847],[133.5780850711349,33.7563860113128],[133.5781413347526,33.755237811767785],[133.578743913672,33.75478041159721],[133.57825418312547,33.7543544971373],[133.57596949414463,33.75315614450903],[133.57652726809252,33.75170563628656],[133.57657248721267,33.750282215188015],[133.57767722159107,33.7517300553611],[133.57809584132275,33.75123388661711],[133.57854122442072,33.751486834653356],[133.57886213617996,33.75092887972005],[133.57999067553135,33.750105892399475],[133.58082438902704,33.7484592923751],[133.58222478055953,33.74909675867108],[133.58244533375034,33.74967971489289],[133.58172247035088,33.75087085559339],[133.58113584965895,33.751196398856436],[133.58114090416285,33.752098386364004],[133.58075474571518,33.7527811387321],[133.58178452796355,33.75232526563029],[133.58260891505705,33.75274538097297],[133.5822726119986,33.753401124662034],[133.58304325722807,33.75339968543362],[133.58281048050983,33.75409712800955],[133.58420654034822,33.75406827695173],[133.58529354490415,33.75297527934145],[133.58558593369517,33.75394299056905],[133.58527575944217,33.754662328626],[133.58617345382416,33.75535116282953],[133.58718748674258,33.75510890378255],[133.58724943474888,33.756830336927166]]]},"properties":{"KEY_CODE":"39341001004","PREF":"39","CITY":"341","CITY_NAME":"本山町","S_NAME":"本山四区","SETAI":"247"}},{"type":"Feature","geometry":{"type":"Polygon","coordinates":[[[133.57657248721267,33.750282215188015],[133.57652726809252,33.75170563628656],[133.57596949414463,33.75315614450903],[133.57825418312547,33.7543544971373],[133.578743913672,33.75478041159721],[133.5781413347526,33.755237811767785],[133.5780850711349,33.7563860113128],[133.57696579535377,33.75601832296012],[133.575077584449,33.755741053013104],[133.57380292305564,33.75531327814165],[133.57335236492014,33.754805259977346],[133.57196869396805,33.75173884196338],[133.5703480111599,33.749766094113916],[133.57155108216122,33.74788907487301],[133.5732223169103,33.74910643337909],[133.57437508043358,33.74807659635859],[133.5748492255233,33.74796747709633],[133.57465865418536,33.749508412961305],[133.5751470425077,33.750111014672754],[133.575901623273,33.74942670947149],[133.57592468248833,33.750518313828856],[133.57657248721267,33.750282215188015]]]},"properties":{"KEY_CODE":"39341001005","PREF":"39","CITY":"341","CITY_NAME":"本山町","S_NAME":"本山五区","SETAI":"84"}},{"type":"Feature","geometry":{"type":"Polygon","coordinates":[[[133.61461410235242,33.76066570535562],[133.6125848365059,33.75997712333326],[133.61299660666884,33.759016102130495],[133.61502861187356,33.75972122896454],[133.61461410235242,33.76066570535562]]]},"properties":{"KEY_CODE":"39341001006","PREF":"39","CITY":"341","CITY_NAME":"本山町","S_NAME":"本山","SETAI":"5"}},{"type":"Feature","geometry":{"type":"Polygon","coordinates":[[[133.5904578228071,33.7546905020014],[133.58982181866241,33.75383949791329],[133.58918336936594,33.75350467200384],[133.58906114799504,33.7539467723767],[133.58762274357704,33.754454697348955],[133.58718748674258,33.75510890378255],[133.58617345382416,33.75535116282953],[133.58527575944217,33.754662328626],[133.58558593369517,33.75394299056905],[133.58529354490415,33.75297527934145],[133.58420654034822,33.75406827695173],[133.58281048050983,33.75409712800955],[133.58304325722807,33.75339968543362],[133.5822726119986,33.753401124662034],[133.58260891505705,33.75274538097297],[133.58178452796355,33.75232526563029],[133.58075474571518,33.7527811387321],[133.58114090416285,33.752098386364004],[133.58113584965895,33.751196398856436],[133.58172247035088,33.75087085559339],[133.58244533375034,33.74967971489289],[133.58222478055953,33.74909675867108],[133.58082438902704,33.7484592923751],[133.57999067553135,33.750105892399475],[133.57886213617996,33.75092887972005],[133.57854122442072,33.751486834653356],[133.57809584132275,33.75123388661711],[133.57767722159107,33.7517300553611],[133.57657248721267,33.750282215188015],[133.57592468248833,33.750518313828856],[133.575901623273,33.74942670947149],[133.5751470425077,33.750111014672754],[133.57465865418536,33.749508412961305],[133.5748492255233,33.74796747709633],[133.57437508043358,33.74807659635859],[133.5732223169103,33.74910643337909],[133.57155108216122,33.74788907487301],[133.5703480111599,33.749766094113916],[133.56980036332627,33.74914941509288],[133.5686164023403,33.748396642435644],[133.5701119227164,33.74674882824909],[133.57063057947826,33.74483655952782],[133.5721260782445,33.743880587627515],[133.5751165891502,33.739771460352095],[133.57615431793477,33.73879493369436],[133.5763068425554,33.73802196235302],[133.5760321910168,33.737086256095026],[133.58105311297984,33.73742651939289],[133.58441772034539,33.73758161959093],[133.58579223039322,33.7377574097706],[133.5882136309061,33.73183073071873],[133.58961017259483,33.72900896922004],[133.5903968521218,33.72850271336418],[133.5910833198585,33.72868197419851],[133.59218654652244,33.728490128780685],[133.59263813194775,33.72922025382117],[133.59422924350545,33.72910952220987],[133.5952454942389,33.72935035709417],[133.59588532403197,33.72992859768195],[133.59783407940662,33.73071092879064],[133.5987734988286,33.731395697509434],[133.60037385698948,33.73338355750722],[133.6013181278366,33.73528762492739],[133.6016689857892,33.73671593296011],[133.60409517063562,33.73923545310982],[133.6046362249,33.74009048756884],[133.60275105317055,33.740669461797516],[133.6030652674521,33.743165446603165],[133.60289861974687,33.744488796815176],[133.6020638536503,33.745665267339724],[133.6026488633359,33.74669446198564],[133.60264076388535,33.74696840700838],[133.60172678888495,33.74806203160683],[133.6017261081872,33.7489259706944],[133.6029418265738,33.7497452919992],[133.60250238308058,33.75054091954009],[133.60221252975276,33.75121970195641],[133.60201216553162,33.751563190795196],[133.60074903808862,33.75278220013526],[133.6007052955925,33.754169187612504],[133.59881159310834,33.75480609631236],[133.59779024227527,33.755102341019914],[133.59667469081145,33.75456007083975],[133.59546695087184,33.75427250129428],[133.5947981926881,33.754698265553685],[133.59382283819988,33.75457307465472],[133.59311284988055,33.75377617125097],[133.59240444078915,33.754625506649134],[133.59130942436659,33.754639926169155],[133.59120147400992,33.75416968180807],[133.5904578228071,33.7546905020014]]]},"properties":{"KEY_CODE":"393410070","PREF":"39","CITY":"341","CITY_NAME":"本山町","S_NAME":"大石","SETAI":"75"}},{"type":"Feature","geometry":{"type":"Polygon","coordinates":[[[133.61357651150382,33.74054898855936],[133.61267409426583,33.74072182722403],[133.61218937825444,33.74215634760715],[133.6109892357478,33.74320916162078],[133.61078122073377,33.743675658337416],[133.60958361766276,33.74384535645969],[133.60908678598386,33.74475601547272],[133.6083077141601,33.74600410720355],[133.60715150044126,33.74706149008711],[133.6059858874605,33.74732798381671],[133.60344663993507,33.74695787249492],[133.6026488633359,33.74669446198564],[133.6020638536503,33.745665267339724],[133.60289861974687,33.744488796815176],[133.6030652674521,33.743165446603165],[133.60275105317055,33.740669461797516],[133.6046362249,33.74009048756884],[133.6066220605131,33.73922717509653],[133.60998652777835,33.73841304850231],[133.6129808325898,33.73787493821771],[133.61357651150382,33.74054898855936]]]},"properties":{"KEY_CODE":"393410080","PREF":"39","CITY":"341","CITY_NAME":"本山町","S_NAME":"吉延","SETAI":"43"}},{"type":"Feature","geometry":{"type":"Polygon","coordinates":[[[133.6061449482056,33.75891478952914],[133.60506114020234,33.75855571245181],[133.60420230212594,33.75929500532563],[133.60387390801915,33.76093362817027],[133.60283314918885,33.762672936358186],[133.6012284531313,33.764090938252465],[133.60020986750283,33.76417680339406],[133.5978864352547,33.7685602638704],[133.59785151157217,33.76604056420537],[133.59738114555253,33.76381452088524],[133.59781547002973,33.763112671873564],[133.59556678696632,33.76215466676975],[133.59506104232028,33.761679249922075],[133.59496492547453,33.76080186021369],[133.59525311011186,33.759613532264765],[133.59642271264644,33.75713074799355],[133.59604306609543,33.75644158569146],[133.5981708663314,33.75681505173429],[133.598448466583,33.756227715740124],[133.59918885189464,33.7562305679479],[133.59941206612237,33.75744292943741],[133.5990432332659,33.75775414933509],[133.5990437935917,33.75968587751754],[133.6020805734413,33.75747587518452],[133.60575939894596,33.75742949380863],[133.6066274716906,33.75757475784454],[133.6065524941672,33.75850081598083],[133.6061449482056,33.75891478952914]]]},"properties":{"KEY_CODE":"393410090","PREF":"39","CITY":"341","CITY_NAME":"本山町","S_NAME":"下津野","SETAI":"14"}},{"type":"Feature","geometry":{"type":"Polygon","coordinates":[[[133.6132977871907,33.757001767734636],[133.61254902762684,33.75922571308993],[133.61007750833227,33.75859517705878],[133.61126866596308,33.75831743105929],[133.61222857307126,33.756587854373066],[133.6132977871907,33.757001767734636]]]},"properties":{"KEY_CODE":"393410100","PREF":"39","CITY":"341","CITY_NAME":"本山町","S_NAME":"井窪","SETAI":"0"}},{"type":"Feature","geometry":{"type":"Polygon","coordinates":[[[133.60575939894596,33.75742949380863],[133.6020805734413,33.75747587518452],[133.5990437935917,33.75968587751754],[133.5990432332659,33.75775414933509],[133.59941206612237,33.75744292943741],[133.59918885189464,33.7562305679479],[133.59949767331904,33.75583423667947],[133.59881159310834,33.75480609631236],[133.6007052955925,33.754169187612504],[133.60074903808862,33.75278220013526],[133.60201216553162,33.751563190795196],[133.6029453484911,33.75205449765639],[133.60239369495773,33.752448292508056],[133.60358987042176,33.752145878044594],[133.6045547303688,33.75202608628792],[133.60557197488487,33.752392906879535],[133.60719821012586,33.75289978179704],[133.6078724006667,33.75317425348788],[133.6070393820069,33.75443365898278],[133.6056746768611,33.75700242435328],[133.60575939894596,33.75742949380863]]]},"properties":{"KEY_CODE":"393410100","PREF":"39","CITY":"341","CITY_NAME":"本山町","S_NAME":"井窪","SETAI":"6"}},{"type":"Feature","geometry":{"type":"Polygon","coordinates":[[[133.6078724006667,33.75317425348788],[133.60719821012586,33.75289978179704],[133.60557197488487,33.752392906879535],[133.60455473036873,33.752026086287934],[133.60358987042176,33.752145878044594],[133.60239369495773,33.752448292508056],[133.6029453484911,33.75205449765639],[133.60201216553162,33.751563190795196],[133.60221252975276,33.75121970195641],[133.60250238308058,33.75054091954009],[133.6029418265738,33.7497452919992],[133.6017261081872,33.7489259706944],[133.60172678888495,33.74806203160683],[133.60264076388535,33.74696840700838],[133.60344663993507,33.74695787249492],[133.6059858874605,33.74732798381671],[133.60715150044126,33.74706149008711],[133.6083077141601,33.74600410720355],[133.60908678598386,33.74475601547272],[133.60958361766274,33.743845356459666],[133.61078122073377,33.743675658337416],[133.6109892357478,33.74320916162078],[133.61218937825444,33.74215634760715],[133.61267409426583,33.74072182722403],[133.61357651150382,33.74054898855938],[133.61381860424353,33.741691790667716],[133.61379521421009,33.743088560045955],[133.6133904764465,33.74450378297811],[133.61243999856387,33.74624766253339],[133.61088165094583,33.748541565793936],[133.6078724006667,33.75317425348788]]]},"properties":{"KEY_CODE":"393410110","PREF":"39","CITY":"341","CITY_NAME":"本山町","S_NAME":"高角","SETAI":"20"}},{"type":"Feature","geometry":{"type":"Polygon","coordinates":[[[133.6129808325898,33.73787493821771],[133.61694005676938,33.7382064105236],[133.62196653689563,33.73932620102399],[133.6258535807907,33.74053351482702],[133.6258666456864,33.74171907585353],[133.62516569567208,33.74286337946721],[133.6251911918713,33.7448046071102],[133.62605626896791,33.745179521124946],[133.6260752867019,33.747112561622465],[133.62579795055478,33.747888731750415],[133.62497289130462,33.74833565919005],[133.62415197033368,33.74931910966566],[133.62326287635528,33.749252588076466],[133.622794038702,33.74973696830963],[133.62103497804677,33.750351022001475],[133.62021236186283,33.751429254362144],[133.61088165094583,33.748541565793936],[133.61243999856387,33.746247662533385],[133.6133904764465,33.7445037829781],[133.61379521421009,33.743088560045955],[133.61381860424353,33.741691790667716],[133.61357651150382,33.74054898855936],[133.6129808325898,33.73787493821771]]]},"properties":{"KEY_CODE":"393410120","PREF":"39","CITY":"341","CITY_NAME":"本山町","S_NAME":"古田","SETAI":"44"}},{"type":"Feature","geometry":{"type":"Polygon","coordinates":[[[133.64041656246525,33.75937330008846],[133.6390812320418,33.75894612913081],[133.63671184703327,33.75881390091163],[133.6332657889037,33.75884013849068],[133.6301162590293,33.75911318244586],[133.6275733442942,33.759981157947315],[133.62595901677685,33.76070198160295],[133.62488342177318,33.76162461614952],[133.6239969805143,33.763041478334515],[133.62445608797856,33.76400745425262],[133.62542699228982,33.76513027481801],[133.6272941660458,33.76659253991557],[133.62877051038305,33.76716271029352],[133.62842610180243,33.76830672374055],[133.62738283089126,33.76923414590852],[133.62582448468572,33.76940253034721],[133.62497878371832,33.76916494284798],[133.62204888004368,33.766655333469174],[133.62111990074396,33.765626266950385],[133.62007048054392,33.76354135978367],[133.61942817057735,33.76277961487025],[133.61728605708606,33.76178403032728],[133.6142444476927,33.76138402976656],[133.61241716981974,33.760845010482335],[133.61163337168452,33.76079704577892],[133.60881652594384,33.761380828623444],[133.6078315669162,33.76103289105427],[133.6061449482056,33.75891478952914],[133.6065524941672,33.75850081598083],[133.6066274716906,33.75757475784454],[133.60575939894596,33.75742949380863],[133.6056746768611,33.75700242435328],[133.6070393820069,33.75443365898278],[133.6078724006667,33.75317425348788],[133.61088165094583,33.748541565793936],[133.62021236186283,33.751429254362144],[133.62103497804677,33.750351022001475],[133.622794038702,33.74973696830963],[133.62326287635528,33.749252588076466],[133.62415197033368,33.74931910966566],[133.62497289130462,33.74833565919005],[133.62579795055478,33.747888731750415],[133.6260752867019,33.747112561622465],[133.62605626896791,33.745179521124946],[133.6251911918713,33.7448046071102],[133.62516569567208,33.74286337946721],[133.6258666456864,33.74171907585353],[133.6258535807907,33.74053351482702],[133.62196653689563,33.73932620102399],[133.61694005676938,33.7382064105236],[133.6129808325898,33.73787493821771],[133.60998652777835,33.73841304850231],[133.6066220605131,33.73922717509653],[133.6046362249,33.74009048756884],[133.60409517063562,33.73923545310982],[133.6016689857892,33.73671593296011],[133.6013181278366,33.73528762492739],[133.60037385698948,33.73338355750722],[133.5987734988286,33.731395697509434],[133.59783407940662,33.73071092879064],[133.59588532403197,33.72992859768195],[133.5952454942389,33.72935035709417],[133.59422924350545,33.72910952220987],[133.59263813194775,33.72922025382117],[133.59218654652244,33.728490128780685],[133.5910833198585,33.72868197419851],[133.5903968521218,33.72850271336418],[133.58961017259483,33.72900896922004],[133.5882136309061,33.73183073071873],[133.58579223039322,33.7377574097706],[133.58441772034539,33.73758161959093],[133.58105311297984,33.73742651939289],[133.5760321910168,33.737086256095026],[133.57504064766164,33.73614021079223],[133.57467428958043,33.73539784544517],[133.57368272603853,33.73478757753047],[133.5723095131224,33.734502609986585],[133.5718670439049,33.73353634351704],[133.57200426663414,33.73278360010386],[133.57148570000302,33.73153265397464],[133.57163820942685,33.72947793846397],[133.57133295357005,33.72901017322351],[133.57185183421493,33.72758619125253],[133.57237070103952,33.726914939658684],[133.57395722884996,33.72697607147117],[133.57468967179418,33.72667083969199],[133.57505603792848,33.726080958264305],[133.57575765542464,33.725918169137636],[133.5771919681789,33.72608099701003],[133.5768867583435,33.723192460362505],[133.57853472034498,33.720995280880985],[133.57935857819152,33.71946962790463],[133.58036573973507,33.71833057082624],[133.58021300885892,33.71674383029281],[133.58100658969292,33.714953529035796],[133.58305121441646,33.71251241536358],[133.58393617538232,33.71186170828657],[133.58318843124093,33.71039681385444],[133.58360032299055,33.70878982907615],[133.58241038601483,33.707762391152166],[133.58241037444935,33.706928359468684],[133.58330635812257,33.70564198265451],[133.58345790909377,33.70568238502234],[133.584194836016,33.70575669330063],[133.5843123836343,33.70571427873587],[133.58446979255467,33.70561315715512],[133.58473843065434,33.705622906111834],[133.58493696462892,33.705650735401406],[133.58639898769624,33.70587063298728],[133.58656190947215,33.70589482095168],[133.58712295365146,33.70595127659011],[133.58722760442157,33.70595387942053],[133.58763537982557,33.70594006767033],[133.58787596392006,33.70593898147325],[133.58824172352485,33.705982959834564],[133.5884705042477,33.70604767478523],[133.58911797547609,33.706214935158904],[133.58959688062498,33.70612710072476],[133.58979851364649,33.70603770564837],[133.5898578221899,33.70601335971074],[133.59050608273634,33.70590736804002],[133.5906150033595,33.70587481427985],[133.5906850592356,33.705813479070024],[133.59075887117385,33.70523812323473],[133.59095282795948,33.70502975431764],[133.59113589953984,33.70473383397105],[133.59111844038475,33.70455985522234],[133.59111174541596,33.70435339307824],[133.59115256403553,33.70419557264269],[133.59146717948656,33.70383735489163],[133.59175392163684,33.70364596171736],[133.59195659021285,33.70350788673023],[133.59216570046985,33.703356279460024],[133.5933168755815,33.7025051145781],[133.5938171060323,33.702218952455716],[133.59405215754552,33.7021150831185],[133.59443496670934,33.70198038756494],[133.59468731669065,33.701905385877495],[133.59514242953418,33.701793244197624],[133.59525998893503,33.70177603494097],[133.595510239625,33.70175414525932],[133.5957766885646,33.70174675466749],[133.59618986325196,33.70175453348496],[133.59648008613829,33.701780440383814],[133.59664516496068,33.70180560106784],[133.59907436550344,33.70233841598893],[133.60042426085909,33.70247180945703],[133.60166167506134,33.70264677025184],[133.60286158152613,33.702713480279904],[133.60423648657,33.703030172176895],[133.60471144133774,33.70338846662737],[133.60526141301162,33.704196749880985],[133.60778622710833,33.705188317528304],[133.60808618382825,33.705255046643046],[133.61034850995065,33.70489676105243],[133.61067129473602,33.70489675519181],[133.61174841718443,33.70558837225993],[133.61224838531427,33.70707988329966],[133.61246088116346,33.70804651020957],[133.6129858468116,33.7083797840134],[133.6146107352235,33.70932967664461],[133.615685663717,33.70927971574367],[133.61631061899425,33.709371408206415],[133.61857299009424,33.71042969037102],[133.61889795901106,33.710904650606764],[133.61948542860904,33.71175452740605],[133.62022286684112,33.712496119005486],[133.62058533105767,33.7133126686611],[133.62093531071918,33.71393763044891],[133.6219040693164,33.71444603607843],[133.6220352131129,33.714479222104266],[133.62296011098692,33.71461256215682],[133.62410995470444,33.714637612717404],[133.62600972581717,33.71495428683089],[133.6266971585703,33.71481262691094],[133.62894688372512,33.714837620692066],[133.63119659232453,33.71645419323995],[133.63318386347905,33.71661252665018],[133.63394628543278,33.71670418768171],[133.63425874641297,33.716812539506066],[133.6349961447761,33.71868730231492],[133.63559608938345,33.71933723815828],[133.63667095667012,33.7199038078463],[133.6371958859827,33.72055375382489],[133.63903316751976,33.721095434947586],[133.63964558964878,33.721387077917754],[133.63901510847836,33.72331571266478],[133.63846572010132,33.72524826901629],[133.6373977786239,33.726285658174035],[133.63694004125296,33.72730299136254],[133.63678827265733,33.728701282312656],[133.6373369235748,33.730964499419976],[133.6398999866851,33.73314128580372],[133.64037298865674,33.734951856277014],[133.64208172309634,33.73553154481421],[133.64246335649344,33.735948469788795],[133.64258677178725,33.736991411024256],[133.64267688603584,33.73954909669932],[133.64261577333835,33.74007816682517],[133.64075423229932,33.74225475946345],[133.63870967226924,33.7436378276926],[133.6382216314529,33.74457353155747],[133.63828243688852,33.74569225440074],[133.63913678230887,33.74660770880027],[133.63962501942464,33.74864215018895],[133.63971665381166,33.74974061725551],[133.64092177329618,33.751703724259414],[133.64174585669582,33.75202891169554],[133.64255476521058,33.75334983901914],[133.6426154385587,33.75460245739225],[133.64316452024704,33.756433025087276],[133.64276787501592,33.75722656152833],[133.64310366437746,33.758162234626475],[133.6412421312257,33.7587112800932],[133.64041656246525,33.75937330008846]],[[133.6125848365059,33.759977123333236],[133.61461410235242,33.7606657053556],[133.61502861187358,33.75972122896454],[133.61299660666884,33.759016102130474],[133.6125848365059,33.759977123333236]],[[133.6132977871907,33.757001767734636],[133.61222857307126,33.756587854373066],[133.61126866596308,33.75831743105929],[133.61007750833227,33.75859517705878],[133.61254902762684,33.75922571308993],[133.6132977871907,33.757001767734636]]]},"properties":{"KEY_CODE":"393410130","PREF":"39","CITY":"341","CITY_NAME":"本山町","S_NAME":"木能津","SETAI":"54"}},{"type":"Feature","geometry":{"type":"Polygon","coordinates":[[[133.64041656246525,33.75937330008846],[133.64023524958125,33.75983030473718],[133.64112013346448,33.76149841493844],[133.64139448226533,33.76432577131604],[133.64096728243362,33.76489541740962],[133.63983820684842,33.7652209425995],[133.63941099406458,33.765831155451856],[133.6393498664304,33.7667263036995],[133.63886182951055,33.7676008738011],[133.63715278329335,33.76865875029924],[133.63599340362111,33.7701640621513],[133.63654250138495,33.77099817235291],[133.63757992007078,33.771160933749194],[133.6393527061866,33.77185616359355],[133.63950875430638,33.77220748394502],[133.6372983158029,33.773321154721565],[133.6325808932447,33.77359156606472],[133.6313563185633,33.77346304362092],[133.6309230453013,33.77290251424515],[133.6308885351634,33.771518331259024],[133.63096327633428,33.77062197267814],[133.63204355351039,33.76856744295072],[133.63287770505823,33.76761491599505],[133.63482850763202,33.766198816294],[133.6352835173253,33.765619092543865],[133.6352699193973,33.76485173765681],[133.6347172188163,33.76400622173066],[133.63378195347147,33.763401449451635],[133.63079747118536,33.76383338388075],[133.63000794822122,33.76431002935025],[133.62901282217948,33.76591159292868],[133.62877051038305,33.76716271029352],[133.6272941660458,33.76659253991557],[133.62542699228982,33.76513027481801],[133.62445608797856,33.76400745425262],[133.6239969805143,33.763041478334515],[133.62488342177318,33.76162461614952],[133.62595901677685,33.76070198160295],[133.6275733442942,33.759981157947315],[133.6301162590293,33.75911318244586],[133.6332657889037,33.75884013849068],[133.63671184703327,33.75881390091163],[133.6390812320418,33.75894612913081],[133.64041656246525,33.75937330008846]]]},"properties":{"KEY_CODE":"393410140","PREF":"39","CITY":"341","CITY_NAME":"本山町","S_NAME":"助藤","SETAI":"18"}},{"type":"Feature","geometry":{"type":"Polygon","coordinates":[[[133.63403475603974,33.81329262916256],[133.63288039964232,33.814164728065435],[133.63056136697645,33.81463239501769],[133.62989002109873,33.81455104458835],[133.6285473250871,33.81487647458224],[133.6272046337333,33.81613767093433],[133.62592304818574,33.81652428780093],[133.62479397817958,33.820063780031646],[133.62390906202899,33.82116216470092],[133.6229630491768,33.82283023495085],[133.62180340693,33.82319625427001],[133.62073542213804,33.823867523238846],[133.61975882256414,33.82488461411479],[133.61841613440717,33.82579998206522],[133.61685982819918,33.82600355146087],[133.61624959530772,33.82630848853515],[133.61493746764026,33.82783405376382],[133.6129845639322,33.82919714049669],[133.61112302668914,33.83011248399332],[133.60917010134472,33.8302141061271],[133.60785798611104,33.830478486540784],[133.6082532788805,33.82441648748958],[133.60810434583559,33.822392252625704],[133.60859369115676,33.81990454807949],[133.61069669920244,33.81844952440519],[133.6111302957278,33.81793816630736],[133.61316736427824,33.816911626308816],[133.61515490051084,33.81642177902574],[133.61591559308323,33.81578577499932],[133.61493780694622,33.8140860812673],[133.6156397700895,33.813171619469216],[133.61579217800238,33.81206981156158],[133.61734521651783,33.810340758732224],[133.61768189364625,33.80895483064602],[133.61737921417316,33.808008836904726],[133.6173822068945,33.80668274481002],[133.61642999708243,33.80583879505131],[133.61682734311916,33.80496786168829],[133.61790114806416,33.80472214029777],[133.6182032375458,33.80410410145567],[133.6177391597805,33.80242962378041],[133.61887808801296,33.80128761584373],[133.61881752589062,33.80084565869271],[133.6172543568892,33.79864771644585],[133.6172326581951,33.798189451202084],[133.61852586595796,33.79734603628249],[133.617486529199,33.79668601358213],[133.61646749202706,33.79546222769889],[133.61630556330599,33.794330893345766],[133.6177145913858,33.79410513921307],[133.61966130378713,33.79264741141684],[133.61899243428945,33.79160173179668],[133.61944312426735,33.790715861527914],[133.62049507697668,33.79004432288955],[133.61936709780343,33.78964798481562],[133.61771999579253,33.78867895355299],[133.6180480492888,33.788125755709814],[133.6191706505934,33.78818279913807],[133.62018962337368,33.78712197282911],[133.61829546259395,33.7843484813605],[133.61814266435985,33.78279540207304],[133.6186938953241,33.782132805506876],[133.617231763384,33.78128797513336],[133.61860378680873,33.78024302814895],[133.61911821149099,33.77863521713155],[133.61851355530024,33.77708658872197],[133.6186051990895,33.77660391483304],[133.62045532448093,33.77584111803479],[133.618951505329,33.77523690227965],[133.61842262301346,33.774591248550685],[133.61877119419415,33.773687873552525],[133.61845900382312,33.77279596572732],[133.61993899072343,33.77261072026571],[133.6203817300127,33.771896597588245],[133.61970994695386,33.77096446148145],[133.61876551247653,33.77077473906577],[133.61864656682832,33.77025711281532],[133.62039633307177,33.7690057256546],[133.61894455223077,33.76830862594905],[133.6188658956795,33.767577614898975],[133.61956404905675,33.76704640616525],[133.6211252696133,33.7678172093069],[133.62204888004368,33.766655333469174],[133.62497878371832,33.76916494284798],[133.62582448468572,33.76940253034721],[133.62738283089126,33.76923414590852],[133.62842610180243,33.76830672374055],[133.62877051038305,33.76716271029352],[133.62901282217948,33.76591159292868],[133.63000794822122,33.76431002935025],[133.63079747118536,33.76383338388075],[133.63378195347147,33.763401449451635],[133.6347172188163,33.76400622173066],[133.6352699193973,33.76485173765681],[133.6352835173253,33.765619092543865],[133.63482850763202,33.766198816294],[133.63287770505823,33.76761491599505],[133.63204355351039,33.76856744295072],[133.63096327633428,33.77062197267814],[133.6308885351634,33.771518331259024],[133.62989309573734,33.77188298453111],[133.6286408513739,33.772420053336056],[133.628990352274,33.774380392199234],[133.62968801305067,33.774407069724624],[133.63038805408937,33.77466583990893],[133.63105261622755,33.775019314384714],[133.63120204580275,33.77530035442898],[133.6314744934792,33.77553258917282],[133.63068333267822,33.77876866891625],[133.63062249092488,33.779989396082954],[133.62946283263045,33.78088421793215],[133.62891341728314,33.78204381750314],[133.63028664857524,33.782715160791824],[133.62958474200897,33.78405771570628],[133.6287303412016,33.78456627178563],[133.6279673172375,33.78607160168521],[133.62729597375179,33.78686510053242],[133.62708236887798,33.787800835339866],[133.62720458861966,33.78922479779271],[133.62796731199538,33.78961114748719],[133.62873031685314,33.79070964229963],[133.62961525573579,33.791259062709194],[133.63126321000254,33.791503225594205],[133.63327725445217,33.79221511375108],[133.6332772481795,33.79323219244625],[133.6337655542658,33.79361880026224],[133.63461994708112,33.795286935998405],[133.63532185104813,33.797483879763554],[133.635321865578,33.79850095214927],[133.6364812063111,33.799294525506625],[133.63675591346717,33.800393008205525],[133.6354132782461,33.80283399756014],[133.63462000826723,33.803383091415],[133.63443669126562,33.804644306716376],[133.63502480236244,33.80540638256234],[133.6355049637194,33.8099945137706],[133.6348336435937,33.81133705366496],[133.63462003829474,33.81274079838815],[133.63403475603974,33.81329262916256]]]},"properties":{"KEY_CODE":"393410150","PREF":"39","CITY":"341","CITY_NAME":"本山町","S_NAME":"下関","SETAI":"48"}},{"type":"Feature","geometry":{"type":"Polygon","coordinates":[[[133.62204888004368,33.766655333469174],[133.6211252696133,33.7678172093069],[133.61956404905675,33.76704640616525],[133.6188658956795,33.767577614898975],[133.61894455223077,33.76830862594905],[133.62039633307177,33.7690057256546],[133.61864656682832,33.77025711281532],[133.61876551247653,33.77077473906577],[133.61970994695386,33.77096446148145],[133.6203817300127,33.771896597588245],[133.61993899072343,33.77261072026571],[133.61845900382312,33.77279596572732],[133.61877119419415,33.773687873552525],[133.61842262301346,33.774591248550685],[133.618951505329,33.77523690227965],[133.62045532448093,33.77584111803479],[133.6186051990895,33.77660391483304],[133.61851355530024,33.77708658872197],[133.61911821149099,33.77863521713155],[133.61860378680873,33.78024302814895],[133.617231763384,33.78128797513336],[133.6186938953241,33.782132805506876],[133.61814266435985,33.78279540207304],[133.61829546259395,33.7843484813605],[133.62018962337368,33.78712197282911],[133.6191706505934,33.78818279913807],[133.6180480492888,33.788125755709814],[133.61771999579253,33.78867895355299],[133.61936709780343,33.78964798481562],[133.62049507697668,33.79004432288955],[133.61944312426735,33.790715861527914],[133.61899243428945,33.79160173179668],[133.61966130378713,33.79264741141684],[133.6177145913858,33.79410513921307],[133.61630556330599,33.794330893345766],[133.61646749202706,33.79546222769889],[133.617486529199,33.79668601358213],[133.61852586595796,33.79734603628249],[133.6172326581951,33.798189451202084],[133.6172543568892,33.79864771644585],[133.61881752589062,33.80084565869271],[133.61887808801296,33.80128761584373],[133.6177391597805,33.80242962378041],[133.6182032375458,33.80410410145567],[133.61790114806416,33.80472214029777],[133.61682734311916,33.80496786168829],[133.61642999708243,33.80583879505131],[133.6173822068945,33.80668274481002],[133.61737921417316,33.808008836904726],[133.61768189364625,33.80895483064602],[133.61734521651783,33.810340758732224],[133.61579217800238,33.81206981156158],[133.6156397700895,33.813171619469216],[133.61493780694622,33.8140860812673],[133.61591559308323,33.81578577499932],[133.61515490051084,33.81642177902574],[133.61316736427824,33.816911626308816],[133.6111302957278,33.81793816630736],[133.61069669920244,33.81844952440519],[133.60859369115676,33.81990454807949],[133.60810434583559,33.822392252625704],[133.6082532788805,33.82441648748958],[133.60785798611104,33.830478486540784],[133.60553868282105,33.82980709195836],[133.6042570937996,33.828993343546784],[133.60236501641393,33.82895273090916],[133.6007476108483,33.82793558892891],[133.59524375415958,33.82174844993332],[133.59402236626022,33.819262142463074],[133.59083007018998,33.81617164103929],[133.58999841307323,33.81426891910183],[133.5891659181258,33.81154430713135],[133.58836066145966,33.81056585027325],[133.5880573504304,33.80972107996024],[133.58673739419586,33.80823229501651],[133.5866896455765,33.807393680400565],[133.5873783756692,33.80652946843807],[133.58763794934893,33.80542768613866],[133.58810944818265,33.804795228564295],[133.58703901105878,33.803769477628535],[133.58750793729527,33.80232336103247],[133.58733384943739,33.801929087919476],[133.58618176013604,33.80121006799684],[133.58618683990053,33.80042768158365],[133.5852428781504,33.79895746801683],[133.58470390988953,33.79722401692896],[133.58500919100524,33.79630997682517],[133.58365241457554,33.79381250124094],[133.58152394089296,33.790569664279744],[133.5799065217825,33.788908853660345],[133.5784527885551,33.78775183300995],[133.57641423266932,33.787001943960696],[133.57324305849352,33.78648163492219],[133.57217957113932,33.78540082388283],[133.5717250006036,33.78417906083515],[133.5683366330137,33.776254177614355],[133.56990391897574,33.77572333782698],[133.57091447754567,33.77567948601213],[133.57140644763504,33.77523576722094],[133.57176834725968,33.774186543817386],[133.57062690046493,33.77259752053307],[133.57118361860162,33.77213213799352],[133.57035379627197,33.771343132989315],[133.57028874126627,33.77070251301867],[133.57069653706534,33.77131278110708],[133.57296528012876,33.77307419795397],[133.57528897134165,33.77461832303637],[133.5784370588371,33.77427392685754],[133.5799235465592,33.77525679499243],[133.58139416201755,33.77532611818732],[133.5837211632439,33.77668176585855],[133.58633298434887,33.77773702245618],[133.58570060469083,33.77851413251014],[133.5849098712293,33.7788725187719],[133.58421343454816,33.779624037955266],[133.58435313199007,33.78052078099039],[133.58486539673487,33.7815013027932],[133.58596647109715,33.78281501566282],[133.58607351952992,33.78341579338082],[133.58559101742907,33.78548953345323],[133.5854369212028,33.78687385434395],[133.58563355627768,33.788145141464376],[133.5863254726454,33.78891807725144],[133.58768571214367,33.78938581624383],[133.58859030481074,33.789352413322945],[133.59036522421056,33.788769856365235],[133.59078100613323,33.7887601819909],[133.59398059183252,33.78951535127701],[133.59615746798158,33.78938391863346],[133.60299653192396,33.78686944230112],[133.60466313365288,33.78385252740749],[133.6053412717233,33.782310553226615],[133.61006814933276,33.77275085922009],[133.60938182712505,33.77176867881487],[133.60859252785295,33.76941217666629],[133.60848280748988,33.76779404511022],[133.60858797441074,33.765771196697486],[133.60906119438587,33.76409090934606],[133.6091132305478,33.76297294950547],[133.60881652594384,33.761380828623444],[133.61163337168452,33.76079704577892],[133.61241716981974,33.760845010482335],[133.6142444476927,33.76138402976656],[133.61728605708606,33.76178403032728],[133.61942817057735,33.76277961487025],[133.62007048054392,33.76354135978367],[133.62111990074396,33.765626266950385],[133.62204888004368,33.766655333469174]]]},"properties":{"KEY_CODE":"39341016001","PREF":"39","CITY":"341","CITY_NAME":"本山町","S_NAME":"上関甲","SETAI":"64"}},{"type":"Feature","geometry":{"type":"Polygon","coordinates":[[[133.6325808932447,33.77359156606472],[133.63211776312318,33.77417149883228],[133.63156834444143,33.775269959740996],[133.63120204580275,33.77530035442898],[133.63105261622755,33.775019314384714],[133.63038805408937,33.77466583990893],[133.62968801305067,33.774407069724624],[133.628990352274,33.774380392199234],[133.62864085137386,33.772420053336056],[133.62989309573734,33.77188298453111],[133.6308885351634,33.771518331259024],[133.6309230453013,33.77290251424515],[133.6313563185633,33.77346304362092],[133.6325808932447,33.77359156606472]]]},"properties":{"KEY_CODE":"39341016002","PREF":"39","CITY":"341","CITY_NAME":"本山町","S_NAME":"上関乙","SETAI":"4"}},{"type":"Feature","geometry":{"type":"Polygon","coordinates":[[[133.60881652594384,33.761380828623444],[133.6091132305478,33.76297294950547],[133.60906119438587,33.76409090934606],[133.60858797441074,33.765771196697486],[133.60848280748988,33.76779404511022],[133.60859252785295,33.76941217666629],[133.60938182712505,33.77176867881487],[133.61006814933276,33.77275085922009],[133.6053412717233,33.782310553226615],[133.6039036277044,33.78111338261904],[133.60327783823573,33.78080982416204],[133.59795267565627,33.77895180816177],[133.59503620559056,33.77786982461953],[133.594301480372,33.77743324006158],[133.59102662861153,33.776357147253435],[133.59094978811683,33.77560596273449],[133.59188111435896,33.7741777222669],[133.59345994360572,33.772489468154376],[133.59547249145965,33.77058994027105],[133.5978864352547,33.7685602638704],[133.60020986750283,33.76417680339406],[133.6012284531313,33.764090938252465],[133.60283314918885,33.762672936358186],[133.60387390801915,33.76093362817027],[133.60420230212594,33.75929500532563],[133.60506114020234,33.75855571245181],[133.6061449482056,33.75891478952914],[133.6078315669162,33.76103289105427],[133.60881652594384,33.761380828623444]]]},"properties":{"KEY_CODE":"39341018001","PREF":"39","CITY":"341","CITY_NAME":"本山町","S_NAME":"北山甲","SETAI":"48"}},{"type":"Feature","geometry":{"type":"Polygon","coordinates":[[[133.59827274395496,33.78086041034686],[133.598921003649,33.78119517725327],[133.59842927954182,33.78175790288495],[133.59792383916601,33.781671813320074],[133.59788433649783,33.78088502756701],[133.59827274395496,33.78086041034686]]]},"properties":{"KEY_CODE":"39341018001","PREF":"39","CITY":"341","CITY_NAME":"本山町","S_NAME":"北山甲","SETAI":"0"}},{"type":"Feature","geometry":{"type":"Polygon","coordinates":[[[133.59094978811683,33.77560596273449],[133.58633298434887,33.77773702245618],[133.5837211632439,33.77668176585855],[133.58139416201755,33.77532611818732],[133.5799235465592,33.77525679499243],[133.5784370588371,33.77427392685754],[133.57528897134165,33.77461832303637],[133.57296528012876,33.77307419795397],[133.57069653706534,33.77131278110708],[133.57028874126627,33.77070251301867],[133.5682839232584,33.76770216953784],[133.56773853393622,33.765923450773556],[133.56865222681427,33.76519106131125],[133.57273393722784,33.76217470617679],[133.5779207145035,33.75869991362594],[133.5777598708795,33.75796561476655],[133.57827841713635,33.757579133912586],[133.57876832800022,33.758243205704524],[133.58006585162073,33.75731636377647],[133.58106423900074,33.75806771922024],[133.58168387590626,33.75913432810005],[133.58210817837997,33.75885503223211],[133.58397446119156,33.759994681293456],[133.5863192572861,33.760592978173904],[133.58858536432885,33.760707078713175],[133.5908378326608,33.76050395692136],[133.5923027834597,33.76003922014524],[133.59331421751492,33.76009508077005],[133.59411710407406,33.76071313255344],[133.59496492547453,33.76080186021369],[133.59506104232028,33.761679249922075],[133.59556678696632,33.76215466676975],[133.59781547002973,33.763112671873564],[133.59738114555253,33.76381452088524],[133.59785151157217,33.76604056420537],[133.5978864352547,33.7685602638704],[133.59547249145965,33.77058994027105],[133.59345994360572,33.772489468154376],[133.59188111435896,33.7741777222669],[133.59094978811683,33.77560596273449]]]},"properties":{"KEY_CODE":"39341018002","PREF":"39","CITY":"341","CITY_NAME":"本山町","S_NAME":"北山丙","SETAI":"53"}},{"type":"Feature","geometry":{"type":"Polygon","coordinates":[[[133.6053412717233,33.782310553226615],[133.60466313365282,33.783852527407504],[133.60299653192396,33.78686944230111],[133.59615746798158,33.789383918633426],[133.59398059183255,33.78951535127703],[133.59078100613317,33.7887601819909],[133.59036522421056,33.788769856365235],[133.58859030481068,33.78935241332299],[133.58768571214367,33.78938581624383],[133.5863254726454,33.78891807725144],[133.58563355627768,33.788145141464376],[133.58543692120278,33.78687385434399],[133.58559101742907,33.78548953345323],[133.58607351952992,33.78341579338082],[133.58596647109718,33.78281501566282],[133.58486539673487,33.7815013027932],[133.58435313199007,33.78052078099039],[133.58421343454816,33.779624037955266],[133.5849098712293,33.7788725187719],[133.58570060469083,33.77851413251014],[133.58633298434887,33.777737022456165],[133.59094978811683,33.77560596273449],[133.59102662861153,33.776357147253435],[133.594301480372,33.77743324006158],[133.59503620559056,33.77786982461953],[133.59795267565627,33.77895180816177],[133.6032778382357,33.78080982416204],[133.6039036277044,33.78111338261904],[133.6053412717233,33.782310553226615]],[[133.59827274395496,33.78086041034686],[133.59788433649783,33.78088502756701],[133.597923839166,33.78167181332007],[133.59842927954182,33.78175790288495],[133.598921003649,33.78119517725327],[133.59827274395496,33.78086041034686]]]},"properties":{"KEY_CODE":"39341018003","PREF":"39","CITY":"341","CITY_NAME":"本山町","S_NAME":"北山乙","SETAI":"22"}},{"type":"Feature","geometry":{"type":"Polygon","coordinates":[[[133.56489198268,33.747812375442166],[133.56745333668576,33.74785157843519],[133.5686164023403,33.748396642435644],[133.56980036332627,33.74914941509288],[133.5703480111599,33.749766094113916],[133.57196869396805,33.75173884196338],[133.57335236492014,33.754805259977346],[133.57380292305564,33.75531327814165],[133.575077584449,33.755741053013104],[133.57696579535377,33.75601832296012],[133.5780850711349,33.7563860113128],[133.57914240073094,33.75679902230847],[133.57893702026863,33.75746044188929],[133.57827841713635,33.757579133912586],[133.5777598708795,33.75796561476655],[133.5779207145035,33.75869991362594],[133.57273393722784,33.76217470617679],[133.56865222681427,33.76519106131125],[133.5684123443916,33.764981217850234],[133.5666625979154,33.76386826277581],[133.56284536520536,33.76096662195906],[133.5627144324409,33.757352267577346],[133.56240745461537,33.75620375746672],[133.56264800113735,33.75454159925207],[133.56337464182508,33.754053218975024],[133.56434719402674,33.75112464351412],[133.56428582190884,33.74913888070144],[133.56489198268,33.747812375442166]]]},"properties":{"KEY_CODE":"393410200","PREF":"39","CITY":"341","CITY_NAME":"本山町","S_NAME":"寺家","SETAI":"192"}},{"type":"Feature","geometry":{"type":"Polygon","coordinates":[[[133.55447452360522,33.7571098631592],[133.55244880996702,33.759603513800556],[133.55185374831893,33.76096638231505],[133.54791867071842,33.766180684079735],[133.54738685933887,33.76502369400318],[133.5467647597998,33.76454810785146],[133.54513198269663,33.76368356836955],[133.5445746126046,33.763088971676254],[133.54444451902577,33.76207241591766],[133.54464856427902,33.760765020836004],[133.54519471685794,33.75990923867388],[133.54695578551252,33.758632385206226],[133.5496928881691,33.756867169888714],[133.55130838361967,33.75610137523295],[133.55408579124511,33.754337405802815],[133.5581720948435,33.75131696835833],[133.5633526516581,33.74832823656943],[133.56489198268,33.747812375442166],[133.56428582190884,33.74913888070144],[133.56434719402674,33.75112464351412],[133.56337464182508,33.754053218975024],[133.56264800113735,33.75454159925207],[133.56240745461537,33.75620375746672],[133.5627144324409,33.757352267577346],[133.56284536520536,33.76096662195906],[133.56083271291456,33.759460508650996],[133.5603210751258,33.75887533270553],[133.55916763700438,33.758080976227504],[133.55549773679022,33.75691470773119],[133.55447452360522,33.7571098631592]]]},"properties":{"KEY_CODE":"393410210","PREF":"39","CITY":"341","CITY_NAME":"本山町","S_NAME":"吉野","SETAI":"108"}},{"type":"Feature","geometry":{"type":"Polygon","coordinates":[[[133.55693125770387,33.77786208962769],[133.55464268486628,33.77765634179068],[133.5535734193255,33.77708906966157],[133.54880569452342,33.77322866055336],[133.54859809571772,33.772258060228914],[133.54783539334787,33.772258080664145],[133.54670636271288,33.770854338970345],[133.54698080354333,33.7694303342165],[133.54691998748285,33.76792490113202],[133.54643169642742,33.76725365099409],[133.54688944162643,33.76643981468909],[133.54791867071842,33.766180684079735],[133.55185374831893,33.76096638231505],[133.5524488099671,33.75960351380058],[133.55447452360522,33.7571098631592],[133.55549773679022,33.75691470773119],[133.55916763700438,33.758080976227504],[133.5603210751258,33.75887533270553],[133.56083271291456,33.759460508650974],[133.56050279107953,33.76002842062157],[133.55926724020216,33.75994386641273],[133.55667367446188,33.75821345252523],[133.5555513750635,33.757939528343094],[133.55524097453278,33.758696694979385],[133.55723232508333,33.760670797112496],[133.55723117956254,33.76138858801299],[133.5567149202415,33.76182281479491],[133.55485760455784,33.761841207302574],[133.55418428116664,33.76230923671912],[133.5542185725504,33.76276208535726],[133.55528615287716,33.76346861827724],[133.55550711672558,33.76460677089287],[133.55497048552905,33.76613459464915],[133.55707863287543,33.76818697643377],[133.55824670386056,33.768917812284215],[133.5583036602117,33.76932739808519],[133.5559240793755,33.77076951912768],[133.5556475443148,33.771357685517245],[133.55613447307192,33.77301754276931],[133.55519005946374,33.77511056627362],[133.55558606256318,33.77639466185795],[133.55693125770387,33.77786208962769]]]},"properties":{"KEY_CODE":"393410220","PREF":"39","CITY":"341","CITY_NAME":"本山町","S_NAME":"立野","SETAI":"3"}},{"type":"Feature","geometry":{"type":"Polygon","coordinates":[[[133.5683366330137,33.776254177614355],[133.56693705345083,33.77588727501471],[133.5653174045143,33.7757475826121],[133.56371094895488,33.77592146083687],[133.557823525107,33.777703523617845],[133.55693125770387,33.77786208962769],[133.55558606256318,33.77639466185795],[133.55519005946374,33.77511056627362],[133.55613447307192,33.77301754276931],[133.5556475443148,33.771357685517245],[133.5559240793755,33.77076951912768],[133.5583036602117,33.76932739808519],[133.55824670386056,33.768917812284215],[133.55707863287543,33.76818697643377],[133.55497048552905,33.76613459464915],[133.55550711672558,33.76460677089287],[133.55528615287716,33.76346861827724],[133.5542185725504,33.76276208535726],[133.55418428116664,33.76230923671912],[133.55485760455784,33.761841207302574],[133.5567149202415,33.76182281479491],[133.55723117956254,33.76138858801299],[133.55723232508333,33.760670797112496],[133.55524097453278,33.758696694979385],[133.5555513750635,33.757939528343094],[133.55667367446188,33.75821345252523],[133.55926724020216,33.75994386641273],[133.56050279107953,33.76002842062157],[133.56083271291456,33.759460508650974],[133.56284536520536,33.76096662195906],[133.5666625979154,33.7638682627758],[133.5684123443916,33.764981217850234],[133.56865222681427,33.76519106131122],[133.56773853393622,33.765923450773556],[133.5682839232584,33.76770216953784],[133.57028874126627,33.77070251301867],[133.57035379627197,33.771343132989315],[133.57118361860162,33.77213213799352],[133.57062690046493,33.77259752053307],[133.57176834725968,33.774186543817386],[133.571406447635,33.775235767220906],[133.57091447754567,33.77567948601213],[133.56990391897574,33.77572333782698],[133.5683366330137,33.776254177614355]]]},"properties":{"KEY_CODE":"393410230","PREF":"39","CITY":"341","CITY_NAME":"本山町","S_NAME":"坂本","SETAI":"11"}},{"type":"Feature","geometry":{"type":"Polygon","coordinates":[[[133.55206316632817,33.79257460923533],[133.55071844858105,33.7930114252358],[133.54702340229005,33.793841958715895],[133.54609035257215,33.79379907492367],[133.54283700189936,33.79242687594213],[133.5395584465012,33.79230904300199],[133.54010045487826,33.790132510227544],[133.5399778491676,33.78751476049863],[133.54165597542328,33.78688432047368],[133.54270861965108,33.786294436488504],[133.54378714357082,33.78523532540045],[133.54322744932458,33.78491093877689],[133.54441758615732,33.784260198500014],[133.5443259284104,33.78395501346385],[133.54563800656538,33.7815544816254],[133.54670623232903,33.7781371537107],[133.54838440082884,33.77732331509696],[133.54698067939265,33.77644870510115],[133.54880569452342,33.77322866055336],[133.5535734193255,33.77708906966157],[133.55464268486628,33.77765634179068],[133.55693125770387,33.77786208962769],[133.55681980477223,33.77830958231177],[133.55584692745575,33.77902514527575],[133.55588011948097,33.78021471465452],[133.55633604599876,33.78142437189385],[133.55620519257232,33.78191786242317],[133.55400759768193,33.78229869396315],[133.5536644689655,33.78266929329922],[133.55463036390742,33.78355561746835],[133.5545696029112,33.78474797867608],[133.5529133522496,33.78583146285879],[133.55223697864687,33.78687539921177],[133.55222239096008,33.78940592108702],[133.55155924736866,33.79093917360387],[133.55206316632817,33.79257460923533]]]},"properties":{"KEY_CODE":"393410240","PREF":"39","CITY":"341","CITY_NAME":"本山町","S_NAME":"屋所","SETAI":"17"}},{"type":"Feature","geometry":{"type":"Polygon","coordinates":[[[133.55616912902192,33.793206670186485],[133.55235436988232,33.79387618795958],[133.55238015928052,33.79367880709488],[133.55206316632817,33.79257460923533],[133.55155924736866,33.79093917360387],[133.55222239096008,33.78940592108702],[133.55223697864687,33.78687539921177],[133.5529133522496,33.78583146285879],[133.5545696029112,33.78474797867608],[133.55463036390742,33.78355561746835],[133.5536644689655,33.78266929329922],[133.55400759768193,33.78229869396315],[133.55620519257232,33.78191786242317],[133.55633604599876,33.78142437189385],[133.55588011948097,33.78021471465452],[133.55584692745575,33.77902514527575],[133.55681980477223,33.77830958231177],[133.55693125770387,33.77786208962769],[133.557823525107,33.777703523617845],[133.56371094895488,33.77592146083687],[133.5653174045143,33.7757475826121],[133.56693705345083,33.77588727501471],[133.5683366330137,33.776254177614355],[133.5717250006036,33.78417906083515],[133.5721795711393,33.785400823882846],[133.57324305849352,33.78648163492219],[133.5677153447482,33.790361682939626],[133.56548499219613,33.79127695680171],[133.55616912902192,33.793206670186485]]]},"properties":{"KEY_CODE":"393410250","PREF":"39","CITY":"341","CITY_NAME":"本山町","S_NAME":"沢ケ内","SETAI":"12"}},{"type":"Feature","geometry":{"type":"Polygon","coordinates":[[[133.55235436988232,33.793876187959555],[133.55616912902192,33.793206670186485],[133.56548499219613,33.79127695680171],[133.56771534474825,33.790361682939626],[133.57324305849352,33.78648163492219],[133.57641423266932,33.787001943960696],[133.5784527885551,33.78775183300995],[133.5799065217825,33.788908853660345],[133.58152394089296,33.790569664279744],[133.58365241457554,33.79381250124094],[133.58500919100524,33.79630997682517],[133.58470390988953,33.79722401692896],[133.5852428781504,33.79895746801683],[133.58618683990053,33.80042768158365],[133.58618176013604,33.80121006799684],[133.58733384943739,33.801929087919476],[133.58750793729527,33.80232336103247],[133.58703901105878,33.803769477628535],[133.58810944818265,33.804795228564295],[133.58763794934893,33.80542768613866],[133.5873783756692,33.80652946843807],[133.5866896455765,33.807393680400565],[133.58673739419586,33.80823229501651],[133.5880573504304,33.80972107996024],[133.58836066145966,33.81056585027325],[133.5891659181258,33.81154430713135],[133.58999841307323,33.81426891910183],[133.59083007018998,33.81617164103929],[133.59402236626022,33.819262142463074],[133.59524375415958,33.82174844993332],[133.6007476108483,33.82793558892891],[133.59995436283504,33.82883044505461],[133.5983064393319,33.829461136022175],[133.59700960440082,33.830274602074724],[133.59549914765273,33.83079343448558],[133.59481254605313,33.83191210212062],[133.59350041880566,33.83262424387814],[133.59250855140317,33.833783762620406],[133.59081506573844,33.834404157957884],[133.59018955541742,33.834861820436636],[133.5884349554123,33.83537029360327],[133.58756502213893,33.835929613150796],[133.58757096793423,33.8366747630983],[133.58600875108337,33.83727217318958],[133.58570378197436,33.83843172245633],[133.58500187996754,33.838696058789694],[133.58362865863654,33.84052690049743],[133.5835067139823,33.84119818846519],[133.58219458614107,33.84286598402842],[133.58207238420383,33.84414768836762],[133.58249957459702,33.84485953553219],[133.5827437579895,33.84760582329393],[133.58344567254008,33.84974166510978],[133.58356761946547,33.8523454650243],[133.58018063668695,33.85553915895334],[133.58011952077683,33.85804142295099],[133.58143164526814,33.85993353213496],[133.58143164433235,33.86217109646377],[133.58225546972358,33.86363591740055],[133.58262183471362,33.86668721789183],[133.5830795849354,33.867612705786065],[133.5820113237482,33.86858923924807],[133.58057726013988,33.868792853660885],[133.57912763219562,33.868589246653485],[133.57813602912594,33.86812145779951],[133.5777543867408,33.868487570369076],[133.5762592178536,33.86874167839242],[133.5752065102224,33.86848748010741],[133.57450462466696,33.86904685714515],[133.57300944680603,33.869504569987306],[133.57133094276878,33.8695553746943],[133.57123953020917,33.87138635202135],[133.57148367615014,33.87189494168861],[133.56980517396258,33.8727087531282],[133.56907271368433,33.873583355994676],[133.56544160247898,33.87510901388835],[133.56275626842844,33.87510894391304],[133.56107779964992,33.87602440055766],[133.5597581944292,33.87800775036355],[133.5587587604526,33.87866909947762],[133.5586975555567,33.87993031002905],[133.55707995224452,33.882127273795845],[133.55668328438477,33.88233060497789],[133.5548217044993,33.88233058281156],[133.5539978836701,33.88186278603258],[133.5515565632947,33.88226933527828],[133.54987804529313,33.881964294605226],[133.54920672151917,33.88125211530387],[133.5470707568857,33.880194409381346],[133.5455144616629,33.8798279819988],[133.54444648771621,33.87931942799582],[133.54398875372223,33.878770289102675],[133.54218827775435,33.87907521007757],[133.54069280602178,33.87887184589877],[133.5399300974159,33.87832272448691],[133.5397471290874,33.876878126353056],[133.5400827146772,33.875861076814374],[133.53886233234837,33.873725151155085],[133.5380687917809,33.87341989552749],[133.53593293287332,33.87148729457718],[133.53593298070194,33.87061263937466],[133.5364518698885,33.86990055179887],[133.53657388103588,33.86827321983809],[133.53623816836412,33.8661370953668],[133.53556688223097,33.86532356849456],[133.5341939459415,33.86536403835953],[133.53181369434282,33.86389946529301],[133.53007447962602,33.863024547691346],[133.52632131899475,33.86210904984388],[133.52537537626426,33.86105132241459],[133.5260162240387,33.859159435766784],[133.52595549966216,33.85698277583998],[133.52650466508683,33.85553853471602],[133.52626061446696,33.853606051286754],[133.52476552541927,33.85319918324704],[133.52375843873185,33.85248734755904],[133.52220222853964,33.852039901393255],[133.52137845366897,33.85106339810478],[133.52006636843785,33.85035133539267],[133.51957811240717,33.84957838128052],[133.51976120377768,33.84862244092285],[133.51808308156794,33.847401786338374],[133.51606908033952,33.8478086933015],[133.51457396828673,33.8473410053314],[133.51219361655126,33.847645980656196],[133.5093863146845,33.84821566136693],[133.5077690469339,33.84622202481424],[133.5085623822601,33.84561181958908],[133.50883713153908,33.844960799815084],[133.50856250633873,33.84384205279782],[133.50795228862623,33.84337410522556],[133.5072504871057,33.841807886239756],[133.50725051776814,33.841299389249144],[133.50645734070974,33.83940738662304],[133.50676270826239,33.83788181102549],[133.50798330865177,33.8358678974572],[133.5089294009925,33.83590876446327],[133.50905132979673,33.83535940270249],[133.50984489444997,33.83413878123857],[133.5103026090665,33.8335083097632],[133.5103939523049,33.83153495099794],[133.51207235267535,33.82998906039433],[133.51350635623342,33.82887032269629],[133.51491010350318,33.82777186036912],[133.5149712037507,33.826205437674886],[133.51542894407382,33.82565609328144],[133.51875504153068,33.8244967803949],[133.52034185846605,33.82376442128736],[133.5222336549569,33.823174476018494],[133.52348494179222,33.82195378411138],[133.52415627798484,33.821201139119026],[133.52400354246578,33.81987909421726],[133.52372913704647,33.8194722319725],[133.5253767376175,33.81829240016521],[133.52568197558998,33.817275350215546],[133.52757374727597,33.81532230932703],[133.5287333539782,33.814834316548875],[133.52928274418116,33.81438661838087],[133.52964883557203,33.81336954503944],[133.52928277018844,33.811030173906325],[133.52946580447394,33.80985034424683],[133.5290994460003,33.80854858187926],[133.53273074725618,33.806697462602095],[133.5330054428698,33.80643309785185],[133.53328013341724,33.805761803996916],[133.5342869764205,33.804907154652916],[133.5344091688168,33.80399204219781],[133.53410392813868,33.8035443502033],[133.5336461653033,33.80151015404649],[133.5345196158766,33.79693915453665],[133.53536525097596,33.79533966779402],[133.53492034602226,33.794668027337764],[133.53525690876003,33.79383519746324],[133.53516605110528,33.79350000614753],[133.53556724735546,33.79312782754823],[133.5363058611804,33.792288461917],[133.5395584465012,33.79230904300199],[133.54283700189936,33.79242687594213],[133.54609035257215,33.7937990749237],[133.54702340229002,33.79384195871588],[133.55071844858105,33.793011425235804],[133.55206316632814,33.79257460923531],[133.55238015928052,33.79367880709488],[133.55235436988232,33.793876187959555],[133.55166682812302,33.79494053937906],[133.55417892925308,33.799798937725036],[133.55571623078703,33.799740054642385],[133.55827927699733,33.800130908711004],[133.55949480595393,33.800922484554064],[133.55972562143938,33.80203081513541],[133.5577774529865,33.803036153778656],[133.55772759978774,33.80356742752631],[133.55933835152416,33.80419391204541],[133.559525246017,33.805017032204134],[133.5588567014713,33.80577301782368],[133.5587859551979,33.80652195008958],[133.55967986854316,33.80826662591349],[133.55970661292196,33.809410248148446],[133.55937660159643,33.810102463930654],[133.55817918398597,33.81115256746073],[133.5577825757048,33.81192552814464],[133.5573859512072,33.81534302761746],[133.55567698234435,33.81660416005873],[133.55366306325914,33.81705158332438],[133.55314450503369,33.81760094676832],[133.5536327778795,33.818556913727264],[133.55351055473213,33.81906538519016],[133.5520459886594,33.82044852006212],[133.5516490771992,33.821180897220806],[133.55158820450959,33.822910101557845],[133.55097765887996,33.825025617500096],[133.5507945664058,33.82726329392434],[133.55030626908706,33.82799542640528],[133.55061147743302,33.82931768351058],[133.54960462629765,33.83035502781507],[133.54960459790914,33.83141292612096],[133.5507602792086,33.83332386940435],[133.55059261898091,33.832087138592534],[133.54997578873872,33.830378744577274],[133.5508584197108,33.829436190692284],[133.55052242288133,33.82852389611918],[133.5510370753876,33.82740441502883],[133.55122373214337,33.825211817173944],[133.55202576633104,33.82241867467925],[133.55344531652466,33.822553206094064],[133.55518645329093,33.8238473972017],[133.55626996027132,33.8254582145092],[133.55751449607308,33.825500858395515],[133.55837569630967,33.82422438705682],[133.55915800533165,33.82138529232809],[133.55998442372413,33.81695109380455],[133.56028020108977,33.81373925645947],[133.56009738673208,33.81190095492676],[133.55937660159643,33.810102463930654],[133.56259311390505,33.810111759624895],[133.5673102528457,33.80907103521969],[133.5710161279941,33.80783610487772],[133.56958795629376,33.80491705298246],[133.56621646448028,33.802756128364614],[133.5625334612613,33.799686774639135],[133.5575548841624,33.79670443701412],[133.55235436988232,33.793876187959555]]]},"properties":{"KEY_CODE":"393410260","PREF":"39","CITY":"341","CITY_NAME":"本山町","S_NAME":"瓜生野","SETAI":"22"}},{"type":"Feature","geometry":{"type":"Polygon","coordinates":[[[133.55937660159643,33.810102463930654],[133.55970661292196,33.809410248148446],[133.55967986854316,33.80826662591349],[133.5587859551979,33.80652195008958],[133.5588567014713,33.80577301782368],[133.559525246017,33.805017032204134],[133.55933835152416,33.80419391204541],[133.55772759978774,33.80356742752631],[133.5577774529865,33.803036153778656],[133.55972562143938,33.80203081513541],[133.55949480595393,33.800922484554064],[133.55827927699733,33.800130908711004],[133.55571623078703,33.799740054642385],[133.55417892925308,33.799798937725036],[133.55166682812302,33.79494053937906],[133.55235436988232,33.793876187959555],[133.5575548841624,33.79670443701412],[133.5625334612613,33.799686774639135],[133.56621646448028,33.802756128364614],[133.56958795629376,33.80491705298246],[133.5710161279941,33.80783610487772],[133.5673102528457,33.80907103521969],[133.56259311390505,33.810111759624895],[133.55937660159643,33.810102463930654]]]},"properties":{"KEY_CODE":"393410270","PREF":"39","CITY":"341","CITY_NAME":"本山町","S_NAME":"七戸","SETAI":"16"}},{"type":"Feature","geometry":{"type":"Polygon","coordinates":[[[133.55937660159643,33.810102463930654],[133.56009738673208,33.81190095492676],[133.56028020108977,33.81373925645947],[133.55998442372413,33.81695109380455],[133.55915800533165,33.82138529232809],[133.55837569630967,33.82422438705682],[133.55751449607308,33.825500858395515],[133.55626996027132,33.8254582145092],[133.55518645329093,33.8238473972017],[133.55344531652466,33.822553206094064],[133.55202576633104,33.82241867467925],[133.55122373214337,33.825211817173944],[133.5510370753876,33.82740441502883],[133.55052242288133,33.82852389611918],[133.5508584197108,33.829436190692284],[133.54997578873872,33.830378744577274],[133.55059261898091,33.832087138592534],[133.5507602792086,33.83332386940435],[133.54960459790914,33.83141292612096],[133.54960462629765,33.83035502781507],[133.55061147743302,33.82931768351058],[133.55030626908706,33.82799542640528],[133.5507945664058,33.82726329392434],[133.55097765887996,33.825025617500096],[133.55158820450959,33.822910101557845],[133.5516490771992,33.821180897220806],[133.5520459886594,33.82044852006212],[133.55351055473213,33.81906538519016],[133.5536327778795,33.818556913727264],[133.55314450503369,33.81760094676832],[133.55366306325914,33.81705158332438],[133.55567698234435,33.81660416005873],[133.5573859512072,33.81534302761746],[133.5577825757048,33.81192552814464],[133.55817918398597,33.81115256746073],[133.55937660159643,33.810102463930654]]]},"properties":{"KEY_CODE":"393410270","PREF":"39","CITY":"341","CITY_NAME":"本山町","S_NAME":"七戸","SETAI":"0"}}]}