{"type":"FeatureCollection","features":[{"type":"Feature","geometry":{"type":"Polygon","coordinates":[[[138.5115172991017,35.66876080264042],[138.51123155416414,35.6696659138943],[138.5126318264562,35.6698829533659],[138.51332901049724,35.67079400229],[138.51221369261899,35.67063872880167],[138.51159493135424,35.67118816668283],[138.5113217432527,35.6718315004037],[138.51058976036586,35.67250833203812],[138.50990641033735,35.672132582452285],[138.5099416932582,35.67296062214244],[138.5078314538877,35.67467895315796],[138.50723020724578,35.67543378135259],[138.5063359815254,35.6753701621936],[138.50486399559284,35.67693872753777],[138.5046881397787,35.67543555860874],[138.50293485037943,35.67543566034808],[138.49688627319966,35.67282117045102],[138.49760866695675,35.6712893175032],[138.4998106930029,35.66481796280672],[138.50044444853316,35.66178345628318],[138.50135674333885,35.65826428286475],[138.50313237606719,35.65219688378022],[138.50697559858347,35.65274282671928],[138.50701187132472,35.654121011917375],[138.50651627555936,35.65577710592529],[138.50925100076458,35.65629438685605],[138.50899354822002,35.6577593877199],[138.50988359091986,35.6573930605929],[138.51108500558055,35.65601443723518],[138.51167071520666,35.657969002849164],[138.51305118388035,35.65909595093935],[138.51193783275718,35.65989050223242],[138.51182438822252,35.6610408982099],[138.51356111261606,35.66098192430419],[138.5130042174791,35.66170800185406],[138.51463042011406,35.66123771687873],[138.5162911072912,35.66117938285245],[138.51632894996447,35.66216321796981],[138.51909565061703,35.661917115218465],[138.51954485798507,35.662408516612835],[138.5179530365428,35.663616910146665],[138.51590534235484,35.664715994859804],[138.5182517009696,35.66524090275201],[138.51508787173537,35.66561383354229],[138.51270527590245,35.666722348770875],[138.5124034012956,35.66916531893143],[138.5115172991017,35.66876080264042],[138.51097551825058,35.66792870029308],[138.50851968612858,35.66808499104388],[138.5093417265652,35.66909924688654],[138.50988044133192,35.6684718064573],[138.51030207074112,35.66821378816455],[138.5115172991017,35.66876080264042]]]},"properties":{"KEY_CODE":"192100010","PREF":"19","CITY":"210","CITY_NAME":"甲斐市","S_NAME":"竜王","SETAI":"1743"}},{"type":"Feature","geometry":{"type":"Polygon","coordinates":[[[138.51909565061703,35.661917115218465],[138.51632894996447,35.66216321796981],[138.5162911072912,35.66117938285245],[138.51463042011406,35.66123771687873],[138.5130042174791,35.66170800185406],[138.51356111261606,35.66098192430419],[138.51182438822252,35.6610408982099],[138.51193783275718,35.65989050223242],[138.51305118388035,35.65909595093935],[138.51167071520666,35.657969002849164],[138.51108500558055,35.65601443723518],[138.51301618027776,35.65449622100294],[138.51671590912164,35.651013248552424],[138.51881197237086,35.649547914097425],[138.52042725869129,35.647841311085955],[138.5240471263592,35.64506800279562],[138.52632284811872,35.64284186351138],[138.52739193718753,35.641405768867855],[138.52844342608097,35.64067067596336],[138.52911150729966,35.63893732041735],[138.53032364357432,35.63956056781424],[138.53159650283135,35.641165904664184],[138.53032966964892,35.641789572582844],[138.52987714779675,35.6441344249396],[138.5297687305092,35.64638211146678],[138.52852637334195,35.64767584378435],[138.5284489239138,35.648479889240484],[138.52708896532783,35.650075585510464],[138.5303132034147,35.65256540143146],[138.529414049989,35.653105622625006],[138.52730694012158,35.65397039505707],[138.5269901960041,35.65491891878229],[138.52446714658825,35.65751780437184],[138.52365426514228,35.65896248075974],[138.52194014173537,35.65986761215172],[138.51989595948226,35.66002443002418],[138.52012584859386,35.66108033485067],[138.51909565061703,35.661917115218465]]]},"properties":{"KEY_CODE":"192100020","PREF":"19","CITY":"210","CITY_NAME":"甲斐市","S_NAME":"篠原","SETAI":"3256"}},{"type":"Feature","geometry":{"type":"Polygon","coordinates":[[[138.53126477063051,35.65225331008692],[138.53086001541337,35.65295230867708],[138.5303132034147,35.65256540143146],[138.52708896532783,35.650075585510464],[138.5284489239138,35.648479889240484],[138.52852637334195,35.64767584378435],[138.5297687305092,35.64638211146678],[138.52987714779675,35.6441344249396],[138.53032966964892,35.641789572582844],[138.53159650283135,35.641165904664184],[138.5325148686985,35.64201081306872],[138.53454094072094,35.64274378812715],[138.53521721122712,35.64368173878382],[138.5355283802561,35.64599039775988],[138.53713015550616,35.64537891280122],[138.53808244198956,35.6460987446816],[138.53667213639295,35.64632091771593],[138.53460259412364,35.64784225288919],[138.53523631464765,35.64855022479714],[138.53428317804887,35.64914566322602],[138.5336973318037,35.648745578339856],[138.5310975692265,35.650561610840334],[138.53278383705887,35.6508669104408],[138.53133514049603,35.65217291063025],[138.53126477063051,35.65225331008692]]]},"properties":{"KEY_CODE":"192100030","PREF":"19","CITY":"210","CITY_NAME":"甲斐市","S_NAME":"万才","SETAI":"955"}},{"type":"Feature","geometry":{"type":"Polygon","coordinates":[[[138.5313442318665,35.662666505912284],[138.52338931716164,35.66461892308011],[138.5198421681932,35.6657345691256],[138.51832346244365,35.66590461210715],[138.5182517009696,35.66524090275201],[138.51590534235484,35.664715994859804],[138.5179530365428,35.663616910146665],[138.51954485798507,35.662408516612835],[138.51909565061703,35.661917115218465],[138.52012584859386,35.66108033485067],[138.51989595948226,35.66002443002418],[138.52194014173537,35.65986761215172],[138.52365426514228,35.65896248075974],[138.52446714658825,35.65751780437184],[138.5269901960041,35.65491891878229],[138.52730694012158,35.65397039505707],[138.529414049989,35.653105622625006],[138.5303132034147,35.65256540143146],[138.53086001541337,35.65295230867708],[138.53126477063051,35.65225331008692],[138.53133514049603,35.65217291063025],[138.53278383705887,35.650866910440755],[138.5310975692265,35.650561610840334],[138.5336973318037,35.648745578339856],[138.53428317804887,35.64914566322602],[138.53523631464765,35.64855022479714],[138.53460259412364,35.64784225288919],[138.53667213639295,35.64632091771593],[138.53808244198956,35.6460987446816],[138.5387968634942,35.64677931475125],[138.53686081166802,35.64826786546275],[138.53704019319298,35.64877066141952],[138.53583157685776,35.64976640561087],[138.53290808649288,35.65089215708387],[138.5321669250138,35.652491679639034],[138.53364819426983,35.65393872954033],[138.53357696744413,35.65470960606854],[138.53518938256306,35.65385445743783],[138.53860328628227,35.65410963382279],[138.53594997023808,35.65567029005627],[138.53603992304946,35.65651301440638],[138.53430878980183,35.657512557415245],[138.5351717094876,35.657634589544045],[138.53629647834381,35.65658877836762],[138.5370337124207,35.65739722405476],[138.53608733841642,35.657863458371985],[138.53334057449652,35.659108027623404],[138.5329454883591,35.6606069308891],[138.5313442318665,35.662666505912284]]]},"properties":{"KEY_CODE":"192100040","PREF":"19","CITY":"210","CITY_NAME":"甲斐市","S_NAME":"富竹新田","SETAI":"2658"}},{"type":"Feature","geometry":{"type":"Polygon","coordinates":[[[138.5115172991017,35.66876080264042],[138.51030207074112,35.66821378816455],[138.50988044133192,35.6684718064573],[138.5093417265652,35.66909924688654],[138.50851968612858,35.66808499104388],[138.51097551825058,35.66792870029308],[138.5115172991017,35.66876080264042]]]},"properties":{"KEY_CODE":"192100050","PREF":"19","CITY":"210","CITY_NAME":"甲斐市","S_NAME":"竜王新町","SETAI":"0"}},{"type":"Feature","geometry":{"type":"Polygon","coordinates":[[[138.5115172991017,35.66876080264042],[138.5124034012956,35.66916531893143],[138.51270527590245,35.666722348770875],[138.51508787173537,35.66561383354229],[138.5182517009696,35.66524090275201],[138.51832346244365,35.66590461210715],[138.5198421681932,35.6657345691256],[138.5198269535123,35.666083420126675],[138.5220964112771,35.66628198677336],[138.52081510287024,35.66738972866482],[138.52267064392535,35.667078223529735],[138.52238019313722,35.66776710654678],[138.52089677882768,35.668635188246704],[138.52281853181475,35.66900055485829],[138.5200617585026,35.66911179166997],[138.52094132853506,35.670700883272325],[138.52077405709204,35.67456922054832],[138.51916888714138,35.6750164120428],[138.5177433703014,35.67531034449754],[138.5176072283872,35.67608971752781],[138.51454297150715,35.6764865629974],[138.51090869911593,35.678312455255025],[138.5089467590238,35.67870182414049],[138.5053737917578,35.67992435949826],[138.50486399559284,35.67693872753777],[138.5063359815254,35.6753701621936],[138.50723020724578,35.67543378135259],[138.5078314538877,35.67467895315796],[138.5099416932582,35.67296062214244],[138.50990641033735,35.672132582452285],[138.51058976036586,35.67250833203812],[138.5113217432527,35.6718315004037],[138.51159493135424,35.67118816668283],[138.51221369261899,35.67063872880167],[138.51332901049724,35.67079400229],[138.5126318264562,35.6698829533659],[138.51123155416414,35.6696659138943],[138.5115172991017,35.66876080264042]]]},"properties":{"KEY_CODE":"192100050","PREF":"19","CITY":"210","CITY_NAME":"甲斐市","S_NAME":"竜王新町","SETAI":"1935"}},{"type":"Feature","geometry":{"type":"Polygon","coordinates":[[[138.52824672249807,35.66709055467349],[138.52773836884103,35.66619835430161],[138.52585192983662,35.66685825787734],[138.52537984821004,35.66817361852014],[138.5243193438516,35.66871261750618],[138.5230901676602,35.66868612002687],[138.52330372215,35.66783754553646],[138.52238019313722,35.66776710654678],[138.52267064392535,35.667078223529735],[138.52081510287024,35.66738972866482],[138.5220964112771,35.66628198677336],[138.5198269535123,35.666083420126675],[138.5198421681932,35.6657345691256],[138.52338931716164,35.66461892308011],[138.5313442318665,35.662666505912284],[138.53054287205364,35.6639256004639],[138.53051595064213,35.6641988595363],[138.53046237744945,35.664722107542474],[138.5304664877188,35.66518541429548],[138.5297796361505,35.66653809401913],[138.52824672249807,35.66709055467349]]]},"properties":{"KEY_CODE":"192100060","PREF":"19","CITY":"210","CITY_NAME":"甲斐市","S_NAME":"名取","SETAI":"540"}},{"type":"Feature","geometry":{"type":"Polygon","coordinates":[[[138.51108500558055,35.65601443723518],[138.50988359091986,35.6573930605929],[138.50899354822002,35.6577593877199],[138.50925100076458,35.65629438685605],[138.50651627555936,35.65577710592529],[138.50701187132472,35.654121011917375],[138.50697559858347,35.65274282671928],[138.50313237606719,35.65219688378022],[138.50386014779997,35.64870802856333],[138.50418808701338,35.644733338553586],[138.5051452145839,35.637213818878664],[138.50559374665056,35.6338169380762],[138.50829475143848,35.63396283357951],[138.50970239872964,35.63348626589393],[138.5110518808912,35.633862066621326],[138.51116688117665,35.633019681242786],[138.51279534043303,35.63323847350375],[138.5129162333259,35.632720923255974],[138.51430034452963,35.63288631070065],[138.51427048113598,35.63362200561313],[138.51593493943017,35.633723117631384],[138.51581040963202,35.63505501883683],[138.51429327535038,35.636756337849384],[138.517399380125,35.63823211355011],[138.51809416640256,35.64057589750566],[138.51931848992973,35.639446443172595],[138.519845416112,35.639538389806475],[138.52009032880144,35.63889684200705],[138.52058843489925,35.638673353426675],[138.5229245255619,35.637818997730896],[138.52286198113651,35.63637636019273],[138.52368940174205,35.63585982349074],[138.52576615270186,35.63672091662486],[138.52669146082775,35.636392986877134],[138.52777890934075,35.63797221003611],[138.52911150729966,35.63893732041735],[138.52844342608097,35.64067067596336],[138.52739193718753,35.641405768867855],[138.52632284811872,35.64284186351138],[138.5240471263592,35.64506800279562],[138.52042725869129,35.647841311085955],[138.51881197237086,35.649547914097425],[138.51671590912164,35.651013248552424],[138.51301618027776,35.65449622100294],[138.51108500558055,35.65601443723518]],[[138.5112054700591,35.64323657216933],[138.51086911422166,35.64359918747694],[138.51184743473306,35.64380431987234],[138.5112054700591,35.64323657216933]],[[138.5254134788057,35.64077526449583],[138.52826614581085,35.63993168356827],[138.52578792323655,35.63991703675132],[138.5254134788057,35.64077526449583]],[[138.52306565423177,35.63993629282609],[138.52394608640927,35.63993418135628],[138.52293964594705,35.63822917844811],[138.52238822970747,35.639324773377226],[138.5214432137394,35.63992726835724],[138.52306565423177,35.63993629282609]],[[138.52576889398253,35.63871257936886],[138.52612410858876,35.639405799836254],[138.5265090844054,35.63886698406505],[138.52576889398253,35.63871257936886]],[[138.525764683975,35.63850481249645],[138.52634501046376,35.63736018341557],[138.52535888932485,35.63830265994496],[138.525764683975,35.63850481249645]],[[138.51421288036497,35.638666714513114],[138.51285888399985,35.63844579872719],[138.51357156064745,35.639317630487724],[138.51421288036497,35.638666714513114],[138.5154988836354,35.638864843517176],[138.5146237409974,35.6381792999978],[138.51421288036497,35.638666714513114]]]},"properties":{"KEY_CODE":"19210007001","PREF":"19","CITY":"210","CITY_NAME":"甲斐市","S_NAME":"西八幡","SETAI":"3475"}},{"type":"Feature","geometry":{"type":"Polygon","coordinates":[[[138.51421288036497,35.638666714513114],[138.51357156064745,35.639317630487724],[138.51285888399985,35.63844579872719],[138.51421288036497,35.638666714513114]]]},"properties":{"KEY_CODE":"19210007002","PREF":"19","CITY":"210","CITY_NAME":"甲斐市","S_NAME":"西八幡","SETAI":"0"}},{"type":"Feature","geometry":{"type":"Polygon","coordinates":[[[138.52009032880144,35.63889684200705],[138.519845416112,35.639538389806475],[138.51931848992973,35.639446443172595],[138.52009032880144,35.63889684200705]]]},"properties":{"KEY_CODE":"19210007002","PREF":"19","CITY":"210","CITY_NAME":"甲斐市","S_NAME":"西八幡","SETAI":"0"}},{"type":"Feature","geometry":{"type":"Polygon","coordinates":[[[138.52306565423177,35.63993629282609],[138.5214432137394,35.63992726835724],[138.52238822970747,35.639324773377226],[138.52293964594705,35.63822917844811],[138.52394608640927,35.63993418135628],[138.52306565423177,35.63993629282609]]]},"properties":{"KEY_CODE":"19210007002","PREF":"19","CITY":"210","CITY_NAME":"甲斐市","S_NAME":"西八幡","SETAI":"0"}},{"type":"Feature","geometry":{"type":"Polygon","coordinates":[[[138.5254134788057,35.64077526449583],[138.52578792323655,35.63991703675132],[138.52826614581085,35.63993168356827],[138.5254134788057,35.64077526449583]]]},"properties":{"KEY_CODE":"19210007002","PREF":"19","CITY":"210","CITY_NAME":"甲斐市","S_NAME":"西八幡","SETAI":"0"}},{"type":"Feature","geometry":{"type":"Polygon","coordinates":[[[138.5112054700591,35.64323657216933],[138.51184743473306,35.64380431987234],[138.51086911422166,35.64359918747694],[138.5112054700591,35.64323657216933]]]},"properties":{"KEY_CODE":"19210007002","PREF":"19","CITY":"210","CITY_NAME":"甲斐市","S_NAME":"西八幡","SETAI":"0"}},{"type":"Feature","geometry":{"type":"Polygon","coordinates":[[[138.52576889398253,35.63871257936886],[138.5265090844054,35.63886698406505],[138.52612410858876,35.639405799836254],[138.52576889398253,35.63871257936886]]]},"properties":{"KEY_CODE":"19210007002","PREF":"19","CITY":"210","CITY_NAME":"甲斐市","S_NAME":"西八幡","SETAI":"0"}},{"type":"Feature","geometry":{"type":"Polygon","coordinates":[[[138.517399380125,35.63823211355011],[138.51429327535038,35.636756337849384],[138.51581040963202,35.63505501883683],[138.51766995891126,35.63453541696433],[138.52003770728825,35.63463710056682],[138.51843910514324,35.63731384306988],[138.5174651573014,35.63716886426363],[138.517399380125,35.63823211355011]]]},"properties":{"KEY_CODE":"19210007002","PREF":"19","CITY":"210","CITY_NAME":"甲斐市","S_NAME":"西八幡","SETAI":"458"}},{"type":"Feature","geometry":{"type":"Polygon","coordinates":[[[138.525764683975,35.63850481249645],[138.52535888932485,35.63830265994496],[138.52634501046376,35.63736018341557],[138.525764683975,35.63850481249645]]]},"properties":{"KEY_CODE":"19210007002","PREF":"19","CITY":"210","CITY_NAME":"甲斐市","S_NAME":"西八幡","SETAI":"0"}},{"type":"Feature","geometry":{"type":"Polygon","coordinates":[[[138.52286198113651,35.63637636019273],[138.5229245255619,35.637818997730896],[138.52058843489925,35.638673353426675],[138.5219698529787,35.636901881524345],[138.52286198113651,35.63637636019273]]]},"properties":{"KEY_CODE":"19210007002","PREF":"19","CITY":"210","CITY_NAME":"甲斐市","S_NAME":"西八幡","SETAI":"0"}},{"type":"Feature","geometry":{"type":"Polygon","coordinates":[[[138.51421288036497,35.638666714513114],[138.5146237409974,35.6381792999978],[138.5154988836354,35.638864843517176],[138.51421288036497,35.638666714513114]]]},"properties":{"KEY_CODE":"19210007002","PREF":"19","CITY":"210","CITY_NAME":"甲斐市","S_NAME":"西八幡","SETAI":"0"}},{"type":"Feature","geometry":{"type":"Polygon","coordinates":[[[138.52160502287302,35.633095478279216],[138.5199985108826,35.63290317300136],[138.5203138181905,35.63143937748038],[138.52178456060165,35.631112231614054],[138.52160502287302,35.633095478279216]]]},"properties":{"KEY_CODE":"19210008000","PREF":"19","CITY":"210","CITY_NAME":"甲斐市","S_NAME":"玉川","SETAI":"64"}},{"type":"Feature","geometry":{"type":"Polygon","coordinates":[[[138.52058843489925,35.638673353426675],[138.52009032880144,35.63889684200705],[138.51931848992973,35.639446443172595],[138.51809416640256,35.64057589750566],[138.517399380125,35.63823211355011],[138.5174651573014,35.63716886426363],[138.51843910514324,35.63731384306988],[138.52003770728825,35.63463710056682],[138.51766995891126,35.63453541696433],[138.51581040963202,35.63505501883683],[138.51593493943017,35.633723117631384],[138.51427048113598,35.63362200561313],[138.51430034452963,35.63288631070065],[138.51604744734314,35.63231509540208],[138.51861541816464,35.63203849621174],[138.5203138181905,35.63143937748038],[138.5199985108826,35.63290317300136],[138.52160502287302,35.633095478279216],[138.52178456060165,35.631112231614054],[138.52417972845828,35.631138800615176],[138.52448484734924,35.63043005069091],[138.5253574997272,35.63067903923803],[138.52595529874574,35.62928526392625],[138.52709681557963,35.62886351787246],[138.52984738171355,35.63001407895563],[138.5284808864984,35.63229413407334],[138.53118124847776,35.631705846022136],[138.53468181555914,35.631595650055495],[138.53294637247242,35.63254975087727],[138.53210972454957,35.63182020290271],[138.53067646921232,35.63269648024752],[138.5295418983451,35.632407915361284],[138.52813211719473,35.63282738888512],[138.53002042642535,35.6336057117296],[138.53200994103815,35.633371859589786],[138.53153601233566,35.63370263546067],[138.5299248578071,35.63542255814551],[138.52898446275307,35.63687981109294],[138.52777890934075,35.63797221003611],[138.52669146082775,35.636392986877134],[138.52576615270186,35.63672091662486],[138.52368940174205,35.63585982349074],[138.52286198113651,35.63637636019273],[138.5219698529787,35.636901881524345],[138.52058843489925,35.638673353426675]]]},"properties":{"KEY_CODE":"19210008001","PREF":"19","CITY":"210","CITY_NAME":"甲斐市","S_NAME":"玉川","SETAI":"1180"}},{"type":"Feature","geometry":{"type":"Polygon","coordinates":[[[138.53200994103815,35.633371859589786],[138.53002042642535,35.6336057117296],[138.52813211719473,35.63282738888512],[138.5295418983451,35.632407915361284],[138.53067646921232,35.63269648024752],[138.53210972454957,35.63182020290271],[138.53294637247242,35.63254975087727],[138.53200994103815,35.633371859589786]]]},"properties":{"KEY_CODE":"19210008002","PREF":"19","CITY":"210","CITY_NAME":"甲斐市","S_NAME":"玉川","SETAI":"428"}},{"type":"Feature","geometry":{"type":"Polygon","coordinates":[[[138.53457076698987,35.67672020802537],[138.53346957346798,35.6769352725984],[138.53309029931523,35.67885135562105],[138.53198760361659,35.676883940251855],[138.5308470114096,35.676123739270935],[138.53109514967485,35.67412823287482],[138.52978749583966,35.672079310889806],[138.52981262412976,35.67077713176611],[138.5281506330782,35.6710202917131],[138.52824672249807,35.66709055467349],[138.5297796361505,35.66653809401913],[138.5304664877188,35.66518541429548],[138.53046237744945,35.664722107542474],[138.53051595064213,35.6641988595363],[138.53054287205364,35.6639256004639],[138.5305686590126,35.663947457546556],[138.53126833340983,35.66571786786726],[138.53134043074974,35.66599159383773],[138.53284182279734,35.667032743420286],[138.53246327863155,35.668049036224744],[138.53317999238436,35.66920232571748],[138.5340202986575,35.672132342123525],[138.53636229423466,35.67207828605943],[138.53651414151113,35.673871755990646],[138.5357559794575,35.67497388313189],[138.53587310025577,35.6757338364203],[138.53495869769338,35.676404589523884],[138.53457076698987,35.67672020802537]]]},"properties":{"KEY_CODE":"192100090","PREF":"19","CITY":"210","CITY_NAME":"甲斐市","S_NAME":"長塚","SETAI":"1283"}},{"type":"Feature","geometry":{"type":"Polygon","coordinates":[[[138.52933759912779,35.67642295915948],[138.5280648174536,35.67634156163019],[138.52805397873533,35.67698455101032],[138.52644568068374,35.67730681973636],[138.52626978519166,35.67646399247417],[138.5223762571512,35.67630762973739],[138.51837647505758,35.677260074987146],[138.51822944329146,35.67591944896776],[138.51916888714138,35.6750164120428],[138.52077405709204,35.67456922054832],[138.52094132853506,35.670700883272325],[138.5200617585026,35.66911179166997],[138.52281853181475,35.66900055485829],[138.52089677882768,35.668635188246704],[138.52238019313722,35.66776710654678],[138.52330372215,35.66783754553646],[138.5230901676602,35.66868612002687],[138.5243193438516,35.66871261750618],[138.52537984821004,35.66817361852014],[138.52585192983662,35.66685825787734],[138.52773836884103,35.66619835430161],[138.52824672249807,35.66709055467349],[138.5281506330782,35.6710202917131],[138.52981262412976,35.67077713176611],[138.52978749583966,35.672079310889806],[138.53109514967485,35.67412823287482],[138.5308470114096,35.676123739270935],[138.52942176762622,35.676379735303925],[138.52933759912779,35.67642295915948]]]},"properties":{"KEY_CODE":"192100100","PREF":"19","CITY":"210","CITY_NAME":"甲斐市","S_NAME":"大下条","SETAI":"1558"}},{"type":"Feature","geometry":{"type":"Polygon","coordinates":[[[138.53466218952227,35.67896194431054],[138.5358642713948,35.67898025427425],[138.53621630336735,35.68023968236228],[138.53586137942554,35.68108276397781],[138.53543825902366,35.68188773240595],[138.53238215233253,35.68275564609739],[138.5269306557085,35.683530717418236],[138.52419978476067,35.68416108618115],[138.51795173735238,35.68506755371251],[138.5178809229026,35.68507168515989],[138.51750696914266,35.68327886378055],[138.51798965902367,35.68008778131303],[138.51861799731788,35.679450740033474],[138.51837647505758,35.677260074987146],[138.5223762571512,35.67630762973739],[138.52626978519166,35.67646399247417],[138.52644568068374,35.67730681973636],[138.52805397873533,35.67698455101032],[138.5280648174536,35.67634156163019],[138.52933759912779,35.67642295915948],[138.52942176762622,35.676379735303925],[138.5308470114096,35.676123739270935],[138.53198760361659,35.676883940251855],[138.53309029931523,35.67885135562105],[138.5342443457698,35.679000337863634],[138.53466218952227,35.67896194431054]]]},"properties":{"KEY_CODE":"192100110","PREF":"19","CITY":"210","CITY_NAME":"甲斐市","S_NAME":"中下条","SETAI":"2391"}},{"type":"Feature","geometry":{"type":"Polygon","coordinates":[[[138.52723394882298,35.69331601695844],[138.52539358081884,35.69355382827198],[138.5256161810272,35.692063448809805],[138.52449944278263,35.692148271349325],[138.52416407418784,35.690545379957854],[138.5204718743722,35.69142945669259],[138.518446623297,35.691266704546415],[138.51754695875488,35.68971110721819],[138.51806047782853,35.68857982111654],[138.51774103004223,35.68781013363497],[138.51873068495354,35.68661383770512],[138.51743008737935,35.68627006672138],[138.51795173735238,35.68506755371251],[138.52419978476067,35.68416108618115],[138.5269306557085,35.683530717418236],[138.53238215233253,35.68275564609739],[138.53543825902366,35.68188773240595],[138.53325945053942,35.686124759586434],[138.53257978899737,35.686892582732725],[138.53161058016514,35.68837128271041],[138.52723394882298,35.69331601695844]]]},"properties":{"KEY_CODE":"192100120","PREF":"19","CITY":"210","CITY_NAME":"甲斐市","S_NAME":"島上条","SETAI":"1516"}},{"type":"Feature","geometry":{"type":"Polygon","coordinates":[[[138.518446623297,35.691266704546415],[138.51828564747595,35.69287652817835],[138.51654749482415,35.691970957193185],[138.51182316764863,35.69141175620617],[138.5135099062307,35.689919941824414],[138.51335938921463,35.688081198642216],[138.51374574421533,35.685823253621315],[138.5165397881762,35.68611937504182],[138.516434595926,35.68514212721854],[138.5178809229026,35.68507168515989],[138.51795173735238,35.68506755371251],[138.51743008737935,35.68627006672138],[138.51873068495354,35.68661383770512],[138.51774103004223,35.68781013363497],[138.51806047782853,35.68857982111654],[138.51754695875488,35.68971110721819],[138.518446623297,35.691266704546415]]]},"properties":{"KEY_CODE":"192100130","PREF":"19","CITY":"210","CITY_NAME":"甲斐市","S_NAME":"天狗沢","SETAI":"250"}},{"type":"Feature","geometry":{"type":"Polygon","coordinates":[[[138.51826207113984,35.699790395810965],[138.51836695680623,35.700936326169],[138.51482456235914,35.70275282090554],[138.51340638752598,35.70064209684441],[138.51282816573482,35.69980560655384],[138.51238611371602,35.69937998495877],[138.5113115370491,35.6989523243502],[138.5080359505266,35.69677358679175],[138.506654158595,35.695041433868404],[138.50677595179445,35.694420334796675],[138.50681742578132,35.69432949163346],[138.50631751059436,35.693859633060924],[138.50640029750357,35.69236066652669],[138.5091275508158,35.69224682463983],[138.51182316764863,35.69141175620617],[138.51654749482415,35.691970957193185],[138.51712487493575,35.697484746611444],[138.51802086239988,35.69919892520788],[138.51826207113984,35.699790395810965]]]},"properties":{"KEY_CODE":"192100140","PREF":"19","CITY":"210","CITY_NAME":"甲斐市","S_NAME":"大久保","SETAI":"145"}},{"type":"Feature","geometry":{"type":"Polygon","coordinates":[[[138.52723394882298,35.69331601695844],[138.52674268561944,35.69440032672008],[138.52381551217445,35.69615158536591],[138.52290805724036,35.69536249539706],[138.5200137897291,35.694229125329834],[138.51828564747595,35.69287652817835],[138.518446623297,35.691266704546415],[138.5204718743722,35.69142945669259],[138.52416407418784,35.690545379957854],[138.52449944278263,35.692148271349325],[138.5256161810272,35.692063448809805],[138.52539358081884,35.69355382827198],[138.52723394882298,35.69331601695844]]]},"properties":{"KEY_CODE":"192100150","PREF":"19","CITY":"210","CITY_NAME":"甲斐市","S_NAME":"境","SETAI":"316"}},{"type":"Feature","geometry":{"type":"Polygon","coordinates":[[[138.52346456284076,35.707912089594366],[138.5223803610881,35.70977446775015],[138.52053435170407,35.7118326140211],[138.51890359353573,35.71412012237977],[138.5176060527081,35.71636537012902],[138.5164323506217,35.71957032849864],[138.51423437268988,35.721740185963974],[138.51161083333795,35.71753480619316],[138.51331598845312,35.71589415341963],[138.51334955574063,35.715685060696124],[138.5134095764487,35.71358307596325],[138.51298173066957,35.71265563526634],[138.51328423259937,35.710578887259416],[138.51512083362445,35.70973047973747],[138.51442315419902,35.70768902422838],[138.51482456235914,35.70275282090554],[138.51836695680623,35.700936326169],[138.51826207113984,35.699790395810965],[138.51802086239988,35.69919892520788],[138.51712487493575,35.697484746611444],[138.51654749482415,35.691970957193185],[138.51828564747595,35.69287652817835],[138.5200137897291,35.694229125329834],[138.52290805724036,35.69536249539706],[138.52381551217445,35.69615158536591],[138.52357652635655,35.69705883200686],[138.52401415273306,35.699238985665446],[138.52323663594427,35.70109002362341],[138.5233859369935,35.7020172562228],[138.52480600222836,35.70393798001548],[138.5251568144548,35.70512191612444],[138.52435718578374,35.70724919079549],[138.52400682826146,35.70761174517804],[138.52346456284076,35.707912089594366]]]},"properties":{"KEY_CODE":"192100160","PREF":"19","CITY":"210","CITY_NAME":"甲斐市","S_NAME":"牛句","SETAI":"263"}},{"type":"Feature","geometry":{"type":"Polygon","coordinates":[[[138.52600001015506,35.78341929167507],[138.52562257149833,35.783472070659194],[138.52183627195691,35.78431385260625],[138.52150885804244,35.7844193906923],[138.52127878414936,35.7845050676007],[138.52102327687479,35.78461507916642],[138.52012737065849,35.78517951016402],[138.51977676871417,35.785495057533005],[138.51952019381628,35.785808790658415],[138.51942730663586,35.785969259411836],[138.51931785888152,35.786280253279315],[138.5193024038794,35.78642447566517],[138.51942087006216,35.78684989102062],[138.51951827965215,35.78710676123566],[138.51931951933202,35.78872474758692],[138.51923770701774,35.78895822002399],[138.51819261594312,35.790651168130516],[138.51800348647288,35.790900891568924],[138.5177369440471,35.791302047697165],[138.51759426657676,35.79149856062095],[138.5165379544208,35.79277778938498],[138.5162569874433,35.79303654059224],[138.515727118721,35.7934855005786],[138.51542843875725,35.793717212274956],[138.51381328846358,35.79476034570312],[138.51316591392995,35.79374550385358],[138.51231669877203,35.78863213738021],[138.51214075061182,35.788225645323486],[138.51145788585816,35.78565591469627],[138.51021095072204,35.78362705353316],[138.5085304867803,35.78145577318147],[138.50704258149543,35.77899421361838],[138.50557799593733,35.77718883851368],[138.50555144218703,35.77708157249712],[138.504586903102,35.77643624001647],[138.5044232045252,35.77644526167008],[138.50417986920397,35.77645249102461],[138.50403829150324,35.776439874537225],[138.50296531981223,35.77447309676334],[138.502915543575,35.77437394671963],[138.50257041782874,35.77333106864027],[138.50253280227554,35.77303991705224],[138.5024685977129,35.771531920760715],[138.5020560468472,35.771282239226835],[138.50177340326516,35.77086799848193],[138.50050202410569,35.76978647037907],[138.50215366728577,35.76975438119776],[138.50271453025263,35.77039886790499],[138.50454466807344,35.77037957269058],[138.50461895444312,35.77087561022622],[138.5071808679656,35.77049475349428],[138.51219215619375,35.77130817239218],[138.5145768500064,35.770822151331544],[138.51587827409907,35.76930271646051],[138.51882381309323,35.76789598383341],[138.51903264625452,35.76812405420057],[138.51919650635395,35.768332959440436],[138.51941337311166,35.768704295952965],[138.51965123413154,35.76898728667208],[138.51977292369753,35.7691026292237],[138.51983930001478,35.76916571293542],[138.51997426511483,35.76929187982922],[138.5202939941869,35.76965147045619],[138.52038581960264,35.76975060388543],[138.52046215053159,35.769820903351935],[138.52072960257394,35.769979631950974],[138.5209555264155,35.77018225814716],[138.52095226022854,35.77039408352265],[138.52093241052643,35.77063925620625],[138.52093909347622,35.770818633402556],[138.52094908879465,35.7709944009008],[138.52121140254397,35.77186187722084],[138.5218863520409,35.77300255408337],[138.52285590562894,35.77380239357093],[138.5240448254793,35.775437309522786],[138.52436170795232,35.77650622020269],[138.52451757703855,35.777063914319456],[138.525140796233,35.77847499354243],[138.52573313953263,35.780629691966986],[138.52639822357625,35.78295337423001],[138.5264503141787,35.78352798325672],[138.52600001015506,35.78341929167507]]]},"properties":{"KEY_CODE":"192100170","PREF":"19","CITY":"210","CITY_NAME":"甲斐市","S_NAME":"亀沢","SETAI":"0"}},{"type":"Feature","geometry":{"type":"Polygon","coordinates":[[[138.53078716664524,35.71885507961131],[138.53240845110602,35.720411571199485],[138.53301589997125,35.72193668066613],[138.53326058359713,35.72405338699952],[138.53417947926232,35.7260600474065],[138.5342892617042,35.72799088626127],[138.53536925215582,35.73049184451992],[138.53473741199258,35.732562306628644],[138.53578099173004,35.73471260590639],[138.53647718429085,35.73705309057968],[138.5380083602113,35.73891589220311],[138.5397260688594,35.74023781431663],[138.54088231808157,35.74183619741863],[138.53905590794676,35.740655677954294],[138.53686637680715,35.739802873536384],[138.53429289771267,35.738620591685134],[138.53294383274846,35.73780974842704],[138.531185449386,35.73679232107476],[138.53073646399017,35.73606783303687],[138.53005934783516,35.735588456640194],[138.52747569140718,35.734313100621904],[138.5267078888336,35.733987943744516],[138.52624616271086,35.73376411618741],[138.5260929754887,35.73326347754741],[138.5258586626589,35.730732704159536],[138.52516572270272,35.72927308815015],[138.5248340729256,35.72929250585882],[138.52448380383558,35.729668276334195],[138.52300816061535,35.729624210340724],[138.5216725367699,35.72952094992466],[138.52012941171915,35.72921068422254],[138.51941102574295,35.72912419254925],[138.51895719723794,35.72911370549167],[138.51790435536626,35.729350477128264],[138.5157961300406,35.73005425869563],[138.5147847608597,35.73027832186456],[138.51288980375944,35.73037298168471],[138.51387515218653,35.729688422124696],[138.514186103838,35.72845466343778],[138.51591320788847,35.72828543404063],[138.51500232941507,35.72536813281998],[138.51380593883496,35.72386652100857],[138.51423437268988,35.721740185963974],[138.5164323506217,35.71957032849864],[138.5176060527081,35.71636537012902],[138.51890359353573,35.71412012237977],[138.52053435170407,35.7118326140211],[138.5223803610881,35.70977446775015],[138.52346456284076,35.707912089594366],[138.52400682826146,35.70761174517804],[138.52721471735063,35.7097265621731],[138.5282938513699,35.71136564965266],[138.52866645905334,35.712853851002464],[138.52911808722226,35.71414239453996],[138.52922756316258,35.71568454607496],[138.53012049207064,35.71818557623493],[138.53078716664524,35.71885507961131]]]},"properties":{"KEY_CODE":"192100170","PREF":"19","CITY":"210","CITY_NAME":"甲斐市","S_NAME":"亀沢","SETAI":"122"}},{"type":"Feature","geometry":{"type":"Polygon","coordinates":[[[138.51567569324703,35.746531372059856],[138.51565923200508,35.746491131286454],[138.51538531945275,35.74616957184328],[138.51472401827868,35.745474199690165],[138.51464817706278,35.74519500399793],[138.51445479145107,35.74478810338514],[138.51378623543957,35.74429593279287],[138.51338349676115,35.74405969429969],[138.5128969578543,35.74378508745773],[138.51224371509835,35.74299984253477],[138.51202597742113,35.74137213716683],[138.51149014947848,35.739767419814164],[138.51109538509817,35.738809193657985],[138.51082153730988,35.73850731990293],[138.51061213267084,35.73834324810414],[138.51049932361667,35.737916630673396],[138.5106435546985,35.73737240909423],[138.51163609759536,35.73566413208282],[138.5111705200288,35.73263146141197],[138.51213816254167,35.73148923864152],[138.51251646426272,35.73095609977472],[138.51288980375944,35.73037298168471],[138.5147847608597,35.73027832186456],[138.5157961300406,35.73005425869563],[138.51790435536626,35.729350477128264],[138.51895719723794,35.72911370549167],[138.51941102574295,35.72912419254925],[138.52012941171915,35.72921068422254],[138.5216725367699,35.72952094992466],[138.52300816061535,35.729624210340724],[138.52448380383558,35.729668276334195],[138.5248340729256,35.72929250585882],[138.52516572270272,35.72927308815015],[138.5258586626589,35.730732704159536],[138.5260253929642,35.73284520918189],[138.52424417240616,35.73431802538135],[138.51979614837302,35.73645661506817],[138.51796896179485,35.738578018563025],[138.5174402911821,35.74033572764073],[138.51755963815853,35.74217767910018],[138.51726474554442,35.743665106216525],[138.516839464675,35.74410457723611],[138.51654399372828,35.74506370990323],[138.51614989874741,35.74581582695573],[138.51567569324703,35.746531372059856]]]},"properties":{"KEY_CODE":"192100180","PREF":"19","CITY":"210","CITY_NAME":"甲斐市","S_NAME":"打返","SETAI":"5"}},{"type":"Feature","geometry":{"type":"Polygon","coordinates":[[[138.51738241381727,35.75118654586744],[138.51715658828522,35.75043019066773],[138.51687625801708,35.750041757551735],[138.51657816105347,35.74969393966434],[138.5164733723739,35.749372358928355],[138.51656188873403,35.74902448276083],[138.5163483802565,35.74875870620418],[138.51609060246759,35.748542138778824],[138.5160421106414,35.747852986960616],[138.5158248892267,35.74723769241874],[138.51575263123988,35.746940188493554],[138.51569952051284,35.74658958642621],[138.51567569324703,35.746531372059856],[138.51614989874741,35.74581582695573],[138.51654399372828,35.74506370990323],[138.516839464675,35.74410457723611],[138.51726474554442,35.743665106216525],[138.51755963815853,35.74217767910018],[138.5174402911821,35.74033572764073],[138.51796896179485,35.738578018563025],[138.51979614837302,35.73645661506817],[138.52424417240616,35.73431802538135],[138.5260253929642,35.73284520918189],[138.5260929754887,35.73326347754741],[138.52624616271086,35.73376411618741],[138.5267078888336,35.733987943744516],[138.52747569140718,35.734313100621904],[138.53005934783516,35.735588456640194],[138.53073646399017,35.73606783303687],[138.531185449386,35.73679232107476],[138.53052452464024,35.73785087423387],[138.5307622076683,35.74047130108827],[138.53014237513528,35.74064257142388],[138.52874198232382,35.741171045588246],[138.52755945549245,35.741745928101096],[138.52428694332437,35.7440999783776],[138.52296958246538,35.74502129135897],[138.52149924254053,35.746253162607125],[138.5206383353813,35.74715748284506],[138.51875618341222,35.749328042024246],[138.51738241381727,35.75118654586744]]]},"properties":{"KEY_CODE":"192100190","PREF":"19","CITY":"210","CITY_NAME":"甲斐市","S_NAME":"漆戸","SETAI":"13"}},{"type":"Feature","geometry":{"type":"Polygon","coordinates":[[[138.5339497609041,35.743069942844514],[138.53243631400025,35.743126335107604],[138.53183943590204,35.74241667677301],[138.53169407980337,35.74217165941981],[138.5312969253861,35.741464059682066],[138.53101658949913,35.74094867073646],[138.5307622076683,35.74047130108827],[138.53052452464024,35.73785087423387],[138.531185449386,35.73679232107476],[138.53294383274846,35.73780974842704],[138.53429289771267,35.738620591685134],[138.53686637680715,35.739802873536384],[138.53905590794676,35.740655677954294],[138.5408746746787,35.742066465912885],[138.54079441773476,35.742343234518444],[138.5405819677406,35.74279116251215],[138.5396537531696,35.743463255099655],[138.53822465030763,35.743643281067875],[138.53755782815176,35.74323999566473],[138.5368651481429,35.742963465682145],[138.53601429437785,35.742777817659096],[138.53535327937416,35.74276040700666],[138.53421949692233,35.743031842494986],[138.5339497609041,35.743069942844514]]]},"properties":{"KEY_CODE":"192100200","PREF":"19","CITY":"210","CITY_NAME":"甲斐市","S_NAME":"獅子平","SETAI":"10"}},{"type":"Feature","geometry":{"type":"Polygon","coordinates":[[[138.5300123752578,35.75605339687807],[138.5300186787131,35.75652528312322],[138.52999404625308,35.7568323629168],[138.52989993135483,35.75746195640725],[138.52969314379925,35.75895598936441],[138.52872654907026,35.76045481068799],[138.52777209055748,35.76113103656562],[138.52562931774602,35.761659628924996],[138.52330973662816,35.761123495617426],[138.5181659288144,35.75864784899402],[138.51789702403764,35.75734338605271],[138.51642686134858,35.75696623045498],[138.51581449291893,35.756224644738495],[138.5161685826414,35.754774087949286],[138.51879807030406,35.75314922209115],[138.51890650977825,35.752049828995794],[138.51738241381727,35.75118654586744],[138.51875618341222,35.749328042024246],[138.5206383353813,35.74715748284506],[138.52149924254053,35.746253162607125],[138.52296958246538,35.74502129135897],[138.52428694332437,35.7440999783776],[138.52755945549245,35.741745928101096],[138.52874198232382,35.741171045588246],[138.53014237513528,35.74064257142388],[138.53101658949913,35.74094867073646],[138.5312969253861,35.741464059682066],[138.53169407980337,35.74217165941981],[138.53183943590204,35.74241667677301],[138.53243631400025,35.743126335107604],[138.53236392250273,35.74365871542514],[138.53277644825275,35.74390999944872],[138.532763558389,35.74409379484026],[138.5323409243282,35.744463600802774],[138.53208687299897,35.744788999500706],[138.53158901522326,35.74515248260094],[138.53146209522677,35.74556868132222],[138.5310005246308,35.745877227494745],[138.52942610563548,35.74604027651905],[138.52873339983586,35.746752465293106],[138.52860814282067,35.746945121203574],[138.5279795303361,35.747944716581934],[138.52798897600874,35.74865242697941],[138.52969255380899,35.7498697739699],[138.52983119900182,35.75005872307129],[138.52991609384213,35.750371550309005],[138.52969669386115,35.751130331753906],[138.52926048985802,35.75198632449912],[138.527917465801,35.75450658121785],[138.5276169402657,35.7555239738709],[138.52762282278087,35.755723712992406],[138.52836023249765,35.75632746567524],[138.52892053315514,35.756183683710596],[138.52963025774517,35.75588756724839],[138.52976143076668,35.75589464789698],[138.5300123752578,35.75605339687807]]]},"properties":{"KEY_CODE":"192100210","PREF":"19","CITY":"210","CITY_NAME":"甲斐市","S_NAME":"上菅口","SETAI":"7"}},{"type":"Feature","geometry":{"type":"Polygon","coordinates":[[[138.53638152801165,35.74584299842431],[138.5346774970235,35.74600614688717],[138.5338633937797,35.74657851696181],[138.53292332187334,35.75029295207354],[138.53206269532816,35.751594491873185],[138.52969669386115,35.751130331753906],[138.52991609384213,35.750371550309005],[138.52983119900182,35.75005872307129],[138.52969255380899,35.7498697739699],[138.52798897600874,35.74865242697941],[138.5279795303361,35.747944716581934],[138.52860814282067,35.746945121203574],[138.52873339983586,35.746752465293106],[138.52942610563548,35.74604027651905],[138.5310005246308,35.745877227494745],[138.53146209522677,35.74556868132222],[138.53158901522326,35.74515248260094],[138.53208687299897,35.744788999500706],[138.5323409243282,35.744463600802774],[138.532763558389,35.74409379484026],[138.53277644825275,35.74390999944872],[138.53236392250273,35.74365871542514],[138.53243631400025,35.743126335107604],[138.5339497609041,35.743069942844514],[138.53441423332472,35.74344795919964],[138.53579224390444,35.74488620156565],[138.53614261703459,35.74530226441259],[138.53638152801165,35.74584299842431]]]},"properties":{"KEY_CODE":"192100220","PREF":"19","CITY":"210","CITY_NAME":"甲斐市","S_NAME":"下菅口","SETAI":"4"}},{"type":"Feature","geometry":{"type":"Polygon","coordinates":[[[138.53143008968436,35.759083386740166],[138.53097464275837,35.7591346257792],[138.53018490598458,35.75903355858721],[138.52969314379925,35.75895598936441],[138.52989993135483,35.75746195640725],[138.52999404625308,35.7568323629168],[138.5300186787131,35.75652528312322],[138.5300123752578,35.75605339687807],[138.52976143076668,35.75589464789698],[138.52963025774517,35.75588756724839],[138.52892053315514,35.756183683710596],[138.52836023249765,35.75632746567524],[138.52762282278087,35.755723712992406],[138.5276169402657,35.7555239738709],[138.527917465801,35.75450658121785],[138.52926048985802,35.75198632449912],[138.52969669386115,35.751130331753906],[138.53206269532816,35.751594491873185],[138.53292332187334,35.75029295207354],[138.5338633937797,35.74657851696181],[138.5346774970235,35.74600614688717],[138.53638152801165,35.74584299842431],[138.5368725292011,35.747327952738736],[138.53781524152802,35.74945919880217],[138.53939640279333,35.75208456384632],[138.5399448324372,35.75408072681504],[138.5390744530546,35.75643859901433],[138.53812393946197,35.75732919258048],[138.53520706851174,35.75836410396095],[138.53357285281456,35.758774394607336],[138.53143008968436,35.759083386740166]]]},"properties":{"KEY_CODE":"192100230","PREF":"19","CITY":"210","CITY_NAME":"甲斐市","S_NAME":"安寺","SETAI":"5"}},{"type":"Feature","geometry":{"type":"Polygon","coordinates":[[[138.5314121647341,35.767972679954184],[138.5301640403267,35.76930111633018],[138.52967489322347,35.76980341365068],[138.529041965299,35.77030636789845],[138.52735025472865,35.77048845508727],[138.52683638683035,35.770167457912905],[138.52650935392893,35.769867542910866],[138.52588646775314,35.76941136447811],[138.5243657737607,35.76882438883231],[138.5226570169166,35.76829341224209],[138.5202672558936,35.76812697817377],[138.5193072143972,35.768101804936485],[138.51903264625452,35.76812405420057],[138.51882381309323,35.76789598383341],[138.51943011290356,35.76725403507592],[138.519896928216,35.76552116607759],[138.5204808444989,35.76490079935808],[138.5202506987163,35.76353697184263],[138.5195554113572,35.762701235442385],[138.51814363262716,35.7608777550365],[138.5181659288144,35.75864784899402],[138.52330973662816,35.761123495617426],[138.52562931774602,35.761659628924996],[138.52777209055748,35.76113103656562],[138.52872654907026,35.76045481068799],[138.52969314379925,35.75895598936441],[138.53018490598458,35.75903355858721],[138.53097464275837,35.7591346257792],[138.53143008968436,35.759083386740166],[138.53357285281456,35.758774394607336],[138.53520706851174,35.75836410396095],[138.53812393946197,35.75732919258048],[138.53873463676183,35.75709551192256],[138.53813854860078,35.7582491450109],[138.53641398290574,35.759515082419455],[138.53588283955025,35.7609031755259],[138.53560708960254,35.76204930990513],[138.53542171394656,35.76230392747308],[138.53450109395737,35.76316188751327],[138.53420943807203,35.76363201288703],[138.53370638018595,35.76422577959306],[138.5333161996473,35.76487127128875],[138.53358009764378,35.766097536003585],[138.53297367134002,35.76766944333763],[138.53285057237426,35.76800642956909],[138.53274787996406,35.768174335384806],[138.5322916015712,35.768052160499934],[138.53187432400375,35.767961414696885],[138.5314121647341,35.767972679954184]]]},"properties":{"KEY_CODE":"192100240","PREF":"19","CITY":"210","CITY_NAME":"甲斐市","S_NAME":"神戸","SETAI":"8"}},{"type":"Feature","geometry":{"type":"Polygon","coordinates":[[[138.54469181411554,35.759633157121314],[138.54409187342458,35.75992476559621],[138.5427670139849,35.76031635660829],[138.54152964039724,35.76268270281081],[138.54057973095647,35.76574897009693],[138.54067971841906,35.76703216211782],[138.5408872072126,35.76857500027458],[138.53962532326952,35.76832197446551],[138.5386733255776,35.766261503144584],[138.53862392695774,35.766075615386384],[138.53812590582905,35.765335874184174],[138.5379124035657,35.76521786815842],[138.53754290537995,35.76496470766882],[138.53744661894922,35.76482052129729],[138.53707677026733,35.763869708604254],[138.53709773251785,35.763766046581416],[138.53709510821002,35.76294220727204],[138.53700880560666,35.76285299621682],[138.5367897681818,35.76270254402077],[138.53668467832642,35.76263768549258],[138.53560708960254,35.76204930990513],[138.53588283955025,35.7609031755259],[138.53641398290574,35.759515082419455],[138.53813854860078,35.7582491450109],[138.53873463676183,35.75709551192256],[138.5390744530546,35.75643859901433],[138.5399448324372,35.75408072681504],[138.53939640279333,35.75208456384632],[138.53781524152802,35.74945919880217],[138.5368725292011,35.747327952738736],[138.53638152801165,35.74584299842434],[138.53614261703459,35.74530226441259],[138.53579224390444,35.74488620156565],[138.53441423332472,35.74344795919964],[138.5339497609041,35.743069942844514],[138.53421949692233,35.743031842494986],[138.53535327937416,35.74276040700666],[138.53601429437785,35.742777817659096],[138.5368651481429,35.742963465682145],[138.53755782815176,35.74323999566473],[138.53822465030763,35.743643281067875],[138.5396537531696,35.743463255099655],[138.5405819677406,35.74279116251215],[138.54079441773476,35.742343234518444],[138.5408746746787,35.742066465912885],[138.54088231808157,35.74183619741863],[138.543331437524,35.741150961892494],[138.54370293583344,35.74190378450992],[138.54528386915925,35.74239836246354],[138.54521312476237,35.74327596480292],[138.5477584143186,35.743732583379305],[138.54767918645285,35.7444053091977],[138.5490089765564,35.74544630144724],[138.54979226275665,35.74427815162066],[138.5507969396547,35.74503409590283],[138.55260222900873,35.74543799698053],[138.55249979774422,35.745859771022154],[138.554160618209,35.746497600312246],[138.5564941982765,35.747889093833706],[138.55395332853507,35.74874313086999],[138.5539158368223,35.75131780395089],[138.5532409161857,35.7519510292746],[138.55322841637866,35.75296756409339],[138.55649057550116,35.756083954209316],[138.55767794078457,35.75670891418875],[138.5571279977291,35.7571588417059],[138.55569065695872,35.75770873065954],[138.55573770920842,35.759402704727876],[138.5545657601668,35.75913350357984],[138.55246600246295,35.759483401221615],[138.55080366385246,35.759033400839336],[138.54770399923098,35.75914163987627],[138.54760399902318,35.76013317779188],[138.54571670406938,35.760049807010965],[138.54469181411554,35.759633157121314]]]},"properties":{"KEY_CODE":"192100250","PREF":"19","CITY":"210","CITY_NAME":"甲斐市","S_NAME":"下福沢","SETAI":"27"}},{"type":"Feature","geometry":{"type":"Polygon","coordinates":[[[138.5408872072126,35.76857500027458],[138.54107967575789,35.76982351268789],[138.54015471526984,35.771539983404104],[138.54014676998662,35.77240710376409],[138.5396785123544,35.771974311902],[138.53915893037538,35.77069849902769],[138.5384528542506,35.7700480610848],[138.53661561282607,35.76958388127747],[138.53485105867108,35.76917035369824],[138.5337091632779,35.76864677013589],[138.53306553235535,35.76831739173266],[138.53274787996406,35.768174335384806],[138.53285057237426,35.76800642956909],[138.53297367134002,35.76766944333763],[138.53358009764378,35.766097536003585],[138.5333161996473,35.76487127128875],[138.53370638018595,35.76422577959306],[138.53420943807203,35.76363201288703],[138.53450109395737,35.76316188751327],[138.53542171394656,35.76230392747308],[138.53560708960254,35.76204930990513],[138.53668467832642,35.76263768549258],[138.5367897681818,35.76270254402077],[138.53700880560666,35.76285299621682],[138.53709510821002,35.76294220727204],[138.53709773251785,35.763766046581416],[138.53707677026733,35.763869708604254],[138.53744661894922,35.76482052129729],[138.53754290537995,35.76496470766882],[138.5379124035657,35.76521786815842],[138.53812590582905,35.765335874184174],[138.53862392695774,35.766075615386384],[138.5386733255776,35.766261503144584],[138.53962532326952,35.76832197446551],[138.5408872072126,35.76857500027458]]]},"properties":{"KEY_CODE":"192100260","PREF":"19","CITY":"210","CITY_NAME":"甲斐市","S_NAME":"上福沢","SETAI":"14"}},{"type":"Feature","geometry":{"type":"Polygon","coordinates":[[[138.54019218454528,35.7727315236902],[138.5395300335351,35.77308386109407],[138.5358242101065,35.77372312758168],[138.53397714486178,35.773696960699354],[138.5335006867249,35.773612119415134],[138.53179141329343,35.77304973427501],[138.53103197802466,35.77292883455042],[138.529592436661,35.77301917044184],[138.5281492327016,35.77324349825686],[138.52697649525095,35.77364094540576],[138.52468128890476,35.774027660339854],[138.52285590562894,35.77380239357093],[138.5218863520409,35.77300255408337],[138.52121140254397,35.77186187722084],[138.52094908879465,35.7709944009008],[138.52093909347622,35.770818633402556],[138.52093241052643,35.77063925620625],[138.52095226022854,35.77039408352265],[138.5209555264155,35.77018225814716],[138.52072960257394,35.769979631950974],[138.52046215053159,35.769820903351935],[138.52038581960264,35.76975060388543],[138.5202939941869,35.76965147045619],[138.51997426511483,35.76929187982922],[138.51983930001478,35.76916571293542],[138.51977292369753,35.7691026292237],[138.51965123413154,35.76898728667208],[138.51941337311166,35.768704295952965],[138.51919650635395,35.768332959440436],[138.51903264625452,35.76812405420057],[138.5193072143972,35.768101804936485],[138.5202672558936,35.76812697817377],[138.5226570169166,35.76829341224209],[138.5243657737607,35.76882438883231],[138.52588646775314,35.76941136447811],[138.52650935392893,35.769867542910866],[138.52683638683035,35.770167457912905],[138.52735025472865,35.77048845508727],[138.529041965299,35.77030636789845],[138.52967489322347,35.76980341365068],[138.5301640403267,35.76930111633018],[138.5314121647341,35.767972679954184],[138.53187432400375,35.767961414696885],[138.5322916015712,35.768052160499934],[138.53306553235535,35.76831739173266],[138.5337091632779,35.76864677013589],[138.53485105867108,35.76917035369824],[138.53661561282607,35.76958388127747],[138.5384528542506,35.77004806108478],[138.53915893037538,35.77069849902769],[138.5396785123544,35.771974311902],[138.54016888233252,35.77256504453994],[138.54019218454528,35.7727315236902]]]},"properties":{"KEY_CODE":"192100270","PREF":"19","CITY":"210","CITY_NAME":"甲斐市","S_NAME":"下芦沢","SETAI":"12"}},{"type":"Feature","geometry":{"type":"Polygon","coordinates":[[[138.54821577125827,35.80039495608741],[138.54805438811135,35.80033596017646],[138.54794044621693,35.800361251409086],[138.5465918882277,35.80062408837298],[138.54642258561384,35.80058720856779],[138.54570771329733,35.80038199619459],[138.54537580652314,35.80041549311393],[138.5450151254985,35.80043636110614],[138.5448182210275,35.80049953464249],[138.54435491004318,35.80099005042846],[138.5440872122211,35.80109562445488],[138.54352656823903,35.8016492516538],[138.54336516403978,35.80189538615664],[138.5408589989479,35.80174583450154],[138.54068528323128,35.801740477291084],[138.53933121046438,35.80213666259647],[138.53860520246485,35.801783607665264],[138.5364811455475,35.80241166743367],[138.53580767905848,35.80315910086587],[138.534254394615,35.80360395029359],[138.53403421199,35.80363287113756],[138.5320663740198,35.805263047435986],[138.53186500241802,35.80530276734559],[138.53070543259525,35.80547434669067],[138.53064902308822,35.80553745512249],[138.5291808777631,35.80612461132264],[138.52783784569937,35.80697762434702],[138.52700801595762,35.807197739319754],[138.52568110427507,35.806680712835366],[138.5244038243901,35.805602114563314],[138.52427543932333,35.80551290913326],[138.522884268167,35.80460288013413],[138.52265963387396,35.804564181650115],[138.52182638488864,35.804411129597966],[138.52160618351675,35.804360699462336],[138.5202738436085,35.803844471466384],[138.51908960623888,35.80266214832053],[138.51890590901607,35.80256933597014],[138.51462497758632,35.802377072267674],[138.51417904747268,35.80225635132587],[138.51227471404596,35.80169418407388],[138.51213638189353,35.80157611683572],[138.51198909711343,35.80099300873406],[138.51206540534199,35.80082536470465],[138.51214171525908,35.80066942665916],[138.51225231628987,35.80047384200077],[138.51262726327522,35.799863615849645],[138.5127400841185,35.799704978925774],[138.51347787365637,35.79883063357977],[138.51366148211739,35.798580958223646],[138.51407836361057,35.797558830575326],[138.51406947753517,35.79741011841724],[138.51365544530321,35.79639983262162],[138.5136453302146,35.79572025633799],[138.51381328846358,35.79476034570312],[138.51542843875725,35.793717212274956],[138.515727118721,35.7934855005786],[138.5162569874433,35.79303654059224],[138.5165379544208,35.79277778938498],[138.51759426657676,35.79149856062095],[138.5177369440471,35.791302047697165],[138.51800348647288,35.790900891568924],[138.51819261594312,35.790651168130516],[138.51923770701774,35.78895822002399],[138.51931951933202,35.78872474758692],[138.51951827965215,35.78710676123566],[138.51942087006216,35.78684989102062],[138.5193024038794,35.78642447566517],[138.51931785888152,35.786280253279315],[138.51942730663586,35.785969259411836],[138.51952019381628,35.785808790658415],[138.51977676871417,35.785495057533005],[138.52012737065849,35.78517951016402],[138.52102327687479,35.78461507916642],[138.52127878414936,35.7845050676007],[138.52150885804244,35.7844193906923],[138.52183627195691,35.78431385260625],[138.52562257149833,35.783472070659194],[138.52600001015506,35.78341929167507],[138.5264503141787,35.78352798325672],[138.52639822357625,35.78295337423001],[138.52573313953263,35.780629691966986],[138.525140796233,35.77847499354243],[138.52451757703855,35.777063914319456],[138.52436170795232,35.77650622020269],[138.5240448254793,35.775437309522786],[138.52285590562894,35.77380239357093],[138.52468128890476,35.774027660339854],[138.52697649525095,35.77364094540576],[138.5281492327016,35.77324349825686],[138.529592436661,35.77301917044184],[138.53103197802466,35.77292883455042],[138.53179141329343,35.77304973427501],[138.5335006867249,35.773612119415134],[138.53397714486178,35.773696960699354],[138.5358242101065,35.77372312758168],[138.5395300335351,35.77308386109407],[138.54025816218848,35.77293226490676],[138.54245436770114,35.77576455609092],[138.54294179648338,35.77747270355365],[138.54434160603654,35.779855769659484],[138.54490398261797,35.78212218362251],[138.5450413754444,35.78570512163302],[138.54601602699802,35.78726070765969],[138.5470286781784,35.78857976574472],[138.54855349987045,35.789271356186255],[138.54936590945755,35.790346230445834],[138.55045328370036,35.791962715297466],[138.54980332035632,35.79308757590898],[138.54964079508179,35.79423743328425],[138.54810342467212,35.795395596079324],[138.54731593490354,35.79713702484271],[138.5486407868316,35.798028586927884],[138.54849078177543,35.79902013265057],[138.54821577125827,35.80039495608741]]]},"properties":{"KEY_CODE":"192100280","PREF":"19","CITY":"210","CITY_NAME":"甲斐市","S_NAME":"上芦沢","SETAI":"15"}},{"type":"Feature","geometry":{"type":"Polygon","coordinates":[[[138.55840287347542,35.74763508651612],[138.5564941982765,35.747889093833706],[138.554160618209,35.746497600312246],[138.55249979774422,35.745859771022154],[138.55260222900873,35.74543799698053],[138.5507969396547,35.74503409590283],[138.54979226275665,35.74427815162066],[138.5490089765564,35.74544630144724],[138.54767918645285,35.7444053091977],[138.5477584143186,35.743732583379305],[138.54521312476237,35.74327596480292],[138.54528386915925,35.74239836246354],[138.54370293583344,35.74190378450992],[138.543331437524,35.741150961892494],[138.54088231808157,35.74183619741863],[138.5397260688594,35.74023781431663],[138.5380083602113,35.73891589220311],[138.53647718429085,35.73705309057968],[138.53578099173004,35.73471260590639],[138.53473741199258,35.732562306628644],[138.53536925215582,35.73049184451992],[138.5342892617042,35.72799088626127],[138.53417947926232,35.7260600474065],[138.53326058359713,35.72405338699952],[138.53301589997125,35.72193668066613],[138.53240845110602,35.720411571199485],[138.53078716664524,35.71885507961131],[138.53012049207064,35.71818557623493],[138.52922756316258,35.71568454607496],[138.52911808722226,35.71414239453996],[138.52866645905334,35.712853851002464],[138.5282938513699,35.71136564965266],[138.52721471735063,35.7097265621731],[138.52400682826146,35.70761174517804],[138.52435718578374,35.70724919079549],[138.52616733907197,35.70783110475389],[138.52819186200566,35.70734310507413],[138.5294087791785,35.708752492534025],[138.530533890448,35.70893012650291],[138.53128077807608,35.71075189874],[138.5324381754676,35.711730916371195],[138.53414371016007,35.712093522725226],[138.53543573595059,35.71426081446685],[138.53879770542133,35.71401602906796],[138.54109166955405,35.714171443384274],[138.5420662110561,35.713705097222004],[138.54191607181193,35.71453924703167],[138.54398383113036,35.715701866338065],[138.54435993559753,35.7179589388894],[138.54411535218244,35.71851451384937],[138.5450857939115,35.720979126131894],[138.54617584699238,35.721522651204765],[138.54882527138835,35.72083448285599],[138.54983302692406,35.721669470363885],[138.55018638382526,35.723287325272224],[138.54985147316734,35.72413370546668],[138.54863771017293,35.72459276595957],[138.5487520982066,35.72587151126126],[138.55173697881824,35.72765390241689],[138.55283280665412,35.72862843490284],[138.5522797737617,35.729797502429435],[138.55289071275914,35.73028328606187],[138.55536867687806,35.73028942299782],[138.5561449254455,35.73107166882239],[138.55884024547947,35.732130750688576],[138.56167435224103,35.73350070376458],[138.5612207481601,35.734572849364035],[138.5597210549816,35.734984422292236],[138.56002532735945,35.73595492656223],[138.56179010399515,35.73627373839946],[138.5628458557449,35.735661271565625],[138.56420926320345,35.73819566681598],[138.56399003007402,35.739287922588225],[138.56546057596955,35.74004367856236],[138.56566300910802,35.740107208605664],[138.565130945912,35.74072229389933],[138.5650698879615,35.7409472570066],[138.56502843451383,35.74127781846936],[138.56340247699916,35.74342743638272],[138.5625150410674,35.74397734989068],[138.56251501794162,35.74516886539137],[138.56124011261076,35.74706026043251],[138.56066517603236,35.74724354906871],[138.55840287347542,35.74763508651612]],[[138.5526249232886,35.73318183688111],[138.5520471768478,35.73410104766286],[138.55101645309517,35.7364126201489],[138.55100676316445,35.73743508604957],[138.5515229555903,35.73775345705786],[138.5538291135008,35.738088767220546],[138.55484302387254,35.737803129592265],[138.55574762966896,35.736331559141306],[138.55640907314583,35.73346112421402],[138.55446870915694,35.7328789344724],[138.5538516218099,35.733128489904665],[138.55355870713265,35.733346212866],[138.5532189153787,35.73329777136852],[138.5526249232886,35.73318183688111]]]},"properties":{"KEY_CODE":"192100290","PREF":"19","CITY":"210","CITY_NAME":"甲斐市","S_NAME":"吉沢","SETAI":"117"}},{"type":"Feature","geometry":{"type":"Polygon","coordinates":[[[138.55100676316445,35.73743508604957],[138.55101645309517,35.7364126201489],[138.5520471768478,35.73410104766286],[138.5526249232886,35.73318183688111],[138.5532189153787,35.73329777136852],[138.55355870713265,35.733346212866],[138.5538516218099,35.733128489904665],[138.55446870915694,35.7328789344724],[138.55640907314583,35.73346112421402],[138.55574762966896,35.736331559141306],[138.55484302387254,35.737803129592265],[138.5538291135008,35.73808876722053],[138.5515229555903,35.73775345705786],[138.55100676316445,35.73743508604957]]]},"properties":{"KEY_CODE":"192100300","PREF":"19","CITY":"210","CITY_NAME":"甲斐市","S_NAME":"千田","SETAI":"4"}},{"type":"Feature","geometry":{"type":"Polygon","coordinates":[[[138.51182316764863,35.69141175620617],[138.5091275508158,35.69224682463983],[138.50640029750357,35.69236066652669],[138.50417792375777,35.69199518333208],[138.50052370889773,35.69192663535941],[138.49915321165147,35.69186340409237],[138.49793200091636,35.691677344844116],[138.4949649151631,35.69099169178847],[138.49432427868558,35.68977573410499],[138.4928836914502,35.689493467063336],[138.49268774243404,35.687860875001],[138.4939377113294,35.686674986719865],[138.4960361385317,35.687037808617596],[138.49857935891976,35.68557991575657],[138.50221946005965,35.682849774086776],[138.50372197009528,35.68357831231896],[138.50524488469748,35.68242489651069],[138.5051706174633,35.68045480259415],[138.50507184005747,35.680165178198855],[138.5053737917578,35.67992435949826],[138.5089467590238,35.67870182414049],[138.51090869911593,35.678312455255025],[138.51454297150715,35.6764865629974],[138.5176072283872,35.67608971752781],[138.5177433703014,35.67531034449754],[138.51916888714138,35.6750164120428],[138.51822944329146,35.67591944896776],[138.51837647505758,35.677260074987146],[138.51861799731788,35.679450740033474],[138.51798965902367,35.68008778131303],[138.51750696914266,35.68327886378055],[138.5178809229026,35.68507168515989],[138.516434595926,35.68514212721854],[138.5165397881762,35.68611937504182],[138.51374574421533,35.685823253621315],[138.51335938921463,35.688081198642216],[138.5135099062307,35.689919941824414],[138.51182316764863,35.69141175620617]]]},"properties":{"KEY_CODE":"192100310","PREF":"19","CITY":"210","CITY_NAME":"甲斐市","S_NAME":"龍地","SETAI":"2233"}},{"type":"Feature","geometry":{"type":"Polygon","coordinates":[[[138.51334955574063,35.715685060696124],[138.51110780146382,35.71574629787919],[138.51032696795536,35.71692388646719],[138.50643463454585,35.7156560535687],[138.50408666745707,35.71389461626146],[138.5033655166686,35.71429610478254],[138.50301641358334,35.71398605542733],[138.5025221930907,35.71325089875147],[138.50222853461338,35.71293000025091],[138.50187756972713,35.71237570481911],[138.50197425734146,35.7121539738708],[138.50177370546177,35.71129626099931],[138.5015584872465,35.71106141045427],[138.50025183970598,35.70988907499306],[138.49997312548408,35.70973125991758],[138.49898871229797,35.7091998404355],[138.4987060406847,35.70901304500657],[138.49849568279592,35.7066492874784],[138.49807985283172,35.70686677519281],[138.49802081716263,35.70692532750596],[138.4982713240433,35.70605943878844],[138.4973893611081,35.70496284430127],[138.49750344428065,35.70478007568648],[138.49750520043457,35.70397615930493],[138.49918216681905,35.70372851555601],[138.4990757434468,35.70186456810543],[138.49891740542049,35.70184010000123],[138.4985748318046,35.70067015355877],[138.4984669975726,35.70055671198774],[138.49752028725453,35.698774418623174],[138.4975984273079,35.69715995399247],[138.49606450657666,35.69638698947101],[138.4965041663388,35.69436508222114],[138.49793200091636,35.691677344844116],[138.49915321165147,35.69186340409237],[138.50052370889773,35.69192663535941],[138.50417792375777,35.69199518333208],[138.50640029750357,35.69236066652669],[138.50631751059436,35.693859633060924],[138.50681742578132,35.69432949163346],[138.50677595179445,35.694420334796675],[138.506654158595,35.695041433868404],[138.5080359505266,35.69677358679175],[138.5113115370491,35.6989523243502],[138.51238611371602,35.69937998495877],[138.51282816573482,35.69980560655384],[138.51340638752598,35.70064209684441],[138.51482456235914,35.70275282090554],[138.51442315419902,35.70768902422838],[138.51512083362445,35.70973047973747],[138.51328423259937,35.710578887259416],[138.51298173066957,35.71265563526634],[138.5134095764487,35.71358307596325],[138.51334955574063,35.715685060696124]]]},"properties":{"KEY_CODE":"192100320","PREF":"19","CITY":"210","CITY_NAME":"甲斐市","S_NAME":"大垈","SETAI":"586"}},{"type":"Feature","geometry":{"type":"Polygon","coordinates":[[[138.51423437268988,35.721740185963974],[138.51380593883496,35.72386652100857],[138.51500232941507,35.72536813281998],[138.51591320788847,35.72828543404063],[138.514186103838,35.72845466343778],[138.51387515218653,35.729688422124696],[138.51288980375944,35.73037298168471],[138.51251646426272,35.73095609977472],[138.5115385560679,35.73083707383926],[138.51208848918233,35.72988806686002],[138.51144954189064,35.72921625918402],[138.51049262271496,35.7273182959309],[138.50944845397876,35.727465456306355],[138.50825781089733,35.72409724429269],[138.50557534410564,35.722238101043615],[138.50372025732588,35.721586101510844],[138.50327188243995,35.72078077425984],[138.49973515155867,35.717394697160174],[138.49877622948475,35.716747802087475],[138.49747897405484,35.714864072441536],[138.4972792425933,35.71371672783366],[138.49540412652195,35.70987803554456],[138.49511335165857,35.706068897531544],[138.49156993735204,35.701904680687036],[138.4907919813677,35.701330712075],[138.49049315426302,35.701118108839694],[138.4927618957135,35.69930584868782],[138.4938216204597,35.69736623376865],[138.49551608100842,35.69674330234949],[138.49691973292096,35.69745595814513],[138.4975984273079,35.69715995399247],[138.49752028725453,35.698774418623174],[138.4984669975726,35.70055671198774],[138.4985748318046,35.70067015355877],[138.49891740542049,35.70184010000123],[138.4990757434468,35.70186456810543],[138.49918216681905,35.70372851555601],[138.49750520043457,35.70397615930493],[138.49750344428065,35.70478007568648],[138.4973893611081,35.70496284430127],[138.4982713240433,35.70605943878844],[138.49802081716263,35.70692532750596],[138.49807985283172,35.70686677519281],[138.49849568279592,35.7066492874784],[138.4987060406847,35.70901304500657],[138.49898871229797,35.7091998404355],[138.49997312548408,35.70973125991758],[138.50025183970598,35.70988907499306],[138.5015584872465,35.71106141045427],[138.50177370546177,35.71129626099931],[138.50197425734146,35.7121539738708],[138.50187756972713,35.71237570481911],[138.50222853461338,35.71293000025091],[138.5025221930907,35.71325089875147],[138.50301641358334,35.71398605542733],[138.5033655166686,35.71429610478254],[138.50408666745707,35.71389461626146],[138.50643463454585,35.7156560535687],[138.51032696795536,35.71692388646719],[138.51110780146382,35.71574629787919],[138.51334955574063,35.715685060696124],[138.51331598845312,35.71589415341963],[138.51161083333795,35.71753480619316],[138.51423437268988,35.721740185963974]]]},"properties":{"KEY_CODE":"192100330","PREF":"19","CITY":"210","CITY_NAME":"甲斐市","S_NAME":"団子新居","SETAI":"325"}},{"type":"Feature","geometry":{"type":"Polygon","coordinates":[[[138.4907919813677,35.701330712075],[138.49156993735204,35.701904680687036],[138.49511335165857,35.706068897531544],[138.49540412652195,35.70987803554456],[138.4972792425933,35.71371672783366],[138.49747897405484,35.714864072441536],[138.49877622948475,35.716747802087475],[138.49973515155867,35.717394697160174],[138.50327188243995,35.72078077425984],[138.50372025732588,35.721586101510844],[138.50557534410564,35.722238101043615],[138.50825781089733,35.72409724429269],[138.50944845397876,35.727465456306355],[138.50922120361776,35.72749420719628],[138.50789413041693,35.72667075387507],[138.50578903253412,35.725495479662335],[138.5052365238155,35.72509018995846],[138.5047282032553,35.72457680502161],[138.50448509218648,35.72436964989579],[138.50362321295344,35.72383826942097],[138.5020872968715,35.72259533860287],[138.50177791021616,35.72225306677413],[138.50159005262068,35.72191080878719],[138.498275365294,35.72087503805011],[138.4980267762213,35.720149949148144],[138.49618159528774,35.7211947674709],[138.49564570667582,35.72132986726173],[138.49499939232493,35.72053270445798],[138.4945353647052,35.72004179085421],[138.494255652718,35.7199072294383],[138.49339075217694,35.71942474748896],[138.49208214302212,35.71778252073642],[138.49185456429794,35.71746705790208],[138.4915570578099,35.717162292888744],[138.49144881700553,35.71711848760771],[138.49089867372555,35.71690105795598],[138.49022605767288,35.71564794397815],[138.4899258979573,35.715012955299215],[138.48961865478051,35.71483666245685],[138.48895865204662,35.714548993788746],[138.4868991125571,35.71304582106369],[138.48614816417924,35.712387033526134],[138.48521802296284,35.7114478780878],[138.4849892914577,35.71114941195143],[138.48395744065166,35.71003842392077],[138.4839371163797,35.70999282692988],[138.48427811859858,35.709228537005224],[138.4859115487201,35.70765607082838],[138.48630785502107,35.706453504237544],[138.48742783777945,35.70523099891134],[138.48795585377033,35.70412156031914],[138.4907919813677,35.701330712075]]]},"properties":{"KEY_CODE":"192100340","PREF":"19","CITY":"210","CITY_NAME":"甲斐市","S_NAME":"菖蒲沢","SETAI":"71"}},{"type":"Feature","geometry":{"type":"Polygon","coordinates":[[[138.4928836914502,35.689493467063336],[138.4912454657616,35.688634091295995],[138.4906803716246,35.68899295638489],[138.48931149692044,35.68782555104905],[138.48803762845955,35.687439080553965],[138.48561378896073,35.68952622226472],[138.48447124591462,35.68887107703272],[138.4848103610543,35.68743585606906],[138.4862998040486,35.68468950283831],[138.48551644419095,35.68351470135595],[138.48295535717125,35.68241545146997],[138.48244771945878,35.68130212791297],[138.4803356784818,35.67974721670282],[138.4832344842785,35.67792298782849],[138.4856034370447,35.67673648290134],[138.48742607261488,35.67656478840718],[138.4893763781847,35.67642261510653],[138.4914436374072,35.67585110859752],[138.49370431305735,35.674870088850234],[138.49688627319966,35.67282117045102],[138.50293485037943,35.67543566034808],[138.5046881397787,35.67543555860874],[138.50486399559284,35.67693872753777],[138.5053737917578,35.67992435949826],[138.50507184005747,35.680165178198855],[138.5051706174633,35.68045480259415],[138.50524488469748,35.68242489651069],[138.50372197009528,35.68357831231896],[138.50221946005965,35.682849774086776],[138.49857935891976,35.68557991575657],[138.4960361385317,35.687037808617596],[138.4939377113294,35.686674986719865],[138.49268774243404,35.687860875001],[138.4928836914502,35.689493467063336]]]},"properties":{"KEY_CODE":"192100350","PREF":"19","CITY":"210","CITY_NAME":"甲斐市","S_NAME":"下今井","SETAI":"1174"}},{"type":"Feature","geometry":{"type":"Polygon","coordinates":[[[138.48742783777945,35.70523099891134],[138.48564978967283,35.70379061372324],[138.48517129264522,35.70177705515065],[138.48361093840384,35.69926028413556],[138.482145497029,35.6945525451102],[138.4808235758088,35.69273771589722],[138.48353520279184,35.69160777265036],[138.48436602473055,35.69041631349452],[138.48561378896073,35.68952622226472],[138.48803762845955,35.687439080553965],[138.48931149692044,35.68782555104905],[138.4906803716246,35.68899295638489],[138.4912454657616,35.688634091295995],[138.4928836914502,35.689493467063336],[138.49432427868558,35.68977573410499],[138.4949649151631,35.69099169178847],[138.49793200091636,35.691677344844116],[138.4965041663388,35.69436508222114],[138.49606450657666,35.69638698947101],[138.4975984273079,35.69715995399247],[138.49691973292096,35.69745595814513],[138.49551608100842,35.69674330234949],[138.4938216204597,35.69736623376865],[138.4927618957135,35.69930584868782],[138.49049315426302,35.701118108839694],[138.4907919813677,35.701330712075],[138.48795585377033,35.70412156031914],[138.48742783777945,35.70523099891134]]]},"properties":{"KEY_CODE":"192100360","PREF":"19","CITY":"210","CITY_NAME":"甲斐市","S_NAME":"岩森","SETAI":"698"}},{"type":"Feature","geometry":{"type":"Polygon","coordinates":[[[138.48561378896073,35.68952622226472],[138.48436602473055,35.69041631349452],[138.48353520279184,35.69160777265036],[138.4808235758088,35.69273771589722],[138.47923008642093,35.69175187636892],[138.4795906188817,35.68951571294034],[138.4802399906702,35.68743321039901],[138.4814232450227,35.685471754496064],[138.4810737114562,35.68408694571587],[138.48235126992992,35.68340141690584],[138.48295535717125,35.68241545146997],[138.48551644419095,35.68351470135595],[138.4862998040486,35.68468950283831],[138.4848103610543,35.68743585606906],[138.48447124591462,35.68887107703272],[138.48561378896073,35.68952622226472]]]},"properties":{"KEY_CODE":"192100370","PREF":"19","CITY":"210","CITY_NAME":"甲斐市","S_NAME":"志田","SETAI":"269"}},{"type":"Feature","geometry":{"type":"Polygon","coordinates":[[[138.48170216706384,35.717488544426025],[138.48207071445978,35.718061383790555],[138.4820149613453,35.71823041078737],[138.48197460845935,35.71844675930126],[138.48094769802267,35.71974284424623],[138.4800354137192,35.71756942182016],[138.47880459086576,35.71698502345912],[138.47455911307367,35.71856315134201],[138.4726539170764,35.71587721863296],[138.4707189129163,35.71337052869368],[138.46858315681027,35.71220026580316],[138.4691620192569,35.71087192573647],[138.46832157630956,35.70893267512909],[138.46741367586355,35.707865011435594],[138.46750476319232,35.70721384011066],[138.46648128913344,35.70547964519948],[138.46600321346014,35.70387757863804],[138.46614091905624,35.70301525650168],[138.46790861991585,35.699665275707396],[138.46784161619624,35.69880751153757],[138.46888687390478,35.69740802254768],[138.47058979782506,35.69425296574381],[138.47220013406033,35.69148304433171],[138.46894850724837,35.6897882559894],[138.47287733278696,35.68724838538071],[138.47466636505303,35.68521065369544],[138.4803356784818,35.67974721670282],[138.48244771945878,35.68130212791297],[138.48295535717125,35.68241545146997],[138.48235126992992,35.68340141690584],[138.4810737114562,35.68408694571587],[138.4814232450227,35.685471754496064],[138.4802399906702,35.68743321039901],[138.4795906188817,35.68951571294034],[138.47923008642093,35.69175187636892],[138.4808235758088,35.69273771589722],[138.482145497029,35.6945525451102],[138.48361093840384,35.69926028413556],[138.48517129264522,35.70177705515065],[138.48564978967283,35.70379061372324],[138.48742783777945,35.70523099891134],[138.48630785502107,35.706453504237544],[138.4859115487201,35.70765607082838],[138.48427811859858,35.709228537005224],[138.4839371163797,35.70999282692988],[138.48382703780118,35.71080020453257],[138.48339107145065,35.71340686093083],[138.48249247680286,35.713748663911375],[138.48216057437236,35.71371191264951],[138.48194726839895,35.71342211836977],[138.48148972029054,35.71337568318282],[138.48186663832757,35.71353607584169],[138.48199104084526,35.71382297101301],[138.4828669969228,35.71404814418498],[138.4824709380283,35.714689460642205],[138.4819006596366,35.71513272133037],[138.48211988961248,35.71545439839695],[138.4825264379975,35.71568337968783],[138.48252404632046,35.71578576548065],[138.48203685853952,35.715690069767426],[138.48160645244795,35.716133366663186],[138.48185648037276,35.71656901676711],[138.4819323334575,35.71663470884111],[138.4822391554275,35.717570728970266],[138.48170216706384,35.717488544426025]]]},"properties":{"KEY_CODE":"192100380","PREF":"19","CITY":"210","CITY_NAME":"甲斐市","S_NAME":"宇津谷","SETAI":"906"}}]}