{"type":"FeatureCollection","features":[{"type":"Feature","geometry":{"type":"Polygon","coordinates":[[[138.87768110809333,35.484692207428886],[138.87675620438444,35.48580868203298],[138.8744814083249,35.485700256591734],[138.87255656820676,35.486441720889744],[138.87180662747156,35.48628335868284],[138.86999429183996,35.48584173829023],[138.86710705814627,35.48520849753013],[138.86614464079315,35.485075177749145],[138.86596892683454,35.4849553330708],[138.8658249239184,35.48479444160848],[138.86574842416405,35.48470003157255],[138.8656297741642,35.48453814754994],[138.86567768679998,35.48344463999958],[138.86566722751505,35.48333200131726],[138.86552709306446,35.48256538820078],[138.86552303290168,35.482402238922184],[138.8655302980863,35.48230577786762],[138.86552828854576,35.482101181801724],[138.86537384128798,35.48182941072071],[138.8653236755643,35.48170337196527],[138.8652912791768,35.481603439375334],[138.86523433179286,35.48144407818809],[138.8649426257365,35.48054268119765],[138.8636417830928,35.480198674742724],[138.86152307795422,35.47882595118961],[138.86118115822305,35.47875757654825],[138.85992505946962,35.478541410496376],[138.85976743906915,35.47853466273489],[138.85955479729375,35.47854522666873],[138.85941603415299,35.47855824495248],[138.85930474296043,35.47856400013558],[138.8591867715698,35.47854900141435],[138.85858218369066,35.47839489772426],[138.85840050755317,35.47842878343584],[138.85810216545826,35.4784990725051],[138.85799097734161,35.47851834757884],[138.8578961977755,35.47852042522873],[138.85771224591534,35.47853628967357],[138.85608800537287,35.47805888052069],[138.85598909250746,35.477871681715804],[138.85564374091612,35.47702992309435],[138.85561137586166,35.47693900208722],[138.85551963205236,35.476625588801106],[138.85545197931708,35.47653202567778],[138.85500223068732,35.476247626131254],[138.85492921141008,35.47618115423505],[138.854700687436,35.475836595831254],[138.85466180840928,35.47576639638035],[138.8545200462213,35.475359400828665],[138.8543224224835,35.47420949976501],[138.85576545040777,35.471825800879934],[138.85522375061007,35.4672031845588],[138.85450391120003,35.46636864477198],[138.85382681882484,35.46432402127153],[138.8507463171844,35.46408019810247],[138.84896117342413,35.4645011619788],[138.84850451207276,35.464086017451606],[138.8507344965853,35.462893764487106],[138.85202913300932,35.46275563873323],[138.85137025598007,35.45854115295716],[138.8509347240575,35.45817898024962],[138.85198815002022,35.45745019933809],[138.85176950901342,35.45631689412771],[138.850070706966,35.45707187652681],[138.849624262329,35.4565971289862],[138.85318236330886,35.45536677974245],[138.85372802039214,35.45497325845792],[138.86471949998275,35.4500313006901],[138.86361744238354,35.44784961854629],[138.86187002622867,35.44789735009037],[138.85766025664677,35.44561182713678],[138.85780375895683,35.44416109605191],[138.8585789155181,35.44301288134751],[138.862924403776,35.43881667491711],[138.86554799581174,35.43716899142095],[138.86707964352303,35.43710534804088],[138.8710642527226,35.43958063522651],[138.87186110150128,35.43989802094761],[138.8783099645495,35.43951764087651],[138.87935647600438,35.438906432426364],[138.8811216275641,35.439567761190304],[138.88387791382155,35.43994097951263],[138.88600851874625,35.43982385378653],[138.88863513828895,35.44036988642078],[138.8903540969854,35.44174322124291],[138.89315778346204,35.442488803444334],[138.89325864527305,35.44369961858873],[138.89497620126866,35.445144268037986],[138.89539120553252,35.44691303594249],[138.89732956397395,35.44785568771899],[138.89848156960983,35.44915130035074],[138.90132900640933,35.45051386954201],[138.8984294749637,35.45208012286964],[138.89610477455818,35.45393812412418],[138.8945048752847,35.45431306664486],[138.89231746884207,35.457454388638034],[138.89137997064472,35.459695795924226],[138.8914299035253,35.460729002750384],[138.89017994831633,35.46259544773339],[138.88868008828265,35.46364529369778],[138.88795513272336,35.464695131327026],[138.88608026500378,35.46536998848853],[138.88260555328367,35.468227877480274],[138.88443030130853,35.47131087104669],[138.8845803140886,35.47309396637773],[138.88379294030443,35.476168590746674],[138.88288051709713,35.47746007021063],[138.8827680477189,35.4790598402187],[138.88223063557123,35.47992636596021],[138.88090579786896,35.481876060849594],[138.87991837418423,35.482500962338314],[138.87768110809333,35.484692207428886]]]},"properties":{"KEY_CODE":"194240010","PREF":"19","CITY":"424","CITY_NAME":"忍野村","S_NAME":"内野","SETAI":"866"}},{"type":"Feature","geometry":{"type":"Polygon","coordinates":[[[138.81846327071355,35.47607926710696],[138.81736801282452,35.47585135265777],[138.81555717375525,35.476383584199844],[138.8153528222925,35.47572138109721],[138.81551713785686,35.47489867562972],[138.8144139780193,35.47178999478523],[138.81414858239907,35.469198523088046],[138.81456187713363,35.46669068744941],[138.81279088812005,35.46375407757163],[138.81274779715127,35.46174322400885],[138.8114810058257,35.46093885062421],[138.81128586103628,35.46090601013092],[138.81088363714943,35.46088088620344],[138.81048355404891,35.46083596628518],[138.8064027873501,35.45851088843816],[138.80676769530706,35.457136282556476],[138.80645892635158,35.45619333270273],[138.80700629309746,35.45658432428301],[138.80913717821494,35.456163665811374],[138.8107205220874,35.45475123731403],[138.812995620322,35.45350188779944],[138.81457057096588,35.45228615880762],[138.8153007769886,35.450926462088866],[138.8179762303168,35.449814393625395],[138.81973688243173,35.44865557098393],[138.8207334205313,35.44841005274694],[138.8236919498833,35.446910249929054],[138.82663657272226,35.444568154337816],[138.8314363152625,35.44206510365022],[138.83387457046274,35.44038936357867],[138.83834799894598,35.44328898257385],[138.8395845732507,35.443708945898884],[138.84719148849055,35.44555203664011],[138.84698029948706,35.447547889824605],[138.84765049066323,35.448436386650904],[138.8479082076463,35.4487501742075],[138.84789893579824,35.44956791809353],[138.84726388171225,35.4501830701415],[138.84722639048536,35.4504033119565],[138.84722829870418,35.45084360623047],[138.84796597436434,35.45171687261176],[138.84810338301565,35.45310558093527],[138.8494529070429,35.45390894465829],[138.84984796980356,35.45557992941476],[138.849624262329,35.4565971289862],[138.850070706966,35.45707187652681],[138.85176950901342,35.45631689412771],[138.85198815002022,35.45745019933809],[138.8509347240575,35.45817898024962],[138.85137025598007,35.45854115295716],[138.85202913300932,35.46275563873323],[138.8507344965853,35.462893764487106],[138.84850451207276,35.464086017451606],[138.84896117342413,35.4645011619788],[138.8507463171844,35.46408019810247],[138.85382681882484,35.46432402127153],[138.85450391120003,35.46636864477198],[138.85522375061007,35.4672031845588],[138.85576545040777,35.471825800879934],[138.8543224224835,35.47420949976501],[138.8545200462213,35.475359400828665],[138.85184281653528,35.47471555708761],[138.8517446574909,35.47469693673977],[138.85144822749385,35.47444541681141],[138.85002219784218,35.47390782737279],[138.84934169333673,35.47275603484162],[138.8468892572015,35.47131998684998],[138.84562459199688,35.47164001228133],[138.84523153441916,35.4717168392969],[138.84403296874245,35.47204208268009],[138.84392931821995,35.472020722887535],[138.84359283233883,35.47192523907702],[138.8432309289999,35.471814510494774],[138.84309963507084,35.47177611620629],[138.84298271803306,35.47174761140545],[138.84178915921785,35.4722907714766],[138.84106274752037,35.47215416648272],[138.84091270139282,35.47210860457789],[138.84065449691454,35.472024617067895],[138.83998622092446,35.47189847439389],[138.83974908838923,35.47184505818765],[138.8396375982739,35.471796710155445],[138.83956235538065,35.471724810417776],[138.83880132412614,35.471026573140705],[138.8387203344555,35.470897894172275],[138.83816556455074,35.470509138379505],[138.83791389129405,35.47040530263025],[138.8360071751195,35.46923790687245],[138.83589246104756,35.46921026963742],[138.83466297017904,35.469513844458966],[138.834354521512,35.469530929962175],[138.8341728856651,35.46954107952043],[138.83405930796553,35.469553365230894],[138.8316691533126,35.46896415628737],[138.83068659964897,35.46930486218833],[138.83039984592006,35.469504829042606],[138.82927388837282,35.47007668446016],[138.8290117898093,35.47011436965817],[138.82867721823894,35.47020629868806],[138.8285197763939,35.4702391908063],[138.82716917251437,35.47030774568049],[138.82672383877704,35.470534298508156],[138.82544257973777,35.47140129716017],[138.82513520720107,35.47168606350094],[138.8249515083746,35.471767682844636],[138.82460489563144,35.471886675958636],[138.82395552414718,35.47207052734046],[138.8236020405076,35.47212464146776],[138.82294208532667,35.47268977782441],[138.8228447271078,35.472867605630825],[138.82261617561954,35.47330268165454],[138.8224860175989,35.47354460926619],[138.82235538546837,35.473663054438994],[138.821995954754,35.47388936089055],[138.819614214966,35.47541363862878],[138.81955268454033,35.4754570758603],[138.81846327071355,35.47607926710696]]]},"properties":{"KEY_CODE":"194240020","PREF":"19","CITY":"424","CITY_NAME":"忍野村","S_NAME":"忍草","SETAI":"2623"}}]}