{"type":"FeatureCollection","features":[{"type":"Feature","geometry":{"type":"Polygon","coordinates":[[[138.86554799581174,35.43716899142095],[138.862924403776,35.43881667491711],[138.8585789155181,35.44301288134751],[138.85780375895683,35.44416109605191],[138.85766025664677,35.44561182713678],[138.86187002622867,35.44789735009037],[138.86361744238354,35.44784961854629],[138.86471949998275,35.4500313006901],[138.85372802039214,35.45497325845792],[138.85318236330886,35.45536677974245],[138.849624262329,35.4565971289862],[138.84984796980356,35.45557992941476],[138.8494529070429,35.45390894465829],[138.84810338301565,35.45310558093527],[138.84796597436434,35.45171687261176],[138.84722829870418,35.45084360623047],[138.84722639048536,35.4504033119565],[138.84726388171225,35.4501830701415],[138.84789893579824,35.44956791809353],[138.8479082076463,35.4487501742075],[138.84765049066323,35.448436386650904],[138.84698029948706,35.447547889824605],[138.84719148849055,35.44555203664011],[138.8395845732507,35.443708945898884],[138.83834799894598,35.44328898257385],[138.83387457046274,35.44038936357867],[138.8314363152625,35.44206510365022],[138.82663657272226,35.444568154337816],[138.8236919498833,35.446910249929054],[138.8207334205313,35.44841005274694],[138.81973688243173,35.44865557098393],[138.8179762303168,35.449814393625395],[138.8153007769886,35.450926462088866],[138.81457057096588,35.45228615880762],[138.812995620322,35.45350188779944],[138.8107205220874,35.45475123731403],[138.80913717821494,35.456163665811374],[138.80700629309746,35.45658432428301],[138.80645892635158,35.45619333270273],[138.80657654069307,35.45556876178772],[138.80649417880528,35.45262601918591],[138.8073487884065,35.452809086663564],[138.80832503942162,35.45498574518397],[138.80914882168477,35.45516881083481],[138.80991181442585,35.454131469719144],[138.80954576472504,35.45223948826982],[138.81011263394882,35.451838615771536],[138.81036958204947,35.450022331154834],[138.81003383021823,35.44713384538487],[138.81028295094077,35.44509931302319],[138.80918620608634,35.44303860257268],[138.8094577641597,35.440847454865484],[138.80954930757775,35.43962347928024],[138.80861324267917,35.43901083397752],[138.80733221414178,35.43903409717389],[138.8054555458148,35.44016453694986],[138.80505396966305,35.4412827492508],[138.80412924161456,35.441562214011036],[138.80373253888598,35.44261044862036],[138.80295194841298,35.44245727548544],[138.80273210326976,35.43825873598064],[138.80731812268814,35.43687149462263],[138.83123114709377,35.42989622674353],[138.8336239636554,35.42923772288684],[138.8363487310616,35.426341778198115],[138.83401395516324,35.424793662014785],[138.83296494724974,35.42194128513015],[138.83153101059105,35.41988830060288],[138.8309528726395,35.418517244178055],[138.830071669376,35.41648306806561],[138.82847346762742,35.41236400442871],[138.82846815261698,35.411875272818406],[138.84497618958798,35.402809547549474],[138.85148315635024,35.39903690897904],[138.85308105721427,35.39838155663844],[138.86370569109448,35.3933268010608],[138.86295211621353,35.39456813172559],[138.86349016784888,35.398669860249946],[138.8647841221273,35.40218212694758],[138.86448959832373,35.40517551722214],[138.86348174131032,35.40669927450267],[138.86076388084226,35.40970351876123],[138.8622168018303,35.410178433391025],[138.86171326496935,35.41180966610942],[138.85770595795864,35.4162195900324],[138.85398847866372,35.41968082517241],[138.8500594668186,35.423006017950364],[138.84929526420996,35.424580836061544],[138.85014719183607,35.4270526789296],[138.8514598741326,35.428654272565886],[138.85419678886853,35.4294132290732],[138.85619413431644,35.42935607532887],[138.85889201121373,35.4287493295073],[138.8579507377775,35.43056271407208],[138.85831144415656,35.43182883631635],[138.85712036387568,35.43316076154575],[138.85642887020427,35.433350229960794],[138.85803653325215,35.434913028989705],[138.86092994865555,35.434944277320234],[138.86217350597278,35.43622202413679],[138.8636406340854,35.43634572347256],[138.86554799581174,35.43716899142095]]]},"properties":{"KEY_CODE":"194250010","PREF":"19","CITY":"425","CITY_NAME":"山中湖村","S_NAME":"山中","SETAI":"1033"}},{"type":"Feature","geometry":{"type":"Polygon","coordinates":[[[138.93066067385396,35.452775893168436],[138.92965306145004,35.45330977077667],[138.9287753294474,35.453880185766806],[138.9271542923625,35.45422130873323],[138.92539086865276,35.45501186404473],[138.925284632761,35.45602602515342],[138.9240007040439,35.4582142654583],[138.92205096978023,35.45797251822194],[138.92045120122134,35.45663926302766],[138.91790154361914,35.45533926715301],[138.91702669025386,35.45439767871773],[138.91367716397426,35.45263934195776],[138.91182745161206,35.452955853299116],[138.91049013767017,35.451347650602365],[138.90797800533204,35.4504309747001],[138.9057033597132,35.45185560186734],[138.90274131147493,35.45196375444693],[138.90132900640933,35.45051386954201],[138.89848156960983,35.44915130035074],[138.89732956397395,35.44785568771899],[138.89539120553252,35.44691303594249],[138.89497620126866,35.445144268037986],[138.89325864527305,35.44369961858873],[138.89315778346204,35.442488803444334],[138.8903540969854,35.44174322124291],[138.88863513828895,35.44036988642078],[138.88600851874625,35.43982385378653],[138.88775825730428,35.438906436420396],[138.88784166632175,35.435665346245635],[138.8868266561969,35.431094077622454],[138.8856403031525,35.42945306112859],[138.88567569938994,35.42677941521576],[138.88653343474448,35.42499467518129],[138.8881442403191,35.42343052893208],[138.8861201893289,35.42183441742412],[138.88978940865456,35.42179712717221],[138.89257143055679,35.422168676909315],[138.89639870428275,35.42398597660482],[138.89601030625226,35.424193153886755],[138.89360015675874,35.423268767255365],[138.8927583857592,35.42454865513328],[138.89361839058978,35.42603459336379],[138.89458084416378,35.4265937252847],[138.89565669355346,35.428683849063226],[138.89659345437508,35.42902295544883],[138.89844048737717,35.42872693125948],[138.89991347477695,35.42739683757699],[138.90164664656945,35.42477978366367],[138.9018178373279,35.42120921734181],[138.90066503636075,35.420806427635036],[138.89948997215208,35.41910769346198],[138.9000145174664,35.418641892680235],[138.9030802327742,35.417437574301],[138.9035916045344,35.413389037202265],[138.9054319176085,35.410386664708675],[138.90458082907412,35.40997889548981],[138.90606113661482,35.40882492056531],[138.90708781042343,35.40863441756079],[138.90930232294642,35.407428617594675],[138.91326909538608,35.40575735128341],[138.91576181728007,35.40507046739139],[138.91653398099336,35.407757814123315],[138.917935820567,35.41025714029679],[138.9179667057888,35.41118718082332],[138.9200092989415,35.41225415646635],[138.92115434475127,35.41245130212648],[138.92239769242855,35.41349028952355],[138.92566839947332,35.4150023027342],[138.9268050790633,35.41829305812007],[138.92728580893916,35.42047397975511],[138.92877810109087,35.420950346653804],[138.93033627481566,35.42049897053144],[138.9301223434704,35.423760396860665],[138.93094101114784,35.426092408346896],[138.92992381471717,35.42806876226349],[138.92694105634519,35.430443488213875],[138.92623580649212,35.43270195408753],[138.92728921653776,35.43332279213077],[138.92818550375452,35.43556888593796],[138.9275837255513,35.437689762811644],[138.92861161123682,35.439003282640336],[138.93066328719797,35.439781124650516],[138.93098309236962,35.44116570988953],[138.9337874836916,35.44447219534596],[138.93572901809253,35.44516994673044],[138.93668952082933,35.44589066470513],[138.9377142432409,35.44737791187269],[138.9372032711709,35.4487091354135],[138.93482283188342,35.4503671451196],[138.93287812053117,35.45100287805121],[138.93066067385396,35.452775893168436]]]},"properties":{"KEY_CODE":"194250020","PREF":"19","CITY":"425","CITY_NAME":"山中湖村","S_NAME":"平野","SETAI":"543"}},{"type":"Feature","geometry":{"type":"Polygon","coordinates":[[[138.91576181728007,35.40507046739139],[138.91326909538608,35.40575735128341],[138.90930232294642,35.407428617594675],[138.90708781042343,35.40863441756079],[138.90606113661482,35.40882492056531],[138.90458082907412,35.40997889548981],[138.9054319176085,35.410386664708675],[138.9035916045344,35.413389037202265],[138.9030802327742,35.417437574301],[138.9000145174664,35.418641892680235],[138.89948997215208,35.41910769346198],[138.89751654926283,35.417319494433116],[138.895378300554,35.41441535260269],[138.8927231466804,35.41349997197552],[138.88748919622935,35.410664720443954],[138.88641640414968,35.40967756533933],[138.8831026795959,35.40824390412051],[138.88029150849314,35.407880569770086],[138.87654028043372,35.40768602160358],[138.87370384759487,35.407225223174734],[138.87100224003962,35.40775439734137],[138.86716504185168,35.40821113717784],[138.8628631005679,35.40947172873807],[138.8622168018303,35.410178433391025],[138.86076388084226,35.40970351876123],[138.86348174131032,35.40669927450267],[138.86448959832373,35.40517551722214],[138.8647841221273,35.40218212694758],[138.86349016784888,35.398669860249946],[138.86295211621353,35.39456813172559],[138.86370569109448,35.3933268010608],[138.86379683511703,35.393227725220385],[138.8639726325155,35.39272607791626],[138.86395390959348,35.392275157626685],[138.86277324969308,35.390451642152335],[138.86235407955073,35.390085797593265],[138.8636967435017,35.38993802296269],[138.86839079754145,35.38628523745706],[138.87321385846667,35.3817452618068],[138.87466066764247,35.38223935912157],[138.87746135691694,35.384381209604825],[138.877565023585,35.385154879690376],[138.879255008175,35.38596687260299],[138.88034630331526,35.38554780988983],[138.8858873717542,35.386463338828314],[138.88812580659712,35.38605322246063],[138.88896323341254,35.387744434926375],[138.8914904298655,35.38912883654929],[138.89250884072575,35.39014880814012],[138.89416607100222,35.390757537312616],[138.8955659504342,35.390721333351195],[138.89816244499792,35.391600388864624],[138.90219198704733,35.395159468287154],[138.90258256546284,35.39599370687309],[138.90495775619283,35.39697470230143],[138.9069213018739,35.39729283874554],[138.9089287292881,35.39797720092651],[138.91200120539156,35.39823944136119],[138.9138831186942,35.39987522972881],[138.91668398973238,35.400647106428536],[138.91664712025056,35.40209407822788],[138.91576181728007,35.40507046739139]]]},"properties":{"KEY_CODE":"194250030","PREF":"19","CITY":"425","CITY_NAME":"山中湖村","S_NAME":"旭日ケ丘","SETAI":"219"}},{"type":"Feature","geometry":{"type":"Polygon","coordinates":[[[138.88600851874625,35.43982385378653],[138.88387791382155,35.43994097951263],[138.8811216275641,35.439567761190304],[138.87935647600438,35.438906432426364],[138.8783099645495,35.43951764087651],[138.87186110150128,35.43989802094761],[138.8710642527226,35.43958063522651],[138.86707964352303,35.43710534804088],[138.86554799581174,35.43716899142095],[138.8636406340854,35.43634572347256],[138.86217350597278,35.43622202413679],[138.86092994865555,35.434944277320234],[138.85803653325215,35.434913028989705],[138.85642887020427,35.433350229960794],[138.85712036387568,35.43316076154575],[138.85831144415656,35.43182883631635],[138.8579507377775,35.43056271407208],[138.85889201121373,35.4287493295073],[138.85619413431644,35.42935607532887],[138.85419678886853,35.4294132290732],[138.8514598741326,35.428654272565886],[138.85014719183607,35.4270526789296],[138.84929526420996,35.424580836061544],[138.8500594668186,35.423006017950364],[138.85398847866372,35.41968082517241],[138.85770595795864,35.4162195900324],[138.86171326496935,35.41180966610942],[138.8622168018303,35.410178433391025],[138.8628631005679,35.40947172873807],[138.86716504185168,35.40821113717784],[138.87100224003962,35.40775439734137],[138.87370384759487,35.407225223174734],[138.87654028043372,35.40768602160358],[138.88029150849314,35.407880569770086],[138.8831026795959,35.40824390412051],[138.88641640414968,35.40967756533933],[138.88748919622935,35.410664720443954],[138.8927231466804,35.41349997197552],[138.895378300554,35.41441535260269],[138.89751654926283,35.417319494433116],[138.89948997215208,35.41910769346198],[138.90066503636075,35.420806427635036],[138.9018178373279,35.42120921734181],[138.90164664656945,35.42477978366367],[138.89991347477695,35.42739683757699],[138.89844048737717,35.42872693125948],[138.89659345437508,35.42902295544883],[138.89565669355346,35.428683849063226],[138.89458084416378,35.4265937252847],[138.89361839058978,35.42603459336379],[138.8927583857592,35.42454865513328],[138.89360015675874,35.423268767255365],[138.89601030625226,35.424193153886755],[138.89639870428275,35.42398597660482],[138.89257143055679,35.422168676909315],[138.88978940865456,35.42179712717221],[138.8861201893289,35.42183441742412],[138.8881442403191,35.42343052893208],[138.88653343474448,35.42499467518129],[138.88567569938994,35.42677941521576],[138.8856403031525,35.42945306112859],[138.8868266561969,35.431094077622454],[138.88784166632175,35.435665346245635],[138.88775825730428,35.438906436420396],[138.88600851874625,35.43982385378653]]]},"properties":{"KEY_CODE":"194250040","PREF":"19","CITY":"425","CITY_NAME":"山中湖村","S_NAME":"長池","SETAI":"174"}}]}