{"type":"FeatureCollection","features":[{"type":"Feature","geometry":{"type":"Polygon","coordinates":[[[135.7235751108647,34.557591498894524],[135.72338778396457,34.55889348762386],[135.72319189894867,34.55871034572663],[135.7228772232405,34.55865906299804],[135.72208895350514,34.55863910162507],[135.7218231988533,34.55855172557773],[135.72169430785303,34.558410006240834],[135.72108481892377,34.557832207640764],[135.7210859870453,34.557775301927435],[135.72100796374318,34.55767891481039],[135.7207486912367,34.55753182565367],[135.72056687507344,34.55768340038883],[135.7205075810202,34.55767030542534],[135.72116831677357,34.556575342685754],[135.7218951922402,34.55744935992176],[135.7235751108647,34.557591498894524]]]},"properties":{"KEY_CODE":"29424001101","PREF":"29","CITY":"424","CITY_NAME":"上牧町","S_NAME":"葛城台一丁目","SETAI":"92"}},{"type":"Feature","geometry":{"type":"Polygon","coordinates":[[[135.7235751108647,34.557591498894524],[135.72459998658744,34.557660441033526],[135.72559539849615,34.55777776494191],[135.72556354968356,34.55967876910895],[135.72338778396457,34.55889348762386],[135.7235751108647,34.557591498894524]]]},"properties":{"KEY_CODE":"29424001102","PREF":"29","CITY":"424","CITY_NAME":"上牧町","S_NAME":"葛城台二丁目","SETAI":"108"}},{"type":"Feature","geometry":{"type":"Polygon","coordinates":[[[135.72202906418482,34.55534771607289],[135.7229558389799,34.555753111082794],[135.7248180525711,34.555916353471034],[135.72459998658744,34.557660441033526],[135.7235751108647,34.557591498894524],[135.7218951922402,34.55744935992176],[135.72116831677357,34.556575342685754],[135.72202906418482,34.55534771607289]]]},"properties":{"KEY_CODE":"29424001103","PREF":"29","CITY":"424","CITY_NAME":"上牧町","S_NAME":"葛城台三丁目","SETAI":"145"}},{"type":"Feature","geometry":{"type":"Polygon","coordinates":[[[135.72600152806322,34.555609116976385],[135.72605550771613,34.55664203965],[135.72559539849615,34.55777776494191],[135.72459998658744,34.557660441033526],[135.7248180525711,34.555916353471034],[135.7246180760417,34.55512031264025],[135.72538304772354,34.55544179232373],[135.72600152806322,34.555609116976385]]]},"properties":{"KEY_CODE":"29424001104","PREF":"29","CITY":"424","CITY_NAME":"上牧町","S_NAME":"葛城台四丁目","SETAI":"107"}},{"type":"Feature","geometry":{"type":"Polygon","coordinates":[[[135.72252700416436,34.55447465604655],[135.72337815974365,34.55427909791227],[135.72350227928055,34.55482141736867],[135.7246180760417,34.55512031264025],[135.7248180525711,34.555916353471034],[135.7229558389799,34.555753111082794],[135.72202906418482,34.55534771607289],[135.72252700416436,34.55447465604655]]]},"properties":{"KEY_CODE":"29424001105","PREF":"29","CITY":"424","CITY_NAME":"上牧町","S_NAME":"葛城台五丁目","SETAI":"94"}},{"type":"Feature","geometry":{"type":"Polygon","coordinates":[[[135.71000813762518,34.55295583101463],[135.70965448197657,34.552461268596126],[135.71005665974252,34.55112670661273],[135.7086621395823,34.55132369876721],[135.70851325886014,34.551879750843135],[135.7083484501413,34.55179498140067],[135.70827785615595,34.551728325983355],[135.70818221718906,34.551580896579544],[135.70813565214948,34.55115284526013],[135.7081460480519,34.5510090494626],[135.70815461483477,34.55098103826661],[135.70934678485867,34.55112882488858],[135.71029550508786,34.5509779588627],[135.71123646979336,34.551403900141814],[135.71125821550112,34.55250591878518],[135.71059520955558,34.55299074788689],[135.7105419455835,34.55285976111991],[135.7102017788946,34.55296305173768],[135.7101106948254,34.5529377622108],[135.71000813762518,34.55295583101463]]]},"properties":{"KEY_CODE":"29424001201","PREF":"29","CITY":"424","CITY_NAME":"上牧町","S_NAME":"松里園一丁目","SETAI":"149"}},{"type":"Feature","geometry":{"type":"Polygon","coordinates":[[[135.71078122984727,34.5488672991988],[135.711219341405,34.54902173459807],[135.71123646979336,34.551403900141814],[135.71029550508786,34.5509779588627],[135.70934678485867,34.55112882488858],[135.70962227594956,34.550741262235874],[135.70984787340964,34.54859491224573],[135.71078122984727,34.5488672991988]]]},"properties":{"KEY_CODE":"29424001202","PREF":"29","CITY":"424","CITY_NAME":"上牧町","S_NAME":"松里園二丁目","SETAI":"150"}},{"type":"Feature","geometry":{"type":"Polygon","coordinates":[[[135.7073839473031,34.54829407535925],[135.70984787340964,34.54859491224573],[135.70962227594956,34.550741262235874],[135.70934678485867,34.55112882488858],[135.70815461483477,34.55098103826661],[135.708152252833,34.550852425174426],[135.70815938984904,34.550422107265796],[135.70817862792134,34.55029326452296],[135.708179221626,34.550190013170486],[135.70849921075958,34.54896344108243],[135.707250880587,34.548763251844875],[135.7073839473031,34.54829407535925]]]},"properties":{"KEY_CODE":"29424001203","PREF":"29","CITY":"424","CITY_NAME":"上牧町","S_NAME":"松里園三丁目","SETAI":"127"}},{"type":"Feature","geometry":{"type":"Polygon","coordinates":[[[135.72816665613922,34.5666416396133],[135.7269895065844,34.56921327747971],[135.7253762487731,34.57008385486879],[135.72539854534241,34.57100689296999],[135.72528508858744,34.571463110955925],[135.72500230926315,34.57180096606986],[135.72405489958672,34.570944597126434],[135.72353941090495,34.569545705190606],[135.72254649094816,34.56970432070914],[135.72244859109588,34.57143838984043],[135.72029348203947,34.571255844690356],[135.72030490445334,34.57104741676881],[135.72067878046306,34.570286953516515],[135.7197188101307,34.5697587142805],[135.72049591660914,34.56802493074864],[135.71985014274276,34.568190654121],[135.71831037290698,34.56834220026866],[135.71806496296725,34.56869773361852],[135.71765887241847,34.568518181682116],[135.7171561207221,34.56837714161897],[135.7158072602217,34.56826427723953],[135.71583913715614,34.56804094391385],[135.71609338856814,34.56735849488135],[135.71539786919823,34.56720939213983],[135.71486764241493,34.567158712293434],[135.71358794356632,34.566833706352654],[135.7133198199708,34.56705408933572],[135.71263652259375,34.56687499655272],[135.71181890972414,34.56590651312289],[135.71177275524636,34.56644614797755],[135.71079847784387,34.567202245990806],[135.7092344662889,34.56581582915221],[135.70911163316998,34.56633503647089],[135.70895583154865,34.5664858111325],[135.70872270102862,34.56758975519711],[135.70690189535802,34.56827435887224],[135.70617304856302,34.56753829362219],[135.70563703859654,34.56553168943597],[135.7041961973805,34.564819954558175],[135.70455565166995,34.563555881141866],[135.70521675878223,34.56286091399099],[135.70557087654643,34.561600768617765],[135.70571775046005,34.557536978704796],[135.70573059844028,34.55718161525672],[135.70710785295444,34.55735170287368],[135.7072999619616,34.557380194472024],[135.70783976505913,34.5573931771678],[135.70789718902483,34.5571361004801],[135.70781776683776,34.55681671754618],[135.70779303053962,34.55661085967993],[135.70776871420074,34.55629048094111],[135.70746853589517,34.55523639807402],[135.70743259577316,34.554346760504224],[135.70737348191818,34.5533674400902],[135.70714620688085,34.553251444364435],[135.70705634924772,34.55267946846193],[135.70765338144636,34.55231028808256],[135.70852932621648,34.55202713126289],[135.70851325886014,34.551879750843135],[135.7086621395823,34.55132369876721],[135.71005665974252,34.55112670661273],[135.70965448197657,34.552461268596126],[135.71000813762518,34.55295583101463],[135.7101106948254,34.5529377622108],[135.7102017788946,34.55296305173768],[135.7105419455835,34.55285976111991],[135.71059520955558,34.55299074788689],[135.71125821550112,34.55250591878518],[135.71123646979336,34.551403900141814],[135.711219341405,34.54902173459807],[135.71078122984727,34.5488672991988],[135.7114259901926,34.54846144919999],[135.7131713773149,34.549035769882536],[135.71447929533716,34.550328146765175],[135.7149521997167,34.550800717250304],[135.71582413590446,34.55197866712543],[135.7181502345981,34.551147331424296],[135.71933494853278,34.55108610647286],[135.7199591129212,34.551686344138645],[135.7207815725521,34.553629449705994],[135.72252700416436,34.55447465604655],[135.72202906418482,34.55534771607289],[135.72116831677357,34.556575342685754],[135.7205075810202,34.55767030542534],[135.72056687507344,34.55768340038883],[135.7207486912367,34.55753182565367],[135.72100796374318,34.55767891481039],[135.7210859870453,34.557775301927435],[135.72108481892377,34.557832207640764],[135.72169430785303,34.558410006240834],[135.7218231988533,34.55855172557773],[135.72208895350514,34.55863910162507],[135.7228772232405,34.55865906299804],[135.72319189894867,34.55871034572663],[135.72338778396457,34.55889348762386],[135.72556354968356,34.55967876910895],[135.72564402673873,34.55969712154035],[135.72575043769857,34.55999824183961],[135.72578912973776,34.56010932799152],[135.7259207789282,34.56015216305044],[135.72606910057965,34.560123422355204],[135.72615571224452,34.560296706768526],[135.72622427310375,34.560324807707],[135.72628706645384,34.56057226692366],[135.7263071125843,34.560652243880945],[135.7261693831835,34.56100873909808],[135.72619932352143,34.561179530985605],[135.7263473222602,34.56145637456067],[135.7265296522096,34.56167483723492],[135.7268066567965,34.56205691239185],[135.7272336059874,34.56287331914115],[135.72729973101124,34.56315730473502],[135.72742223466858,34.56348818236395],[135.72774457881155,34.56422730214639],[135.72830562604884,34.565141198716034],[135.72872906647322,34.56551077630167],[135.72850329344143,34.56621712325157],[135.72816665613922,34.5666416396133]],[[135.72339121349134,34.568200415782876],[135.72347875246982,34.56691111465076],[135.72267363121034,34.56690976119083],[135.72165913677858,34.5657207551513],[135.7214827856171,34.56567427888573],[135.7214282132244,34.565632936170644],[135.72137800554404,34.56532720624622],[135.72134878543687,34.5652658363417],[135.72125996429827,34.565224431346316],[135.72118448214758,34.565187930807205],[135.7209616965269,34.564999905369945],[135.72061736690046,34.56498559521682],[135.72064465621943,34.56495747526228],[135.72071545219325,34.56485317946077],[135.71965110542357,34.56454163600177],[135.71871635955034,34.56473227359102],[135.7184529636817,34.56481948929896],[135.7184273372267,34.564835297585404],[135.7181986487502,34.564794324361486],[135.71801708596388,34.56498953498648],[135.71752896094466,34.56550942689969],[135.71661362407283,34.56657556334147],[135.71760670324014,34.56710000079811],[135.719861433375,34.567550365465245],[135.72339121349134,34.568200415782876]],[[135.71415703010592,34.565637287739065],[135.71561079055155,34.565957594558455],[135.71614781827466,34.56532846886143],[135.7156041417465,34.56406168506995],[135.71469880793083,34.56415917663397],[135.71527545954328,34.56327665429437],[135.7150209391337,34.56268739628826],[135.7153628615711,34.56234632072255],[135.71540775837855,34.56233811447381],[135.71504554661257,34.562179222296045],[135.71486819799244,34.56077272187502],[135.7154460694886,34.560518405333674],[135.71447711083442,34.560151451639285],[135.71450469009866,34.55969005185697],[135.7133844620192,34.55940345055262],[135.71333175130744,34.55870958106876],[135.71249144859488,34.558631681636015],[135.71249481315925,34.55879861166458],[135.71178506044453,34.55917966083643],[135.7113955232752,34.55928607801506],[135.7112811880152,34.560126894957016],[135.71184829284368,34.56033220231458],[135.71198693337942,34.56043859840552],[135.711769756772,34.56067233964441],[135.71176167375071,34.56073303209636],[135.71189446243318,34.56139680543595],[135.71171182088403,34.56187981343138],[135.71175351080885,34.564516853577594],[135.71183641860006,34.56486864141161],[135.7122817127112,34.566118153436655],[135.71415703010592,34.565637287739065]]]},"properties":{"KEY_CODE":"294240013","PREF":"29","CITY":"424","CITY_NAME":"上牧町","S_NAME":"大字上牧","SETAI":"1300"}},{"type":"Feature","geometry":{"type":"Polygon","coordinates":[[[135.7073839473031,34.54829407535925],[135.707250880587,34.548763251844875],[135.70849921075958,34.54896344108243],[135.708179221626,34.550190013170486],[135.7068654005049,34.55020673370997],[135.70565131725925,34.55027453046715],[135.70566360843335,34.550125809178546],[135.70567588564464,34.55001047228065],[135.70605988198798,34.548315410263335],[135.7073839473031,34.54829407535925]]]},"properties":{"KEY_CODE":"294240013","PREF":"29","CITY":"424","CITY_NAME":"上牧町","S_NAME":"大字上牧","SETAI":"0"}},{"type":"Feature","geometry":{"type":"Polygon","coordinates":[[[135.72165913677858,34.5657207551513],[135.72267363121034,34.56690976119083],[135.72347875246982,34.56691111465079],[135.72339121349134,34.568200415782876],[135.719861433375,34.567550365465245],[135.71992925827308,34.56675279989216],[135.71993601179543,34.566689168150134],[135.71995325616217,34.566526671228274],[135.72000923213838,34.56599920888705],[135.72001881147807,34.56590894190986],[135.72006579650218,34.56546620410816],[135.72127041898037,34.565642896432884],[135.7214827856171,34.56567427888573],[135.72165913677858,34.5657207551513]]]},"properties":{"KEY_CODE":"29424001401","PREF":"29","CITY":"424","CITY_NAME":"上牧町","S_NAME":"ささゆり台一丁目","SETAI":"0"}},{"type":"Feature","geometry":{"type":"Polygon","coordinates":[[[135.72001881147807,34.56590894190986],[135.72000923213838,34.56599920888705],[135.71993601179543,34.566689168150155],[135.71980744337105,34.56667949755705],[135.71865233106487,34.56599799740087],[135.71855903027173,34.565871569693506],[135.71827347808377,34.565878123188845],[135.71752896094466,34.56550942689969],[135.71801708596388,34.56498953498648],[135.7181986487502,34.564794324361486],[135.7184273372267,34.564835297585404],[135.7184529636817,34.56481948929896],[135.71871635955034,34.56473227359102],[135.71965110542357,34.56454163600177],[135.72071545219325,34.56485317946077],[135.72064465621943,34.56495747526228],[135.72061736690046,34.56498559521682],[135.7209616965269,34.564999905369945],[135.72118448214758,34.565187930807205],[135.72125996429827,34.565224431346316],[135.72134878543687,34.5652658363417],[135.72137800554404,34.56532720624622],[135.7214282132244,34.565632936170644],[135.7214827856171,34.56567427888573],[135.72127041898037,34.565642896432884],[135.72006579650215,34.56546620410816],[135.72001881147807,34.56590894190986]]]},"properties":{"KEY_CODE":"29424001402","PREF":"29","CITY":"424","CITY_NAME":"上牧町","S_NAME":"ささゆり台二丁目","SETAI":"156"}},{"type":"Feature","geometry":{"type":"Polygon","coordinates":[[[135.71855903027173,34.565871569693506],[135.71865233106487,34.56599799740087],[135.71980744337105,34.56667949755705],[135.71993601179543,34.566689168150155],[135.71992925827308,34.56675279989216],[135.719861433375,34.567550365465245],[135.71760670324014,34.56710000079811],[135.71661362407283,34.56657556334147],[135.71752896094466,34.56550942689969],[135.71827347808377,34.565878123188845],[135.71855903027173,34.565871569693506]]]},"properties":{"KEY_CODE":"29424001403","PREF":"29","CITY":"424","CITY_NAME":"上牧町","S_NAME":"ささゆり台三丁目","SETAI":"3"}},{"type":"Feature","geometry":{"type":"Polygon","coordinates":[[[135.71241989961393,34.57063564752622],[135.71494060763953,34.57343274172852],[135.7146887809,34.57403560665152],[135.71209899997856,34.571895185399526],[135.70881900564004,34.57109125561074],[135.7078751437975,34.57104463191277],[135.70789730276192,34.57028402763396],[135.70931024025134,34.57014949214082],[135.71241989961393,34.57063564752622]]]},"properties":{"KEY_CODE":"29424002101","PREF":"29","CITY":"424","CITY_NAME":"上牧町","S_NAME":"友が丘一丁目","SETAI":"167"}},{"type":"Feature","geometry":{"type":"Polygon","coordinates":[[[135.7078751437975,34.57104463191277],[135.70881900564004,34.57109125561074],[135.71209899997856,34.571895185399526],[135.7146887809,34.57403560665152],[135.71446726638874,34.57438879411252],[135.71370044959323,34.5734505478712],[135.7117412846509,34.572588087768764],[135.71001367266507,34.57236326593107],[135.70846810902862,34.572001658062455],[135.70802730197633,34.57167803174919],[135.70813492677155,34.57156278156588],[135.7078751437975,34.57104463191277]]]},"properties":{"KEY_CODE":"29424002102","PREF":"29","CITY":"424","CITY_NAME":"上牧町","S_NAME":"友が丘二丁目","SETAI":"108"}},{"type":"Feature","geometry":{"type":"Polygon","coordinates":[[[135.7234700967768,34.57288467964728],[135.7221464386289,34.57385841162185],[135.71891686203708,34.573526475632654],[135.71765815317363,34.57378543490247],[135.7160551136139,34.57470013842984],[135.71494060763953,34.57343274172852],[135.71502428393015,34.57320375447929],[135.71517646525825,34.573129311777436],[135.7172885608046,34.57270585858095],[135.71812043376735,34.57247000680609],[135.71971397447666,34.57299520012077],[135.71992519791985,34.57295238569743],[135.72037592027263,34.57296919514644],[135.72172918198152,34.57334895074138],[135.72220852193837,34.573166780912295],[135.7223021648044,34.57208813368131],[135.72256592906805,34.571596139221946],[135.7226636918212,34.571246460449025],[135.72293552847518,34.57115439055283],[135.72297251930564,34.57127124830664],[135.72319317470246,34.571341756649865],[135.72405489958672,34.570944597126434],[135.72500230926315,34.57180096606986],[135.72428582835403,34.57262874611451],[135.7234700967768,34.57288467964728]]]},"properties":{"KEY_CODE":"29424002301","PREF":"29","CITY":"424","CITY_NAME":"上牧町","S_NAME":"下牧一丁目","SETAI":"94"}},{"type":"Feature","geometry":{"type":"Polygon","coordinates":[[[135.71363951019103,34.57675390205893],[135.71105171325482,34.57666977099857],[135.7103240428842,34.57616038053158],[135.70882978715815,34.57635770145273],[135.70861214342042,34.5758314853108],[135.7084474190118,34.575745870639444],[135.70862151974057,34.57558485722361],[135.70891623182166,34.5754985059],[135.70922863905693,34.5754103652866],[135.70933768227982,34.57539611505081],[135.70965473633314,34.575434759874945],[135.70980861573435,34.57537652678632],[135.70993289681957,34.575369638002606],[135.7100397909733,34.575342846248844],[135.71009012688094,34.57528436704524],[135.7099922432834,34.57522370479641],[135.709886679142,34.57518020941437],[135.7097484486629,34.57512762168613],[135.70962118457712,34.57504970374942],[135.70934805114976,34.5749246737165],[135.7092882844727,34.57487311696637],[135.70922980604809,34.57478212236032],[135.70975538498126,34.57441205798691],[135.70990970474412,34.574306213936886],[135.71029448326044,34.57416358864175],[135.71030085596703,34.57411247131859],[135.71003377559782,34.573936463453286],[135.71000883341182,34.57390386560151],[135.70996330418205,34.5738289590775],[135.70996337903767,34.573807407880786],[135.71001601972483,34.57371639445883],[135.71018446737847,34.57354466065573],[135.71026959880618,34.57350697071388],[135.71029579502198,34.57349717305442],[135.7104233118708,34.57349564373437],[135.7104395023638,34.57344919758553],[135.71027979104846,34.57303623379917],[135.71029423537874,34.57289160197885],[135.71023877392608,34.572801741673295],[135.7101644596866,34.57278367524717],[135.70992628883292,34.57265746054309],[135.71001367266507,34.57236326593107],[135.7117412846509,34.572588087768764],[135.71370044959323,34.5734505478712],[135.71446726638874,34.57438879411252],[135.7146887809,34.57403560665152],[135.71494060763953,34.57343274172852],[135.7160551136139,34.57470013842984],[135.71476012812877,34.57494658716816],[135.71363951019103,34.57675390205893]]]},"properties":{"KEY_CODE":"29424002302","PREF":"29","CITY":"424","CITY_NAME":"上牧町","S_NAME":"下牧二丁目","SETAI":"116"}},{"type":"Feature","geometry":{"type":"Polygon","coordinates":[[[135.71287505590652,34.57970260748732],[135.7121206887335,34.57970745355405],[135.71264503706385,34.58108420876706],[135.71268030868345,34.58299480783878],[135.7121223453561,34.582643875156386],[135.71217327996345,34.58230817916553],[135.71218407638975,34.582215094548715],[135.71208367168427,34.58196905329412],[135.71212109009602,34.58185433855756],[135.71177820184354,34.581664775080576],[135.71177727102076,34.58161879561525],[135.71180146629231,34.581556647592464],[135.7120540202244,34.58137178577694],[135.7121482303915,34.58121404255835],[135.7121505067007,34.58114957035379],[135.71204051724592,34.58114317720419],[135.7120081940136,34.58114129901367],[135.7119449250972,34.581137620685894],[135.71194035085676,34.58114986328692],[135.7119273829361,34.58118455806596],[135.7119182526022,34.58120898663422],[135.71190424920027,34.581246456051424],[135.71181130941576,34.58125034346429],[135.71175710079018,34.581244418844506],[135.7116903236174,34.581237118663545],[135.71160645164852,34.58122794965927],[135.71160615969342,34.581227918707135],[135.71160106549064,34.58122736469937],[135.7115430389262,34.58122101829382],[135.71147902302832,34.58121401999253],[135.7113907166298,34.58120436716314],[135.71129690994846,34.58119443276091],[135.71124683068876,34.58118932212077],[135.71118753661995,34.58119051969675],[135.71113473357042,34.581191585116514],[135.7110314687811,34.58119366969897],[135.71094120531743,34.58119549165654],[135.71093487503623,34.58119435529115],[135.71078377945398,34.58116722525054],[135.7107301147283,34.581157589511406],[135.71072807402493,34.580990803512336],[135.71040366485522,34.580881853030064],[135.71039373720032,34.580767167438516],[135.71038208095715,34.580666141960634],[135.71037356162566,34.580612030575026],[135.7103706055114,34.58051919463064],[135.71044608187879,34.58044373082842],[135.71049690156244,34.58008112970062],[135.7105276244777,34.580025280599315],[135.71062212453648,34.579810829906585],[135.71075539578808,34.579742544776444],[135.71087351942492,34.57963464186191],[135.71094331280977,34.579447741545],[135.71068964698705,34.579352481729835],[135.71060148670446,34.57900969534562],[135.71055819429213,34.578921272012636],[135.71047171926932,34.578712872890094],[135.71046413343586,34.57869651486261],[135.7104718664587,34.57867047306341],[135.71053082067553,34.57863807402786],[135.7106083193043,34.57861121197045],[135.71071858601698,34.57855836732009],[135.71073719781765,34.57853221094605],[135.71075696643322,34.57849168932915],[135.7107734346344,34.578457498711906],[135.71077137333413,34.57841960181167],[135.71074855084646,34.57840151738771],[135.71070934762145,34.57839240938342],[135.7106417939309,34.57838774183925],[135.71056219596053,34.578393892146224],[135.71047822091995,34.5784098924097],[135.71041395709204,34.57841438859976],[135.71033955900234,34.57836378402565],[135.7103433862662,34.57831589982857],[135.71036641556208,34.57827439941044],[135.71039699634247,34.57825911844964],[135.7104471582581,34.5782512076295],[135.71051053559555,34.57820783139159],[135.71058504109362,34.578172229446345],[135.71060259572877,34.57802746475621],[135.7103929124348,34.57749718490059],[135.71021774211582,34.577518603214614],[135.70954199204255,34.57744938535332],[135.7094520358835,34.57736747175034],[135.7094368505394,34.57727784733848],[135.70928402115308,34.577039427794276],[135.70927317807636,34.577023202329485],[135.70920368402832,34.57694640816202],[135.70911878823722,34.576909300488396],[135.70894382029894,34.57676281031204],[135.70881137134762,34.5766145903886],[135.70873558141764,34.57646932132797],[135.70877283703445,34.57636531279224],[135.70882978715815,34.57635770145273],[135.7103240428842,34.57616038053158],[135.71105171325482,34.57666977099857],[135.71363951019103,34.57675390205893],[135.71325854712987,34.577481969003856],[135.71287505590652,34.57970260748732]]]},"properties":{"KEY_CODE":"29424002303","PREF":"29","CITY":"424","CITY_NAME":"上牧町","S_NAME":"下牧三丁目","SETAI":"129"}},{"type":"Feature","geometry":{"type":"Polygon","coordinates":[[[135.71094331280977,34.579447741545],[135.71087351942492,34.57963464186191],[135.71075539578808,34.579742544776444],[135.71062212453648,34.579810829906585],[135.7105276244777,34.580025280599315],[135.71049690156244,34.58008112970062],[135.71044608187879,34.58044373082842],[135.7103706055114,34.58051919463064],[135.71037356162566,34.580612030575026],[135.71038208095715,34.580666141960634],[135.71039373720032,34.580767167438516],[135.71040366485522,34.580881853030064],[135.71021233530425,34.579406146433385],[135.70982014924687,34.57883218698622],[135.7078487123755,34.5782241824934],[135.70620521349622,34.577099737240125],[135.70626856672536,34.57704124489249],[135.70654441115406,34.57647211500579],[135.70657943373845,34.57622259081793],[135.70660478093595,34.57613968364494],[135.706622363596,34.57610366503076],[135.70663232072715,34.576056781724894],[135.7066808824731,34.576001116644235],[135.706746022521,34.57598324240763],[135.70694372333423,34.57594089394931],[135.70710162442597,34.57598099525756],[135.7072533903351,34.576004319054206],[135.70762174357876,34.576099436775685],[135.70877283703445,34.57636531279224],[135.70873558141764,34.57646932132797],[135.70881137134762,34.5766145903886],[135.70894382029894,34.57676281031204],[135.70911878823722,34.576909300488396],[135.70920368402832,34.57694640816202],[135.70927317807636,34.577023202329485],[135.70928402115308,34.577039427794276],[135.7094368505394,34.57727784733848],[135.7094520358835,34.57736747175034],[135.70954199204255,34.57744938535332],[135.71021774211582,34.577518603214614],[135.7103929124348,34.57749718490059],[135.71060259572877,34.57802746475621],[135.71058504109362,34.578172229446345],[135.71051053559555,34.57820783139159],[135.7104471582581,34.5782512076295],[135.71039699634247,34.57825911844964],[135.71036641556208,34.57827439941044],[135.7103433862662,34.57831589982857],[135.71033955900234,34.57836378402565],[135.71041395709204,34.57841438859976],[135.71047822091995,34.5784098924097],[135.71056219596053,34.578393892146224],[135.7106417939309,34.57838774183925],[135.71070934762145,34.57839240938342],[135.71074855084646,34.57840151738771],[135.71077137333413,34.57841960181167],[135.7107734346344,34.578457498711906],[135.71075696643322,34.57849168932915],[135.71073719781765,34.57853221094605],[135.71071858601698,34.57855836732009],[135.7106083193043,34.57861121197045],[135.71053082067553,34.57863807402786],[135.7104718664587,34.57867047306341],[135.71046413343586,34.57869651486261],[135.71047171926932,34.578712872890094],[135.71055819429213,34.578921272012636],[135.71060148670446,34.57900969534562],[135.71068964698705,34.579352481729835],[135.71094331280977,34.579447741545]]]},"properties":{"KEY_CODE":"29424002304","PREF":"29","CITY":"424","CITY_NAME":"上牧町","S_NAME":"下牧四丁目","SETAI":"0"}},{"type":"Feature","geometry":{"type":"Polygon","coordinates":[[[135.70861214342042,34.5758314853108],[135.70877283703445,34.57636531279224],[135.70762174357876,34.576099436775685],[135.70760747784954,34.57599685489722],[135.7074995643329,34.5758403806029],[135.7074372197541,34.57560076551665],[135.707306609138,34.57523900079085],[135.70621467755015,34.57580701652646],[135.7061328786425,34.57582217462964],[135.70608384458563,34.575818393866584],[135.7060381369477,34.57579490143379],[135.7058677978854,34.575575310034694],[135.70594764791807,34.57549084310012],[135.70595008498375,34.575421403763514],[135.70600254734217,34.57537645386667],[135.70596825877308,34.57521142150983],[135.7059642532706,34.575109568867],[135.7059406499974,34.574957380658056],[135.7059806266213,34.57486070368356],[135.7059775742487,34.57472997596806],[135.70600554842107,34.57452368022637],[135.70614632968505,34.57447344835133],[135.70630651243616,34.574487355879484],[135.7065002952404,34.57454740639727],[135.70652540696176,34.57453746486753],[135.70661925568896,34.574503460433924],[135.70668014425323,34.57454417484825],[135.70695268355172,34.57452764344992],[135.70683427049423,34.57441565523454],[135.70662695276374,34.57448178662988],[135.70657938361234,34.574376307413324],[135.70657965623218,34.574298692307444],[135.70649590674196,34.57424538676679],[135.7063480696451,34.574135017771724],[135.70623452148303,34.57418968145679],[135.7061386344276,34.57418593009712],[135.7060972033306,34.57418752089431],[135.7059664486599,34.57417734569393],[135.70586955982807,34.574143728313636],[135.70571469002576,34.57398770324512],[135.70558831700612,34.57384554998623],[135.70527338231926,34.573522075330054],[135.70525402181678,34.57345258342999],[135.70524102215015,34.57342649307442],[135.70522905985274,34.57342012487498],[135.70495781322242,34.57338495941006],[135.7048866400964,34.573158844089434],[135.70507325951084,34.57311210537182],[135.70568811253304,34.572951172276326],[135.7062875551978,34.5726014433947],[135.70634928098124,34.57242171078502],[135.7063832301407,34.57207752434346],[135.70659168011522,34.57211169037031],[135.70791934737062,34.57172904779319],[135.70802730197633,34.57167803174919],[135.70846810902862,34.572001658062455],[135.71001367266507,34.57236326593107],[135.70992628883292,34.57265746054309],[135.7101644596866,34.57278367524717],[135.71023877392608,34.572801741673295],[135.71029423537874,34.57289160197885],[135.71027979104846,34.57303623379917],[135.7104395023638,34.57344919758553],[135.7104233118708,34.57349564373437],[135.71029579502198,34.57349717305442],[135.71026959880618,34.57350697071388],[135.71018446737847,34.57354466065573],[135.71001601972483,34.57371639445883],[135.70996337903767,34.573807407880786],[135.70996330418205,34.5738289590775],[135.71000883341182,34.57390386560151],[135.71003377559782,34.573936463453286],[135.71030085596703,34.57411247131859],[135.71029448326044,34.57416358864175],[135.70990970474412,34.574306213936886],[135.70975538498126,34.57441205798691],[135.70922980604809,34.57478212236032],[135.7092882844727,34.57487311696637],[135.70934805114976,34.5749246737165],[135.70962118457712,34.57504970374942],[135.7097484486629,34.57512762168613],[135.709886679142,34.57518020941437],[135.7099922432834,34.57522370479641],[135.71009012688094,34.57528436704524],[135.7100397909733,34.575342846248844],[135.70993289681957,34.575369638002606],[135.70980861573435,34.57537652678632],[135.70965473633314,34.575434759874945],[135.70933768227982,34.57539611505081],[135.70922863905693,34.5754103652866],[135.70891623182166,34.5754985059],[135.70862151974057,34.57558485722361],[135.7084474190118,34.575745870639444],[135.70861214342042,34.5758314853108]]]},"properties":{"KEY_CODE":"29424002305","PREF":"29","CITY":"424","CITY_NAME":"上牧町","S_NAME":"下牧五丁目","SETAI":"0"}},{"type":"Feature","geometry":{"type":"Polygon","coordinates":[[[135.70663232072715,34.576056781724894],[135.706622363596,34.57610366503076],[135.70660478093595,34.57613968364494],[135.70657943373845,34.57622259081793],[135.70654441115406,34.57647211500579],[135.70626856672536,34.57704124489249],[135.7061451711344,34.57704798845893],[135.70557422817356,34.57704013697229],[135.7055717896037,34.57702533999742],[135.70486156853667,34.57380816061178],[135.70479014679924,34.57355598452672],[135.70462953079902,34.573231612725785],[135.7048866400964,34.573158844089434],[135.70495781322242,34.57338495941006],[135.70522905985274,34.57342012487498],[135.70524102215015,34.57342649307442],[135.70525402181678,34.57345258342999],[135.70527338231926,34.573522075330054],[135.70558831700612,34.57384554998623],[135.70571469002576,34.57398770324512],[135.70586955982807,34.574143728313636],[135.7059664486599,34.57417734569393],[135.7060972033306,34.57418752089431],[135.7061386344276,34.57418593009712],[135.70623452148303,34.57418968145679],[135.7063480696451,34.574135017771724],[135.70649590674196,34.57424538676679],[135.70657965623218,34.574298692307444],[135.70657938361234,34.574376307413324],[135.70662695276374,34.57448178662988],[135.70683427049423,34.57441565523454],[135.70695268355172,34.57452764344992],[135.70668014425323,34.57454417484825],[135.70661925568896,34.574503460433924],[135.70652540696176,34.57453746486753],[135.7065002952404,34.57454740639727],[135.70630651243616,34.574487355879484],[135.70614632968505,34.57447344835133],[135.70600554842107,34.57452368022637],[135.7059775742487,34.57472997596806],[135.7059806266213,34.57486070368356],[135.7059406499974,34.574957380658056],[135.7059642532706,34.575109568867],[135.70596825877308,34.57521142150983],[135.70600254734217,34.57537645386667],[135.70595008498375,34.575421403763514],[135.70594764791807,34.57549084310012],[135.7058677978854,34.575575310034694],[135.7060381369477,34.57579490143379],[135.70608384458563,34.575818393866584],[135.7061328786425,34.57582217462964],[135.70621467755015,34.57580701652646],[135.707306609138,34.57523900079085],[135.7074372197541,34.57560076551665],[135.7074995643329,34.5758403806029],[135.70760747784954,34.57599685489722],[135.70762174357876,34.576099436775685],[135.7072533903351,34.576004319054206],[135.70710162442597,34.57598099525756],[135.70694372333423,34.57594089394931],[135.706746022521,34.57598324240763],[135.7066808824731,34.576001116644235],[135.70663232072715,34.576056781724894]]]},"properties":{"KEY_CODE":"29424002306","PREF":"29","CITY":"424","CITY_NAME":"上牧町","S_NAME":"下牧六丁目","SETAI":"64"}},{"type":"Feature","geometry":{"type":"Polygon","coordinates":[[[135.70646375060088,34.56978940573579],[135.70590453930552,34.570169375803],[135.70587023036805,34.571401559051075],[135.7063832301407,34.57207752434346],[135.70634928098124,34.57242171078502],[135.7062875551978,34.5726014433947],[135.70568811253304,34.572951172276326],[135.70507325951084,34.57311210537182],[135.7048866400964,34.573158844089434],[135.70462953079902,34.573231612725785],[135.70437875808568,34.57268629153241],[135.70424304252109,34.572219989714],[135.70420836550673,34.57166701935443],[135.70423704461652,34.571322398358404],[135.70425517113492,34.57072969208996],[135.7041919766846,34.57047570405406],[135.70399771338512,34.5699651698633],[135.70504616970788,34.56934565701326],[135.70646375060088,34.56978940573579]]]},"properties":{"KEY_CODE":"29424002307","PREF":"29","CITY":"424","CITY_NAME":"上牧町","S_NAME":"下牧七丁目","SETAI":"45"}},{"type":"Feature","geometry":{"type":"Polygon","coordinates":[[[135.70659168011522,34.57211169037031],[135.7063832301407,34.57207752434346],[135.70587023036805,34.571401559051075],[135.70590453930552,34.570169375803],[135.70646375060088,34.56978940573579],[135.70665408318445,34.56971957311026],[135.7079253784748,34.56983347598756],[135.70789730276192,34.57028402763396],[135.7078751437975,34.57104463191277],[135.70813492677155,34.57156278156588],[135.70791934737062,34.57172904779319],[135.70659168011522,34.57211169037031]]]},"properties":{"KEY_CODE":"294240024","PREF":"29","CITY":"424","CITY_NAME":"上牧町","S_NAME":"大字下牧","SETAI":"0"}},{"type":"Feature","geometry":{"type":"Polygon","coordinates":[[[135.7223021648044,34.57208813368131],[135.72220852193837,34.573166780912295],[135.72172918198152,34.57334895074138],[135.72037592027263,34.57296919514644],[135.71992519791985,34.57295238569743],[135.71971397447666,34.57299520012077],[135.71970464612644,34.57199280740829],[135.7198280047051,34.57197834350995],[135.7201106712283,34.57117065493967],[135.72030490445334,34.57104741676881],[135.72029348203947,34.571255844690356],[135.72244859109588,34.57143838984043],[135.72254649094816,34.56970432070914],[135.72353941090495,34.569545705190606],[135.72405489958672,34.570944597126434],[135.72319317470246,34.571341756649865],[135.72297251930564,34.57127124830664],[135.72293552847518,34.57115439055283],[135.7226636918212,34.571246460449025],[135.72256592906805,34.571596139221946],[135.7223021648044,34.57208813368131]]]},"properties":{"KEY_CODE":"294240024","PREF":"29","CITY":"424","CITY_NAME":"上牧町","S_NAME":"大字下牧","SETAI":"2"}},{"type":"Feature","geometry":{"type":"Polygon","coordinates":[[[135.71970464612644,34.57199280740829],[135.71971397447666,34.57299520012077],[135.71812043376735,34.57247000680609],[135.7172885608046,34.57270585858095],[135.717709617461,34.571569795039366],[135.71836994813913,34.57178134517335],[135.71873995935218,34.570942379323924],[135.71948996534263,34.56990947415273],[135.7196130618016,34.56978946112381],[135.7197188101307,34.5697587142805],[135.72067878046306,34.570286953516515],[135.72030490445334,34.57104741676881],[135.7201106712283,34.57117065493967],[135.7198280047051,34.57197834350995],[135.71970464612644,34.57199280740829]]]},"properties":{"KEY_CODE":"294240025","PREF":"29","CITY":"424","CITY_NAME":"上牧町","S_NAME":"ゆりが丘","SETAI":"133"}},{"type":"Feature","geometry":{"type":"Polygon","coordinates":[[[135.70746853589517,34.55523639807402],[135.70776871420074,34.55629048094111],[135.70779303053962,34.55661085967993],[135.70781776683776,34.55681671754618],[135.70789718902483,34.5571361004801],[135.70783976505913,34.5573931771678],[135.7072999619616,34.557380194472024],[135.70710785295444,34.55735170287368],[135.70573059844028,34.557181615256724],[135.7057626531553,34.556295812312506],[135.70583120050946,34.55267047197422],[135.7056357850848,34.55086822820889],[135.70565131725928,34.55027453046715],[135.7068654005049,34.55020673370997],[135.708179221626,34.550190013170486],[135.70817862792134,34.55029326452296],[135.70815938984904,34.550422107265796],[135.708152252833,34.550852425174426],[135.7081460480519,34.5510090494626],[135.70813565214948,34.55115284526013],[135.70818221718906,34.551580896579544],[135.70827785615595,34.551728325983355],[135.7083484501413,34.55179498140067],[135.70852932621648,34.55202713126289],[135.70765338144636,34.55231028808256],[135.70705634924772,34.55267946846193],[135.70714620688085,34.553251444364435],[135.70737348191818,34.5533674400902],[135.70743259577316,34.554346760504224],[135.70746853589517,34.55523639807402]]]},"properties":{"KEY_CODE":"294240030","PREF":"29","CITY":"424","CITY_NAME":"上牧町","S_NAME":"大字中筋出作","SETAI":"74"}},{"type":"Feature","geometry":{"type":"Polygon","coordinates":[[[135.7167645678337,34.5823248170124],[135.71305249413933,34.58230235740047],[135.71291436589115,34.58291478431297],[135.71268030868345,34.58299480783878],[135.71264503706385,34.58108420876706],[135.7121206887335,34.57970745355405],[135.71287505590652,34.57970260748732],[135.71677227714903,34.57973001312621],[135.7167645678337,34.5823248170124]]]},"properties":{"KEY_CODE":"29424004001","PREF":"29","CITY":"424","CITY_NAME":"上牧町","S_NAME":"片岡台一丁目","SETAI":"333"}},{"type":"Feature","geometry":{"type":"Polygon","coordinates":[[[135.71896955589844,34.58142599344338],[135.71740618307533,34.58141717734884],[135.71740182351692,34.582326291486545],[135.71682696700506,34.582324961537815],[135.7167645678337,34.5823248170124],[135.71677227714903,34.57973001312621],[135.71679834301744,34.57855570459359],[135.71831968101853,34.577292872385584],[135.72000657731226,34.57905681937197],[135.71901897405058,34.57975083369333],[135.71896955589844,34.58142599344338]]]},"properties":{"KEY_CODE":"29424004002","PREF":"29","CITY":"424","CITY_NAME":"上牧町","S_NAME":"片岡台二丁目","SETAI":"190"}},{"type":"Feature","geometry":{"type":"Polygon","coordinates":[[[135.71677227714903,34.57973001312621],[135.71287505590652,34.57970260748732],[135.71325854712987,34.577481969003856],[135.71363951019103,34.57675390205893],[135.71476012812877,34.57494658716816],[135.7160551136139,34.57470013842984],[135.71831968101853,34.577292872385584],[135.71679834301744,34.57855570459359],[135.71677227714903,34.57973001312621]]]},"properties":{"KEY_CODE":"29424004003","PREF":"29","CITY":"424","CITY_NAME":"上牧町","S_NAME":"片岡台三丁目","SETAI":"1143"}},{"type":"Feature","geometry":{"type":"Polygon","coordinates":[[[135.7249687985918,34.57757946609451],[135.72218192670607,34.57765175626545],[135.72001293814992,34.57905162149726],[135.72000657731226,34.57905681937197],[135.71831968101853,34.577292872385584],[135.72040355823236,34.57599102527539],[135.7213516647981,34.5757611922843],[135.72343523492768,34.57577283034971],[135.72498796103733,34.57578633817397],[135.7249687985918,34.57757946609451]]]},"properties":{"KEY_CODE":"29424005001","PREF":"29","CITY":"424","CITY_NAME":"上牧町","S_NAME":"桜ケ丘一丁目","SETAI":"368"}},{"type":"Feature","geometry":{"type":"Polygon","coordinates":[[[135.72675180014906,34.57748726061913],[135.72508914905544,34.57758368128993],[135.7249687985918,34.57757946609451],[135.72498796103733,34.57578633817397],[135.72343523492768,34.57577283034971],[135.7234700967768,34.57288467964728],[135.72428582835403,34.57262874611451],[135.72500230926315,34.57180096606986],[135.72528508858744,34.571463110955925],[135.7255343066763,34.57326768947398],[135.72722194679685,34.57357192796008],[135.7272066465867,34.577174297210426],[135.72675180014906,34.57748726061913]]]},"properties":{"KEY_CODE":"29424005002","PREF":"29","CITY":"424","CITY_NAME":"上牧町","S_NAME":"桜ケ丘二丁目","SETAI":"421"}},{"type":"Feature","geometry":{"type":"Polygon","coordinates":[[[135.72343523492768,34.57577283034971],[135.7213516647981,34.5757611922843],[135.72040355823236,34.57599102527539],[135.71831968101853,34.577292872385584],[135.7160551136139,34.57470013842984],[135.71765815317363,34.57378543490247],[135.71891686203708,34.573526475632654],[135.7221464386289,34.57385841162185],[135.7234700967768,34.57288467964728],[135.72343523492768,34.57577283034971]]]},"properties":{"KEY_CODE":"29424005003","PREF":"29","CITY":"424","CITY_NAME":"上牧町","S_NAME":"桜ケ丘三丁目","SETAI":"399"}},{"type":"Feature","geometry":{"type":"Polygon","coordinates":[[[135.71501722250193,34.56268499350551],[135.7134270905841,34.5626119682253],[135.71235082257908,34.56177933580556],[135.7142550757365,34.560058245168584],[135.71447711083442,34.560151451639285],[135.7154460694886,34.560518405333674],[135.71486819799244,34.56077272187502],[135.71504554661257,34.562179222296045],[135.71540775837855,34.56233811447381],[135.7153628615711,34.56234632072255],[135.71501722250193,34.56268499350551]]]},"properties":{"KEY_CODE":"29424006001","PREF":"29","CITY":"424","CITY_NAME":"上牧町","S_NAME":"米山台一丁目","SETAI":"193"}},{"type":"Feature","geometry":{"type":"Polygon","coordinates":[[[135.71171182088403,34.56187981343138],[135.71189446243318,34.56139680543595],[135.71176167375071,34.56073303209636],[135.711769756772,34.56067233964441],[135.71198693337942,34.56043859840552],[135.71184829284368,34.56033220231458],[135.7112811880152,34.560126894957016],[135.7113955232752,34.55928607801506],[135.71178506044453,34.55917966083643],[135.71249481315925,34.55879861166458],[135.71249144859488,34.558631681636015],[135.71333175130744,34.55870958106876],[135.7133844620192,34.55940345055262],[135.71450469009866,34.55969005185697],[135.71447711083442,34.560151451639285],[135.7142550757365,34.560058245168584],[135.71235082257908,34.56177933580556],[135.71171182088403,34.56187981343138]]]},"properties":{"KEY_CODE":"29424006002","PREF":"29","CITY":"424","CITY_NAME":"上牧町","S_NAME":"米山台二丁目","SETAI":"165"}},{"type":"Feature","geometry":{"type":"Polygon","coordinates":[[[135.71501722250193,34.56268499350551],[135.7150209391337,34.56268739628826],[135.7136262541236,34.564099800009835],[135.71175351080885,34.564516853577594],[135.71171182088403,34.56187981343138],[135.71235082257908,34.56177933580556],[135.7134270905841,34.5626119682253],[135.71501722250193,34.56268499350551]]]},"properties":{"KEY_CODE":"29424006003","PREF":"29","CITY":"424","CITY_NAME":"上牧町","S_NAME":"米山台三丁目","SETAI":"258"}},{"type":"Feature","geometry":{"type":"Polygon","coordinates":[[[135.7136262541236,34.564099800009835],[135.714289061741,34.564538448341395],[135.71415703010592,34.565637287739065],[135.7122817127112,34.566118153436655],[135.71183641860006,34.56486864141161],[135.71175351080885,34.564516853577594],[135.7136262541236,34.564099800009835]]]},"properties":{"KEY_CODE":"29424006004","PREF":"29","CITY":"424","CITY_NAME":"上牧町","S_NAME":"米山台四丁目","SETAI":"145"}},{"type":"Feature","geometry":{"type":"Polygon","coordinates":[[[135.7150209391337,34.56268739628826],[135.71527545954328,34.56327665429437],[135.71469880793083,34.56415917663397],[135.714686536599,34.564189053142464],[135.71438684017673,34.564496418395365],[135.714289061741,34.564538448341395],[135.7136262541236,34.564099800009835],[135.7150209391337,34.56268739628826]]]},"properties":{"KEY_CODE":"29424006005","PREF":"29","CITY":"424","CITY_NAME":"上牧町","S_NAME":"米山台五丁目","SETAI":"69"}},{"type":"Feature","geometry":{"type":"Polygon","coordinates":[[[135.71469880793083,34.56415917663397],[135.7156041417465,34.56406168506995],[135.71614781827466,34.56532846886143],[135.71561079055155,34.565957594558455],[135.71415703010592,34.565637287739065],[135.714289061741,34.564538448341395],[135.71438684017673,34.564496418395365],[135.714686536599,34.564189053142464],[135.71469880793083,34.56415917663397]]]},"properties":{"KEY_CODE":"29424006006","PREF":"29","CITY":"424","CITY_NAME":"上牧町","S_NAME":"米山台六丁目","SETAI":"91"}},{"type":"Feature","geometry":{"type":"Polygon","coordinates":[[[135.71358794356632,34.566833706352654],[135.71486764241493,34.567158712293434],[135.71539786919823,34.56720939213983],[135.7151247461096,34.57001712526296],[135.713970956401,34.568842736025694],[135.71207529278382,34.56794929791052],[135.71079847784387,34.567202245990806],[135.71177275524636,34.56644614797755],[135.71181890972414,34.56590651312289],[135.71263652259375,34.56687499655272],[135.7133198199708,34.56705408933572],[135.71358794356632,34.566833706352654]]]},"properties":{"KEY_CODE":"29424007001","PREF":"29","CITY":"424","CITY_NAME":"上牧町","S_NAME":"服部台一丁目","SETAI":"255"}},{"type":"Feature","geometry":{"type":"Polygon","coordinates":[[[135.70911163316998,34.56633503647089],[135.7092344662889,34.56581582915221],[135.71079847784387,34.567202245990806],[135.71207529278382,34.56794929791052],[135.711590964365,34.568594430217566],[135.71202682956942,34.569260469397214],[135.7114610852347,34.5697532777569],[135.70957984245425,34.56822102689583],[135.70872270102862,34.56758975519711],[135.70895583154865,34.5664858111325],[135.70911163316998,34.56633503647089]]]},"properties":{"KEY_CODE":"29424007002","PREF":"29","CITY":"424","CITY_NAME":"上牧町","S_NAME":"服部台二丁目","SETAI":"209"}},{"type":"Feature","geometry":{"type":"Polygon","coordinates":[[[135.71207529278382,34.56794929791052],[135.713970956401,34.568842736025694],[135.7151247461096,34.57001712526296],[135.7150482170675,34.571214415369624],[135.7140906425467,34.570309391110506],[135.71202682956942,34.569260469397214],[135.711590964365,34.568594430217566],[135.71207529278382,34.56794929791052]]]},"properties":{"KEY_CODE":"29424007003","PREF":"29","CITY":"424","CITY_NAME":"上牧町","S_NAME":"服部台三丁目","SETAI":"150"}},{"type":"Feature","geometry":{"type":"Polygon","coordinates":[[[135.71202682956942,34.569260469397214],[135.7140906425467,34.570309391110506],[135.7150482170675,34.571214415369624],[135.71502428393015,34.57320375447929],[135.71494060763953,34.57343274172852],[135.71241989961393,34.57063564752622],[135.7114610852347,34.5697532777569],[135.71202682956942,34.569260469397214]]]},"properties":{"KEY_CODE":"29424007004","PREF":"29","CITY":"424","CITY_NAME":"上牧町","S_NAME":"服部台四丁目","SETAI":"204"}},{"type":"Feature","geometry":{"type":"Polygon","coordinates":[[[135.71539786919823,34.56720939213983],[135.71609338856814,34.56735849488135],[135.71583913715614,34.56804094391385],[135.7158072602217,34.56826427723953],[135.71578461299444,34.56932548059477],[135.7162443587835,34.570116787051255],[135.7162349406778,34.571601592520906],[135.71517646525825,34.573129311777436],[135.71502428393015,34.57320375447929],[135.7150482170675,34.571214415369624],[135.7151247461096,34.57001712526296],[135.71539786919823,34.56720939213983]]]},"properties":{"KEY_CODE":"29424007005","PREF":"29","CITY":"424","CITY_NAME":"上牧町","S_NAME":"服部台五丁目","SETAI":"1"}},{"type":"Feature","geometry":{"type":"Polygon","coordinates":[[[135.71948996534263,34.56990947415273],[135.71873995935218,34.570942379323924],[135.71840279492096,34.570338712901716],[135.7162443587835,34.570116787051255],[135.71578461299444,34.56932548059477],[135.7158072602217,34.56826427723953],[135.7171561207221,34.56837714161897],[135.71765887241847,34.568518181682116],[135.71806496296725,34.56869773361852],[135.71831037290698,34.56834220026866],[135.71985014274276,34.568190654121],[135.72049591660914,34.56802493074864],[135.7197188101307,34.5697587142805],[135.7196130618016,34.56978946112381],[135.71948996534263,34.56990947415273]]]},"properties":{"KEY_CODE":"29424008001","PREF":"29","CITY":"424","CITY_NAME":"上牧町","S_NAME":"滝川台一丁目","SETAI":"253"}},{"type":"Feature","geometry":{"type":"Polygon","coordinates":[[[135.7172885608046,34.57270585858095],[135.71517646525825,34.573129311777436],[135.7162349406778,34.571601592520906],[135.7162443587835,34.570116787051255],[135.71840279492096,34.570338712901716],[135.71873995935218,34.570942379323924],[135.71836994813913,34.57178134517335],[135.717709617461,34.571569795039366],[135.7172885608046,34.57270585858095]]]},"properties":{"KEY_CODE":"29424008002","PREF":"29","CITY":"424","CITY_NAME":"上牧町","S_NAME":"滝川台二丁目","SETAI":"167"}},{"type":"Feature","geometry":{"type":"Polygon","coordinates":[[[135.70957984245425,34.56822102689583],[135.7114610852347,34.5697532777569],[135.71241989961393,34.57063564752622],[135.70931024025134,34.57014949214082],[135.7085469368459,34.568967108527474],[135.70957984245425,34.56822102689583]]]},"properties":{"KEY_CODE":"29424009001","PREF":"29","CITY":"424","CITY_NAME":"上牧町","S_NAME":"緑ケ丘一丁目","SETAI":"150"}},{"type":"Feature","geometry":{"type":"Polygon","coordinates":[[[135.70957984245425,34.56822102689583],[135.7085469368459,34.568967108527474],[135.70931024025134,34.57014949214082],[135.70789730276192,34.57028402763396],[135.7079253784748,34.56983347598756],[135.70665408318445,34.56971957311026],[135.70690189535802,34.56827435887224],[135.70872270102862,34.56758975519711],[135.70957984245425,34.56822102689583]]]},"properties":{"KEY_CODE":"29424009002","PREF":"29","CITY":"424","CITY_NAME":"上牧町","S_NAME":"緑ケ丘二丁目","SETAI":"31"}}]}