{"type":"FeatureCollection","features":[{"type":"Feature","geometry":{"type":"Polygon","coordinates":[[[135.92413667688996,34.375464104034464],[135.92310771818242,34.37561179009731],[135.92162302551134,34.375984989662776],[135.92152568681797,34.37544414273956],[135.9216677901064,34.37458790762296],[135.92137482556112,34.37398368741271],[135.92143559176327,34.37292469298265],[135.92171932731327,34.37174399122577],[135.92237791353588,34.3707753914647],[135.92274781708326,34.37045121268481],[135.9233583410344,34.36846849261451],[135.92402739897898,34.36788741928388],[135.92460360001039,34.36782467026272],[135.92605568708092,34.36682442671416],[135.92568143564623,34.36589645360886],[135.92507348631105,34.36498566442683],[135.92565072729388,34.36414476345986],[135.92706028351643,34.363054176222995],[135.9294590091431,34.36178636373368],[135.9296033644322,34.36190097116897],[135.93070189284975,34.3625035194962],[135.93118335394288,34.36276580292581],[135.9318075881381,34.36325256662361],[135.9322934833804,34.36392167478727],[135.93416441165212,34.364274158174524],[135.9354776990146,34.36394098864947],[135.93616941191567,34.36319699513421],[135.93651468280692,34.36290022023761],[135.93727606443585,34.36240995933039],[135.93766291331048,34.36226195873144],[135.93734793687904,34.363035308404406],[135.93706241537208,34.364334532359564],[135.93582789590067,34.36626619502902],[135.9365321831874,34.367825678925556],[135.93733028413564,34.36882215545159],[135.93776151123825,34.37018004886059],[135.9374984252307,34.371365296225854],[135.93605016719238,34.371093547111386],[135.93328142089115,34.369411832328666],[135.93281937579718,34.36923845015886],[135.93234230203254,34.36920113609388],[135.93125356374733,34.36965791841867],[135.93074634956542,34.370040927458234],[135.93007453422337,34.37114084056482],[135.92840430817938,34.371560206649605],[135.9263536288211,34.37225738933226],[135.9258455581395,34.37357980973944],[135.9267908670321,34.37532979532429],[135.92515062478174,34.37542768432011],[135.92413667688996,34.375464104034464]]]},"properties":{"KEY_CODE":"29452001001","PREF":"29","CITY":"452","CITY_NAME":"川上村","S_NAME":"大字東川","SETAI":"18"}},{"type":"Feature","geometry":{"type":"Polygon","coordinates":[[[135.94321065234828,34.372606327843584],[135.94230767055507,34.37274622145018],[135.9399816779225,34.371945312296155],[135.93931919952092,34.3715322629088],[135.9374984252307,34.371365296225854],[135.93776151123825,34.37018004886059],[135.94144115084003,34.370103065361604],[135.9418202560616,34.36980826594428],[135.9431249982943,34.37118482672997],[135.94331618242856,34.37231210987137],[135.94321065234828,34.372606327843584]]]},"properties":{"KEY_CODE":"29452001002","PREF":"29","CITY":"452","CITY_NAME":"川上村","S_NAME":"大字東川高佐","SETAI":"19"}},{"type":"Feature","geometry":{"type":"Polygon","coordinates":[[[135.9418202560616,34.36980826594428],[135.94144115084003,34.370103065361604],[135.93776151123825,34.37018004886059],[135.93733028413564,34.36882215545159],[135.9365321831874,34.367825678925556],[135.93582789590067,34.36626619502902],[135.93706241537208,34.364334532359564],[135.93734793687904,34.363035308404406],[135.93766291331048,34.36226195873144],[135.9378439672841,34.362245990041224],[135.93820714578928,34.36256777030438],[135.93854290488758,34.3627614875576],[135.9389032672535,34.36418414781968],[135.93907275443715,34.36489575387982],[135.94000257388683,34.36671705882789],[135.94032357550293,34.36836226482287],[135.94053627541285,34.36911290866287],[135.94070764402016,34.369314994130114],[135.9414568427396,34.369575525600276],[135.9418202560616,34.36980826594428]]]},"properties":{"KEY_CODE":"29452001003","PREF":"29","CITY":"452","CITY_NAME":"川上村","S_NAME":"大字東川衣引","SETAI":"13"}},{"type":"Feature","geometry":{"type":"Polygon","coordinates":[[[135.93605016719238,34.371093547111386],[135.93456920142177,34.37267329086775],[135.93368186661814,34.372193726191306],[135.9330712679613,34.37126607494873],[135.9330870971384,34.370067039460544],[135.93328142089115,34.369411832328666],[135.93605016719238,34.371093547111386]]]},"properties":{"KEY_CODE":"29452001004","PREF":"29","CITY":"452","CITY_NAME":"川上村","S_NAME":"大字東川深山","SETAI":"9"}},{"type":"Feature","geometry":{"type":"Polygon","coordinates":[[[135.93656119184428,34.374973644750916],[135.9356886919124,34.37530691359175],[135.93545006177595,34.37539962215171],[135.9350697796181,34.37547972076274],[135.9350888093904,34.37494500747114],[135.93502948196345,34.37452463622332],[135.93483609196454,34.37393121378747],[135.9345608006486,34.37319547273744],[135.93456920142177,34.37267329086775],[135.93605016719238,34.371093547111386],[135.9374984252307,34.371365296225854],[135.93931919952092,34.3715322629088],[135.9399816779225,34.371945312296155],[135.9379372002345,34.372845155855956],[135.93656119184428,34.374973644750916]]]},"properties":{"KEY_CODE":"29452001005","PREF":"29","CITY":"452","CITY_NAME":"川上村","S_NAME":"大字東川柳瀬","SETAI":"6"}},{"type":"Feature","geometry":{"type":"Polygon","coordinates":[[[135.94510141169502,34.37468110399886],[135.94536233938408,34.375737415288434],[135.94472157463144,34.37606563444896],[135.94372833753428,34.37628480727188],[135.94154405335996,34.37617690735322],[135.93928381651418,34.375940886056604],[135.93812062494032,34.37536531558205],[135.93706064510573,34.37502333786806],[135.93656119184428,34.374973644750916],[135.9379372002345,34.372845155855956],[135.9399816779225,34.371945312296155],[135.94230767055507,34.37274622145018],[135.94321065234828,34.372606327843584],[135.94381655077103,34.3731730129739],[135.94427498990552,34.37368920077844],[135.94488643090315,34.37419376121334],[135.94510141169502,34.37468110399886]]]},"properties":{"KEY_CODE":"29452001006","PREF":"29","CITY":"452","CITY_NAME":"川上村","S_NAME":"大字東川安場","SETAI":"11"}},{"type":"Feature","geometry":{"type":"Polygon","coordinates":[[[135.97519023920444,34.373153155738834],[135.97481788276042,34.376879898374945],[135.9738417289272,34.377876007444726],[135.97209946752218,34.37856908207792],[135.97146084719714,34.37963688080966],[135.97160350099708,34.38036675172914],[135.96956386623933,34.381258436071356],[135.9679488334339,34.380293402524266],[135.9674677597512,34.378824037843174],[135.96647494903726,34.3779239524793],[135.96479303919227,34.377384875743104],[135.96235730884587,34.377703279947085],[135.96158087525535,34.3774643007527],[135.95975108988011,34.377929882926054],[135.9587351377051,34.37741571167066],[135.95836045163992,34.3755032472754],[135.95726832297046,34.37535387206094],[135.95531721846842,34.37428915524416],[135.95272030808346,34.37449659288405],[135.95101677098256,34.3758389664483],[135.9488925740294,34.37536810094997],[135.94768260215733,34.375797402582066],[135.94536233938408,34.37573741528841],[135.94510141169502,34.37468110399886],[135.94488643090315,34.37419376121334],[135.94427498990552,34.37368920077844],[135.94381655077103,34.3731730129739],[135.94321065234828,34.372606327843584],[135.94331618242856,34.37231210987137],[135.9431249982943,34.37118482672997],[135.9418202560616,34.36980826594428],[135.9414568427396,34.369575525600276],[135.94070764402016,34.369314994130114],[135.94053627541285,34.36911290866287],[135.94032357550293,34.36836226482287],[135.9400025738868,34.36671705882789],[135.93907275443715,34.36489575387982],[135.9389032672535,34.36418414781968],[135.93854290488758,34.3627614875576],[135.93820714578928,34.36256777030438],[135.9378439672841,34.362245990041224],[135.93766291331048,34.362261958731445],[135.93727606443585,34.36240995933039],[135.93651468280692,34.36290022023761],[135.93616941191567,34.36319699513421],[135.9354776990146,34.36394098864946],[135.93416441165212,34.364274158174524],[135.9322934833804,34.3639216747873],[135.9318075881381,34.36325256662361],[135.93118335394288,34.36276580292581],[135.93070189284975,34.3625035194962],[135.9296033644322,34.36190097116897],[135.9294590091431,34.36178636373365],[135.93162051442147,34.360544417216445],[135.9328415944742,34.359410252638185],[135.93311697893782,34.35820555438972],[135.93488355486667,34.35786151767059],[135.93605574259817,34.35746657467413],[135.93823948949304,34.35694662303691],[135.94042521616726,34.356693862296325],[135.94339264690385,34.35637282828922],[135.9447676087312,34.35650600971302],[135.94687931084863,34.3572098554335],[135.9473576604212,34.35718723593333],[135.9496804303995,34.35704587427179],[135.95540425685596,34.35642206674232],[135.9583323495838,34.35639455779435],[135.96052232349783,34.3565613059115],[135.96140320357864,34.35675553889469],[135.9649670082946,34.35596725333519],[135.96826064616317,34.35557336598683],[135.96914426630067,34.35524802839966],[135.97278205939105,34.35297466625474],[135.9762896310718,34.349885918299364],[135.97802978394847,34.348927488873265],[135.98103354712848,34.34800836433235],[135.98194478865418,34.349062147718776],[135.98462614060472,34.350622815998065],[135.98774943072368,34.351800082043994],[135.98936180339138,34.35207786972419],[135.9887996589448,34.352631842164215],[135.98641993995093,34.35353525943861],[135.98523807503972,34.354266786015714],[135.98461151315152,34.3541597959112],[135.98148546293356,34.35445931995602],[135.9818284383778,34.35559995899752],[135.98166219136547,34.3573077976253],[135.9824243881112,34.35876937991092],[135.9820878973855,34.35944943853759],[135.98210369314728,34.36091486936023],[135.98099041187328,34.363365656633356],[135.97945326894836,34.36530079917364],[135.97831454967985,34.367535885844106],[135.97659528590702,34.36926641501124],[135.9760048469126,34.37150520872535],[135.97519023920444,34.373153155738834]]]},"properties":{"KEY_CODE":"29452001007","PREF":"29","CITY":"452","CITY_NAME":"川上村","S_NAME":"大字東川中井","SETAI":"39"}},{"type":"Feature","geometry":{"type":"Polygon","coordinates":[[[135.92490732361145,34.36506895526081],[135.92283311943493,34.36621008448805],[135.9215289772603,34.36587582401513],[135.92083297405813,34.36619978820507],[135.9189037278568,34.36593270752631],[135.91731760717084,34.364949098769],[135.91621961146913,34.36504751841183],[135.91505187716362,34.36423094868915],[135.91433432011706,34.36435666224067],[135.91227013558444,34.36324642018044],[135.911640930077,34.362047036821],[135.91152825023858,34.36062729369679],[135.91006225565516,34.35928319050898],[135.91012336535476,34.358007686580216],[135.90846113641447,34.357285332244004],[135.90752721048094,34.35651843152351],[135.90627244136198,34.35597214812777],[135.90517666172377,34.35416830202478],[135.9034873175353,34.35352245667364],[135.90254174400079,34.353521678203],[135.90131792531108,34.35299774437311],[135.9008960865741,34.352722547216324],[135.90044039961376,34.35203709994361],[135.89882244867064,34.350818731306134],[135.89743775117503,34.34997484669921],[135.8968294763187,34.34968581792064],[135.89600364043795,34.349567900404416],[135.89592876721397,34.34857623793962],[135.89560325356342,34.34815221224363],[135.8951968115583,34.347245909617925],[135.89520834355528,34.346705112330376],[135.89440473373318,34.3462085366623],[135.89415486692377,34.346136329842324],[135.89347104580122,34.34545066147921],[135.89341700049388,34.34521620179865],[135.89262434062502,34.344683559650214],[135.8911637698364,34.34379446655253],[135.89058877819144,34.34302760018742],[135.89041519363482,34.342802187122814],[135.88947020730365,34.342440688821895],[135.88786863097198,34.34140703819009],[135.88794553050857,34.34077614623286],[135.88840089529128,34.33994035561578],[135.888473923798,34.33983096602597],[135.88884099553832,34.33914765513218],[135.88951668440444,34.33853492087334],[135.89014091810589,34.336742615086344],[135.89023407004723,34.33661267461383],[135.89218834519542,34.335508315582146],[135.89244470119607,34.33500746582653],[135.8929542650178,34.33469011232702],[135.89316619091878,34.33451181516462],[135.89352381643488,34.334385486980445],[135.89433775729768,34.33433295135418],[135.89463291002488,34.334206424282],[135.89479268325007,34.334111615273244],[135.89550459175416,34.333755122180044],[135.89783032059879,34.33340872420533],[135.89821226585093,34.33325366050515],[135.89874374049288,34.33285684180721],[135.89906154276414,34.33265114899996],[135.89943998352854,34.33252185776372],[135.8996691494335,34.332435691482466],[135.90024900321413,34.3322087963751],[135.90079573333307,34.33210696727318],[135.90132004723475,34.33188565664731],[135.90283263001243,34.33087483542135],[135.90350794993176,34.330611936603425],[135.90375131750505,34.330226417350495],[135.90422935195326,34.329476783833655],[135.90457164182965,34.329086832546054],[135.9049019160968,34.32908441118757],[135.90610215236825,34.329606845418546],[135.90731544175108,34.33097916691745],[135.90773036698465,34.33137138944595],[135.9083650126768,34.33182054603048],[135.90843664796967,34.33216771140649],[135.90831854568515,34.333010327200455],[135.90684650338738,34.33396757607246],[135.90501127063044,34.33464897562665],[135.90407063475925,34.33571802855508],[135.90265539696688,34.336879813828396],[135.90140068393924,34.33833417229218],[135.9009665837246,34.33886547664064],[135.90034457111176,34.340072535508156],[135.90094124176778,34.34174829292111],[135.90382587337945,34.34525486573198],[135.9064844253026,34.34818687464178],[135.90752582048694,34.3490320905511],[135.90965073600117,34.35008254294975],[135.9109773969592,34.35070969765173],[135.91274576853021,34.35167144658135],[135.9136940989554,34.352315067670126],[135.9150406213798,34.352656778503565],[135.91659163398532,34.352645579262],[135.91752391615125,34.352572105202185],[135.91819604775114,34.35270497484191],[135.91987209535358,34.35579381443929],[135.9203548121702,34.357578381714255],[135.92194499430772,34.35783283400929],[135.92492156819887,34.357450259993385],[135.92604897125864,34.35706580858292],[135.92495129556067,34.356035384088294],[135.92599768741206,34.356108992306545],[135.92737061854,34.355972467980365],[135.92989605946542,34.35657460749868],[135.93199736001375,34.35742368166437],[135.93307801596922,34.358019305036585],[135.93311697893782,34.35820555438972],[135.9328415944742,34.359410252638185],[135.93162051442147,34.360544417216445],[135.9294590091431,34.36178636373365],[135.92706028351643,34.363054176222995],[135.92565072729388,34.36414476345985],[135.92490732361145,34.36506895526081]]]},"properties":{"KEY_CODE":"294520020","PREF":"29","CITY":"452","CITY_NAME":"川上村","S_NAME":"大字西河","SETAI":"65"}},{"type":"Feature","geometry":{"type":"Polygon","coordinates":[[[135.93562199418793,34.35004275058426],[135.93523662081674,34.3503300658774],[135.935082421248,34.35051100552485],[135.93482563996545,34.35052143161936],[135.9339270915866,34.35032935496618],[135.9338202751816,34.35011094156693],[135.9340599370402,34.35009684399933],[135.9347280128621,34.34947257093017],[135.93488224792262,34.34924542459281],[135.9350879674454,34.34884798994804],[135.9355718745647,34.34841351529056],[135.93570013491552,34.348573195412705],[135.93572562885723,34.3488181884666],[135.93608491865953,34.34906336142028],[135.9364056633239,34.349350915526365],[135.93616134993798,34.349862016313004],[135.93562199418793,34.35004275058426]]]},"properties":{"KEY_CODE":"29452003001","PREF":"29","CITY":"452","CITY_NAME":"川上村","S_NAME":"大字大滝","SETAI":"0"}},{"type":"Feature","geometry":{"type":"Polygon","coordinates":[[[135.92200572981253,34.35371031343543],[135.9226135504762,34.354670447269],[135.9226859091975,34.35484658000771],[135.92269855477065,34.35519228336875],[135.9230866275485,34.3557078298348],[135.92362012721694,34.35580268807175],[135.92495129556067,34.356035384088294],[135.92604897125864,34.35706580858292],[135.92492156819887,34.357450259993385],[135.92194499430772,34.35783283400929],[135.9203548121702,34.357578381714255],[135.91987209535358,34.35579381443929],[135.91819604775114,34.35270497484191],[135.91991323004305,34.353348207069324],[135.92106291390812,34.353713940331666],[135.92147743013976,34.35360686184057],[135.92179865206904,34.353559874777766],[135.92200572981253,34.35371031343543]]]},"properties":{"KEY_CODE":"29452003001","PREF":"29","CITY":"452","CITY_NAME":"川上村","S_NAME":"大字大滝","SETAI":"32"}},{"type":"Feature","geometry":{"type":"Polygon","coordinates":[[[135.93311697893782,34.358205554389684],[135.93307801596922,34.358019305036585],[135.93199736001375,34.35742368166437],[135.9298960594654,34.35657460749868],[135.92737061854,34.355972467980365],[135.92599768741206,34.356108992306545],[135.92362012721694,34.35580268807175],[135.9230866275485,34.3557078298348],[135.92269855477065,34.35519228336875],[135.9226859091975,34.35484658000771],[135.9226135504762,34.354670447269],[135.92200572981253,34.35371031343543],[135.92179865206904,34.353559874777766],[135.92147743013976,34.35360686184057],[135.92106291390812,34.353713940331666],[135.91991323004305,34.353348207069324],[135.91819604775114,34.35270497484191],[135.91752391615125,34.352572105202185],[135.91659163398532,34.352645579262],[135.9150406213798,34.352656778503565],[135.9136940989554,34.352315067670126],[135.91274576853021,34.35167144658135],[135.9109773969592,34.35070969765173],[135.90965073600117,34.35008254294975],[135.907525820487,34.34903209055112],[135.9064844253026,34.34818687464178],[135.90382587337945,34.34525486573198],[135.90094124176778,34.34174829292111],[135.90034457111176,34.340072535508156],[135.9009665837246,34.33886547664064],[135.90140068393924,34.33833417229218],[135.90265539696688,34.336879813828396],[135.90407063475925,34.33571802855508],[135.90501127063044,34.33464897562665],[135.90684650338738,34.33396757607246],[135.90831854568515,34.33301032720046],[135.90843664796967,34.33216771140649],[135.9091163621383,34.33288822167172],[135.9088105574338,34.33432673319494],[135.90938814197625,34.33480669553653],[135.91209530916274,34.33554063506811],[135.9130683314589,34.33614708298015],[135.91355435597382,34.33692998347987],[135.91595827845777,34.33672963238256],[135.91772254604706,34.33723571997664],[135.91903129184814,34.33683269882629],[135.91912119673555,34.33827151382428],[135.91982009781648,34.339256403738304],[135.92155371323787,34.34009036963857],[135.92252635509726,34.34125207491094],[135.92249358367718,34.343826680236745],[135.92304062625945,34.344584231621305],[135.9262342479776,34.34627743446629],[135.92845499121262,34.34706119182346],[135.92881986171975,34.34741486198844],[135.92957829340975,34.35021702354767],[135.93094545663462,34.35299430642901],[135.93277050507186,34.35418159579929],[135.9332262101625,34.355216666542724],[135.93311697893782,34.358205554389684]]]},"properties":{"KEY_CODE":"29452003002","PREF":"29","CITY":"452","CITY_NAME":"川上村","S_NAME":"大字大滝小滝","SETAI":"10"}},{"type":"Feature","geometry":{"type":"Polygon","coordinates":[[[135.9473576604212,34.35718723593333],[135.94687931084863,34.3572098554335],[135.9447676087312,34.35650600971302],[135.94339264690385,34.35637282828922],[135.94042521616726,34.356693862296325],[135.938239489493,34.35694662303691],[135.93605574259817,34.35746657467413],[135.93488355486667,34.35786151767059],[135.93311697893782,34.358205554389684],[135.9332262101625,34.355216666542724],[135.93277050507186,34.35418159579929],[135.93094545663462,34.35299430642901],[135.92957829340975,34.35021702354767],[135.92881986171975,34.34741486198844],[135.92845499121262,34.34706119182346],[135.9262342479776,34.34627743446629],[135.92304062625945,34.344584231621305],[135.92249358367718,34.343826680236745],[135.92252635509726,34.34125207491094],[135.92155371323787,34.34009036963857],[135.91982009781648,34.339256403738304],[135.91912119673555,34.33827151382428],[135.91903129184814,34.33683269882629],[135.91772254604706,34.33723571997664],[135.91595827845777,34.33672963238256],[135.91355435597382,34.33692998347987],[135.9130683314589,34.33614708298015],[135.91209530916274,34.33554063506811],[135.90938814197625,34.33480669553653],[135.9088105574338,34.33432673319494],[135.9091163621383,34.33288822167172],[135.90843664796967,34.33216771140649],[135.9083650126768,34.33182054603048],[135.90773036698465,34.33137138944595],[135.90731544175108,34.33097916691745],[135.90610215236825,34.329606845418546],[135.9049019160968,34.32908441118757],[135.90463031182588,34.329008552699406],[135.9044813939326,34.327559409025774],[135.90478502001636,34.326062428772595],[135.9055690580427,34.32474585460008],[135.90603582371193,34.32319151793744],[135.90752790325664,34.32272353223433],[135.90854815544657,34.32169083507612],[135.90973965437308,34.32097635109159],[135.91023502727387,34.32136736296679],[135.9118523693121,34.3220616455979],[135.9162092709312,34.32282204581208],[135.918295488858,34.32368728097405],[135.91948335339669,34.32479967958475],[135.92048822495482,34.325427768579175],[135.9219601952947,34.32578750190222],[135.92241231879734,34.32577707920066],[135.92201219644687,34.32659894592361],[135.92186243948876,34.32841298086678],[135.92202651031624,34.32976816728949],[135.92292746794783,34.33193934008848],[135.92711389356168,34.3362697166522],[135.92987144515828,34.33983281640968],[135.9319739343594,34.343056151477064],[135.9328141152303,34.34409263453346],[135.93490003911015,34.34574907869043],[135.93843139650085,34.347592610407276],[135.9405185802709,34.34822394173997],[135.9421751820118,34.34964602500348],[135.94421824255946,34.35066902669184],[135.94621208071925,34.35544383184305],[135.9473576604212,34.35718723593333]],[[135.93523662081674,34.3503300658774],[135.93562199418793,34.35004275058426],[135.93616134993798,34.349862016313004],[135.9364056633239,34.349350915526365],[135.93608491865953,34.34906336142028],[135.93572562885723,34.3488181884666],[135.93570013491552,34.348573195412705],[135.9355718745647,34.34841351529056],[135.9350879674454,34.34884798994804],[135.93488224792262,34.34924542459281],[135.9347280128621,34.34947257093017],[135.9340599370402,34.35009684399933],[135.9338202751816,34.35011094156693],[135.9339270915866,34.35032935496618],[135.93482563996545,34.35052143161936],[135.935082421248,34.35051100552485],[135.93523662081674,34.3503300658774]]]},"properties":{"KEY_CODE":"29452003003","PREF":"29","CITY":"452","CITY_NAME":"川上村","S_NAME":"大字大滝白屋区","SETAI":"10"}},{"type":"Feature","geometry":{"type":"Polygon","coordinates":[[[135.95393066204176,34.34203410725727],[135.95382305800163,34.344092059849615],[135.95344214984905,34.34496701249217],[135.95153715651853,34.34482822974112],[135.95046423532486,34.345112367867706],[135.94929793823943,34.34589175859276],[135.9469580739621,34.348281516338275],[135.94603261910473,34.34888628320861],[135.94366117017375,34.349071555180394],[135.9421751820118,34.34964602500348],[135.9405185802709,34.34822394173997],[135.93843139650085,34.347592610407276],[135.93490003911015,34.34574907869043],[135.9328141152303,34.34409263453346],[135.9319739343594,34.343056151477064],[135.92987144515828,34.33983281640968],[135.92711389356168,34.3362697166522],[135.92292746794783,34.33193934008848],[135.92202651031624,34.32976816728949],[135.92186243948876,34.32841298086678],[135.92201219644687,34.32659894592361],[135.92241231879734,34.32577707920066],[135.9264630260989,34.32554823485792],[135.92827739073405,34.32597527819333],[135.9302515842386,34.32738816391314],[135.93200098346048,34.32882726562364],[135.93452144025684,34.33010720502898],[135.93566954380404,34.330394262227145],[135.93557228301304,34.331592791946186],[135.93592410331289,34.33364402407925],[135.93634827538327,34.33479973599806],[135.93807833649248,34.336820713128226],[135.9395610246105,34.337976272807246],[135.94329396005043,34.33947737750192],[135.94850297314903,34.34103380426322],[135.9509454414378,34.341611572912385],[135.95393066204176,34.34203410725727]]]},"properties":{"KEY_CODE":"294520040","PREF":"29","CITY":"452","CITY_NAME":"川上村","S_NAME":"大字寺尾","SETAI":"12"}},{"type":"Feature","geometry":{"type":"Polygon","coordinates":[[[135.96166684400217,34.35596887790383],[135.96052232349783,34.35656130591152],[135.9583323495838,34.35639455779435],[135.95540425685596,34.35642206674232],[135.9496804303995,34.35704587427179],[135.9473576604212,34.35718723593333],[135.94621208071925,34.35544383184305],[135.94421824255946,34.35066902669184],[135.9421751820118,34.34964602500348],[135.94366117017375,34.349071555180394],[135.94603261910473,34.34888628320861],[135.9469580739621,34.348281516338275],[135.94929793823943,34.34589175859276],[135.95046423532486,34.345112367867706],[135.95153715651853,34.34482822974112],[135.95344214984905,34.34496701249217],[135.95382305800163,34.344092059849615],[135.95393066204176,34.34203410725727],[135.9562108439916,34.34253237298876],[135.95849933094675,34.3435588456028],[135.9617591205146,34.34516084634607],[135.96378812809527,34.34631371893419],[135.964372733431,34.34659941650153],[135.9652531746097,34.3472076303078],[135.96578306282038,34.34835821269939],[135.96631377152391,34.34927312461878],[135.96734554735696,34.350058703523054],[135.96810780744428,34.35140174538837],[135.96795956222604,34.35305826879587],[135.9671156710246,34.35374478516429],[135.96166684400217,34.35596887790383]]]},"properties":{"KEY_CODE":"294520050","PREF":"29","CITY":"452","CITY_NAME":"川上村","S_NAME":"大字北塩谷","SETAI":"3"}},{"type":"Feature","geometry":{"type":"Polygon","coordinates":[[[135.96112426872307,34.33262023270929],[135.9606657885023,34.33533340517251],[135.96000662453196,34.33669823521142],[135.95866160857432,34.336301487262475],[135.957652269789,34.33669385837915],[135.95733367178389,34.33746443442615],[135.95571099093524,34.339789161258686],[135.9540417379172,34.34081321615388],[135.95393066204176,34.342034107257284],[135.9509454414378,34.341611572912385],[135.94850297314903,34.34103380426322],[135.94329396005045,34.33947737750192],[135.9395610246105,34.337976272807246],[135.93807833649248,34.336820713128226],[135.93634827538327,34.334799735998075],[135.93592410331289,34.33364402407925],[135.9355722830131,34.33159279194621],[135.93566954380404,34.33039426222711],[135.9380866724374,34.33037561427048],[135.94072894860415,34.32990426374269],[135.94186950072293,34.32951872520762],[135.9457691699577,34.327565263257746],[135.94787500383853,34.327627130243094],[135.9497670795312,34.32815879023435],[135.95188478121088,34.32900538540611],[135.95655126637655,34.32927159949674],[135.9573220956957,34.33088967501884],[135.96112426872307,34.33262023270929]]]},"properties":{"KEY_CODE":"294520060","PREF":"29","CITY":"452","CITY_NAME":"川上村","S_NAME":"大字迫","SETAI":"42"}},{"type":"Feature","geometry":{"type":"Polygon","coordinates":[[[135.95655126637655,34.32927159949674],[135.95188478121088,34.32900538540611],[135.9497670795312,34.32815879023435],[135.94787500383853,34.327627130243094],[135.9457691699577,34.327565263257746],[135.94186950072293,34.32951872520762],[135.94072894860415,34.32990426374269],[135.9380866724374,34.33037561427048],[135.93566954380404,34.33039426222711],[135.93452144025684,34.33010720502898],[135.93200098346048,34.32882726562364],[135.9302515842386,34.32738816391314],[135.92827739073405,34.32597527819333],[135.9264630260989,34.32554823485792],[135.9219601952947,34.32578750190222],[135.92048822495482,34.325427768579175],[135.91948335339669,34.32479967958475],[135.918295488858,34.32368728097405],[135.9162092709312,34.32282204581208],[135.9118523693121,34.3220616455979],[135.91023502727387,34.32136736296679],[135.90973965437308,34.32097635109159],[135.91050874856788,34.318498123155514],[135.91063875002652,34.31789430267828],[135.91184509535753,34.31654634509308],[135.91199141432125,34.315781379221505],[135.91289884418384,34.31406425264355],[135.91247864170583,34.313741915852255],[135.91188083596532,34.31311065721318],[135.9116265445237,34.3122810191543],[135.9112451273029,34.31145903703932],[135.91112409158495,34.31086785763457],[135.91152436196026,34.31019775289075],[135.91175927398345,34.30981588669783],[135.9125731432451,34.308147738192496],[135.91270369810726,34.30788116669009],[135.91220914295917,34.307275205964764],[135.91197119933437,34.306319933430665],[135.91249373452862,34.304950638643064],[135.91269398349337,34.30448225096315],[135.91312487814793,34.30354197618757],[135.91308218111675,34.30279208250619],[135.9134305287376,34.301884125618734],[135.91325318990073,34.301145116697995],[135.9130368245211,34.30035198351864],[135.9130545427668,34.29999868617925],[135.91304662218488,34.29923458352315],[135.91318238608213,34.29809205886297],[135.91346089216364,34.29753003603272],[135.91390460760212,34.29677358623619],[135.9140319814452,34.295313808529414],[135.91432778032572,34.29481673892302],[135.91458901102897,34.294139186834876],[135.91508883304775,34.2937177723156],[135.9157407319576,34.29319940362118],[135.9165325407952,34.291700517612576],[135.91645904768163,34.291350820187596],[135.91665989049224,34.29020468188721],[135.91681640796875,34.290010248024],[135.916721504334,34.289346952444],[135.91668699773504,34.28910180952668],[135.91596417396033,34.2879614903491],[135.9153161549332,34.286174198340824],[135.91529225797552,34.28544616483646],[135.91438993533038,34.28455154590986],[135.91477851344007,34.28393665108642],[135.9150105412636,34.28370494850021],[135.91519349690904,34.28349673395175],[135.91574060858647,34.28318129830578],[135.91622523465057,34.28293991276094],[135.91775766019398,34.282411889472286],[135.91822765140225,34.281918889348376],[135.91850291511497,34.28150337140054],[135.91911504023457,34.281550705062706],[135.9197600534318,34.28138351168211],[135.92013617877433,34.28114569624175],[135.92035312443673,34.28113344706942],[135.92064735851667,34.28109420254054],[135.92102168221973,34.2812079974704],[135.92117623583206,34.28117598281478],[135.92146467641444,34.28096148836953],[135.92205775676788,34.28070408915982],[135.92238175333807,34.28061808985306],[135.92267910686343,34.28040613254876],[135.92300917612897,34.28016954371388],[135.92394748597528,34.279308016520034],[135.9241852869799,34.279229139706224],[135.92472603217138,34.279343028500534],[135.92495940648507,34.27923090258232],[135.92594928632226,34.27884680502672],[135.92635659708333,34.27862011438989],[135.92701488459443,34.27852543410054],[135.9276209918294,34.27865174722962],[135.92874279184136,34.27864623153345],[135.92927748572546,34.2788857554577],[135.9293933659709,34.27890808284034],[135.92961921055576,34.2788983568125],[135.93051550890164,34.27846598575469],[135.9315915921908,34.278010188145664],[135.93228567188402,34.27774053662886],[135.934625475065,34.27819448112421],[135.93513052142262,34.278289296660056],[135.936990864345,34.28145014225128],[135.93775460047354,34.283033135352994],[135.93947250227922,34.287560999050285],[135.94064728875372,34.28942081432917],[135.9406904929172,34.29114212308906],[135.9402085993964,34.292700734318935],[135.94047686702885,34.29352425805716],[135.9426884492883,34.29799926094067],[135.94592733025743,34.302765131142834],[135.94798789581907,34.30445637503975],[135.9499929738106,34.305226151981536],[135.95233964861436,34.307025653577405],[135.95266609090328,34.30733344989067],[135.95601822062477,34.312039544276715],[135.95726564287358,34.31455918243065],[135.95791761535318,34.31794070647571],[135.957979177624,34.31833107665715],[135.95900044561384,34.3222416024636],[135.95902272566022,34.32401984490943],[135.9581853967573,34.32727340328031],[135.95841312899285,34.32776006254638],[135.95922763209526,34.32821285233686],[135.95937817451994,34.32881569887238],[135.95882356151964,34.32898284604946],[135.95655126637655,34.32927159949674]]]},"properties":{"KEY_CODE":"294520070","PREF":"29","CITY":"452","CITY_NAME":"川上村","S_NAME":"大字高原","SETAI":"52"}},{"type":"Feature","geometry":{"type":"Polygon","coordinates":[[[135.96219746322905,34.331322023045345],[135.9616872826838,34.33173179704976],[135.9611242687231,34.332620232709274],[135.9573220956957,34.3308896750188],[135.95655126637655,34.32927159949674],[135.95882356151964,34.32898284604946],[135.95937817451994,34.32881569887238],[135.95977682865052,34.328600310234265],[135.96115910932573,34.32982183949614],[135.96219746322905,34.331322023045345]]]},"properties":{"KEY_CODE":"294520080","PREF":"29","CITY":"452","CITY_NAME":"川上村","S_NAME":"大字高原土場","SETAI":"0"}},{"type":"Feature","geometry":{"type":"Polygon","coordinates":[[[135.96656964393395,34.33308967906107],[135.96569512956668,34.33292208267453],[135.96485826411524,34.332017034737866],[135.96432041494145,34.33113066267093],[135.96368135627924,34.33100946371046],[135.96284415413288,34.33107133277403],[135.96219746322905,34.331322023045345],[135.96115910932573,34.32982183949614],[135.95977682865052,34.328600310234265],[135.95922763209526,34.32821285233686],[135.95841312899285,34.32776006254638],[135.9581853967573,34.32727340328031],[135.95902272566022,34.32401984490943],[135.95900044561384,34.3222416024636],[135.957979177624,34.31833107665715],[135.95791761535318,34.31794070647571],[135.95965351442075,34.31776016609641],[135.9649629665568,34.31777167304147],[135.9682033929756,34.31817455469139],[135.97130011218547,34.319300265121626],[135.97118000714534,34.31950435530767],[135.97162447363317,34.320474219717724],[135.9722913658221,34.32130903171644],[135.97236594294353,34.32189787665992],[135.97154724353038,34.32296066690584],[135.97068016067092,34.32328274949359],[135.9696819369451,34.324673847183334],[135.96980874787704,34.32545485835998],[135.97000299262717,34.325758622611986],[135.97122866476286,34.32613082873692],[135.97252528522284,34.32682828846485],[135.97322772574347,34.32742345393983],[135.9735266303328,34.32776441130426],[135.97379539206247,34.32899776300684],[135.97380266402502,34.32972915476806],[135.9727781916533,34.33127837047655],[135.9722697822018,34.33169354904963],[135.97019156897858,34.332269492801224],[135.96846838709683,34.33286718848256],[135.96730223174532,34.33300944107308],[135.96656964393395,34.33308967906107]]]},"properties":{"KEY_CODE":"294520090","PREF":"29","CITY":"452","CITY_NAME":"川上村","S_NAME":"大字人知","SETAI":"17"}},{"type":"Feature","geometry":{"type":"Polygon","coordinates":[[[135.97855512683802,34.31205651188093],[135.98015928564868,34.31361369246959],[135.98107712400426,34.31491166500605],[135.98142047997612,34.31591413228294],[135.98167109197658,34.31886082427001],[135.98249388735087,34.321646267806386],[135.98268589928443,34.32411239381934],[135.98378072663908,34.32787751976176],[135.98538233839406,34.3304174442075],[135.9856375292912,34.331709815943654],[135.985426064012,34.33276475198636],[135.9856686602616,34.333795244551766],[135.9881733955693,34.33727444149416],[135.98871818257527,34.33847833236438],[135.98897778149907,34.3404799029003],[135.98858020450555,34.34169186088564],[135.9864636483898,34.34491603266743],[135.98597904055077,34.34634646034526],[135.9845083330324,34.34731712802583],[135.98103354712848,34.34800836433235],[135.97802978394847,34.348927488873265],[135.9762896310718,34.349885918299364],[135.97278205939105,34.35297466625474],[135.96914426630067,34.35524802839966],[135.96826064616317,34.35557336598683],[135.9649670082946,34.35596725333519],[135.96140320357864,34.35675553889469],[135.96052232349783,34.3565613059115],[135.96166684400217,34.35596887790383],[135.9671156710246,34.35374478516429],[135.96795956222604,34.35305826879587],[135.96810780744428,34.35140174538837],[135.96734554735696,34.350058703523054],[135.96631377152391,34.34927312461878],[135.96578306282038,34.34835821269939],[135.9652531746097,34.347207630307814],[135.964372733431,34.34659941650153],[135.96378812809527,34.34631371893419],[135.9617591205146,34.34516084634607],[135.95849933094675,34.3435588456028],[135.95621084399158,34.34253237298876],[135.95393066204176,34.342034107257284],[135.9540417379172,34.34081321615388],[135.95571099093524,34.339789161258686],[135.95733367178389,34.33746443442615],[135.957652269789,34.33669385837915],[135.95866160857432,34.336301487262475],[135.96000662453196,34.33669823521142],[135.9606657885023,34.33533340517251],[135.96112426872307,34.33262023270929],[135.9616872826838,34.33173179704976],[135.96284415413288,34.33107133277405],[135.96368135627924,34.33100946371046],[135.96432041494145,34.33113066267093],[135.96485826411524,34.332017034737866],[135.96569512956668,34.33292208267453],[135.96656964393395,34.33308967906107],[135.96730223174532,34.33300944107308],[135.96846838709683,34.33286718848256],[135.97019156897858,34.332269492801224],[135.9722697822018,34.331693549049625],[135.9727781916533,34.33127837047655],[135.97380266402502,34.32972915476806],[135.97379539206247,34.32899776300684],[135.9735266303328,34.32776441130426],[135.97322772574347,34.32742345393983],[135.97252528522284,34.32682828846485],[135.97122866476286,34.32613082873692],[135.97000299262717,34.325758622611986],[135.96980874787704,34.32545485835998],[135.9696819369451,34.324673847183334],[135.97068016067092,34.32328274949359],[135.97154724353038,34.32296066690584],[135.97236594294353,34.32189787665992],[135.9722913658221,34.32130903171644],[135.97162447363317,34.320474219717724],[135.97118000714534,34.31950435530767],[135.9713438193221,34.319255621132804],[135.97201827551814,34.31925579781333],[135.97318240390146,34.3197354470285],[135.97459549779856,34.32004876052608],[135.97583208873692,34.31984925873983],[135.9773065978807,34.318338442145134],[135.97802117275816,34.31661476804245],[135.9782216742661,34.313711930794085],[135.97855512683802,34.31205651188093]]]},"properties":{"KEY_CODE":"294520100","PREF":"29","CITY":"452","CITY_NAME":"川上村","S_NAME":"大字白屋","SETAI":"1"}},{"type":"Feature","geometry":{"type":"Polygon","coordinates":[[[135.97130011218547,34.319300265121626],[135.9682033929756,34.31817455469139],[135.9649629665568,34.31777167304147],[135.95965351442075,34.31776016609641],[135.95791761535318,34.31794070647571],[135.95726564287358,34.31455918243065],[135.95601822062477,34.312039544276715],[135.95266609090328,34.30733344989067],[135.95233964861436,34.307025653577405],[135.95282953368414,34.30695781818341],[135.95451412298462,34.30664648357805],[135.95669249792815,34.30625572836508],[135.95897539362556,34.306280114513086],[135.96161719401798,34.30570135355038],[135.96396933061592,34.304761527577945],[135.9649460480744,34.30457292222357],[135.96789314355578,34.30428189634441],[135.96989074951222,34.304021121991525],[135.97294201556107,34.30324640511628],[135.97611558768864,34.30325475718005],[135.9788703165947,34.30375894674136],[135.9809190010194,34.30438663067294],[135.98326904849162,34.305707407979945],[135.98554343598497,34.30734762004668],[135.9861973107846,34.30769171472487],[135.98768565520857,34.30853952224225],[135.98921499146044,34.311225378408906],[135.9900443571486,34.31220379200349],[135.9900942401692,34.31242312545366],[135.98989150641188,34.312404368628656],[135.98884295852454,34.3125449766797],[135.98612050754045,34.312266137941776],[135.9837183603406,34.31173302674684],[135.98204898353677,34.31117082265749],[135.98015885041593,34.31130176944688],[135.97855512683802,34.31205651188093],[135.9782216742661,34.313711930794085],[135.97802117275816,34.31661476804245],[135.9773065978807,34.318338442145134],[135.97583208873692,34.31984925873983],[135.97459549779856,34.32004876052608],[135.97318240390146,34.3197354470285],[135.97201827551814,34.31925579781333],[135.9713438193221,34.319255621132804],[135.97130011218547,34.319300265121626]]]},"properties":{"KEY_CODE":"294520110","PREF":"29","CITY":"452","CITY_NAME":"川上村","S_NAME":"大字井戸","SETAI":"8"}},{"type":"Feature","geometry":{"type":"Polygon","coordinates":[[[135.98936180339138,34.35207786972419],[135.98774943072368,34.351800082043994],[135.98462614060472,34.350622815998065],[135.98194478865418,34.349062147718776],[135.98103354712848,34.34800836433235],[135.9845083330324,34.34731712802583],[135.98597904055077,34.34634646034526],[135.9864636483898,34.34491603266743],[135.98858020450555,34.34169186088564],[135.98897778149907,34.3404799029003],[135.98871818257527,34.33847833236438],[135.9881733955693,34.33727444149416],[135.9856686602616,34.333795244551766],[135.985426064012,34.33276475198636],[135.9856375292912,34.331709815943654],[135.98538233839406,34.3304174442075],[135.98378072663908,34.32787751976176],[135.98268589928443,34.32411239381934],[135.98249388735087,34.321646267806386],[135.98167109197658,34.31886082427001],[135.98142047997612,34.31591413228294],[135.98107712400426,34.31491166500605],[135.98015928564868,34.31361369246959],[135.97855512683802,34.31205651188093],[135.98015885041588,34.31130176944688],[135.98204898353677,34.311170822657495],[135.98371836034062,34.31173302674683],[135.98612050754045,34.312266137941776],[135.98884295852454,34.3125449766797],[135.98989150641188,34.312404368628656],[135.9900942401692,34.31242312545366],[135.99068691676152,34.31274224814312],[135.99171958782406,34.31313578767655],[135.99259596372636,34.31322559727696],[135.99444672323955,34.31301458414445],[135.9951660147191,34.312786711979264],[135.9981322074415,34.31082430471099],[135.99937998727975,34.31019311631398],[136.0007151319633,34.30999368123715],[136.00273894791138,34.310080764917714],[136.00639561699631,34.310189338991066],[136.007714090985,34.31055570054512],[136.00792977626074,34.31065472465002],[136.0062004500108,34.312272382425],[136.00228938650213,34.318146323858535],[136.0008454408464,34.32143129881084],[136.0001668338731,34.325054352592524],[136.0003114339139,34.327449651765505],[136.00125204118208,34.33069576750479],[136.0011457204958,34.332125947834776],[136.0005576972405,34.33339651128926],[135.9992885478571,34.33496525002243],[136.00107997768384,34.33686936999071],[136.00124218764608,34.33760185392403],[136.00019334160737,34.34199204465262],[135.99872838849421,34.3452139145405],[135.99729798273881,34.347325391845956],[135.99708888549264,34.34937748637679],[135.99748374478514,34.35002434885497],[135.99592836834134,34.35058761711416],[135.9930049936774,34.351934014093075],[135.99105957480793,34.35154877175028],[135.98936180339138,34.35207786972419]]]},"properties":{"KEY_CODE":"294520120","PREF":"29","CITY":"452","CITY_NAME":"川上村","S_NAME":"大字武木","SETAI":"21"}},{"type":"Feature","geometry":{"type":"Polygon","coordinates":[[[136.03060506333068,34.345769641852016],[136.03015271671785,34.34676303576867],[136.02882178722635,34.34800879746332],[136.02830850317423,34.348830465266076],[136.02793432117804,34.35072423931358],[136.02721417131687,34.35171342667651],[136.02539132205183,34.35257181271986],[136.0240067173,34.3538943886408],[136.02330333206493,34.35417103790664],[136.019853972684,34.35374559854254],[136.0189024763095,34.35493875113859],[136.01724505853497,34.356390475708025],[136.01619534154767,34.35595616192861],[136.01557747526246,34.355843677280184],[136.01409993441925,34.356184870702236],[136.01338909916498,34.35602350301735],[136.01110310681736,34.35452387590727],[136.00968865297887,34.3531613725954],[136.0064731832486,34.35432620645502],[136.0050345482466,34.35413044357335],[136.00443086680855,34.354292028600184],[136.0036762594241,34.35421935289275],[136.0013759208816,34.3531572397306],[136.00017098131835,34.35290705442033],[135.99972552721565,34.35110850811605],[135.99808739164843,34.34979828794146],[135.99748374478514,34.35002434885497],[135.99708888549264,34.34937748637679],[135.99729798273881,34.347325391845956],[135.99872838849421,34.3452139145405],[136.00019334160737,34.34199204465262],[136.00124218764608,34.33760185392403],[136.00107997768384,34.33686936999071],[135.9992885478571,34.33496525002243],[136.0005576972405,34.33339651128926],[136.0011457204958,34.332125947834776],[136.00125204118208,34.33069576750479],[136.0003114339139,34.327449651765505],[136.0001668338731,34.325054352592524],[136.0008454408464,34.32143129881084],[136.00228938650213,34.318146323858535],[136.0062004500108,34.312272382425],[136.00792977626074,34.31065472465002],[136.008172799491,34.31076614275971],[136.01001565469875,34.31181934335849],[136.01156514771043,34.31334502339312],[136.0125757722594,34.314356402689434],[136.0134884936334,34.315047863603226],[136.01542483168228,34.31615210764314],[136.01697813111426,34.316743453392576],[136.0178132374543,34.318972756647234],[136.0199548831292,34.321880447704814],[136.0210402683451,34.32289244525282],[136.02239369058788,34.3235881333963],[136.02558536125736,34.32425111121177],[136.02562114909526,34.327087922868145],[136.02535603891866,34.32834974362056],[136.02353183862726,34.33187351298202],[136.02335440624512,34.332940249163165],[136.0244664011507,34.334797054357914],[136.0256050593526,34.33584294138241],[136.0268528673703,34.33810946710229],[136.02729394053733,34.33975274340721],[136.02677621088858,34.342925394513436],[136.0269555519803,34.343453001301796],[136.0293895486958,34.34429315566208],[136.03060506333068,34.345769641852016]]]},"properties":{"KEY_CODE":"294520130","PREF":"29","CITY":"452","CITY_NAME":"川上村","S_NAME":"大字井光","SETAI":"33"}},{"type":"Feature","geometry":{"type":"Polygon","coordinates":[[[135.9918834301191,34.30265936932752],[135.9917316047664,34.304275147693545],[135.99222836630076,34.30598168337139],[135.99367812383812,34.309405348497236],[135.99373690084795,34.310586823110484],[135.9933537442862,34.31112195466518],[135.99219908690807,34.31201355132622],[135.99171958782406,34.31313578767655],[135.99068691676152,34.31274224814312],[135.9900443571486,34.31220379200349],[135.98921499146044,34.311225378408906],[135.9876856552086,34.30853952224223],[135.9861973107846,34.30769171472487],[135.98554343598497,34.30734762004668],[135.98326904849162,34.305707407979945],[135.9809190010194,34.30438663067294],[135.9788703165947,34.30375894674136],[135.97611558768864,34.30325475718005],[135.97294201556107,34.30324640511628],[135.96989074951222,34.304021121991525],[135.96789314355578,34.30428189634441],[135.9649460480744,34.30457292222357],[135.96396933061592,34.304761527577945],[135.96161719401798,34.30570135355038],[135.95897539362556,34.306280114513086],[135.95669249792815,34.30625572836508],[135.95451412298462,34.30664648357805],[135.95282953368414,34.30695781818341],[135.95233964861436,34.307025653577405],[135.9499929738106,34.305226151981536],[135.94798789581907,34.30445637503975],[135.94592733025743,34.302765131142834],[135.9426884492883,34.29799926094067],[135.94047686702885,34.29352425805716],[135.9402085993964,34.292700734318935],[135.9406904929172,34.29114212308906],[135.94064728875372,34.28942081432917],[135.93947250227922,34.287560999050285],[135.93775460047354,34.283033135352994],[135.936990864345,34.28145014225128],[135.93513052142262,34.278289296660056],[135.9351955731977,34.278301590428185],[135.93582706589078,34.27792976484163],[135.9364645078899,34.27743904411818],[135.9365345613865,34.277375126846536],[135.93742582990123,34.27678142512592],[135.93788823004763,34.27628482310015],[135.93811077046223,34.27591149260604],[135.93845053706758,34.275563019521414],[135.9387167754938,34.27526676917727],[135.93873432264542,34.27518831274733],[135.9396793201141,34.275322512274315],[135.93993832182377,34.27536336388782],[135.94110229244072,34.27520564081371],[135.94226457377383,34.27492717772664],[135.94240288671378,34.27485610852373],[135.94308543189584,34.27487970229644],[135.9445028699186,34.27519132180047],[135.94522551807927,34.27548666668308],[135.94565252815605,34.27554195657271],[135.94688273983795,34.2758172522611],[135.9476071635572,34.276096529006956],[135.94775766630795,34.2761285804157],[135.94887071787025,34.27627435262288],[135.94943944928693,34.27644465483604],[135.9496214503283,34.276473760692284],[135.94994333971354,34.276752980198914],[135.9500761716087,34.27709874472134],[135.9502091025618,34.277261515150485],[135.95074626321852,34.27759154867085],[135.95085167086296,34.27755271632474],[135.95214369673837,34.27946633713673],[135.9537659983899,34.2809013792981],[135.9576262928745,34.28289074840293],[135.95904865343658,34.28391764496373],[135.96055210964658,34.287102459479115],[135.96246224131096,34.28896553903497],[135.96373160161835,34.28943025061906],[135.96702471771647,34.289503358577974],[135.9690298192945,34.28919146132921],[135.9717775595111,34.28907158249832],[135.97387697587058,34.28956835140809],[135.9764181347588,34.29080713293566],[135.983965850709,34.293565497429974],[135.98824944904405,34.29487389115422],[135.98848804671246,34.29523201720658],[135.98967482807305,34.2965009964724],[135.99092743128804,34.29792929998919],[135.99274628259187,34.301028688942054],[135.9929860638854,34.30143231273558],[135.9930968921631,34.30189143010607],[135.99262731024868,34.30216074187699],[135.9918834301191,34.30265936932752]]]},"properties":{"KEY_CODE":"294520140","PREF":"29","CITY":"452","CITY_NAME":"川上村","S_NAME":"大字下多古","SETAI":"8"}},{"type":"Feature","geometry":{"type":"Polygon","coordinates":[[[136.00792977626074,34.310654724650014],[136.007714090985,34.31055570054512],[136.00639561699631,34.310189338991066],[136.00273894791138,34.310080764917714],[136.0007151319633,34.30999368123715],[135.99937998727975,34.31019311631398],[135.9981322074415,34.31082430471099],[135.9951660147191,34.312786711979264],[135.99444672323955,34.31301458414445],[135.99259596372636,34.31322559727696],[135.99171958782406,34.31313578767655],[135.99219908690807,34.31201355132622],[135.9933537442862,34.31112195466518],[135.99373690084795,34.310586823110484],[135.99367812383812,34.309405348497236],[135.99222836630076,34.30598168337139],[135.9917316047664,34.304275147693545],[135.9918834301191,34.30265936932752],[135.99262731024868,34.30216074187699],[135.9930968921631,34.30189143010607],[135.9929860638854,34.30143231273558],[135.99274628259187,34.301028688942054],[135.99092743128804,34.29792929998919],[135.98967482807305,34.2965009964724],[135.98848804671246,34.29523201720658],[135.98824944904405,34.29487389115422],[135.98894854757867,34.29512261038382],[135.99198487084496,34.29619270263859],[135.99484543760911,34.297058305759464],[135.99588614682722,34.297163318593626],[135.99775919245226,34.297587580719636],[135.99950763887142,34.29786276690772],[136.00108465892396,34.2981741316846],[136.001543053481,34.29829120333268],[136.0039882286688,34.29866564801036],[136.00607614638986,34.29900835786425],[136.00946356492767,34.299331668693746],[136.0076499665688,34.30416852637157],[136.0076018189518,34.30603674339445],[136.00805834170944,34.30801622850079],[136.00769399213198,34.30960722593842],[136.00792977626074,34.310654724650014]]]},"properties":{"KEY_CODE":"294520150","PREF":"29","CITY":"452","CITY_NAME":"川上村","S_NAME":"大字白川渡","SETAI":"35"}},{"type":"Feature","geometry":{"type":"Polygon","coordinates":[[[136.01726040037158,34.31661198965766],[136.01542483168228,34.31615210764319],[136.0134884936334,34.315047863603226],[136.0125757722594,34.314356402689434],[136.01156514771043,34.31334502339312],[136.01001565469875,34.31181934335849],[136.008172799491,34.31076614275971],[136.00792977626074,34.310654724650014],[136.00769399213198,34.30960722593842],[136.00805834170944,34.30801622850079],[136.0076018189518,34.30603674339445],[136.0076499665688,34.30416852637157],[136.00946356492767,34.299331668693746],[136.00981385733004,34.29939095544745],[136.01155696200982,34.29941674145742],[136.0135219099081,34.29894307820686],[136.01494098306225,34.29851523039529],[136.01721801212605,34.29819643532775],[136.02006749783456,34.29763436088369],[136.02066399068673,34.297487053178834],[136.02172143627587,34.29722541661654],[136.02238249503503,34.29716895163864],[136.02361010095285,34.297066726165184],[136.02570983189878,34.296373897869806],[136.0273450566495,34.29568832136103],[136.02772234205088,34.295535808634476],[136.02820185078053,34.29538538292427],[136.02984797261828,34.2952358008891],[136.03140479629562,34.29469614361641],[136.03260507809387,34.293927939286206],[136.03361045925809,34.29337798708353],[136.0356808755017,34.29253244760972],[136.03769068365764,34.293045865100424],[136.03900565526894,34.29316968848246],[136.04020559275526,34.29308969802595],[136.0425966718468,34.292771207358285],[136.04398964190676,34.29276041946636],[136.0461941334001,34.29283523549522],[136.0470585320689,34.292918575567846],[136.04629956127886,34.29392495725358],[136.04448179147658,34.2956771093727],[136.0426544814187,34.29675731322795],[136.04198712497734,34.29751814160125],[136.04114625984226,34.29856852773164],[136.03941371398227,34.30004705194184],[136.03685667203337,34.30113685775319],[136.0345531486694,34.30199944210243],[136.03408230361256,34.30229724439181],[136.03313249421947,34.3033914052536],[136.0329227355423,34.30383169168707],[136.0322902152325,34.3057688752504],[136.03186014592094,34.30729915976002],[136.03146521408186,34.307911358194985],[136.03048586545128,34.30792752200176],[136.02883142075166,34.30732413175171],[136.02861420922613,34.30733319800846],[136.02748204739063,34.30754617402345],[136.02382293831798,34.30771795158689],[136.02329400857238,34.307931194775335],[136.0225773465548,34.30881714514491],[136.02105204859137,34.31035460661721],[136.02082736033756,34.31141541957133],[136.02068260140481,34.312107677786486],[136.02017309458958,34.31379240273048],[136.01945136851532,34.314714207603934],[136.01860198222565,34.31560108895102],[136.01726040037158,34.31661198965766]]]},"properties":{"KEY_CODE":"294520160","PREF":"29","CITY":"452","CITY_NAME":"川上村","S_NAME":"大字枌尾","SETAI":"16"}},{"type":"Feature","geometry":{"type":"Polygon","coordinates":[[[136.0597049287658,34.29938457631326],[136.05892744019425,34.30283811099485],[136.05907717664192,34.304463574699994],[136.0599399324373,34.30669502663949],[136.0605401069148,34.30760238588875],[136.0629897643673,34.30985443179524],[136.0638884642249,34.31110618428192],[136.06421682555117,34.31212295295423],[136.06400612637367,34.31348736451489],[136.0633753108277,34.3153629252185],[136.06347591121616,34.31754223360995],[136.06272093388776,34.32043042330642],[136.06034873568444,34.320508861248506],[136.0586084163802,34.32077793580717],[136.0551135186706,34.322206266388726],[136.0537924408944,34.32329124649758],[136.0533341424741,34.32407086084945],[136.05317698093404,34.326298171083195],[136.05254094194606,34.32763047479704],[136.05250122902135,34.32842525649697],[136.04804240493198,34.328013045866456],[136.04505038323484,34.32796741925843],[136.04171863558895,34.32762180652715],[136.04053889014304,34.32824849600414],[136.03943715102918,34.3304310650829],[136.03684929776824,34.33140787755803],[136.03482122188979,34.33268082924897],[136.03218134903554,34.33399832670339],[136.0296670405778,34.33582591265104],[136.0280132934989,34.33746040314134],[136.0268528673703,34.33810946710229],[136.0256050593526,34.33584294138241],[136.0244664011507,34.334797054357914],[136.02335440624512,34.332940249163165],[136.02353183862726,34.33187351298202],[136.02535603891866,34.32834974362056],[136.02562114909526,34.327087922868145],[136.02558536125736,34.32425111121177],[136.02239369058788,34.3235881333963],[136.0210402683451,34.32289244525282],[136.0199548831292,34.321880447704814],[136.0178132374543,34.318972756647234],[136.01697813111426,34.316743453392576],[136.01726040037158,34.31661198965766],[136.01860198222565,34.31560108895102],[136.01945136851532,34.314714207603934],[136.02017309458958,34.31379240273048],[136.02068260140481,34.312107677786486],[136.02082736033756,34.31141541957133],[136.02105204859137,34.31035460661721],[136.0225773465548,34.30881714514491],[136.02329400857238,34.307931194775335],[136.02382293831798,34.30771795158689],[136.02748204739063,34.30754617402345],[136.02861420922613,34.30733319800846],[136.02883142075166,34.30732413175171],[136.03048586545128,34.30792752200176],[136.03146521408186,34.307911358194985],[136.03186014592094,34.30729915976002],[136.0322902152325,34.3057688752504],[136.0329227355423,34.30383169168707],[136.03313249421947,34.3033914052536],[136.03408230361256,34.30229724439181],[136.0345531486694,34.30199944210243],[136.03685667203337,34.30113685775319],[136.03941371398227,34.30004705194184],[136.04114625984226,34.29856852773164],[136.04198712497734,34.29751814160125],[136.0426544814187,34.29675731322795],[136.04448179147656,34.2956771093727],[136.04629956127886,34.29392495725358],[136.04705853206895,34.292918575567846],[136.04906872636022,34.292769074079004],[136.05094020292705,34.29295402080756],[136.0529823437432,34.29373827621619],[136.05487027329582,34.2954182334021],[136.05646355987014,34.29728171327714],[136.05840886610122,34.29816100839453],[136.0597049287658,34.29938457631326]]]},"properties":{"KEY_CODE":"294520170","PREF":"29","CITY":"452","CITY_NAME":"川上村","S_NAME":"大字中奥","SETAI":"14"}},{"type":"Feature","geometry":{"type":"Polygon","coordinates":[[[136.0903679787774,34.362604377592206],[136.08970550542662,34.36241553148062],[136.08856738218824,34.3634661191971],[136.08566326047745,34.36351057018701],[136.08305412819604,34.36394031402507],[136.08161779986807,34.36383632143627],[136.0796234051313,34.36310073038909],[136.0785328192088,34.363065082011374],[136.07382038583495,34.36339494037883],[136.07157922218124,34.36429050730257],[136.0691912273338,34.364289921220575],[136.06817312828272,34.36357995010603],[136.0664035719134,34.3607587591362],[136.06551250655957,34.360557384342094],[136.06526582031827,34.359534115351536],[136.06626491567735,34.357944856489695],[136.06795044103526,34.35645604938112],[136.06850189385275,34.35520608271444],[136.06693550830556,34.35361827387256],[136.06538526526975,34.35084553699943],[136.06505529866612,34.34913182736832],[136.06518371291634,34.348411096897216],[136.0638071466508,34.34656073896549],[136.06209576776632,34.34595408002191],[136.05989804234352,34.34583601526001],[136.05796851073663,34.34640420111121],[136.05673698919892,34.34634011009596],[136.0531028280498,34.34546762607899],[136.05148912003023,34.345228120069606],[136.0493881582775,34.34418939980089],[136.04705393213936,34.34367953313961],[136.04484691683493,34.34429188071316],[136.04143499146102,34.344575636389905],[136.03811341647233,34.34554346992427],[136.03609625281518,34.3465312271703],[136.03449240284309,34.346610238376],[136.0334748249968,34.346142279514915],[136.03060506333068,34.345769641852016],[136.0293895486958,34.34429315566208],[136.0269555519803,34.343453001301796],[136.02677621088858,34.342925394513436],[136.02729394053733,34.33975274340721],[136.0268528673703,34.33810946710229],[136.0280132934989,34.33746040314134],[136.0296670405778,34.33582591265104],[136.03218134903554,34.33399832670339],[136.03482122188979,34.33268082924897],[136.03684929776824,34.33140787755803],[136.03943715102918,34.3304310650829],[136.04053889014304,34.32824849600414],[136.04171863558895,34.32762180652715],[136.04505038323484,34.32796741925843],[136.04804240493198,34.328013045866456],[136.05250122902135,34.32842525649697],[136.05254094194606,34.32763047479704],[136.05317698093404,34.326298171083195],[136.0533341424741,34.32407086084945],[136.0537924408944,34.32329124649758],[136.0551135186706,34.322206266388726],[136.0586084163802,34.32077793580717],[136.06034873568444,34.320508861248506],[136.06272093388776,34.32043042330642],[136.06347591121616,34.31754223360995],[136.0633753108277,34.3153629252185],[136.06400612637367,34.31348736451489],[136.06421682555117,34.31212295295423],[136.0638884642249,34.31110618428192],[136.0629897643673,34.30985443179524],[136.0605401069148,34.30760238588875],[136.0599399324373,34.30669502663949],[136.05907717664192,34.304463574699994],[136.05892744019425,34.30283811099485],[136.0597049287658,34.29938457631326],[136.0640692132196,34.2979923317778],[136.0670990459943,34.297707327564076],[136.06972638497083,34.29811964336065],[136.07398585914586,34.29971195410105],[136.07852126875318,34.30232811395244],[136.08029975786675,34.30261373617107],[136.08529001752805,34.30388036444973],[136.08966473838277,34.30240071437203],[136.09237144188606,34.30182842625007],[136.09493453943767,34.30164372750437],[136.09595790382906,34.30307572421982],[136.09740379550695,34.303629323261355],[136.10030003139312,34.30554663731795],[136.10460891643754,34.30552059920977],[136.1066037227476,34.30478181652569],[136.1084472993549,34.30464579109356],[136.1101703517554,34.305288739543506],[136.11160863014257,34.305074447896665],[136.11207937527826,34.306085764478986],[136.11305411482402,34.30645057648138],[136.1149096169506,34.30879577166242],[136.1162362798471,34.309633827082564],[136.11902857509872,34.31042846267763],[136.1210714532249,34.310233038522945],[136.1221658917301,34.310400146488696],[136.12446191046539,34.31236778961137],[136.12616357390658,34.31431375399623],[136.12874556319264,34.315460057154915],[136.12941219152435,34.31630853852763],[136.12748404685507,34.31872617670442],[136.126323192769,34.31936634340467],[136.1254097700222,34.32059183455881],[136.12411442872684,34.32163554119919],[136.12287430464934,34.32349198310234],[136.1227336934984,34.32431605258628],[136.12160489395814,34.326118989971455],[136.12013449677906,34.326933508257476],[136.11920363854236,34.32635600925472],[136.1160830174055,34.32621289534761],[136.11518007074298,34.32648349621993],[136.1137152212259,34.32816213442395],[136.11097767924306,34.32858340728886],[136.10899011596803,34.329297268485355],[136.108543171185,34.33103795243307],[136.10614405063706,34.333015593382065],[136.10595229683702,34.333618250341075],[136.10440631752903,34.33451634068491],[136.10365742322645,34.335329639093636],[136.1023095628864,34.336104130446515],[136.1011285618125,34.33828527400606],[136.10123525300534,34.33991019740058],[136.10200875238834,34.34151851914899],[136.10186142792585,34.342408903024165],[136.10036802255829,34.34310442884247],[136.09871287224604,34.34489639674977],[136.09722452973585,34.34781857294181],[136.09673736950958,34.34951669413158],[136.09857584845022,34.352208068519744],[136.09750898928314,34.353571509869134],[136.09748886856218,34.35505529286463],[136.09694011937157,34.356186193740896],[136.09587049737885,34.35736610974119],[136.09549938709608,34.358478694725605],[136.0955036225341,34.360002741735556],[136.09433438653704,34.36140260159059],[136.0903679787774,34.362604377592206]]]},"properties":{"KEY_CODE":"294520180","PREF":"29","CITY":"452","CITY_NAME":"川上村","S_NAME":"大字瀬戸","SETAI":"0"}},{"type":"Feature","geometry":{"type":"Polygon","coordinates":[[[136.00139535334756,34.289081293312506],[136.00217714079074,34.29009122015788],[136.0039299533431,34.29030830137182],[136.00952281492349,34.29004397987352],[136.01323168476864,34.28885148136915],[136.01366241049055,34.28939689944287],[136.01625813825643,34.290653483445595],[136.01726059776792,34.29180949787599],[136.02029503676724,34.2934491016361],[136.02419857264894,34.29465976443787],[136.02772234205088,34.295535808634476],[136.0273450566495,34.29568832136103],[136.02570983189878,34.296373897869806],[136.02361010095285,34.297066726165184],[136.02238249503503,34.29716895163864],[136.02172143627587,34.29722541661654],[136.02066399068673,34.297487053178834],[136.02006749783456,34.29763436088369],[136.01721801212605,34.29819643532775],[136.01494098306225,34.29851523039529],[136.0135219099081,34.29894307820686],[136.01155696200982,34.29941674145742],[136.00981385733004,34.29939095544745],[136.00946356492767,34.299331668693746],[136.00607614638986,34.29900835786425],[136.0039882286688,34.29866564801036],[136.001543053481,34.29829120333268],[136.00108465892396,34.2981741316846],[136.00137866773127,34.29703290814051],[136.00320045498452,34.295571054911775],[136.00268683703518,34.29480779873604],[136.00056424518098,34.2930000964297],[135.99994683225432,34.29210117128511],[136.00001481180666,34.29080767373935],[136.00056475053998,34.28973042595644],[136.00139535334756,34.289081293312506]]]},"properties":{"KEY_CODE":"294520190","PREF":"29","CITY":"452","CITY_NAME":"川上村","S_NAME":"大字北和田","SETAI":"40"}},{"type":"Feature","geometry":{"type":"Polygon","coordinates":[[[136.11449728253496,34.260802735414636],[136.117998354119,34.260536999441634],[136.1190353755644,34.262459001059845],[136.11849818233807,34.263232103157996],[136.11864096821563,34.26475468761073],[136.11970015907949,34.26585189539123],[136.12109130978865,34.26640737375008],[136.12181456610787,34.26711848540489],[136.1208020596969,34.26843783466367],[136.12096550339697,34.26923277515169],[136.12043396962096,34.27020127063391],[136.1192110598348,34.27006330770717],[136.11741879832053,34.27094766044624],[136.11661680659975,34.27396232176343],[136.11528605702267,34.27412983340917],[136.11472972853196,34.274831073585375],[136.11452877971712,34.27627536793008],[136.1138507312128,34.277001368938905],[136.11342807319446,34.27855814227959],[136.11192407012376,34.280758296693506],[136.1101576168163,34.280919236464165],[136.10976859382157,34.2813417861711],[136.10806721376696,34.281610712165794],[136.10723489492085,34.282357104521196],[136.10538794606762,34.28306156316489],[136.10345897995268,34.285309185555235],[136.1013984739152,34.28622718482706],[136.10054552323427,34.28789880031642],[136.09932596275522,34.28846795558592],[136.09782201340676,34.288797138821636],[136.09766917523692,34.28997171538754],[136.09795446028374,34.2909978809796],[136.09702307633,34.292788553343875],[136.09620410957055,34.293554993193716],[136.0958697438577,34.29455685999974],[136.09611674101455,34.295232706910056],[136.095989385252,34.29742026509647],[136.0955014287332,34.29900616364733],[136.0955689641368,34.30008067904621],[136.09493453943767,34.30164372750437],[136.09237144188606,34.30182842625007],[136.08966473838277,34.30240071437203],[136.08529001752805,34.30388036444973],[136.08029975786675,34.30261373617107],[136.07852126875318,34.30232811395244],[136.07398585914586,34.29971195410105],[136.06972638497083,34.29811964336065],[136.0670990459943,34.297707327564076],[136.0640692132196,34.2979923317778],[136.0597049287658,34.29938457631326],[136.05840886610122,34.29816100839453],[136.05646355987014,34.29728171327714],[136.05487027329582,34.2954182334021],[136.0529823437432,34.29373827621619],[136.05094020292705,34.29295402080756],[136.04906872636022,34.292769074079004],[136.04705853206895,34.292918575567846],[136.0461941334001,34.29283523549522],[136.04398964190676,34.29276041946636],[136.0425966718468,34.292771207358285],[136.04020559275526,34.29308969802595],[136.03900565526894,34.29316968848246],[136.03769068365764,34.293045865100424],[136.0356808755017,34.29253244760972],[136.03361045925809,34.29337798708353],[136.03260507809387,34.293927939286206],[136.03140479629562,34.29469614361641],[136.02984797261828,34.2952358008891],[136.02820185078053,34.29538538292427],[136.02772234205088,34.295535808634476],[136.02419857264894,34.29465976443787],[136.02029503676724,34.2934491016361],[136.01726059776792,34.29180949787599],[136.01625813825643,34.290653483445595],[136.01366241049055,34.28939689944287],[136.01323168476864,34.28885148136915],[136.00952281492349,34.29004397987352],[136.0039299533431,34.29030830137182],[136.00217714079074,34.29009122015788],[136.00139535334756,34.289081293312506],[136.0035512520739,34.287395466923435],[136.00439155025617,34.285132326269],[136.0049961810728,34.28435765645604],[136.00721546925328,34.283276412217035],[136.00768209343582,34.282732207452945],[136.00725271464918,34.2818661346451],[136.0046903573681,34.28206635204815],[136.00375312894633,34.281147995485966],[136.0043519873663,34.28030021960067],[136.00543092426267,34.27974038747552],[136.00580173834075,34.27947300792342],[136.00607672432423,34.27912561263013],[136.00631909364623,34.27827135706506],[136.00641775553032,34.27749516201843],[136.00813953076724,34.27570846237968],[136.00899996132492,34.27550684427735],[136.0121745122761,34.27600516032932],[136.0155484221756,34.27650983385383],[136.01645108878543,34.27671187448551],[136.0171459920788,34.277730143831995],[136.0174106334812,34.27863112503832],[136.0182407596672,34.27871426725835],[136.02141162450874,34.27772190161115],[136.0232839781851,34.27670209737958],[136.02433225152723,34.27566663973065],[136.02467608770337,34.27536722167732],[136.0254521712934,34.27484246223432],[136.02588275150387,34.27468473930947],[136.0270754654915,34.27438668550645],[136.02826288133315,34.274213010477816],[136.03058101626905,34.27304490652343],[136.0325591301569,34.27226297340101],[136.0339891476437,34.27181023877096],[136.0361841472295,34.2715684388984],[136.0380191618057,34.27165058366153],[136.04074822861654,34.27202711840234],[136.0430201217512,34.27210284393292],[136.04462338233506,34.27195886735301],[136.0467341757413,34.27224490438302],[136.04890527957215,34.27320129964875],[136.0490432030857,34.273261961472265],[136.05178227549922,34.27327099859999],[136.0539764798546,34.27310229079383],[136.05672686967603,34.27282848448863],[136.06019607066747,34.27263302004673],[136.06257316701888,34.272223041571],[136.06385031402934,34.27201587488496],[136.06785504294334,34.27179596401826],[136.0715267123618,34.27193083298032],[136.07331609589937,34.27208276444466],[136.0774952391551,34.27238206290216],[136.08038461038777,34.27264981467671],[136.08305186073034,34.2730511913967],[136.08648587251938,34.27426743752522],[136.0890376468071,34.27570737461408],[136.08929911778898,34.27479757462775],[136.08975513120936,34.272371713086955],[136.08994478873137,34.27144238328651],[136.08996355525477,34.2695534225161],[136.08953879985825,34.267475446794144],[136.089301131328,34.26614099600129],[136.08948937450336,34.26531872052076],[136.08973711413626,34.26494550283137],[136.09065201867676,34.2645598058247],[136.09168070448735,34.264582826541464],[136.09371995457556,34.26483396757758],[136.09559994205222,34.264766126472246],[136.0972732894923,34.26426693099582],[136.09921791231926,34.263526851291914],[136.10244811542205,34.26237328678303],[136.1034034502693,34.26225298878455],[136.1061267825281,34.26262443764885],[136.10852267353147,34.26250011390601],[136.11043766476914,34.26178593469665],[136.11216045507427,34.2612580139679],[136.11449728253496,34.260802735414636]]]},"properties":{"KEY_CODE":"29452020001","PREF":"29","CITY":"452","CITY_NAME":"川上村","S_NAME":"大字神之谷","SETAI":"5"}},{"type":"Feature","geometry":{"type":"Polygon","coordinates":[[[136.0554376223191,34.26346289382116],[136.05757634696565,34.26134641674379],[136.0594603050597,34.25976124816052],[136.0625321740326,34.25802457989056],[136.06437393969563,34.2575638127268],[136.06888612377654,34.257248334527276],[136.07115224284817,34.25630190007798],[136.0750756474846,34.25512154909004],[136.07811784264683,34.25353549627756],[136.08097455060445,34.25080292895646],[136.08302126398513,34.24958230262327],[136.08518037468477,34.2489302690401],[136.0887175354999,34.24851100944082],[136.09013862752244,34.24812114215687],[136.092781624865,34.24792275789237],[136.09458580481862,34.247495916255716],[136.09645197836608,34.246073160041725],[136.09690352030682,34.245219804804556],[136.09722041258792,34.243423306702354],[136.09773060806782,34.242643039385456],[136.09777948235006,34.24087803428054],[136.09892205692617,34.23958687365079],[136.10141851806395,34.23832260480956],[136.10305448906323,34.23673064458767],[136.10311212145945,34.235797165872405],[136.1047720038087,34.23272932758619],[136.10676396919968,34.22992192214595],[136.10852567460825,34.227716089676946],[136.11033102749846,34.22712927467204],[136.10961086218282,34.228111377797525],[136.11049548881948,34.2293330846359],[136.11260303146477,34.22914675102339],[136.11351056846837,34.2288309153787],[136.11566436882043,34.22963905510685],[136.1166259337175,34.23050211218211],[136.11653554711427,34.23186754050032],[136.1174727055507,34.23307462149364],[136.11759912872705,34.23428459503309],[136.11865528360164,34.23494031029305],[136.12006722939358,34.23665656666818],[136.1212352694727,34.237024199734066],[136.12174392235082,34.23856314013391],[136.1225914163858,34.23977026573887],[136.12393727195055,34.24056243662733],[136.12462196410473,34.241311742058876],[136.1261416783298,34.241556703347],[136.12838124045246,34.2426586616788],[136.13024273480488,34.24286390763656],[136.1305040483285,34.24404047618718],[136.13063253111042,34.24643135157383],[136.13014621444574,34.24816810567666],[136.12943861901624,34.248807002505224],[136.12962691359445,34.24955482691469],[136.13141945020732,34.25183812256548],[136.1318138314264,34.25192884288702],[136.13019915652959,34.25332702163433],[136.12841348153907,34.25389253020858],[136.12804777500517,34.2546078321757],[136.12779863108543,34.25649956420293],[136.1263650241104,34.25727807075565],[136.12518372703354,34.25825309295702],[136.12271138943328,34.25858911870038],[136.12214517747017,34.259448401118355],[136.12077877172393,34.26006905304508],[136.11799835411904,34.260536999441634],[136.11449728253496,34.260802735414636],[136.11216045507427,34.2612580139679],[136.11043766476914,34.26178593469665],[136.10852267353147,34.26250011390601],[136.1061267825281,34.26262443764885],[136.1034034502693,34.26225298878455],[136.10244811542205,34.26237328678303],[136.09921791231926,34.263526851291914],[136.0972732894923,34.26426693099582],[136.09559994205222,34.264766126472246],[136.09371995457556,34.26483396757758],[136.09168070448735,34.264582826541464],[136.09065201867676,34.2645598058247],[136.08973711413626,34.26494550283137],[136.08948937450336,34.26531872052076],[136.089301131328,34.26614099600129],[136.08953879985825,34.267475446794144],[136.0899635552548,34.26955342251609],[136.08994478873137,34.27144238328651],[136.08975513120936,34.272371713086955],[136.08929911778898,34.27479757462775],[136.0890376468071,34.27570737461408],[136.08648587251938,34.27426743752522],[136.08305186073034,34.2730511913967],[136.08038461038777,34.27264981467671],[136.0774952391551,34.27238206290216],[136.07331609589937,34.27208276444466],[136.0715267123618,34.27193083298032],[136.06785504294334,34.27179596401826],[136.06385031402934,34.27201587488496],[136.06257316701888,34.272223041571],[136.06019607066747,34.27263302004673],[136.05672686967603,34.27282848448863],[136.0539764798546,34.27310229079383],[136.05178227549922,34.27327099859999],[136.0490432030857,34.273261961472265],[136.05017062441283,34.27221793431265],[136.0535570287783,34.26935908884385],[136.0550157403802,34.26796297420932],[136.0560763968103,34.266035926360445],[136.05612119145496,34.26530632661335],[136.0557306240494,34.26421290799415],[136.0554376223191,34.26346289382116]]]},"properties":{"KEY_CODE":"29452020002","PREF":"29","CITY":"452","CITY_NAME":"川上村","S_NAME":"大字神之谷三之公","SETAI":"0"}},{"type":"Feature","geometry":{"type":"Polygon","coordinates":[[[135.99526747871676,34.279642635559306],[135.99493344643838,34.282483095393125],[135.99534637140928,34.2842305253808],[135.99711748605532,34.28661799899566],[135.99831944912447,34.288634370632074],[135.99898287483575,34.29044067227936],[135.99994683225432,34.29210117128511],[136.00056424518098,34.2930000964297],[136.00268683703518,34.29480779873604],[136.00320045498452,34.295571054911775],[136.00137866773127,34.29703290814051],[136.00108465892396,34.2981741316846],[135.99950763887142,34.29786276690772],[135.99775919245226,34.297587580719636],[135.99588614682722,34.297163318593626],[135.99484543760911,34.297058305759464],[135.99198487084496,34.29619270263859],[135.98894854757867,34.29512261038382],[135.98824944904405,34.29487389115422],[135.983965850709,34.293565497429974],[135.9764181347588,34.29080713293566],[135.97387697587058,34.28956835140809],[135.9717775595111,34.28907158249832],[135.9690298192945,34.28919146132921],[135.96702471771647,34.289503358577974],[135.96373160161835,34.28943025061906],[135.96246224131096,34.28896553903497],[135.96055210964658,34.287102459479115],[135.95904865343658,34.28391764496373],[135.9576262928745,34.28289074840293],[135.9537659983899,34.2809013792981],[135.95214369673837,34.27946633713673],[135.95085167086296,34.27755271632474],[135.95122591713096,34.277414550710894],[135.9517440714575,34.27724630210586],[135.9524354054694,34.27726253237584],[135.9533979312308,34.27748385032031],[135.95366045530773,34.27750425156759],[135.9540105605544,34.27739987633302],[135.95417514479794,34.27725752328989],[135.95437298422834,34.27713406255539],[135.954449998078,34.277113809852224],[135.95513268021975,34.276936881271446],[135.95527973428938,34.27685270112808],[135.95584691410815,34.27663204818243],[135.95633179025035,34.276470947603364],[135.95675188587396,34.2763926533771],[135.9568815244864,34.27611377343296],[135.957158101971,34.27601217472982],[135.9574312202419,34.275814777438235],[135.95791439568478,34.2755243450923],[135.95873528988514,34.275401121808684],[135.9589313159024,34.27540697444081],[135.9592570452665,34.2749247414624],[135.95958264500797,34.27475637902402],[135.96000620981266,34.27465481525613],[135.96042450861765,34.27457508140946],[135.9614255543074,34.2745549906451],[135.9618806207304,34.27441567421134],[135.96197512265292,34.27441866415032],[135.9629822621507,34.27438968809354],[135.96325127388002,34.274133945166305],[135.9633694087691,34.27393267213972],[135.96332368622058,34.27343734192724],[135.96320570167777,34.27323599404674],[135.9628189136816,34.27272421127816],[135.96185192851314,34.271594494365424],[135.9596063204671,34.26969696215796],[135.95823579672484,34.268994325896564],[135.95793087044677,34.26884459944148],[135.9583567423006,34.268302116407234],[135.95854416643974,34.26789689341986],[135.95879628711722,34.26760918424944],[135.95885583071524,34.26750467842899],[135.95898544284367,34.2672315730524],[135.95935306869407,34.26692953820175],[135.9596245085256,34.266434187708484],[135.96018469153194,34.26592583131887],[135.9603875477743,34.26627174844291],[135.9606884889608,34.266417095382856],[135.96102610294955,34.26672671246743],[135.96131648247786,34.26700278558773],[135.96185887483747,34.267249922765494],[135.96236986412006,34.267250095182604],[135.96268832235458,34.26734331946525],[135.96312921895571,34.26759041811299],[135.96377486595884,34.26782166309648],[135.96429979336384,34.2679845421947],[135.9638802135559,34.266871499275524],[135.96389609806806,34.26650100519116],[135.9640292208068,34.26614646647085],[135.96432203609712,34.26458482529807],[135.9642398316515,34.26446702808053],[135.96404745074668,34.264170566799834],[135.9640335130547,34.26400785229202],[135.96418760980143,34.26369699131469],[135.964464203556,34.26341814727207],[135.96477407001197,34.26304478657038],[135.9646763177109,34.26235616089612],[135.96459415935402,34.26214538675129],[135.9648133457894,34.260923640286215],[135.9649727374874,34.26051247243758],[135.96521436568557,34.26014063385542],[135.96517608019383,34.2595652831219],[135.96546488357535,34.25936913106109],[135.9658918852601,34.25923275263562],[135.9661823569747,34.25925030935226],[135.96685079618382,34.259238816666745],[135.9683611886258,34.258403860721],[135.96878470984007,34.25819478043536],[135.96945147225398,34.257943643852315],[135.97069043884736,34.25761855654421],[135.97122065464228,34.257547414186526],[135.97185193717615,34.25745347323439],[135.97239988654408,34.2575119339507],[135.97271839376353,34.257403256974875],[135.97286864076202,34.25732243198026],[135.97330090183198,34.2574538330797],[135.9738327388653,34.25756750529957],[135.97490814244267,34.25813167801281],[135.97827267491135,34.26042906934803],[135.97963709197737,34.262110793331665],[135.98038677234678,34.26347752123539],[135.9812039698128,34.265787662197404],[135.9819837397833,34.267279461859054],[135.98349343652387,34.269248750907515],[135.9842193163328,34.270602184437166],[135.98464104700446,34.27238764358729],[135.98408081026216,34.27466153004282],[135.98413493035468,34.27793948081135],[135.9844842196788,34.27927906442821],[135.9853341695898,34.28088959100671],[135.98592077183824,34.28128803468691],[135.990023548848,34.28132824795473],[135.99226921060716,34.280775449042494],[135.99526747871676,34.279642635559306]]]},"properties":{"KEY_CODE":"294520210","PREF":"29","CITY":"452","CITY_NAME":"川上村","S_NAME":"大字上多古","SETAI":"27"}},{"type":"Feature","geometry":{"type":"Polygon","coordinates":[[[136.00543092426267,34.27974038747552],[136.0043519873663,34.28030021960067],[136.00375312894633,34.281147995485966],[136.0046903573681,34.28206635204815],[136.00725271464918,34.2818661346451],[136.00768209343582,34.282732207452945],[136.00721546925328,34.283276412217035],[136.0049961810728,34.28435765645604],[136.00439155025617,34.285132326269],[136.0035512520739,34.287395466923435],[136.00139535334756,34.289081293312506],[136.00056475053998,34.28973042595644],[136.00001481180666,34.29080767373935],[135.99994683225432,34.29210117128511],[135.99898287483575,34.29044067227936],[135.99831944912447,34.288634370632074],[135.99711748605532,34.28661799899566],[135.99534637140928,34.2842305253808],[135.99493344643838,34.282483095393125],[135.99526747871676,34.279642635559306],[135.99578836772912,34.27763817124849],[135.99651954932173,34.27607682432164],[135.99765326719472,34.27469468602234],[136.00051937271982,34.275602400474924],[136.00163851039443,34.27600136531171],[136.00298657464973,34.276719815561805],[136.00307983204797,34.277309210055165],[136.00320377411379,34.27788268773318],[136.00392003712352,34.27879145836167],[136.00468977197582,34.27934735114166],[136.00543092426267,34.27974038747552]]]},"properties":{"KEY_CODE":"294520220","PREF":"29","CITY":"452","CITY_NAME":"川上村","S_NAME":"大字柏木","SETAI":"30"}},{"type":"Feature","geometry":{"type":"Polygon","coordinates":[[[135.99526747871676,34.279642635559306],[135.99226921060716,34.280775449042494],[135.990023548848,34.28132824795473],[135.98592077183824,34.28128803468691],[135.9853341695898,34.28088959100671],[135.9844842196788,34.27927906442821],[135.98413493035468,34.27793948081135],[135.98408081026216,34.27466153004282],[135.98464104700446,34.27238764358729],[135.9842193163328,34.270602184437166],[135.98349343652387,34.269248750907515],[135.9819837397833,34.267279461859054],[135.9812039698128,34.265787662197404],[135.98038677234678,34.26347752123539],[135.97963709197737,34.262110793331665],[135.97827267491135,34.26042906934803],[135.97490814244267,34.25813167801281],[135.9738327388653,34.25756750529957],[135.97330090183198,34.2574538330797],[135.97286864076202,34.25732243198026],[135.972891708288,34.25731004060265],[135.97314948495648,34.25667264200082],[135.97285187755793,34.25615020287369],[135.9720769922884,34.255311658297174],[135.9718059202961,34.25485684166121],[135.97178148619042,34.25465341084332],[135.971822558453,34.253036878039616],[135.97159279368668,34.25252911212803],[135.9713190950907,34.25174916772925],[135.97052457055767,34.25048772026356],[135.97009440720137,34.24950459105505],[135.96989173004945,34.2484870099867],[135.96989446212177,34.24760359699146],[135.97058212012988,34.246281550776],[135.9693511843765,34.24414941391112],[135.97042424927534,34.24397897909864],[135.97435954541504,34.244002935009064],[135.97900740358585,34.24459699270169],[135.98052792274552,34.244378231216814],[135.9812210679707,34.24670937499058],[135.98168032745602,34.24729239254594],[135.98391266340684,34.249050025641],[135.9851398325514,34.25080662432241],[135.98640887206528,34.25164358504443],[135.9871908318019,34.25261641639453],[135.98843231038748,34.25476389554492],[135.99036417737878,34.256312299395184],[135.99184941208722,34.257982914917726],[135.99222588425152,34.25912092410235],[135.993669640547,34.26146587976687],[135.99472023694435,34.26215790059411],[135.998659956409,34.267863001549756],[135.99892600441416,34.2685818469775],[135.9984078603374,34.27039182686425],[135.99829579634994,34.27181485185996],[135.99798036997458,34.274185613288395],[135.99765326719472,34.27469468602234],[135.99651954932173,34.27607682432164],[135.99578836772912,34.27763817124849],[135.99526747871676,34.279642635559306]]]},"properties":{"KEY_CODE":"294520230","PREF":"29","CITY":"452","CITY_NAME":"川上村","S_NAME":"大字上谷","SETAI":"5"}},{"type":"Feature","geometry":{"type":"Polygon","coordinates":[[[136.0232839781851,34.27670209737958],[136.02141162450874,34.27772190161115],[136.0182407596672,34.27871426725835],[136.0174106334812,34.27863112503832],[136.0171459920788,34.277730143831995],[136.01645108878543,34.27671187448551],[136.0155484221756,34.27650983385383],[136.0121745122761,34.27600516032932],[136.00899996132492,34.27550684427735],[136.00813953076724,34.27570846237968],[136.00641775553032,34.27749516201843],[136.00631909364623,34.27827135706506],[136.00607672432423,34.27912561263013],[136.00580173834075,34.27947300792342],[136.00468977197582,34.27934735114166],[136.00392003712352,34.27879145836167],[136.00320377411379,34.27788268773318],[136.00307983204797,34.277309210055165],[136.00298657464973,34.276719815561805],[136.00163851039443,34.27600136531171],[136.00051937271982,34.275602400474924],[135.99765326719472,34.27469468602234],[135.99798036997458,34.274185613288395],[135.99829579634994,34.271814851859986],[135.9993143012985,34.27117534755089],[135.9997929032974,34.270950956692516],[136.00249921181103,34.27017944095005],[136.00505717347934,34.26929981173326],[136.00637215294222,34.268639651807106],[136.00745340815192,34.267616043661],[136.00939489994792,34.264836835030586],[136.010595638785,34.2623694005128],[136.01299786667911,34.256953601971276],[136.0154715288077,34.254351816295646],[136.0170944428717,34.25740773142762],[136.0181707230154,34.25965903253553],[136.0192174258947,34.261610409383884],[136.01966595213597,34.262209044005154],[136.0208489148365,34.26339865630398],[136.02293102953274,34.265088609050686],[136.02598795989303,34.267849767334134],[136.0292736280725,34.269691598228235],[136.02985712813773,34.27008110313091],[136.0325591301569,34.27226297340101],[136.03058101626905,34.27304490652343],[136.02826288133315,34.274213010477816],[136.0270754654915,34.27438668550645],[136.02588275150387,34.27468473930947],[136.0254521712934,34.27484246223432],[136.02467608770337,34.27536722167732],[136.02433225152723,34.27566663973065],[136.0232839781851,34.27670209737958]]]},"properties":{"KEY_CODE":"294520240","PREF":"29","CITY":"452","CITY_NAME":"川上村","S_NAME":"大字大迫","SETAI":"3"}},{"type":"Feature","geometry":{"type":"Polygon","coordinates":[[[136.01984251282832,34.236751806184046],[136.01788501891372,34.23952608859295],[136.01700648441394,34.24129869435515],[136.01611455299133,34.24240974454281],[136.01478623735767,34.24343222481141],[136.01384212205673,34.244655527950385],[136.01348158568402,34.24713187692963],[136.01380878956525,34.2492603397454],[136.01471447206055,34.25255800551955],[136.01547152880767,34.254351816295646],[136.01299786667911,34.256953601971276],[136.010595638785,34.2623694005128],[136.00939489994792,34.264836835030586],[136.00745340815192,34.267616043661],[136.00637215294222,34.268639651807106],[136.00505717347934,34.26929981173326],[136.00249921181103,34.27017944095005],[135.9997929032974,34.270950956692516],[135.9993143012985,34.27117534755089],[135.99829579634994,34.27181485185996],[135.9984078603374,34.27039182686425],[135.99892600441416,34.2685818469775],[135.998659956409,34.267863001549756],[135.99472023694435,34.26215790059411],[135.993669640547,34.26146587976687],[135.99222588425152,34.25912092410235],[135.99184941208722,34.257982914917726],[135.99036417737878,34.256312299395184],[135.98843231038748,34.25476389554492],[135.9871908318019,34.25261641639453],[135.98640887206528,34.25164358504443],[135.9851398325514,34.25080662432241],[135.98391266340684,34.249050025641],[135.98168032745602,34.24729239254594],[135.9812210679707,34.24670937499058],[135.98052792274552,34.244378231216814],[135.97900740358585,34.24459699270169],[135.97435954541504,34.244002935009064],[135.97042424927534,34.24397897909864],[135.9693511843765,34.24414941391112],[135.96895158166257,34.243890668851456],[135.9682278169459,34.243395031783585],[135.967526017138,34.24299180487038],[135.9667633886763,34.24183688875483],[135.96638456475782,34.24110356015354],[135.96596414665746,34.24043318531346],[135.9658201195361,34.239647243152056],[135.96492041733308,34.23894840134247],[135.96449277173605,34.23803234692756],[135.96407232027303,34.23754072641278],[135.96401368105208,34.23740660190025],[135.96380608940666,34.23663683581958],[135.96351281937243,34.23616566556776],[135.96353732792943,34.23603564897178],[135.96320734084608,34.23566786632863],[135.96326133862868,34.235164267868875],[135.9637946297365,34.23466476826335],[135.96417140440695,34.234181557595775],[135.9644233235672,34.234053725386815],[135.9650053075761,34.23411476374555],[135.9653282133854,34.233793955977525],[135.9650887165205,34.23339986296778],[135.96433083560498,34.2329122103385],[135.96419655353296,34.23236995268849],[135.9649205225123,34.23195178665822],[135.96488155252453,34.23154564037382],[135.96473740516535,34.23120229083786],[135.96391102050598,34.23086901325601],[135.96364696040033,34.23081201807928],[135.9635369985806,34.23061490370841],[135.96326348984283,34.22968464137195],[135.96354237399066,34.229355792956596],[135.96339576370502,34.229083582567725],[135.96322236112812,34.228549483042244],[135.96312465327614,34.22830968895963],[135.96282652673807,34.22781808250213],[135.9643351352052,34.22675297548857],[135.96518830697192,34.225440279377054],[135.96665042530415,34.2250507636624],[135.9681468513665,34.22517684182986],[135.96926028710737,34.22462815092902],[135.97354848666222,34.22461637752242],[135.9761503381188,34.22546372428152],[135.97742450098767,34.22570416324108],[135.97845140728091,34.22630278775071],[135.98178540588412,34.2267013133304],[135.98327788664972,34.2278807869886],[135.98633221564137,34.22816770849674],[135.9890244716945,34.22761885826958],[135.99181432945105,34.22845938903615],[135.9943666683975,34.22842135639657],[135.99632306552147,34.22863640945509],[135.9975894149908,34.22960074485766],[135.99954206632847,34.23032248733293],[136.00115126743142,34.23133482233319],[136.00178453360817,34.232619176704205],[136.00395786417653,34.23339520655781],[136.0075974021828,34.232892114305685],[136.0106345129253,34.233292662680704],[136.01232834597917,34.23381089753027],[136.0153254639073,34.23390237405359],[136.01701777181134,34.23431432511616],[136.01908706032455,34.23632086435734],[136.01984251282832,34.236751806184046]]]},"properties":{"KEY_CODE":"294520250","PREF":"29","CITY":"452","CITY_NAME":"川上村","S_NAME":"大字伯母谷","SETAI":"3"}},{"type":"Feature","geometry":{"type":"Polygon","coordinates":[[[136.05017062441283,34.27221793431265],[136.04890527957215,34.27320129964875],[136.0467341757413,34.27224490438302],[136.04462338233506,34.27195886735301],[136.0430201217512,34.27210284393292],[136.04074822861654,34.27202711840234],[136.0380191618057,34.27165058366153],[136.0361841472295,34.2715684388984],[136.0339891476437,34.27181023877096],[136.0325591301569,34.27226297340101],[136.02985712813773,34.27008110313091],[136.0292736280725,34.269691598228235],[136.02598795989303,34.267849767334134],[136.02293102953274,34.265088609050686],[136.0208489148365,34.26339865630398],[136.01966595213597,34.262209044005154],[136.0192174258947,34.261610409383884],[136.0181707230154,34.25965903253553],[136.0170944428717,34.25740773142762],[136.01547152880767,34.254351816295646],[136.01471447206055,34.25255800551955],[136.01380878956525,34.2492603397454],[136.01348158568402,34.24713187692963],[136.01384212205673,34.244655527950385],[136.01478623735767,34.24343222481141],[136.01611455299133,34.24240974454281],[136.01700648441394,34.24129869435515],[136.01788501891372,34.23952608859295],[136.01984251282832,34.236751806184046],[136.02229463103924,34.23567044067095],[136.02324888542648,34.23498478062851],[136.02489181495906,34.23475850101486],[136.02558901693058,34.232991673350305],[136.02569294437833,34.23119932693892],[136.0262721815808,34.23066952075526],[136.02679357347407,34.22721505543547],[136.02538555327854,34.22630123450533],[136.02529456316014,34.22528132959838],[136.02480573651798,34.224852613283794],[136.02537835973732,34.222905761105885],[136.0266137382346,34.22239482472956],[136.02651811505186,34.22133787118516],[136.02773265300556,34.21913109221534],[136.02761796011026,34.21829898069562],[136.0283822550322,34.21691316839043],[136.02835170883748,34.21563756570741],[136.0298587388307,34.214548237750186],[136.0300732393028,34.213806201157134],[136.03087600916203,34.21354579689535],[136.03179850462888,34.21145793591095],[136.03279179756245,34.21086570658553],[136.03301029491496,34.21019353321174],[136.03420820836996,34.20943782546855],[136.0348358505705,34.2081386455278],[136.03662551724884,34.20813219129697],[136.03836269740984,34.2074588279475],[136.0409870292415,34.20847225103807],[136.04336323587876,34.20898602886029],[136.04552563971794,34.20723921669422],[136.04698682327057,34.20673093458708],[136.05051170772256,34.20697049440962],[136.0514208178493,34.20662790780902],[136.05325812978256,34.206810502948],[136.05557359365912,34.20736095541718],[136.05759022568563,34.20711809461504],[136.05859092277717,34.206419552453234],[136.05897178372038,34.204956493181875],[136.05961716031493,34.20393903204044],[136.06031300527624,34.20356859749991],[136.062757893624,34.20031564512151],[136.06374433132032,34.19949014864871],[136.06668448029987,34.199880020408706],[136.06797376847518,34.19922970281649],[136.06919053678058,34.19917560400467],[136.0711729893317,34.19977301641534],[136.0717275266501,34.200519334499695],[136.07410126858622,34.20105661856284],[136.07716206786802,34.19928485099807],[136.07905836588358,34.19935801034207],[136.0811883337406,34.19848540209298],[136.08196405372863,34.19937791275382],[136.08330037252134,34.19918202310658],[136.0848055093766,34.19940427354702],[136.08641111300673,34.198900060616246],[136.08741301326597,34.19914757544138],[136.0901169020506,34.196244310278274],[136.09336237917364,34.19560676562456],[136.0963840656623,34.198491339301114],[136.09682338577656,34.19961324987552],[136.09697280865936,34.20157123809185],[136.09769010523522,34.20266180125961],[136.10136505114994,34.203719297805655],[136.10218126957383,34.20505856122595],[136.10410503612297,34.20592521890807],[136.10673680932987,34.20660047657969],[136.1073413855522,34.20741635410698],[136.10720168434875,34.20925848049563],[136.107799250123,34.21041218600032],[136.10848810320496,34.2108051945326],[136.1070408097603,34.21187673418829],[136.1060019858336,34.212452008428826],[136.09394404854942,34.2182507199501],[136.09111324050875,34.21949876779668],[136.08829854594575,34.22047356434996],[136.08537980883176,34.22148104346184],[136.08180288517045,34.22292561675407],[136.07647996496183,34.224838448301554],[136.07487517541855,34.22524852727978],[136.07143684818627,34.225692476381425],[136.06950691870205,34.22581346417244],[136.0643700936667,34.227214017824245],[136.05797906655232,34.22876740941868],[136.05575543785707,34.22970457735335],[136.05528749001317,34.230144747715286],[136.0539977421308,34.231847532405446],[136.05181564115816,34.23435423976047],[136.04902954333303,34.236860436889096],[136.0465217585353,34.2389284264557],[136.04493952184694,34.23984565572464],[136.0419015341469,34.241467727959765],[136.03971813067923,34.242062502270464],[136.03875659537408,34.24236892235045],[136.04162542662093,34.24392492758601],[136.0426556897852,34.24486081761627],[136.04420865934466,34.2461515402158],[136.0452332927678,34.24728466065279],[136.0460738088042,34.24865634644026],[136.04635824635204,34.25043536810795],[136.04649409124815,34.251848025813516],[136.04684683665178,34.253484874351244],[136.04756061291602,34.255302581481686],[136.04792294722108,34.25587100789695],[136.04897600080199,34.25682134980806],[136.04956849539764,34.25718555222255],[136.05116866354138,34.25804422452643],[136.05194223810574,34.258479058032194],[136.05371141287566,34.26003325986399],[136.05436427196352,34.261003592181176],[136.0554376223191,34.26346289382116],[136.0557306240494,34.26421290799415],[136.05612119145496,34.26530632661335],[136.0560763968103,34.266035926360416],[136.0550157403802,34.26796297420932],[136.0535570287783,34.26935908884385],[136.05017062441283,34.27221793431265]]]},"properties":{"KEY_CODE":"29452026001","PREF":"29","CITY":"452","CITY_NAME":"川上村","S_NAME":"大字入之波","SETAI":"16"}},{"type":"Feature","geometry":{"type":"Polygon","coordinates":[[[136.0554376223191,34.26346289382116],[136.05436427196352,34.261003592181176],[136.05371141287566,34.26003325986399],[136.05194223810574,34.258479058032194],[136.05116866354138,34.25804422452643],[136.04956849539764,34.25718555222255],[136.04897600080199,34.25682134980806],[136.04792294722108,34.25587100789695],[136.04756061291602,34.255302581481686],[136.04684683665172,34.25348487435124],[136.04649409124815,34.251848025813516],[136.04635824635204,34.25043536810795],[136.0460738088042,34.24865634644025],[136.0452332927678,34.24728466065279],[136.04420865934466,34.2461515402158],[136.0426556897852,34.24486081761627],[136.04162542662093,34.24392492758601],[136.03875659537408,34.24236892235045],[136.03971813067923,34.242062502270464],[136.0419015341469,34.241467727959765],[136.04493952184694,34.23984565572464],[136.0465217585353,34.2389284264557],[136.04902954333303,34.236860436889096],[136.05181564115816,34.23435423976047],[136.0539977421308,34.231847532405446],[136.05528749001317,34.230144747715286],[136.05575543785707,34.22970457735335],[136.05797906655232,34.22876740941868],[136.0643700936667,34.227214017824245],[136.06950691870205,34.22581346417244],[136.07143684818627,34.225692476381425],[136.07487517541855,34.22524852727978],[136.07647996496183,34.22483844830154],[136.08180288517045,34.22292561675407],[136.08537980883176,34.22148104346184],[136.08829854594575,34.22047356434996],[136.09111324050875,34.21949876779668],[136.09394404854942,34.2182507199501],[136.1060019858336,34.212452008428826],[136.1070408097603,34.21187673418829],[136.10848810320493,34.21080519453261],[136.11003245443882,34.211249285390295],[136.11207396885516,34.210511951146295],[136.11420141008935,34.21059076021036],[136.11532334981553,34.21036601694838],[136.11543630368345,34.210865193662634],[136.1169028425063,34.212689334505725],[136.11700142499157,34.21364438018757],[136.1180645583294,34.21413658226744],[136.11878216282702,34.21542673447878],[136.11747961071944,34.21675192550718],[136.1167137876701,34.218455842339],[136.1174038520227,34.21967347183851],[136.11681279704905,34.221480737760096],[136.11732891014248,34.22310886790376],[136.11637923660896,34.22357184130453],[136.11527396694328,34.223351159687944],[136.11317761107762,34.224308240278695],[136.11205038621114,34.22445015491982],[136.11092478964665,34.22395602112854],[136.1094536212017,34.22430136270625],[136.10994162682235,34.22550467114939],[136.1098508414074,34.22663806590348],[136.11033102749846,34.22712927467204],[136.10852567460825,34.227716089676946],[136.10676396919968,34.22992192214595],[136.1047720038087,34.23272932758619],[136.10311212145945,34.235797165872405],[136.10305448906323,34.23673064458767],[136.10141851806395,34.23832260480956],[136.09892205692617,34.23958687365079],[136.09777948235006,34.24087803428054],[136.09773060806782,34.242643039385456],[136.09722041258792,34.243423306702354],[136.09690352030682,34.245219804804556],[136.09645197836608,34.246073160041725],[136.09458580481862,34.247495916255716],[136.092781624865,34.24792275789237],[136.09013862752244,34.24812114215687],[136.0887175354999,34.24851100944082],[136.08518037468477,34.2489302690401],[136.08302126398513,34.24958230262327],[136.08097455060445,34.25080292895646],[136.07811784264683,34.25353549627756],[136.0750756474846,34.25512154909004],[136.07115224284817,34.25630190007798],[136.06888612377654,34.257248334527276],[136.06437393969563,34.2575638127268],[136.0625321740326,34.25802457989056],[136.0594603050597,34.25976124816052],[136.05757634696565,34.26134641674379],[136.0554376223191,34.26346289382116]]]},"properties":{"KEY_CODE":"29452026002","PREF":"29","CITY":"452","CITY_NAME":"川上村","S_NAME":"大字入之波筏場","SETAI":"2"}}]}