{"type":"FeatureCollection","features":[{"type":"Feature","geometry":{"type":"Polygon","coordinates":[[[133.87137026214452,35.419418605024056],[133.8708015120102,35.41975121248926],[133.86992116681205,35.42008195620377],[133.86909991411196,35.4205029193266],[133.8687771571435,35.42082755696614],[133.86822951340523,35.421271395201316],[133.86763490425065,35.42198191437992],[133.86742796460888,35.42206220726905],[133.86694604451478,35.42184749871057],[133.86692955459023,35.42181204432381],[133.86477577751603,35.417244631989945],[133.8637016439929,35.41686624254808],[133.86363981605257,35.41517948118306],[133.86103343804973,35.413933282145095],[133.85995014109287,35.41020431959008],[133.8573422969344,35.409519218771386],[133.85692736258818,35.40815591907935],[133.8573519951913,35.40748929994263],[133.8583760403379,35.40624808510412],[133.8598406671325,35.405719354461716],[133.86350089376327,35.405603363729014],[133.86554793235055,35.40611523788579],[133.86666375268234,35.40644609542316],[133.86885018065104,35.4072121806562],[133.8703568782802,35.40798858122783],[133.87296206472465,35.40929892973303],[133.8741378508958,35.410040918712646],[133.8751825744077,35.41073528989307],[133.87598592987703,35.41141641825148],[133.87445621803178,35.41572114183054],[133.87343667124932,35.41947377616453],[133.8728978396877,35.419471723177246],[133.87162658888482,35.419365536232064],[133.87137026214452,35.419418605024056]]]},"properties":{"KEY_CODE":"313640010","PREF":"31","CITY":"364","CITY_NAME":"三朝町","S_NAME":"大瀬","SETAI":"421"}},{"type":"Feature","geometry":{"type":"Polygon","coordinates":[[[133.89626882356467,35.4221090180206],[133.8954063606429,35.42315887265743],[133.89340973896614,35.42370207047679],[133.89074431357471,35.422883826241815],[133.89024006167284,35.42303641300905],[133.8894944098189,35.423250434571955],[133.8884320009594,35.42349205321731],[133.88805508215913,35.42347858812237],[133.88745712627397,35.42348367191698],[133.88735130043892,35.42347690766535],[133.8864422552015,35.423574886332965],[133.8861620475789,35.42346575213576],[133.88559714166897,35.42320433270505],[133.88495710118892,35.42309600957735],[133.88474073766508,35.42308731906711],[133.88451931160185,35.4231842760807],[133.88423753044768,35.42325794614099],[133.88306456313012,35.422824110391026],[133.88234334955982,35.42214582606841],[133.8813032228945,35.422054120944445],[133.88099017963248,35.421911048535414],[133.87947922864717,35.42183104956717],[133.87935856864573,35.42125626886442],[133.87919434123197,35.421086744924054],[133.87851909826097,35.420732868171946],[133.87738849172382,35.420579944203446],[133.87684631450387,35.42006441511325],[133.87611957675247,35.419821597613165],[133.87539105681137,35.41930877604456],[133.8752311453595,35.41911609581513],[133.8746491188127,35.419397332125996],[133.87343667124932,35.41947377616453],[133.87445621803178,35.41572114183054],[133.87598592987703,35.41141641825148],[133.87660964749506,35.4118076423493],[133.87677104680796,35.41183168511975],[133.8868607421849,35.412520765611276],[133.88827246029888,35.412623836700774],[133.89297970551397,35.41159909995236],[133.89389676894226,35.412707072919645],[133.8949627617457,35.413585265907976],[133.8952166769458,35.41459912428208],[133.8951774445536,35.41547515911185],[133.89508262828045,35.41723547993937],[133.89532105640075,35.419708366788655],[133.895515354139,35.42082944300283],[133.89602860402033,35.42174628785631],[133.89642769476998,35.422042375348155],[133.89626882356467,35.4221090180206]]]},"properties":{"KEY_CODE":"313640020","PREF":"31","CITY":"364","CITY_NAME":"三朝町","S_NAME":"山田","SETAI":"173"}},{"type":"Feature","geometry":{"type":"Polygon","coordinates":[[[133.90658298896693,35.41064989997766],[133.9055517416114,35.41625530263839],[133.90597699441292,35.419885215823136],[133.90390539163377,35.41792088147956],[133.90277695435782,35.41706906783785],[133.90301380787798,35.416230077545954],[133.90294030223788,35.41548504797805],[133.902341555119,35.415181827100014],[133.90116499387042,35.41429024531041],[133.89925357694372,35.4132058358823],[133.8996843390032,35.41231997953115],[133.89908690261322,35.41177907341808],[133.89389676894226,35.412707072919645],[133.89297970551397,35.41159909995236],[133.88827246029888,35.412623836700774],[133.8868607421849,35.412520765611276],[133.8865421038697,35.41029823126593],[133.88672161790996,35.40812862479163],[133.88345667499195,35.40479700400251],[133.8848050138481,35.403940099325396],[133.88657463609727,35.401085305890405],[133.88744267061875,35.399511902553066],[133.88811753697752,35.39880280761293],[133.88923236973667,35.39823172980598],[133.89182631344542,35.39731677442649],[133.89276829883383,35.39677347217363],[133.8938734202804,35.39591315663643],[133.89558054360984,35.394317849713154],[133.89703855086216,35.39299387529656],[133.89760271770916,35.39248882218924],[133.89915440290196,35.39101385198117],[133.90129526713716,35.38968716217741],[133.90198206296915,35.389367380935],[133.90345144367228,35.38851667483957],[133.90490006481255,35.38748714516754],[133.90538396504883,35.38718429519775],[133.9058655173808,35.387390998417104],[133.90593620662438,35.388719523410614],[133.9062941553344,35.389128880603614],[133.90573119166348,35.38941215786244],[133.90530530012555,35.38941064503613],[133.90241571496907,35.390828041801555],[133.9006297267445,35.391404080163355],[133.89970808768393,35.39255959508293],[133.90057454148592,35.394321808811455],[133.9016094029715,35.39567697502835],[133.9024670559268,35.39706213823491],[133.90360327569297,35.3993695384898],[133.90274996923623,35.399311064537606],[133.90120500584104,35.3999683244324],[133.89853305665562,35.402902294773256],[133.8979408726114,35.40451801350638],[133.89790308379443,35.405314765852374],[133.8981666965277,35.40542177485326],[133.89840709702935,35.406046999803586],[133.89827300997396,35.40644559323126],[133.89836153317972,35.40745110883502],[133.89853106621203,35.40794783942058],[133.89910644118302,35.40865842583408],[133.90080220883632,35.40733159628507],[133.90196807307626,35.407126839977195],[133.90259090498088,35.40792729481809],[133.9027276701794,35.40841249218566],[133.9030081168132,35.40948150135798],[133.90325653235374,35.41050976242033],[133.90373416022325,35.41077519364171],[133.905519276927,35.41066718314669],[133.90658298896693,35.41064989997766]]]},"properties":{"KEY_CODE":"31364003001","PREF":"31","CITY":"364","CITY_NAME":"三朝町","S_NAME":"三朝三朝","SETAI":"237"}},{"type":"Feature","geometry":{"type":"Polygon","coordinates":[[[133.90574451679444,35.42623842547936],[133.9036429547784,35.42629197109741],[133.90208068748686,35.423883906128765],[133.89943094972242,35.42355059751974],[133.8986935787327,35.4222340653899],[133.89642769476998,35.422042375348155],[133.89602860402033,35.42174628785631],[133.895515354139,35.42082944300283],[133.89532105640075,35.419708366788655],[133.89508262828045,35.41723547993937],[133.8951774445536,35.41547515911185],[133.8952166769458,35.41459912428208],[133.8949627617457,35.413585265907976],[133.89389676894226,35.412707072919645],[133.89908690261322,35.41177907341807],[133.8996843390032,35.41231997953115],[133.89925357694372,35.4132058358823],[133.90116499387042,35.41429024531041],[133.902341555119,35.415181827100014],[133.90294030223788,35.41548504797805],[133.90301380787798,35.416230077545954],[133.90277695435782,35.417069067837865],[133.90390539163377,35.41792088147956],[133.90597699441292,35.41988521582313],[133.90606418426293,35.42394624499735],[133.90574451679444,35.42623842547936]]]},"properties":{"KEY_CODE":"31364003002","PREF":"31","CITY":"364","CITY_NAME":"三朝町","S_NAME":"三朝恋谷","SETAI":"38"}},{"type":"Feature","geometry":{"type":"Polygon","coordinates":[[[133.8868607421849,35.412520765611276],[133.87677104680796,35.41183168511975],[133.87707120168255,35.410730359036826],[133.8766113525577,35.41068315054954],[133.87662541745888,35.410513872344964],[133.87671134560972,35.41025781501854],[133.8768894049076,35.4101952857931],[133.87717887032852,35.40995573705687],[133.87719552948536,35.40994649760876],[133.87730148519987,35.40994436402329],[133.87808173672926,35.40805797293501],[133.88007577683015,35.40616207564798],[133.88192937374632,35.40552801264001],[133.88302219640977,35.40502503747634],[133.88345667499195,35.40479700400251],[133.88672161790996,35.40812862479163],[133.8865421038697,35.41029823126593],[133.8868607421849,35.412520765611276]]]},"properties":{"KEY_CODE":"31364004001","PREF":"31","CITY":"364","CITY_NAME":"三朝町","S_NAME":"横手横手","SETAI":"47"}},{"type":"Feature","geometry":{"type":"Polygon","coordinates":[[[133.87707120168255,35.410730359036826],[133.87660964749506,35.4118076423493],[133.8751825744077,35.41073528989307],[133.8741378508958,35.410040918712646],[133.87296206472465,35.40929892973303],[133.8703568782802,35.40798858122783],[133.86885018065104,35.4072121806562],[133.86871527682882,35.40716469054139],[133.87176801788988,35.40653696847832],[133.87946687569462,35.40635933027904],[133.87808173672926,35.40805797293501],[133.87730148519987,35.40994436402329],[133.87719552948536,35.40994649760876],[133.87717887032852,35.40995573705687],[133.8768894049076,35.4101952857931],[133.87671134560972,35.41025781501854],[133.87662541745888,35.410513872344964],[133.8766113525577,35.41068315054954],[133.87707120168255,35.410730359036826]]]},"properties":{"KEY_CODE":"31364004002","PREF":"31","CITY":"364","CITY_NAME":"三朝町","S_NAME":"横手徳本","SETAI":"38"}},{"type":"Feature","geometry":{"type":"Polygon","coordinates":[[[133.90360327569297,35.39936953848978],[133.90818428693993,35.40892750677987],[133.90677594458305,35.410393970361376],[133.9042700488044,35.40930058617189],[133.9031849929705,35.408117935851415],[133.9030081168132,35.40948150135798],[133.9027276701794,35.40841249218566],[133.90259090498088,35.40792729481809],[133.90196807307626,35.407126839977195],[133.90080220883632,35.40733159628507],[133.89910644118302,35.40865842583408],[133.89853106621203,35.40794783942058],[133.89836153317972,35.40745110883502],[133.89827300997396,35.40644559323126],[133.89840709702935,35.406046999803586],[133.8981666965277,35.40542177485326],[133.89790308379443,35.405314765852374],[133.8979408726114,35.40451801350638],[133.89853305665562,35.402902294773256],[133.90120500584104,35.3999683244324],[133.90274996923623,35.399311064537606],[133.90360327569297,35.39936953848978]]]},"properties":{"KEY_CODE":"31364005001","PREF":"31","CITY":"364","CITY_NAME":"三朝町","S_NAME":"砂原砂原","SETAI":"42"}},{"type":"Feature","geometry":{"type":"Polygon","coordinates":[[[133.90677594458305,35.410393970361376],[133.905519276927,35.41066718314669],[133.90373416022325,35.41077519364171],[133.90325653235374,35.41050976242033],[133.9030081168132,35.40948150135798],[133.9031849929705,35.408117935851415],[133.9042700488044,35.40930058617189],[133.90677594458305,35.410393970361376]]]},"properties":{"KEY_CODE":"31364005002","PREF":"31","CITY":"364","CITY_NAME":"三朝町","S_NAME":"砂原大付","SETAI":"18"}},{"type":"Feature","geometry":{"type":"Polygon","coordinates":[[[133.91241491676502,35.408948216063884],[133.91116631940457,35.40854808050342],[133.91076967726073,35.40891442618643],[133.9093356531919,35.40950429909292],[133.90677594458305,35.410393970361376],[133.90818428693993,35.40892750677987],[133.90360327569297,35.39936953848978],[133.9024670559268,35.39706213823491],[133.9016094029715,35.39567697502835],[133.90119002752826,35.395084705433426],[133.9053855251163,35.398072683812806],[133.90604593778633,35.398077216050964],[133.90996771134843,35.40077293436414],[133.91247266894055,35.40282441342046],[133.91346835222865,35.4034582951734],[133.9126618407155,35.40572070877944],[133.91524019837985,35.405893556304164],[133.91499597023048,35.407429502664776],[133.91404919418724,35.408541956710785],[133.91241491676502,35.408948216063884]]]},"properties":{"KEY_CODE":"31364006001","PREF":"31","CITY":"364","CITY_NAME":"三朝町","S_NAME":"余戸余戸","SETAI":"33"}},{"type":"Feature","geometry":{"type":"Polygon","coordinates":[[[133.92055637039667,35.4042534089751],[133.91968005864484,35.40508024388202],[133.9195122771416,35.40567014699544],[133.91885618151935,35.406320834045204],[133.91778828812997,35.405171546019],[133.91705585491425,35.405903929588504],[133.91694916504554,35.406544672791476],[133.91710161282415,35.40716511509422],[133.9160184054469,35.40718537958575],[133.91545371590013,35.40736841692782],[133.91499597023048,35.407429502664776],[133.91524019837985,35.405893556304164],[133.9126618407155,35.40572070877944],[133.91346835222865,35.4034582951734],[133.9184182877751,35.40280165978979],[133.9206702952709,35.40272890504952],[133.92055637039667,35.4042534089751]]]},"properties":{"KEY_CODE":"31364006002","PREF":"31","CITY":"364","CITY_NAME":"三朝町","S_NAME":"余戸桜ケ丘","SETAI":"31"}},{"type":"Feature","geometry":{"type":"Polygon","coordinates":[[[133.91119909735292,35.42836605313865],[133.90915133251792,35.428530269343746],[133.90904335283855,35.428334009286644],[133.90783329388327,35.426702175276276],[133.90678744845798,35.426325692237405],[133.9059358310785,35.4262113557675],[133.90575233796827,35.42624007276296],[133.90574451679444,35.42623842547936],[133.90606418426293,35.42394624499735],[133.90597699441292,35.419885215823136],[133.9055517416114,35.41625530263839],[133.90658298896693,35.41064989997766],[133.90677594458305,35.410393970361376],[133.9093356531919,35.40950429909292],[133.91076967726073,35.40891442618643],[133.91116631940457,35.40854808050342],[133.91241491676502,35.408948216063884],[133.91404919418724,35.408541956710785],[133.91545371590013,35.40736841692782],[133.9160184054469,35.40718537958575],[133.91710161282415,35.40716511509422],[133.91694916504554,35.406544672791476],[133.91705585491425,35.405903929588504],[133.91778828812997,35.405171546019],[133.91885618151935,35.406320834045204],[133.9195122771416,35.40567014699544],[133.91968005864484,35.40508024388202],[133.9205264209437,35.40455125771295],[133.92032350703028,35.409287923280935],[133.91964906738926,35.41589214244692],[133.92077806518674,35.41749920605391],[133.92068659499196,35.420143561670955],[133.92224270021688,35.42350013347097],[133.92193741372412,35.42486327518812],[133.9228222956216,35.42569707522468],[133.92229135044775,35.42719262436723],[133.9220942852996,35.42715909804471],[133.9211888080885,35.4267868854481],[133.91991171728185,35.42729822023205],[133.91791926311294,35.42790171402125],[133.9165617166569,35.42752226873067],[133.9158868053166,35.42744795483116],[133.9151830526155,35.427885844347244],[133.91439002972297,35.42824021909178],[133.91119909735292,35.42836605313865]]]},"properties":{"KEY_CODE":"313640070","PREF":"31","CITY":"364","CITY_NAME":"三朝町","S_NAME":"片柴","SETAI":"69"}},{"type":"Feature","geometry":{"type":"Polygon","coordinates":[[[133.94667780042042,35.43024942234161],[133.94650895806868,35.4304460694099],[133.9454685619932,35.43124022338681],[133.9439369379709,35.43167567969711],[133.941770471405,35.43019915472269],[133.94127692340598,35.42985844897102],[133.93810636526882,35.42984051766831],[133.93769193922154,35.42995075410608],[133.93741177866482,35.43000748353563],[133.93711202458638,35.43006816138138],[133.93617198350807,35.430047104331955],[133.93587743087758,35.430011917895065],[133.93580124529183,35.43000283172327],[133.93334841166904,35.430071424008645],[133.93157912209767,35.42947821852573],[133.9305337686969,35.42887014446552],[133.9300374350087,35.4286676868048],[133.9287139317979,35.428682284472764],[133.92808288859442,35.428295814938764],[133.92720013429843,35.42835838410384],[133.92404975968682,35.427395688502486],[133.92229135044775,35.42719262436723],[133.9228222956216,35.42569707522468],[133.92193741372412,35.42486327518812],[133.92224270021688,35.42350013347097],[133.92068659499196,35.420143561670955],[133.92077806518674,35.41749920605391],[133.91964906738926,35.41589214244692],[133.92032350703028,35.409287923280935],[133.9205264209437,35.40455125771295],[133.92055637039667,35.4042534089751],[133.9206702952709,35.40272890504952],[133.92624016457748,35.40342922473364],[133.928311769942,35.40309380989029],[133.93028867622087,35.402334043375994],[133.9321718181102,35.40148499212471],[133.93254919892502,35.401282449398536],[133.93801484369925,35.40828492589263],[133.93837002228426,35.40856931222634],[133.9390715629929,35.408416595120414],[133.94078050653206,35.40878289237521],[133.94140596540612,35.40904729807029],[133.9433587569221,35.40939314886728],[133.94364872599417,35.40907789125542],[133.94381648637412,35.409169271508745],[133.94483882105496,35.40967781091833],[133.9458609090581,35.40988141973097],[133.94836306805212,35.40967783036872],[133.95004119894497,35.40928124677956],[133.95146014239708,35.40935233325521],[133.95277220412862,35.410095017205265],[133.9544142615677,35.412709510556546],[133.9547767019307,35.413718470706435],[133.95499730110774,35.41439449565823],[133.9553059129632,35.41548610256347],[133.95549831273095,35.416671324791174],[133.95531946938772,35.417812080976496],[133.95496741939695,35.41926468262659],[133.954678086974,35.42097330459457],[133.95511821094033,35.4267033922543],[133.95496260282547,35.42751245309735],[133.95392705772426,35.42736628028377],[133.95220017871893,35.427650959845806],[133.9517377412234,35.427850930596634],[133.95151274296416,35.42800922540548],[133.9512838776823,35.428193986466084],[133.95035754111487,35.42862586947989],[133.94972402043038,35.429085932305384],[133.9491361582602,35.42967775789085],[133.9483513063735,35.430023281243535],[133.94723028211774,35.43011751388204],[133.94667780042042,35.43024942234161]]]},"properties":{"KEY_CODE":"313640080","PREF":"31","CITY":"364","CITY_NAME":"三朝町","S_NAME":"坂本","SETAI":"56"}},{"type":"Feature","geometry":{"type":"Polygon","coordinates":[[[133.954678086974,35.42097330459457],[133.95496741939695,35.41926468262659],[133.95531946938772,35.417812080976496],[133.95549831273095,35.416671324791174],[133.9553059129632,35.41548610256347],[133.95499730110774,35.41439449565823],[133.9547767019307,35.413718470706435],[133.9544142615677,35.412709510556546],[133.95277220412862,35.410095017205265],[133.95146014239708,35.40935233325521],[133.95004119894497,35.40928124677956],[133.94836306805212,35.40967783036872],[133.9458609090581,35.40988141973097],[133.94483882105496,35.40967781091833],[133.94381648637412,35.409169271508745],[133.94364872599417,35.40907789125542],[133.9433587569221,35.40939314886728],[133.94140596540612,35.40904729807029],[133.94078050653206,35.40878289237521],[133.9390715629929,35.408416595120414],[133.93837002228426,35.40856931222634],[133.93801484369925,35.40828492589261],[133.93254919892502,35.401282449398536],[133.93714655263278,35.39900946557977],[133.94305782748452,35.39580749775271],[133.94961183810221,35.39112416343796],[133.95290697340678,35.38819485871325],[133.95340364759144,35.39168806707105],[133.95340332125483,35.395677684964134],[133.95307953339668,35.39712342630458],[133.95392823525955,35.39960747331351],[133.95523650527699,35.400806476348336],[133.95650787280644,35.40051965324813],[133.95788558566375,35.40087011660258],[133.95972737657587,35.40341480324968],[133.9600999629684,35.406412673993636],[133.96198287311793,35.40800580953841],[133.96524938770025,35.413419380403454],[133.96579943770223,35.41583850909453],[133.9638344977316,35.41737284131729],[133.95908589419037,35.417937420788775],[133.95700547102712,35.418839169780014],[133.954678086974,35.42097330459457]]]},"properties":{"KEY_CODE":"31364009001","PREF":"31","CITY":"364","CITY_NAME":"三朝町","S_NAME":"三徳合谷","SETAI":"11"}},{"type":"Feature","geometry":{"type":"Polygon","coordinates":[[[133.95650787280644,35.40051965324813],[133.95523650527699,35.400806476348336],[133.95392823525955,35.39960747331351],[133.95307953339668,35.39712342630458],[133.95340332125483,35.395677684964134],[133.95340364759144,35.39168806707105],[133.95290697340678,35.38819485871325],[133.95341945686508,35.387878073728025],[133.95644436606003,35.38785651884119],[133.9609819172001,35.387077149180506],[133.96152711459047,35.389048134821834],[133.96153155889672,35.3907256918033],[133.96078463287512,35.39284494969024],[133.96091731275126,35.394141984428884],[133.96360869075173,35.39769736141409],[133.96365607336955,35.39868877485196],[133.96120936631246,35.40104261523772],[133.9581886395567,35.40031020747978],[133.95650787280644,35.40051965324813]]]},"properties":{"KEY_CODE":"31364009002","PREF":"31","CITY":"364","CITY_NAME":"三朝町","S_NAME":"三徳三徳山","SETAI":"5"}},{"type":"Feature","geometry":{"type":"Polygon","coordinates":[[[133.97082661311035,35.42214689090037],[133.96878616900887,35.424076851489374],[133.96628635456136,35.42410177778899],[133.96522394099028,35.42495166303437],[133.96452399854226,35.42677642877664],[133.9614242753913,35.426976310262546],[133.96041187793313,35.427351239738556],[133.95496260282547,35.42751245309735],[133.95511821094033,35.4267033922543],[133.954678086974,35.42097330459457],[133.95700547102712,35.418839169780014],[133.95908589419037,35.417937420788775],[133.9638344977316,35.41737284131729],[133.96579943770223,35.41583850909453],[133.96524938770025,35.413419380403454],[133.96198287311793,35.40800580953841],[133.9600999629684,35.406412673993636],[133.95972737657587,35.40341480324968],[133.95788558566375,35.40087011660258],[133.95650787280644,35.40051965324813],[133.9581886395567,35.40031020747978],[133.96120936631246,35.40104261523772],[133.96365607336955,35.39868877485196],[133.96360869075173,35.39769736141409],[133.96091731275126,35.394141984428884],[133.96078463287512,35.39284494969024],[133.96153155889672,35.3907256918033],[133.96152711459047,35.389048134821834],[133.9609819172001,35.387077149180506],[133.96206885780768,35.38641887807399],[133.96410692440776,35.385588477791536],[133.96890830941717,35.385681086476744],[133.9738852229065,35.386578645923535],[133.9765308776331,35.38828337188052],[133.97330276877233,35.39359097247541],[133.973264705196,35.39490937561237],[133.9700514286391,35.399208429863684],[133.96863396608313,35.40239233205344],[133.96829218371172,35.40470153587423],[133.96849910417342,35.40953856155993],[133.96954959756553,35.41197680046359],[133.96984836229,35.4195668732406],[133.97082661311035,35.42214689090037]]]},"properties":{"KEY_CODE":"31364009003","PREF":"31","CITY":"364","CITY_NAME":"三朝町","S_NAME":"三徳成","SETAI":"2"}},{"type":"Feature","geometry":{"type":"Polygon","coordinates":[[[133.97643930694775,35.42415376560099],[133.97424823902685,35.423935298461906],[133.9724859084709,35.42221048343036],[133.97082661311035,35.42214689090037],[133.96984836229,35.4195668732406],[133.96954959756553,35.41197680046359],[133.96849910417342,35.40953856155993],[133.96829218371172,35.40470153587423],[133.96863396608313,35.40239233205344],[133.9700514286391,35.399208429863684],[133.973264705196,35.39490937561237],[133.97330276877233,35.39359097247541],[133.9765308776331,35.38828337188052],[133.97816433870486,35.38884775184361],[133.98022977975532,35.38895196517986],[133.98073757888707,35.38898443149884],[133.97862194425835,35.39400877908731],[133.9792860480003,35.39754741129141],[133.97921634540828,35.39881805352346],[133.97840729021692,35.400771320065644],[133.97790087046974,35.40428755628752],[133.97645153522714,35.40532488384689],[133.97935050844814,35.407603569421475],[133.97991492812864,35.40862069448406],[133.98152783358853,35.413998716811484],[133.9806263180389,35.41784805259917],[133.97822201755483,35.42214599059794],[133.97643930694775,35.42415376560099]]]},"properties":{"KEY_CODE":"31364009004","PREF":"31","CITY":"364","CITY_NAME":"三朝町","S_NAME":"三徳吉原","SETAI":"5"}},{"type":"Feature","geometry":{"type":"Polygon","coordinates":[[[133.97829292303715,35.4250847805666],[133.97643930694775,35.42415376560099],[133.97822201755483,35.42214599059794],[133.9806263180389,35.41784805259917],[133.98152783358853,35.413998716811484],[133.97991492812864,35.40862069448406],[133.97935050844814,35.407603569421475],[133.97645153522714,35.40532488384689],[133.97790087046974,35.40428755628752],[133.97840729021692,35.400771320065644],[133.97921634540828,35.39881805352346],[133.9792860480003,35.39754741129141],[133.97862194425835,35.39400877908731],[133.98073757888707,35.38898443149884],[133.98194473918375,35.3893735025744],[133.98417999162828,35.391417418968],[133.98577246784436,35.39180108915633],[133.98973112847395,35.39215565870791],[133.9915794387691,35.39294583230061],[133.9912443512011,35.39364276850285],[133.99107099097586,35.39634558364009],[133.9925134137193,35.3980936828481],[133.99237975496317,35.39895316396369],[133.99269571985008,35.3993639154251],[133.99548259231042,35.401848365994],[133.99490264336598,35.40288617661907],[133.99781410863355,35.40518951125038],[133.99885158641987,35.405403448936376],[134.00066261055926,35.4062473273149],[133.9987986876238,35.41142947781493],[133.9976471068858,35.412551365413876],[133.9972998619574,35.41312584347151],[133.9969467819431,35.41320707391216],[133.99576969101983,35.4133407834198],[133.99441151358923,35.415317945947756],[133.99455152456815,35.415766428998886],[133.99387244440547,35.41792763745246],[133.99558308419677,35.419834442635384],[133.9957808904105,35.42013963704988],[133.9958495619547,35.42116015819105],[133.9960964636103,35.422669369358346],[133.99457155619535,35.42329423428227],[133.99422159110492,35.42346919703912],[133.9936841294785,35.42348585329924],[133.99109684146217,35.422519262783055],[133.9904469067731,35.42191098528062],[133.98898454740694,35.42050276294754],[133.9878721209835,35.421119320182456],[133.98540979670713,35.42221080715367],[133.98474734060144,35.42360228014232],[133.98446881017955,35.42410280300289],[133.98443769879876,35.42413035335602],[133.98323495631897,35.425035409399335],[133.981472592232,35.42522700827396],[133.98058518243656,35.424427074039166],[133.97829292303715,35.4250847805666]]]},"properties":{"KEY_CODE":"313640100","PREF":"31","CITY":"364","CITY_NAME":"三朝町","S_NAME":"俵原","SETAI":"1"}},{"type":"Feature","geometry":{"type":"Polygon","coordinates":[[[133.91184764318132,35.390446595816414],[133.90983847031976,35.39095917160458],[133.90781531528216,35.39229425694673],[133.90604593778633,35.398077216050964],[133.9053855251163,35.398072683812806],[133.90119002752826,35.395084705433426],[133.90057454148592,35.394321808811455],[133.89970808768393,35.39255959508293],[133.9006297267445,35.391404080163355],[133.90241571496907,35.390828041801555],[133.90530530012555,35.38941064503613],[133.90573119166348,35.38941215786244],[133.9062941553344,35.389128880603614],[133.90593620662438,35.388719523410614],[133.9058655173808,35.387390998417104],[133.90588818824412,35.38703024392964],[133.9071474230863,35.384482290893004],[133.90954287675274,35.38201746077374],[133.91063102632174,35.38357421958712],[133.91131770417454,35.3859349743107],[133.91121173307968,35.38942361307404],[133.91184764318132,35.390446595816414]]]},"properties":{"KEY_CODE":"31364011001","PREF":"31","CITY":"364","CITY_NAME":"三朝町","S_NAME":"西尾井土","SETAI":"6"}},{"type":"Feature","geometry":{"type":"Polygon","coordinates":[[[133.91247266894055,35.40282441342046],[133.90996771134843,35.40077293436414],[133.90604593778633,35.398077216050964],[133.90781531528216,35.39229425694673],[133.90983847031976,35.39095917160458],[133.91184764318132,35.390446595816414],[133.91425374522154,35.39167293583835],[133.9191307028367,35.392353972757036],[133.9181147534283,35.39646458867881],[133.9160188006495,35.3964039578862],[133.914340309574,35.397848159516506],[133.91293671954705,35.39996370780859],[133.91247266894055,35.40282441342046]]]},"properties":{"KEY_CODE":"31364011002","PREF":"31","CITY":"364","CITY_NAME":"三朝町","S_NAME":"西尾波伯山","SETAI":"5"}},{"type":"Feature","geometry":{"type":"Polygon","coordinates":[[[133.91346835222865,35.4034582951734],[133.91247266894055,35.40282441342046],[133.91293671954705,35.39996370780859],[133.914340309574,35.397848159516506],[133.9160188006495,35.3964039578862],[133.9181147534283,35.39646458867881],[133.9191307028367,35.392353972757036],[133.91956481748016,35.39118430029636],[133.9242364670657,35.39265099511238],[133.92820280121657,35.39303738736417],[133.93258441296734,35.3929565174103],[133.93844160988587,35.39158164367228],[133.9421982970997,35.3913595394922],[133.94458239862303,35.39157357401652],[133.94961183810221,35.39112416343796],[133.94305782748452,35.39580749775271],[133.93714655263278,35.39900946557977],[133.93254919892502,35.401282449398536],[133.9321718181102,35.40148499212471],[133.93028867622087,35.402334043375994],[133.928311769942,35.40309380989029],[133.92624016457748,35.40342922473364],[133.9206702952709,35.40272890504952],[133.9184182877751,35.40280165978979],[133.91346835222865,35.4034582951734]]]},"properties":{"KEY_CODE":"313640120","PREF":"31","CITY":"364","CITY_NAME":"三朝町","S_NAME":"吉田","SETAI":"39"}},{"type":"Feature","geometry":{"type":"Polygon","coordinates":[[[133.9421982970997,35.3913595394922],[133.93844160988587,35.39158164367228],[133.93258441296734,35.3929565174103],[133.92820280121657,35.39303738736417],[133.9242364670657,35.39265099511238],[133.91956481748016,35.39118430029636],[133.91872481158353,35.39068317889031],[133.9218474519464,35.38489043898855],[133.9225412967632,35.38436802356084],[133.9232815021315,35.38393420391162],[133.92648560012918,35.38399538280497],[133.928346785622,35.38436148628147],[133.92926134145242,35.385811843504364],[133.93265440885807,35.38800464233235],[133.9368375366166,35.389847584709926],[133.9421982970997,35.3913595394922]]]},"properties":{"KEY_CODE":"313640130","PREF":"31","CITY":"364","CITY_NAME":"三朝町","S_NAME":"高橋","SETAI":"19"}},{"type":"Feature","geometry":{"type":"Polygon","coordinates":[[[133.94961183810221,35.39112416343796],[133.94458239862303,35.39157357401652],[133.9421982970997,35.3913595394922],[133.9368375366166,35.389847584709926],[133.93265440885807,35.38800464233235],[133.92926134145242,35.385811843504364],[133.928346785622,35.38436148628147],[133.92932337305746,35.38338519493333],[133.92990334511177,35.38155435094815],[133.9306660510742,35.38078141933309],[133.93109325598448,35.37836063932222],[133.93280224884325,35.377943516147624],[133.93234458881878,35.3759703848234],[133.93382437921676,35.37726219121227],[133.9348770397394,35.37728250326978],[133.93557881433532,35.37813684121046],[133.93664675762835,35.377852164949886],[133.9373180840492,35.37683506623423],[133.94155945481205,35.376021296309595],[133.94404898573987,35.375960360105],[133.95138089108863,35.37941476846744],[133.9553508958247,35.381771396237276],[133.9601304917519,35.38522535910822],[133.96206885780768,35.38641887807399],[133.9609819172001,35.387077149180506],[133.95644436606003,35.38785651884119],[133.95341945686508,35.387878073728025],[133.95290697340678,35.38819485871325],[133.94961183810221,35.39112416343796]]]},"properties":{"KEY_CODE":"313640140","PREF":"31","CITY":"364","CITY_NAME":"三朝町","S_NAME":"東小鹿","SETAI":"27"}},{"type":"Feature","geometry":{"type":"Polygon","coordinates":[[[133.928346785622,35.38436148628147],[133.92648560012918,35.38399538280497],[133.9232815021315,35.38393420391162],[133.9225412967632,35.38436802356084],[133.92070667878696,35.38220768280337],[133.91482075744239,35.37946097153494],[133.91632637382273,35.37620666424576],[133.91727566298928,35.37324737903023],[133.9173030332855,35.37215199437701],[133.9161280514596,35.36995267794222],[133.91664272854737,35.368129479681784],[133.91982466770784,35.36622439794105],[133.9218663541954,35.366281310205636],[133.9249737676715,35.368311842025086],[133.92671318336826,35.3680882075183],[133.93019143285935,35.36896986461356],[133.9316547691737,35.368888404503096],[133.9317692398511,35.36971962291118],[133.93508686184063,35.37044279127158],[133.93986159682973,35.36962756262481],[133.94153319881724,35.37006452939986],[133.9428331976925,35.36967493062047],[133.94392184458508,35.37075743599986],[133.94519647185075,35.3701626652977],[133.94596970729555,35.371060756991675],[133.94847134219032,35.37017852610579],[133.94875109524725,35.370940098584285],[133.94751388079092,35.371977423454254],[133.94404898573987,35.375960360105],[133.94155945481205,35.376021296309595],[133.9373180840492,35.37683506623423],[133.93664675762835,35.377852164949886],[133.93557881433532,35.37813684121046],[133.9348770397394,35.37728250326978],[133.93382437921676,35.37726219121227],[133.93234458881878,35.3759703848234],[133.93280224884325,35.377943516147624],[133.93109325598448,35.37836063932222],[133.9306660510742,35.38078141933309],[133.92990334511177,35.38155435094815],[133.92932337305746,35.38338519493333],[133.928346785622,35.38436148628147]]]},"properties":{"KEY_CODE":"31364015001","PREF":"31","CITY":"364","CITY_NAME":"三朝町","S_NAME":"西小鹿西小鹿","SETAI":"33"}},{"type":"Feature","geometry":{"type":"Polygon","coordinates":[[[133.91956481748016,35.39118430029636],[133.9191307028367,35.392353972757036],[133.91425374522154,35.39167293583835],[133.91184764318132,35.390446595816414],[133.91121173307968,35.38942361307404],[133.91131770417454,35.3859349743107],[133.91063102632174,35.38357421958712],[133.90954287675274,35.38201746077374],[133.91253694819738,35.381206150134865],[133.91482075744239,35.37946097153494],[133.92070667878696,35.38220768280337],[133.9225412967632,35.38436802356084],[133.9218474519464,35.38489043898855],[133.91872481158353,35.39068317889031],[133.91956481748016,35.39118430029636]]]},"properties":{"KEY_CODE":"31364015002","PREF":"31","CITY":"364","CITY_NAME":"三朝町","S_NAME":"西小鹿岩本","SETAI":"8"}},{"type":"Feature","geometry":{"type":"Polygon","coordinates":[[[133.98022977975532,35.38895196517986],[133.97816433870486,35.38884775184361],[133.9765308776331,35.38828337188052],[133.9738852229065,35.386578645923535],[133.96890830941717,35.385681086476744],[133.96410692440776,35.385588477791536],[133.96206885780768,35.38641887807399],[133.9601304917519,35.38522535910822],[133.9553508958247,35.381771396237276],[133.95138089108863,35.37941476846744],[133.94404898573987,35.375960360105],[133.94751388079092,35.371977423454254],[133.94875109524725,35.370940098584285],[133.94847134219032,35.37017852610579],[133.94596970729555,35.371060756991675],[133.94519647185075,35.3701626652977],[133.94392184458508,35.37075743599986],[133.9428331976925,35.36967493062047],[133.94153319881724,35.37006452939986],[133.93986159682973,35.36962756262481],[133.93508686184063,35.37044279127158],[133.9317692398511,35.36971962291118],[133.9316547691737,35.368888404503096],[133.93019143285935,35.36896986461356],[133.92671318336826,35.3680882075183],[133.92929014115353,35.36745975228609],[133.93089211676426,35.36667278571482],[133.93469231951374,35.36308978705239],[133.93660999327074,35.36194284879406],[133.93786818165086,35.36179984804683],[133.9415265565719,35.36189165636377],[133.9454969422159,35.360605624782465],[133.9485286971633,35.358933743820224],[133.95353137527763,35.356673533933915],[133.95527888067483,35.3561221615762],[133.95925836823233,35.35409836908259],[133.96199862073064,35.353019432775746],[133.96424110486444,35.35143489300558],[133.9653018589285,35.349701106324666],[133.9657659330761,35.34646126560853],[133.96907529881187,35.347736045048336],[133.9705001792887,35.34791936980424],[133.97277515832667,35.346094502854264],[133.9757999783876,35.3459778080911],[133.97787568842992,35.34425127221093],[133.97786178783238,35.34672228313469],[133.97888893997595,35.35193477187793],[133.97908413001542,35.35689407380827],[133.9788613818578,35.3583718950814],[133.9779692790096,35.3602564350817],[133.97850816994625,35.363672862313386],[133.9779946343411,35.36558107487351],[133.97807473048286,35.3673587620046],[133.97760699729645,35.368976824302116],[133.9779646500698,35.37118854309105],[133.9767385265103,35.371398686583035],[133.9767220818346,35.372564673083126],[133.97586860305057,35.37293462684433],[133.97434622628742,35.371230955832914],[133.9734619051279,35.372402615331104],[133.97543991060485,35.37582774513271],[133.97718536753908,35.37823289598544],[133.97850379352673,35.380674943284596],[133.97843075166708,35.38152597917908],[133.97981801139633,35.38462877306049],[133.98022977975532,35.38895196517986]]]},"properties":{"KEY_CODE":"313640160","PREF":"31","CITY":"364","CITY_NAME":"三朝町","S_NAME":"神倉","SETAI":"23"}},{"type":"Feature","geometry":{"type":"Polygon","coordinates":[[[133.9915794387691,35.39294583230061],[133.98973112847395,35.39215565870791],[133.98577246784436,35.39180108915633],[133.98417999162828,35.391417418968],[133.98194473918375,35.3893735025744],[133.98073757888707,35.38898443149884],[133.98022977975532,35.38895196517986],[133.97981801139633,35.38462877306049],[133.97843075166708,35.38152597917908],[133.97850379352673,35.380674943284596],[133.97718536753908,35.37823289598544],[133.97543991060485,35.37582774513271],[133.9734619051279,35.372402615331104],[133.97434622628742,35.371230955832914],[133.97586860305057,35.37293462684433],[133.9767220818346,35.372564673083126],[133.9767385265103,35.371398686583035],[133.9779646500698,35.37118854309105],[133.97760699729645,35.368976824302116],[133.97807473048286,35.3673587620046],[133.9779946343411,35.36558107487351],[133.97850816994625,35.363672862313386],[133.9779692790096,35.3602564350817],[133.9788613818578,35.3583718950814],[133.97908413001542,35.35689407380827],[133.97888893997595,35.35193477187793],[133.97786178783238,35.34672228313469],[133.97787568842992,35.34425127221093],[133.97964999214787,35.343453012691846],[133.9814122247794,35.345069463823876],[133.98488684619684,35.346727620122365],[133.98658670273753,35.346810920291354],[133.98984879392293,35.3486274505447],[133.99239863789094,35.34821909994614],[133.99499818141803,35.351718778486806],[133.99786041756656,35.35287695986576],[133.99986027681595,35.352668632826415],[134.0023101676534,35.35147704677698],[134.00604740957812,35.351135424204514],[134.00823474466597,35.35129373145399],[134.00930975845495,35.34957720528415],[134.01307192014573,35.349460602962864],[134.01474671476478,35.3503604919085],[134.01480257601838,35.350439089012234],[134.0154821455969,35.35123347221466],[134.01584819742024,35.35155893435367],[134.01723666607955,35.351935290379316],[134.018762245518,35.35460032476862],[134.01983048072614,35.355963245283405],[134.01961686262723,35.35704145251688],[134.0196471407869,35.357488934508105],[134.0186707824926,35.35934012504169],[134.018029955655,35.36121189348273],[134.01897573371653,35.363327541074234],[134.02080673203608,35.36361224743636],[134.02214941244273,35.364181886050204],[134.0237973571683,35.36403940842198],[134.02419399789332,35.36462937654442],[134.02425511670836,35.368433761678425],[134.0265741374005,35.368718456536286],[134.0283745562003,35.36896264826135],[134.02948837039264,35.36782331015388],[134.0314415731855,35.36640957099062],[134.03344032355056,35.366307978802695],[134.03339448873612,35.36782338373838],[134.03380640922495,35.36837279085585],[134.03516436649176,35.36859663238509],[134.03553043771603,35.36989846724307],[134.03661368486843,35.37078339299835],[134.0377122129728,35.372187159509956],[134.03911596746528,35.37249247424578],[134.04149435411702,35.37368344330686],[134.04128188838257,35.37510831385825],[134.0414943610071,35.376099899832916],[134.04146936990702,35.3765498487262],[134.0421318071657,35.37749145462598],[134.04151491537206,35.37744955301172],[134.04042579023871,35.377399471138574],[134.037957232358,35.37779139923259],[134.03460799237263,35.37911600813604],[134.03376208704148,35.3790949814322],[134.0315888109511,35.37917967909655],[134.02982311034484,35.38030376478022],[134.02856368261803,35.380845908742344],[134.02683060475786,35.382520042389146],[134.02435486387378,35.38287891820664],[134.0233852624972,35.38337427636387],[134.0227218588431,35.38411224608532],[134.02044306200372,35.384462025830544],[134.01887883938892,35.38585673335532],[134.01629609746055,35.38687374553262],[134.01467024662495,35.38618706900499],[134.0134360983251,35.387606299983226],[134.0110727794394,35.38829222032121],[134.00958604459495,35.38851670518568],[134.00874232884982,35.38840282931724],[134.00764723469527,35.3893103274712],[134.0057021095965,35.390077702094345],[134.00479162469105,35.389600867630065],[134.00389588494764,35.39074957349762],[134.00290447509101,35.39077652367935],[134.0017830413518,35.39027634482842],[133.99944237398785,35.38922695770371],[133.99865627598487,35.39013697788562],[133.9962416729074,35.390479081036524],[133.99559201460224,35.39138247881163],[133.9937471296909,35.39168082599079],[133.9916588883027,35.3927805647685],[133.9915794387691,35.39294583230061]]]},"properties":{"KEY_CODE":"313640170","PREF":"31","CITY":"364","CITY_NAME":"三朝町","S_NAME":"中津","SETAI":"1"}},{"type":"Feature","geometry":{"type":"Polygon","coordinates":[[[133.86554793235055,35.40611523788579],[133.86350089376327,35.405603363729014],[133.8598406671325,35.405719354461716],[133.8583760403379,35.40624808510412],[133.85819303424884,35.404600286583175],[133.85916943270507,35.40197617051843],[133.85920013927418,35.4004192890484],[133.8595397341487,35.39888566667521],[133.85992144330012,35.398560908759976],[133.86018094563562,35.39756462648302],[133.85907191035142,35.39624762030511],[133.85808034783798,35.39526077082022],[133.85761191195544,35.394304084299314],[133.85746313463156,35.393811889574934],[133.8584496965251,35.3932417253151],[133.86118286075558,35.393076068542506],[133.86323327672562,35.39292048496279],[133.8641146912831,35.392782721272226],[133.86548445312587,35.39253530022405],[133.86565528028993,35.3925151888401],[133.86544488453922,35.39325850153316],[133.86529763178987,35.39388664088215],[133.8652930205928,35.39475891651557],[133.86556847052694,35.39558136937434],[133.86518415903,35.39617584996249],[133.86512443373323,35.39634638844333],[133.86431846025172,35.39730626293561],[133.8633545809056,35.39781841812409],[133.86315173659105,35.398595283982736],[133.86368777459842,35.39961149651485],[133.86421597138246,35.40082534624064],[133.864476591744,35.4009576217623],[133.86450031812475,35.4018726889213],[133.86557474474967,35.402740207784056],[133.8655717937325,35.404657968356204],[133.86554793235055,35.40611523788579]]]},"properties":{"KEY_CODE":"313640180","PREF":"31","CITY":"364","CITY_NAME":"三朝町","S_NAME":"本泉","SETAI":"135"}},{"type":"Feature","geometry":{"type":"Polygon","coordinates":[[[133.87946687569462,35.40635933027904],[133.87176801788988,35.40653696847832],[133.86871527682882,35.40716469054139],[133.86666375268234,35.40644609542316],[133.86554793235058,35.40611523788579],[133.8655717937325,35.404657968356204],[133.86557474474967,35.402740207784056],[133.86450031812475,35.4018726889213],[133.864476591744,35.4009576217623],[133.8659558107873,35.40067209300576],[133.86667207696271,35.39966925624644],[133.86656066850256,35.39239468315636],[133.86888919166591,35.39167643963298],[133.87262992668258,35.39488437844311],[133.876236227697,35.3990965068951],[133.87669880583653,35.40169259076261],[133.879547504206,35.404325538431465],[133.88007577683015,35.40616207564798],[133.87946687569462,35.40635933027904]]]},"properties":{"KEY_CODE":"31364019001","PREF":"31","CITY":"364","CITY_NAME":"三朝町","S_NAME":"森森","SETAI":"59"}},{"type":"Feature","geometry":{"type":"Polygon","coordinates":[[[133.86656066850256,35.39239468315636],[133.86667207696271,35.39966925624644],[133.8659558107873,35.40067209300576],[133.864476591744,35.4009576217623],[133.86421597138246,35.40082534624064],[133.86368777459842,35.39961149651485],[133.86315173659105,35.398595283982736],[133.8633545809056,35.39781841812409],[133.86431846025172,35.39730626293561],[133.86512443373323,35.39634638844333],[133.86518415903,35.39617584996249],[133.86556847052694,35.39558136937434],[133.8652930205928,35.39475891651557],[133.86529763178987,35.39388664088215],[133.86544488453922,35.39325850153316],[133.86565528028993,35.3925151888401],[133.86656066850256,35.39239468315636]]]},"properties":{"KEY_CODE":"31364019002","PREF":"31","CITY":"364","CITY_NAME":"三朝町","S_NAME":"森天神","SETAI":"48"}},{"type":"Feature","geometry":{"type":"Polygon","coordinates":[[[133.88345667499195,35.40479700400251],[133.88302219640977,35.40502503747634],[133.88192937374632,35.40552801264001],[133.88007577683015,35.40616207564798],[133.879547504206,35.404325538431465],[133.87669880583653,35.40169259076261],[133.876236227697,35.3990965068951],[133.87262992668258,35.39488437844311],[133.86888919166591,35.39167643963298],[133.87155347047818,35.38851530847966],[133.87265731644996,35.38669551481675],[133.87161971047846,35.383763921690544],[133.87196254811917,35.37848981513557],[133.87628342904375,35.38167546702932],[133.88027449650076,35.384047724282695],[133.8817534344825,35.38468091234971],[133.885915076787,35.38660794073996],[133.88572247747203,35.3871565012108],[133.88779625723762,35.38945701747824],[133.88820993272512,35.391157765289925],[133.8890941982216,35.391747400241975],[133.8919426512558,35.39201295914665],[133.8937226512401,35.391806773845516],[133.90000526015828,35.39037264420725],[133.89915440290196,35.39101385198117],[133.89760271770916,35.39248882218924],[133.89703855086216,35.39299387529656],[133.89558054360984,35.394317849713154],[133.8938734202804,35.39591315663643],[133.89276829883383,35.39677347217363],[133.89182631344542,35.39731677442649],[133.88923236973667,35.39823172980598],[133.88811753697752,35.39880280761293],[133.88744267061875,35.399511902553066],[133.88657463609727,35.401085305890405],[133.8848050138481,35.403940099325396],[133.88345667499195,35.40479700400251]]]},"properties":{"KEY_CODE":"313640200","PREF":"31","CITY":"364","CITY_NAME":"三朝町","S_NAME":"鎌田","SETAI":"36"}},{"type":"Feature","geometry":{"type":"Polygon","coordinates":[[[133.90000526015828,35.39037264420725],[133.8937226512401,35.391806773845516],[133.8919426512558,35.39201295914665],[133.8890941982216,35.391747400241975],[133.88820993272512,35.391157765289925],[133.88779625723762,35.38945701747824],[133.88572247747203,35.3871565012108],[133.885915076787,35.38660794073996],[133.88819789912702,35.38720154643834],[133.89006271771444,35.3858554142669],[133.89174737580632,35.38315560307489],[133.89424929523233,35.38115723361349],[133.89714746898278,35.38033731578314],[133.9001433012845,35.38087054408473],[133.90120507500885,35.37987007812045],[133.91016296880284,35.37738182864482],[133.91523920383963,35.37610000755524],[133.91632637382273,35.37620666424576],[133.91482075744239,35.37946097153494],[133.91253694819738,35.381206150134865],[133.90954287675274,35.38201746077374],[133.9071474230863,35.384482290893004],[133.90588818824412,35.38703024392964],[133.90538396504883,35.38718429519775],[133.90490006481255,35.38748714516754],[133.90345144367228,35.38851667483957],[133.90198206296915,35.389367380935],[133.90129526713716,35.38968716217741],[133.90000526015828,35.39037264420725]]]},"properties":{"KEY_CODE":"313640210","PREF":"31","CITY":"364","CITY_NAME":"三朝町","S_NAME":"吉尾","SETAI":"13"}},{"type":"Feature","geometry":{"type":"Polygon","coordinates":[[[133.91632637382273,35.37620666424576],[133.91523920383963,35.37610000755524],[133.91016296880284,35.37738182864482],[133.90120507500885,35.37987007812045],[133.9001433012845,35.38087054408473],[133.89714746898278,35.38033731578314],[133.89424929523233,35.38115723361349],[133.89174737580632,35.38315560307489],[133.89006271771444,35.3858554142669],[133.88819789912702,35.38720154643834],[133.885915076787,35.38660794073996],[133.8817534344825,35.38468091234971],[133.8829302092794,35.38450397197045],[133.8850985862813,35.38332101337713],[133.88571074557038,35.38256485304877],[133.89062587247898,35.374336857471334],[133.89202752819205,35.3714546165088],[133.8976992241096,35.37099107116821],[133.89969819379274,35.37007419148093],[133.90468643498704,35.36838223569354],[133.90599939846393,35.366721135201495],[133.90780725672033,35.36684139312511],[133.90930590851553,35.36575146903275],[133.91217758505556,35.3657604738515],[133.91391352601664,35.366336024084454],[133.91664272854737,35.368129479681784],[133.9161280514596,35.36995267794222],[133.9173030332855,35.37215199437701],[133.91727566298928,35.37324737903023],[133.91632637382273,35.37620666424576]]]},"properties":{"KEY_CODE":"313640220","PREF":"31","CITY":"364","CITY_NAME":"三朝町","S_NAME":"下谷","SETAI":"15"}},{"type":"Feature","geometry":{"type":"Polygon","coordinates":[[[133.89202752819205,35.3714546165088],[133.89062587247898,35.374336857471334],[133.88571074557038,35.38256485304877],[133.8850985862813,35.38332101337713],[133.8829302092794,35.38450397197045],[133.8817534344825,35.38468091234971],[133.88027449650076,35.384047724282695],[133.87628342904375,35.38167546702932],[133.87196254811917,35.37848981513557],[133.87245353449669,35.37556278301227],[133.87151367693647,35.373385462113085],[133.8716938543807,35.37227566775032],[133.87443631431447,35.37319731249862],[133.88035990803988,35.374372808894535],[133.88446162744714,35.37453042680165],[133.88724027128328,35.37376655437628],[133.89202752819205,35.3714546165088]]]},"properties":{"KEY_CODE":"313640230","PREF":"31","CITY":"364","CITY_NAME":"三朝町","S_NAME":"福田","SETAI":"12"}},{"type":"Feature","geometry":{"type":"Polygon","coordinates":[[[133.87859612433414,35.34489327200254],[133.88047915806482,35.346788665719735],[133.88155708110443,35.349806821836346],[133.88170206054235,35.35191140634633],[133.8829446738837,35.35335627405362],[133.8837178265501,35.35523620705476],[133.88449312557128,35.364669832976666],[133.8840885654067,35.36676636237647],[133.8826268989903,35.36782247039821],[133.8777993955613,35.368923943219286],[133.87003141427292,35.36963577782714],[133.86881810223375,35.36726732095637],[133.86709793047797,35.366588356962964],[133.8652611682094,35.36344760551305],[133.86325786682,35.36049447779251],[133.86259140668088,35.35863159389467],[133.86304754581693,35.358177879311434],[133.86630611309513,35.3525091633541],[133.8687353895417,35.347187999831135],[133.86925471793518,35.346309003697215],[133.8694534204933,35.346379979527676],[133.86996628787438,35.346563076163314],[133.87156945787694,35.346794007524885],[133.8734985794197,35.34651248348976],[133.87438611892722,35.34632979427206],[133.87782992694594,35.345206381611355],[133.87827537754097,35.344997068235465],[133.87859612433414,35.34489327200254]]]},"properties":{"KEY_CODE":"313640240","PREF":"31","CITY":"364","CITY_NAME":"三朝町","S_NAME":"笏賀","SETAI":"8"}},{"type":"Feature","geometry":{"type":"Polygon","coordinates":[[[133.89202752819205,35.3714546165088],[133.88724027128328,35.37376655437628],[133.88446162744714,35.37453042680165],[133.88035990803988,35.374372808894535],[133.87443631431447,35.37319731249862],[133.8716938543807,35.37227566775032],[133.87003141427292,35.36963577782714],[133.8777993955613,35.368923943219286],[133.8826268989903,35.36782247039821],[133.8840885654067,35.36676636237647],[133.88449312557128,35.364669832976666],[133.8837178265501,35.35523620705476],[133.8829446738837,35.35335627405362],[133.88170206054235,35.35191140634633],[133.88155708110443,35.349806821836346],[133.88047915806482,35.346788665719735],[133.87859612433414,35.34489327200254],[133.87925418332597,35.344573764398994],[133.88221674659258,35.3421924628393],[133.88463699698025,35.34426459740561],[133.8864329592483,35.346904897559156],[133.8910248399356,35.354844721069426],[133.89330168936598,35.35753895649652],[133.89310297377472,35.36051915530423],[133.89368288178375,35.36106830893164],[133.89649008251826,35.36230932384679],[133.89708530764756,35.3615971827889],[133.89801382973783,35.36261284938246],[133.90007333109745,35.363431239803454],[133.90440720335133,35.36413952976325],[133.90930590851553,35.36575146903275],[133.90780725672033,35.36684139312511],[133.90599939846393,35.366721135201495],[133.90468643498704,35.36838223569354],[133.89969819379274,35.37007419148093],[133.8976992241096,35.37099107116821],[133.89202752819205,35.3714546165088]]]},"properties":{"KEY_CODE":"313640250","PREF":"31","CITY":"364","CITY_NAME":"三朝町","S_NAME":"小河内","SETAI":"33"}},{"type":"Feature","geometry":{"type":"Polygon","coordinates":[[[133.92671318336826,35.3680882075183],[133.9249737676715,35.368311842025086],[133.9218663541954,35.366281310205636],[133.91982466770784,35.36622439794105],[133.91664272854737,35.368129479681784],[133.91391352601664,35.366336024084454],[133.91217758505556,35.3657604738515],[133.90930590851553,35.36575146903275],[133.90819520520714,35.35744317098831],[133.91071971363883,35.358404646089355],[133.91445332905786,35.35818407595236],[133.9246582446413,35.35880470636334],[133.92752382654703,35.3591825419752],[133.93142904519502,35.36031496999941],[133.93511370374833,35.360385553056105],[133.93786818165086,35.36179984804683],[133.93660999327074,35.36194284879406],[133.93469231951374,35.36308978705239],[133.93089211676426,35.36667278571482],[133.92929014115353,35.36745975228609],[133.92671318336826,35.3680882075183]]]},"properties":{"KEY_CODE":"31364026001","PREF":"31","CITY":"364","CITY_NAME":"三朝町","S_NAME":"柿谷柿谷","SETAI":"2"}},{"type":"Feature","geometry":{"type":"Polygon","coordinates":[[[133.90930590851553,35.36575146903275],[133.90440720335133,35.36413952976325],[133.90007333109745,35.363431239803454],[133.89801382973783,35.36261284938246],[133.89708530764756,35.3615971827889],[133.89649008251826,35.36230932384679],[133.89368288178375,35.36106830893164],[133.902132308689,35.35423179347486],[133.90551346442845,35.35632369056294],[133.90819520520714,35.35744317098831],[133.90930590851553,35.36575146903275]]]},"properties":{"KEY_CODE":"31364026002","PREF":"31","CITY":"364","CITY_NAME":"三朝町","S_NAME":"柿谷太郎田","SETAI":"4"}},{"type":"Feature","geometry":{"type":"Polygon","coordinates":[[[133.9246582446413,35.35880470636334],[133.91445332905786,35.35818407595236],[133.91071971363883,35.358404646089355],[133.90819520520714,35.35744317098831],[133.90551346442845,35.35632369056294],[133.902132308689,35.35423179347486],[133.9102667587375,35.34723897532366],[133.91127260153377,35.34580198604138],[133.91338249082844,35.332259417973596],[133.92015016117972,35.3340540690104],[133.9243332669908,35.334570730829896],[133.9256512895425,35.33447671415452],[133.9256488267828,35.33543087168882],[133.92440760927684,35.34194089800882],[133.9246022440038,35.34493738712473],[133.92413640821687,35.349957868960395],[133.9246582446413,35.35880470636334]]]},"properties":{"KEY_CODE":"31364026003","PREF":"31","CITY":"364","CITY_NAME":"三朝町","S_NAME":"柿谷実光","SETAI":"7"}},{"type":"Feature","geometry":{"type":"Polygon","coordinates":[[[133.902132308689,35.35423179347486],[133.89368288178375,35.36106830893164],[133.89310297377472,35.36051915530423],[133.89330168936598,35.35753895649652],[133.8910248399356,35.354844721069426],[133.8864329592483,35.346904897559156],[133.88463699698025,35.34426459740561],[133.88221674659258,35.3421924628393],[133.88288437063605,35.341018654713665],[133.88373328072726,35.33702848017485],[133.88418624652792,35.33584724263336],[133.8849249846874,35.33460473212734],[133.8861284583891,35.331798079249104],[133.8875473239254,35.330289230015026],[133.89033565631163,35.33274375939914],[133.8920256140035,35.333576822405185],[133.8940357583782,35.33380038531642],[133.90305650481318,35.33135087761967],[133.90567517602892,35.331093215948385],[133.90958279523255,35.331125034090235],[133.91338249082844,35.332259417973596],[133.91127260153377,35.34580198604138],[133.9102667587375,35.34723897532366],[133.902132308689,35.35423179347486]]]},"properties":{"KEY_CODE":"313640270","PREF":"31","CITY":"364","CITY_NAME":"三朝町","S_NAME":"福吉","SETAI":"6"}},{"type":"Feature","geometry":{"type":"Polygon","coordinates":[[[133.93786818165086,35.36179984804683],[133.93511370374833,35.360385553056105],[133.93142904519502,35.36031496999941],[133.92752382654703,35.3591825419752],[133.9246582446413,35.35880470636334],[133.92413640821687,35.349957868960395],[133.9246022440038,35.34493738712473],[133.92440760927684,35.34194089800882],[133.9256488267828,35.33543087168882],[133.9256512895425,35.33447671415452],[133.9310339236735,35.33235077417706],[133.93206773267931,35.33378689267244],[133.93501740409866,35.33550346775568],[133.93696716593885,35.33552015552087],[133.93785462407206,35.334103667355976],[133.93872950675342,35.33382870124056],[133.94092923697457,35.33454530619905],[133.94296655844892,35.33393709192286],[133.94496641934964,35.33256221651989],[133.94805345943806,35.334178818056934],[133.95147794153434,35.33698700651324],[133.95382757112398,35.338353594305595],[133.95368991806657,35.340078437010554],[133.95562702123055,35.34209499244469],[133.95722680610663,35.34234498390872],[133.95946040905378,35.34421085237568],[133.9624010857557,35.344178188934016],[133.9648007379636,35.34684456434525],[133.9657659330761,35.34646126560853],[133.9653018589285,35.349701106324666],[133.96424110486444,35.35143489300558],[133.96199862073064,35.353019432775746],[133.95925836823233,35.35409836908259],[133.95527888067483,35.3561221615762],[133.95353137527763,35.356673533933915],[133.9485286971633,35.358933743820224],[133.9454969422159,35.360605624782465],[133.9415265565719,35.36189165636377],[133.93786818165086,35.36179984804683]]]},"properties":{"KEY_CODE":"313640280","PREF":"31","CITY":"364","CITY_NAME":"三朝町","S_NAME":"鉛山","SETAI":"1"}},{"type":"Feature","geometry":{"type":"Polygon","coordinates":[[[133.85692736258818,35.40815591907935],[133.85617874053844,35.408106482064134],[133.8546979032356,35.408426382504636],[133.85378546432432,35.40825966270079],[133.8534605174171,35.408276327149366],[133.85106067739298,35.40820126253873],[133.84838604150124,35.40501823608922],[133.84704870824393,35.40379327432968],[133.84507390099068,35.40315993835993],[133.84558642295588,35.401243520665865],[133.84483479696186,35.39971528258499],[133.84864044575974,35.399528494221514],[133.84870139452303,35.399770848643236],[133.85383693221718,35.39980494826051],[133.85386835839083,35.40007534880799],[133.85920013927418,35.4004192890484],[133.85916943270507,35.40197617051843],[133.85819303424884,35.404600286583175],[133.8583760403379,35.40624808510412],[133.8573519951913,35.40748929994263],[133.85692736258818,35.40815591907935]]]},"properties":{"KEY_CODE":"31364029001","PREF":"31","CITY":"364","CITY_NAME":"三朝町","S_NAME":"今泉若宮","SETAI":"47"}},{"type":"Feature","geometry":{"type":"Polygon","coordinates":[[[133.85765696418176,35.39326563099146],[133.85746313463156,35.393811889574934],[133.85761191195544,35.394304084299314],[133.85808034783798,35.39526077082022],[133.85907191035142,35.39624762030511],[133.86018094563562,35.39756462648302],[133.85992144330012,35.398560908759976],[133.8595397341487,35.39888566667521],[133.85920013927418,35.4004192890484],[133.85386835839083,35.40007534880799],[133.85383693221718,35.39980494826051],[133.84870139452303,35.399770848643236],[133.84864044575974,35.399528494221514],[133.84483479696186,35.39971528258499],[133.84486157069864,35.39887709289164],[133.84448660774757,35.398060508007156],[133.84402419154048,35.39742722588469],[133.84312427610632,35.39689391681809],[133.84261184274425,35.39566902018539],[133.84263690034922,35.394435825100956],[133.8419245238862,35.392169416817644],[133.84119958783018,35.39179440548528],[133.84001222341203,35.391769316035955],[133.8382374176118,35.39086101965351],[133.8383999368606,35.39015275018698],[133.8382874896243,35.38871123519118],[133.83620539382989,35.38690549811403],[133.84241922528037,35.38891943770159],[133.84427929504517,35.38910873487841],[133.8488062032757,35.38854642720818],[133.85121539700677,35.38933660162615],[133.85765696418176,35.39326563099146]]]},"properties":{"KEY_CODE":"31364029002","PREF":"31","CITY":"364","CITY_NAME":"三朝町","S_NAME":"今泉今泉","SETAI":"32"}},{"type":"Feature","geometry":{"type":"Polygon","coordinates":[[[133.85658014612144,35.3826255997032],[133.8583717421861,35.383997595662755],[133.85892107916047,35.38605401295183],[133.85881126167257,35.387891484648776],[133.85792605375946,35.38958659407994],[133.85765696418176,35.39326563099146],[133.85121539700677,35.38933660162615],[133.8488062032757,35.38854642720818],[133.84427929504517,35.38910873487841],[133.84241922528037,35.38891943770159],[133.83620539382989,35.38690549811403],[133.83650019240378,35.38571985890426],[133.83595024043893,35.385153236366186],[133.83522541060472,35.384780593327875],[133.83456242281235,35.3833628474607],[133.83478608934618,35.381277745565654],[133.83399275825852,35.37929224900192],[133.83230311305422,35.37751055684847],[133.83221966181637,35.37681248615184],[133.8331104633692,35.375617222162774],[133.83238412340535,35.37334586545513],[133.83043327304222,35.372032611626906],[133.8314847116924,35.371319194316825],[133.83233774023807,35.36904163569093],[133.83381164552765,35.36791088724092],[133.84045899647091,35.37190369837907],[133.84279562100792,35.3726185169916],[133.85042605128638,35.3718542859863],[133.85041748615447,35.37289330639896],[133.849452781121,35.37545428336583],[133.84954676707093,35.37687271590402],[133.8502445502022,35.377966263700536],[133.85248930098598,35.37967162613513],[133.853300532405,35.380935679945175],[133.85658014612144,35.3826255997032]]]},"properties":{"KEY_CODE":"313640300","PREF":"31","CITY":"364","CITY_NAME":"三朝町","S_NAME":"牧","SETAI":"70"}},{"type":"Feature","geometry":{"type":"Polygon","coordinates":[[[133.86565528028993,35.3925151888401],[133.86548445312587,35.39253530022405],[133.8641146912831,35.392782721272226],[133.86323327672562,35.39292048496279],[133.86118286075558,35.393076068542506],[133.8584496965251,35.3932417253151],[133.85765696418176,35.39326563099146],[133.85792605375946,35.38958659407994],[133.85881126167257,35.387891484648776],[133.85892107916047,35.38605401295183],[133.8583717421861,35.383997595662755],[133.85658014612144,35.3826255997032],[133.86180741082924,35.376391151343554],[133.8622446893004,35.37270855011161],[133.86274748513773,35.371009765473495],[133.86553656907103,35.367566026389206],[133.86709793047797,35.366588356962964],[133.86881810223375,35.36726732095637],[133.87003141427292,35.36963577782714],[133.8716938543807,35.37227566775032],[133.87151367693647,35.373385462113085],[133.87245353449669,35.37556278301227],[133.87196254811917,35.37848981513557],[133.87161971047846,35.383763921690544],[133.87265731644996,35.38669551481675],[133.87155347047818,35.38851530847966],[133.86888919166591,35.39167643963298],[133.86656066850256,35.39239468315636],[133.86565528028993,35.3925151888401]]]},"properties":{"KEY_CODE":"313640310","PREF":"31","CITY":"364","CITY_NAME":"三朝町","S_NAME":"湯谷","SETAI":"18"}},{"type":"Feature","geometry":{"type":"Polygon","coordinates":[[[133.86709793047797,35.366588356962964],[133.86553656907103,35.367566026389206],[133.86274748513773,35.371009765473495],[133.8622446893004,35.37270855011161],[133.86180741082924,35.376391151343554],[133.85658014612144,35.3826255997032],[133.853300532405,35.380935679945175],[133.85248930098598,35.37967162613513],[133.8502445502022,35.377966263700536],[133.84954676707093,35.37687271590402],[133.849452781121,35.37545428336583],[133.85041748615447,35.37289330639896],[133.85042605128638,35.3718542859863],[133.85106797250964,35.369459951600085],[133.8519351441922,35.36829823122974],[133.8580279308826,35.36821275556522],[133.86094336095672,35.366531775966195],[133.8652611682094,35.36344760551305],[133.86709793047797,35.366588356962964]]]},"properties":{"KEY_CODE":"313640320","PREF":"31","CITY":"364","CITY_NAME":"三朝町","S_NAME":"赤松","SETAI":"17"}},{"type":"Feature","geometry":{"type":"Polygon","coordinates":[[[133.85042605128638,35.3718542859863],[133.84279562100792,35.3726185169916],[133.84045899647091,35.37190369837907],[133.83381164552765,35.36791088724092],[133.83453626032497,35.366693023451056],[133.83721755941178,35.36552901173251],[133.84092159654065,35.36451953431157],[133.8466441086476,35.361329139953064],[133.8477892018549,35.36333166303869],[133.8495913877399,35.364651191403986],[133.85232741174636,35.365292818713996],[133.85295973846098,35.36719776330412],[133.8519351441922,35.36829823122974],[133.85106797250964,35.369459951600085],[133.85042605128638,35.3718542859863]]]},"properties":{"KEY_CODE":"313640330","PREF":"31","CITY":"364","CITY_NAME":"三朝町","S_NAME":"大柿","SETAI":"12"}},{"type":"Feature","geometry":{"type":"Polygon","coordinates":[[[133.8652611682094,35.36344760551305],[133.86094336095672,35.366531775966195],[133.8580279308826,35.36821275556522],[133.8519351441922,35.36829823122974],[133.85295973846098,35.36719776330412],[133.85232741174636,35.365292818713996],[133.8495913877399,35.364651191403986],[133.8477892018549,35.36333166303869],[133.8466441086476,35.361329139953064],[133.8493178532338,35.36002750375064],[133.85566269739962,35.35891755303179],[133.86259140668088,35.35863159389467],[133.86325786682,35.36049447779251],[133.8652611682094,35.36344760551305]]]},"properties":{"KEY_CODE":"313640340","PREF":"31","CITY":"364","CITY_NAME":"三朝町","S_NAME":"恩地","SETAI":"13"}},{"type":"Feature","geometry":{"type":"Polygon","coordinates":[[[133.8466441086476,35.361329139953064],[133.84092159654065,35.36451953431157],[133.83721755941178,35.36552901173251],[133.83453626032497,35.366693023451056],[133.8318266864621,35.36531707254911],[133.83099463909628,35.36193734658288],[133.830353798373,35.36157574618105],[133.83056871727817,35.3599026455157],[133.83001596130805,35.356868672610034],[133.83394510105273,35.35583297247144],[133.83806916389136,35.353866401008375],[133.84322621962633,35.35036867799195],[133.85260409205065,35.34741322803229],[133.858013649502,35.345940220259436],[133.86497721683077,35.343534083058344],[133.86707644780515,35.34524116718211],[133.86896063140324,35.346233647189166],[133.86925471793518,35.346309003697215],[133.8687353895417,35.347187999831135],[133.86630611309513,35.3525091633541],[133.86304754581693,35.358177879311434],[133.86259140668088,35.35863159389467],[133.85566269739962,35.35891755303179],[133.8493178532338,35.36002750375064],[133.8466441086476,35.361329139953064]]]},"properties":{"KEY_CODE":"313640350","PREF":"31","CITY":"364","CITY_NAME":"三朝町","S_NAME":"助谷","SETAI":"30"}},{"type":"Feature","geometry":{"type":"Polygon","coordinates":[[[133.86497721683077,35.343534083058344],[133.858013649502,35.345940220259436],[133.85260409205065,35.34741322803229],[133.84322621962633,35.35036867799195],[133.83806916389136,35.353866401008375],[133.83394510105273,35.35583297247144],[133.83001596130805,35.356868672610034],[133.82898183239772,35.355336406188954],[133.82756638714667,35.354140277360536],[133.8265497971833,35.35401826468484],[133.82499269190185,35.35272130484364],[133.82545032140283,35.3495771666608],[133.82743823278108,35.348369200041034],[133.8286365093694,35.346752482756905],[133.83297623311907,35.344148746338234],[133.83688356321036,35.342056552469344],[133.84045320587694,35.3408598035673],[133.8407242257982,35.33922836828462],[133.84137229874352,35.33862522672597],[133.84816840868345,35.33903110139649],[133.85315126491452,35.33913203732741],[133.85513235734007,35.3389776996861],[133.8577051059215,35.33923115231289],[133.86057111420286,35.34013436362351],[133.86195235754957,35.340977649769556],[133.86497721683077,35.343534083058344]]]},"properties":{"KEY_CODE":"313640360","PREF":"31","CITY":"364","CITY_NAME":"三朝町","S_NAME":"久原","SETAI":"24"}},{"type":"Feature","geometry":{"type":"Polygon","coordinates":[[[133.82499269190185,35.35272130484364],[133.821898763398,35.35242126920311],[133.82161438983476,35.35024933623002],[133.82005208785762,35.348624508504415],[133.81791224115676,35.34837745509626],[133.81728477427546,35.34695451859394],[133.81667258870974,35.342809472231984],[133.81704710088027,35.33566735202134],[133.81837219659337,35.33211435628639],[133.81885589694912,35.329552413334994],[133.82068223451154,35.32643784274659],[133.82198511671237,35.32588902380654],[133.82494951631648,35.325444701447886],[133.83265637083406,35.325111989475204],[133.83380115547675,35.325414043830214],[133.83410814808312,35.32579706977226],[133.83686670463,35.32930873126639],[133.83778842239184,35.32967735704162],[133.83822546944648,35.33173675398888],[133.83990413481348,35.3338046596652],[133.8405962694939,35.3339493766625],[133.8413888541764,35.33521619557991],[133.84168785684187,35.3376095337503],[133.8416390994494,35.33816680182328],[133.84137229874352,35.33862522672597],[133.8407242257982,35.33922836828462],[133.84045320587694,35.3408598035673],[133.83688356321036,35.342056552469344],[133.83297623311907,35.344148746338234],[133.8286365093694,35.346752482756905],[133.82743823278108,35.348369200041034],[133.82545032140283,35.3495771666608],[133.82499269190185,35.35272130484364]]]},"properties":{"KEY_CODE":"313640370","PREF":"31","CITY":"364","CITY_NAME":"三朝町","S_NAME":"曹源寺","SETAI":"33"}},{"type":"Feature","geometry":{"type":"Polygon","coordinates":[[[133.8201207355478,35.2889085848331],[133.81051203935442,35.29478352662769],[133.80711667094073,35.296381698238555],[133.80597594990004,35.29659377467322],[133.80492650966934,35.295803979328596],[133.8022992356582,35.291371227757516],[133.80065747979933,35.28799284069312],[133.8017429591803,35.287556200570194],[133.80111804446452,35.28668125935882],[133.80135558990824,35.28476480977953],[133.80245550725678,35.28361497269532],[133.80446785077345,35.282665099940104],[133.80553028701328,35.28171520985322],[133.80514283582346,35.28039032613677],[133.8081926439025,35.27804057354387],[133.80904360664883,35.2763027284431],[133.81018082343584,35.27623686421488],[133.81120295699543,35.27712179097531],[133.81259358851426,35.277091927996146],[133.81399914380418,35.27566474285371],[133.81364893009354,35.27722040517441],[133.8146114247707,35.27956255268053],[133.8152963508349,35.279024201683086],[133.81746690884498,35.2805230795617],[133.81873614270157,35.280578055982296],[133.832558032793,35.279273256332225],[133.83427925825367,35.27955289111266],[133.83738193680318,35.28158276227364],[133.8201207355478,35.2889085848331]]]},"properties":{"KEY_CODE":"31364038001","PREF":"31","CITY":"364","CITY_NAME":"三朝町","S_NAME":"大谷三軒屋","SETAI":"9"}},{"type":"Feature","geometry":{"type":"Polygon","coordinates":[[[133.83738193680318,35.28158276227364],[133.83427925825367,35.27955289111266],[133.832558032793,35.279273256332225],[133.81873614270157,35.280578055982296],[133.81746690884498,35.2805230795617],[133.8152963508349,35.279024201683086],[133.8146114247707,35.27956255268053],[133.81364893009354,35.27722040517441],[133.81399914380418,35.27566474285371],[133.81259358851426,35.277091927996146],[133.81120295699543,35.27712179097531],[133.81018082343584,35.27623686421488],[133.80904360664883,35.2763027284431],[133.80956761432606,35.27522418722907],[133.8092051867687,35.27371595679649],[133.80783035582886,35.27179946137064],[133.8074429405992,35.27049126704654],[133.80893037328968,35.26914139552944],[133.81039274012323,35.26902474236857],[133.8115926557415,35.266949982193715],[133.8132175547045,35.26569176905631],[133.81532986588496,35.26470019568544],[133.81612982572085,35.26336693514377],[133.81659236537377,35.26050055320654],[133.81831728197702,35.25881731266255],[133.81840484009484,35.257009162321175],[133.81754246442614,35.25550093789132],[133.81785504848142,35.25285949000578],[133.82271703261938,35.25050145450659],[133.8255292298323,35.250026516355966],[133.8264416328665,35.24944319842577],[133.82769151065904,35.24985980962005],[133.8295287869867,35.24916826599807],[133.83237846641993,35.248851647163825],[133.83422825932786,35.24935988175941],[133.83715293980705,35.25086802077254],[133.8393527455043,35.25115962755301],[133.84160253741913,35.24952649722081],[133.8446022638313,35.24965983509695],[133.8449146879852,35.25169279726212],[133.8437272461086,35.25385919176892],[133.84523955168422,35.254917333283615],[133.84613941691498,35.256425459261564],[133.847689239597,35.25716696576958],[133.84801416239887,35.25834183438781],[133.84945149012236,35.26045821303812],[133.85120134717843,35.26113320394219],[133.85222625732445,35.262458160186775],[133.85300118646984,35.26531638830363],[133.85364123232674,35.26611511765035],[133.85212368093462,35.26776045554511],[133.8493279881392,35.27238551873115],[133.84656094840147,35.27547064063536],[133.84509984832383,35.278398912050335],[133.83738193680318,35.28158276227364]]]},"properties":{"KEY_CODE":"31364038002","PREF":"31","CITY":"364","CITY_NAME":"三朝町","S_NAME":"大谷大谷","SETAI":"4"}},{"type":"Feature","geometry":{"type":"Polygon","coordinates":[[[133.8472083018948,35.305724183827735],[133.8375160664867,35.306953536881345],[133.82915879505197,35.30761568661122],[133.82254193363545,35.2973907614371],[133.8201207355478,35.2889085848331],[133.83738193680318,35.28158276227364],[133.84509984832383,35.278398912050335],[133.84656094840147,35.27547064063536],[133.8493279881392,35.27238551873115],[133.85212368093462,35.26776045554511],[133.85364123232674,35.26611511765035],[133.85506351691532,35.267191393859584],[133.85547598596983,35.26824963363636],[133.85781331973647,35.26817469284839],[133.85967567988612,35.26968296936724],[133.8622379064125,35.271082917246275],[133.86575007351172,35.27220793980961],[133.865625040164,35.27310785640675],[133.86397519364064,35.275649361357566],[133.86340023473306,35.27711587886016],[133.86518753630475,35.27950742639419],[133.8652500080489,35.280340672570745],[133.86420013108628,35.28114899284953],[133.86401261857145,35.28274885424307],[133.86616238446368,35.28339885920765],[133.86627484125387,35.284932051244795],[133.86483754152735,35.28604032024982],[133.86116298867663,35.28658199913073],[133.86077553492598,35.2876152806122],[133.86207655832894,35.29253336421825],[133.86072134444555,35.29339741204254],[133.857591695134,35.296275566088326],[133.8541343618283,35.29857925432274],[133.8533030383303,35.29969265296947],[133.85235328560245,35.303092481011],[133.85117097419268,35.30407418835922],[133.8472083018948,35.305724183827735]]]},"properties":{"KEY_CODE":"313640390","PREF":"31","CITY":"364","CITY_NAME":"三朝町","S_NAME":"田代","SETAI":"4"}},{"type":"Feature","geometry":{"type":"Polygon","coordinates":[[[133.8763275917419,35.32418248626318],[133.8716181314967,35.323341346303856],[133.86767916235272,35.322950368720505],[133.86686877473073,35.32313175999574],[133.86501667793235,35.32388144627681],[133.86323178704131,35.32441509729071],[133.86171334674708,35.32451736691124],[133.85957140715277,35.32416824083066],[133.85463233402965,35.322665933892864],[133.8513754539852,35.321270358177145],[133.84904969976594,35.31920181176397],[133.8484235549387,35.3183573337172],[133.84799010124337,35.317771581463965],[133.84763121958082,35.31670063384886],[133.84764163956802,35.31602954765322],[133.8472083018948,35.305724183827735],[133.85117097419268,35.30407418835922],[133.85235328560245,35.303092481011],[133.8533030383303,35.29969265296947],[133.8541343618283,35.29857925432274],[133.857591695134,35.296275566088326],[133.86072134444555,35.29339741204254],[133.86207655832894,35.29253336421825],[133.86530000224502,35.29340649864736],[133.86933692006448,35.29306475102175],[133.87004933938007,35.29256482711477],[133.87167411529697,35.29343966559475],[133.8734488608364,35.29330634831069],[133.87363633894756,35.29433954979391],[133.8768858584373,35.29519780626339],[133.87973548372003,35.294647743574096],[133.88076036429374,35.29388117623625],[133.88296271339175,35.294438465197736],[133.87871858534396,35.3001189560149],[133.87682679395354,35.30337846488364],[133.87053201892397,35.313737428155164],[133.86947449262397,35.317138460252906],[133.86992293498764,35.31832094670039],[133.87245414647325,35.320975162665036],[133.8763275917419,35.32418248626318]]]},"properties":{"KEY_CODE":"313640400","PREF":"31","CITY":"364","CITY_NAME":"三朝町","S_NAME":"加谷","SETAI":"24"}},{"type":"Feature","geometry":{"type":"Polygon","coordinates":[[[133.9310339236735,35.33235077417706],[133.9256512895425,35.33447671415452],[133.9243332669908,35.334570730829896],[133.92015016117972,35.3340540690104],[133.91338249082844,35.332259417973596],[133.90958279523255,35.331125034090235],[133.90567517602892,35.331093215948385],[133.90305650481318,35.33135087761967],[133.8940357583782,35.33380038531642],[133.8920256140035,35.333576822405185],[133.89033565631163,35.33274375939914],[133.8875473239254,35.330289230015026],[133.8859656756342,35.32827096363652],[133.8845167169528,35.32667348556611],[133.88239596582028,35.32549086818643],[133.8811103315083,35.32512405157333],[133.87727349346832,35.32439062056664],[133.8763275917419,35.32418248626318],[133.87245414647325,35.320975162665036],[133.86992293498764,35.31832094670039],[133.86947449262397,35.317138460252906],[133.87053201892397,35.313737428155164],[133.87682679395354,35.30337846488364],[133.87871858534396,35.3001189560149],[133.88296271339175,35.294438465197736],[133.88460981103412,35.29598095231751],[133.88603470264417,35.29423941669997],[133.88782213796011,35.295031191805634],[133.8883097154145,35.29734777497172],[133.89089717352005,35.29847289633961],[133.89227221811817,35.30004796051512],[133.8939471499872,35.30004807256547],[133.8967846322042,35.30159815907981],[133.89758465847584,35.30356477002783],[133.898597003638,35.30434798763322],[133.90205912772487,35.303848083534454],[133.9066460477649,35.304998061698484],[133.90695847513666,35.30663955309593],[133.9131078077407,35.307172943224366],[133.91338280403653,35.3066146546388],[133.91512009863428,35.30737293391624],[133.91674497056647,35.30705633480037],[133.91786984886645,35.30763957504438],[133.9192446838364,35.307414623826666],[133.9210070207894,35.30644806783385],[133.92348176351317,35.307006411306844],[133.9251316178584,35.306806494482416],[133.92669393138848,35.309031303871464],[133.9264189042583,35.310497800420734],[133.9279812402182,35.31056444713359],[133.92925610297036,35.31168935226871],[133.93111835803936,35.314439075067874],[133.9321181850521,35.31698049043515],[133.93165569748987,35.31883023071353],[133.92778098836925,35.321854883518725],[133.9280183864166,35.32430455379664],[133.92940567612544,35.32685432164279],[133.92975558255097,35.32996227210504],[133.9310339236735,35.33235077417706]]]},"properties":{"KEY_CODE":"313640410","PREF":"31","CITY":"364","CITY_NAME":"三朝町","S_NAME":"木地山","SETAI":"15"}},{"type":"Feature","geometry":{"type":"Polygon","coordinates":[[[133.8128448823238,35.32579693059752],[133.81207995484874,35.32372535954161],[133.81054903114756,35.32207714481281],[133.8076767107648,35.32049869174619],[133.80533107048515,35.319521553013054],[133.79964346077267,35.318186825654095],[133.79446348167997,35.31743742684778],[133.79383270385648,35.31792897844649],[133.79443508526725,35.31924622248093],[133.7935368720151,35.321844114536695],[133.79212592119225,35.32414965393742],[133.7890424978737,35.325035506618235],[133.7875203597174,35.32711374922318],[133.78702725872995,35.32863851141143],[133.78723038932162,35.33069225548696],[133.7860837692922,35.33145069258832],[133.78560564304777,35.33051789724688],[133.78329341102585,35.327951505516886],[133.78183104972373,35.32714323795799],[133.7821435940264,35.32576837277103],[133.78045622452484,35.32592667879931],[133.77903137032882,35.32480177169054],[133.77818143175296,35.32471006360303],[133.77545656018083,35.3264932313004],[133.77446929313655,35.323385150209084],[133.77281948638,35.322510177778334],[133.77293200111697,35.32163524933935],[133.77311954886636,35.32081869886743],[133.77143585587982,35.320106435628645],[133.76963238942056,35.31868548258544],[133.7687449941927,35.31786886049514],[133.76869501024441,35.31778552706163],[133.76718270957858,35.31658560516442],[133.76500787487453,35.31692717049138],[133.76382050843563,35.31630219206858],[133.76427048273888,35.315352235734366],[133.7636581299768,35.3137106942191],[133.76247083216185,35.31211079135453],[133.76233340177984,35.311135821818695],[133.76335831733584,35.30996933916435],[133.7634333575118,35.309019485774954],[133.76712052858372,35.308477984166096],[133.76840795400005,35.30696155719234],[133.76978292297977,35.304303546088484],[133.77289516912813,35.30267881071492],[133.77365764929465,35.30143735178747],[133.7750075237427,35.300737475157725],[133.77560753266528,35.2996375735614],[133.77709486994942,35.29920436243523],[133.7793821786423,35.29913776156191],[133.78174449260365,35.29818793657193],[133.7834694252973,35.29483001372993],[133.78559426492782,35.294871702536945],[133.78731907824837,35.29549668761705],[133.78931568621226,35.29751125970986],[133.79499836879404,35.302274324441655],[133.8003855688232,35.30502679054841],[133.80226286032652,35.3057864551254],[133.80673075684112,35.30618217537876],[133.81066130845437,35.307064079487056],[133.81292119656078,35.30796918717565],[133.81510340262082,35.309256099199445],[133.8173111222802,35.31115061003027],[133.81915117579953,35.31404510954875],[133.81440061465904,35.319096455521226],[133.81390305252458,35.32025154286237],[133.81315011107478,35.324043920422255],[133.8128448823238,35.32579693059752]]]},"properties":{"KEY_CODE":"313640420","PREF":"31","CITY":"364","CITY_NAME":"三朝町","S_NAME":"福本","SETAI":"3"}},{"type":"Feature","geometry":{"type":"Polygon","coordinates":[[[133.81791224115676,35.34837745509626],[133.81527753062,35.34777451519858],[133.81317764944066,35.348832673320864],[133.80984051670768,35.34698279496795],[133.80714272530818,35.34691669801242],[133.8057235991695,35.3452404833767],[133.80389107841637,35.344116454007846],[133.80297870628846,35.342450002809905],[133.8027538170562,35.34087514244139],[133.8005665129065,35.34050013840638],[133.79956662291298,35.33960024750455],[133.79952918007197,35.33846704882705],[133.79829404558583,35.33704864282028],[133.79701693896735,35.337350475816415],[133.79442162247074,35.336731256453135],[133.79392398758165,35.33597384012397],[133.79190494295722,35.33549233610986],[133.79026013427253,35.33400894394429],[133.78725764931178,35.33412796086272],[133.78604123838656,35.33375164521266],[133.78640551170585,35.33349257742995],[133.78612456231878,35.33150580682145],[133.7860837692922,35.33145069258832],[133.78723038932162,35.33069225548696],[133.78702725872995,35.32863851141143],[133.7875203597174,35.32711374922318],[133.7890424978737,35.325035506618235],[133.79212592119225,35.32414965393742],[133.7935368720151,35.321844114536695],[133.79443508526725,35.31924622248093],[133.79383270385648,35.31792897844649],[133.79446348167997,35.31743742684778],[133.79964346077267,35.318186825654095],[133.80533107048515,35.319521553013054],[133.8076767107648,35.32049869174619],[133.81054903114756,35.32207714481281],[133.81207995484874,35.32372535954161],[133.8128448823238,35.32579693059752],[133.81686754034476,35.33022658599724],[133.81837219659337,35.33211435628639],[133.81704710088027,35.33566735202134],[133.81667258870974,35.342809472231984],[133.81728477427546,35.34695451859394],[133.81791224115676,35.34837745509626]]]},"properties":{"KEY_CODE":"313640430","PREF":"31","CITY":"364","CITY_NAME":"三朝町","S_NAME":"福山","SETAI":"4"}},{"type":"Feature","geometry":{"type":"Polygon","coordinates":[[[133.82427562199368,35.3148622753879],[133.82405301526978,35.31551197015739],[133.82514796865152,35.31803394418155],[133.82364197391465,35.31951148013239],[133.82422579902644,35.32071018637235],[133.81315011107478,35.324043920422255],[133.81390305252458,35.32025154286237],[133.81440061465904,35.319096455521226],[133.81915117579953,35.31404510954875],[133.82108013252025,35.3145704843034],[133.82427562199368,35.3148622753879]]]},"properties":{"KEY_CODE":"313640440","PREF":"31","CITY":"364","CITY_NAME":"三朝町","S_NAME":"上西谷","SETAI":"11"}},{"type":"Feature","geometry":{"type":"Polygon","coordinates":[[[133.81837219659337,35.33211435628639],[133.81686754034476,35.33022658599724],[133.8128448823238,35.32579693059752],[133.81315011107478,35.324043920422255],[133.82422579902644,35.32071018637235],[133.82364197391465,35.31951148013239],[133.82514796865152,35.31803394418155],[133.82405301526978,35.31551197015739],[133.82427562199368,35.3148622753879],[133.82603648728258,35.31483550407919],[133.82995153354955,35.31400162040851],[133.83180418734287,35.313083528641116],[133.83171597855542,35.313211121007356],[133.83074422762212,35.31465941451739],[133.8304651668217,35.315102903136015],[133.82863232661654,35.319073151493605],[133.82926429627042,35.3196333155724],[133.83224348193642,35.32029095250742],[133.83380349055204,35.3209963362194],[133.8342736961677,35.3213915120483],[133.83489094462576,35.32306446789887],[133.83462424275663,35.32437005179138],[133.83396759072997,35.32517818328967],[133.83380115547675,35.325414043830214],[133.83265637083406,35.325111989475204],[133.82494951631648,35.325444701447886],[133.82198511671237,35.32588902380654],[133.82068223451154,35.32643784274659],[133.81885589694912,35.329552413334994],[133.81837219659337,35.33211435628639]]]},"properties":{"KEY_CODE":"313640450","PREF":"31","CITY":"364","CITY_NAME":"三朝町","S_NAME":"下西谷","SETAI":"28"}},{"type":"Feature","geometry":{"type":"Polygon","coordinates":[[[133.88373328072726,35.33702848017485],[133.88288437063605,35.341018654713665],[133.88221674659258,35.3421924628393],[133.87925418332597,35.344573764398994],[133.87827537754097,35.344997068235465],[133.87782992694594,35.345206381611355],[133.87438611892722,35.34632979427206],[133.8734985794197,35.34651248348976],[133.87156945787694,35.34679400752491],[133.86996628787438,35.346563076163314],[133.8694534204933,35.346379979527676],[133.86925471793518,35.34630900369723],[133.86896063140324,35.346233647189166],[133.86707644780515,35.34524116718211],[133.86497721683077,35.343534083058344],[133.86195235754957,35.340977649769556],[133.86057111420286,35.34013436362351],[133.85770510592153,35.33923115231289],[133.85513235734007,35.3389776996861],[133.85315126491452,35.33913203732741],[133.84816840868345,35.33903110139649],[133.84137229874352,35.33862522672597],[133.8416390994494,35.33816680182328],[133.84168785684187,35.3376095337503],[133.8413888541764,35.33521619557991],[133.8405962694939,35.3339493766625],[133.83990413481348,35.3338046596652],[133.83822546944648,35.33173675398888],[133.83778842239184,35.32967735704162],[133.83686670463,35.32930873126639],[133.83410814808312,35.32579706977226],[133.83380115547675,35.325414043830214],[133.83396759072997,35.32517818328967],[133.83462424275663,35.32437005179138],[133.83489094462576,35.32306446789887],[133.8342736961677,35.3213915120483],[133.83380349055204,35.3209963362194],[133.83224348193642,35.32029095250742],[133.82926429627042,35.3196333155724],[133.82863232661654,35.319073151493605],[133.8304651668217,35.315102903136015],[133.83074422762212,35.31465941451739],[133.83171597855542,35.313211121007356],[133.83180418734287,35.313083528641116],[133.8375160664867,35.30695353688134],[133.84720830189482,35.305724183827735],[133.84764163956802,35.31602954765322],[133.84763121958082,35.31670063384886],[133.84799010124337,35.317771581463965],[133.8484235549387,35.3183573337172],[133.84904969976594,35.31920181176397],[133.8513754539852,35.321270358177145],[133.85463233402965,35.322665933892864],[133.85957140715277,35.32416824083066],[133.86171334674708,35.32451736691124],[133.86323178704131,35.32441509729071],[133.86501667793235,35.32388144627681],[133.86686877473073,35.32313175999574],[133.86767916235272,35.322950368720505],[133.8716181314967,35.323341346303856],[133.8763275917419,35.32418248626318],[133.87727349346832,35.32439062056664],[133.8811103315083,35.32512405157333],[133.88239596582028,35.32549086818643],[133.8845167169528,35.32667348556611],[133.8859656756342,35.32827096363652],[133.8875473239254,35.330289230015026],[133.8861284583891,35.331798079249104],[133.8849249846874,35.33460473212734],[133.88418624652792,35.33584724263336],[133.88373328072726,35.33702848017485]]]},"properties":{"KEY_CODE":"313640460","PREF":"31","CITY":"364","CITY_NAME":"三朝町","S_NAME":"穴鴨","SETAI":"53"}},{"type":"Feature","geometry":{"type":"Polygon","coordinates":[[[133.82427562199368,35.3148622753879],[133.82108013252025,35.3145704843034],[133.81915117579953,35.31404510954875],[133.8173111222802,35.31115061003027],[133.81510340262082,35.309256099199445],[133.81292119656078,35.30796918717565],[133.81066130845437,35.307064079487056],[133.80673075684112,35.30618217537876],[133.80226286032652,35.3057864551254],[133.8003855688232,35.30502679054841],[133.79499836879404,35.302274324441655],[133.78931568621226,35.29751125970986],[133.7896313489588,35.295546753585285],[133.78899395642048,35.294255216209876],[133.7903188463444,35.29335531994382],[133.79366858463808,35.292880447365334],[133.7955433574441,35.294297049760445],[133.79786814471422,35.29407208022141],[133.7988681131731,35.29296388343742],[133.79999299495134,35.292647295046],[133.80023053404443,35.29064747313466],[133.79899316863646,35.28958925429317],[133.80065747979933,35.28799284069312],[133.8022992356582,35.291371227757516],[133.80492650966934,35.295803979328596],[133.80597594990004,35.29659377467322],[133.80711667094073,35.296381698238555],[133.81051203935442,35.29478352662769],[133.8201207355478,35.2889085848331],[133.82254193363545,35.2973907614371],[133.82915879505197,35.30761568661122],[133.8375160664867,35.306953536881345],[133.83180418734287,35.313083528641116],[133.82995153354955,35.31400162040851],[133.82603648728258,35.31483550407919],[133.82427562199368,35.3148622753879]]]},"properties":{"KEY_CODE":"313640470","PREF":"31","CITY":"364","CITY_NAME":"三朝町","S_NAME":"下畑","SETAI":"12"}}]}