{"type":"FeatureCollection","features":[{"type":"Feature","geometry":{"type":"Polygon","coordinates":[[[139.60176299875695,35.27714610792764],[139.60168899827207,35.27715230624141],[139.6015040086562,35.27720871838426],[139.6014821891545,35.277241636234066],[139.60146761739387,35.27727773633974],[139.60146409661417,35.27728554677754],[139.60145777635688,35.277295886643365],[139.60141241650882,35.277347562680454],[139.60136212533828,35.27738155286223],[139.60101415556744,35.277638436024375],[139.6008093660797,35.27774945840442],[139.60059389793997,35.277398547335295],[139.60014928816187,35.27719220367141],[139.59958231114769,35.27640701827755],[139.59866894207383,35.2763014654877],[139.59769654351837,35.275771344544275],[139.59761746968175,35.27420628794529],[139.59682744843883,35.273716157700235],[139.59501960014356,35.273600897825595],[139.59399686806535,35.27376658822158],[139.5933071822938,35.273175718184824],[139.5921360418874,35.272972359849035],[139.5915539630638,35.272422256134774],[139.59170277299896,35.271903308655745],[139.59123399885453,35.26983183512115],[139.59022593917737,35.270694302807904],[139.58945159431832,35.270350222259694],[139.5871145790033,35.270509646148895],[139.58736906417408,35.27105010108756],[139.58640515692068,35.27066597177298],[139.58558565783247,35.27087524199163],[139.58435631512666,35.2708110618779],[139.58312129858078,35.26950513661627],[139.5816437704631,35.270200368092105],[139.58005349785637,35.26930925647683],[139.58021609218463,35.26820344127694],[139.57810753525638,35.26801927813756],[139.5768034023336,35.26767175997365],[139.57551665430577,35.267913079548464],[139.57491348542706,35.267481871009764],[139.57395146241933,35.26757540408522],[139.5731686849214,35.26799016360461],[139.57343734787668,35.26923111198577],[139.57277430737668,35.27035740629785],[139.57212890045332,35.270077504241904],[139.5719824458819,35.27015916581193],[139.57168618480927,35.26999810761617],[139.57134367867715,35.27021104371927],[139.57178639581687,35.269591763624014],[139.57177875987054,35.269400052487875],[139.5716510906428,35.26927872129242],[139.57160664260263,35.26908566453775],[139.57123810712207,35.26893128294906],[139.57107598488423,35.26901514940211],[139.57102840453203,35.26911510653397],[139.5708446063772,35.26919133483332],[139.57036539895543,35.268841455898524],[139.569247737465,35.26913652639812],[139.5674407659509,35.267283428280436],[139.56845269237812,35.26608178808659],[139.57036226911535,35.26614575619581],[139.5710623117429,35.266438669961616],[139.57259352390125,35.266036150886585],[139.5729917774248,35.26537515218589],[139.57345544384228,35.265624521961655],[139.57535975001807,35.26475958066522],[139.57652375874935,35.26344410746528],[139.5770376214179,35.26249410531705],[139.57711556149061,35.261436848877636],[139.57685749364506,35.260824745385776],[139.5757520158113,35.260360374254816],[139.57749121152983,35.25970498686945],[139.57860235993488,35.26064147788512],[139.57922966682347,35.26154618075682],[139.58027340671265,35.261589326216594],[139.58111110175832,35.26251022821298],[139.58155942989075,35.26249178289736],[139.58095584372253,35.26165143889689],[139.58209778074632,35.2614721592761],[139.58269379039345,35.26209606987015],[139.5851733220769,35.262152238681246],[139.58690810428473,35.26196389981339],[139.59032543306543,35.26266918008584],[139.5915853192212,35.26268816847851],[139.5918447455693,35.26233886056338],[139.59316171584902,35.26232404940893],[139.59433120468088,35.26268415646825],[139.59707181988009,35.26305221665921],[139.5971606213666,35.26331626709165],[139.59768535147384,35.26350657862014],[139.5978582675975,35.26509969369617],[139.59837411388062,35.2655648502838],[139.59822214730937,35.26644070483587],[139.59924509623434,35.26887293196888],[139.59896090826598,35.26986395820641],[139.59921175486426,35.27171420883349],[139.59908467083434,35.272734346599925],[139.60058892240122,35.2725262965095],[139.60287499479267,35.273789037496535],[139.60386921652722,35.274674377143114],[139.603899312612,35.27541712743318],[139.60457750339418,35.27628306420579],[139.60457726731923,35.27628327503753],[139.60454097152785,35.27633412449058],[139.60445816373672,35.276528058312394],[139.60422773079134,35.27674573135291],[139.60415358400473,35.276789115392724],[139.60412429657114,35.27679800393323],[139.604086705298,35.27680539912388],[139.60402669282567,35.27680739900666],[139.6039262436447,35.27679749244345],[139.60386954048872,35.276782949855665],[139.6038232051605,35.27676884865577],[139.6037423420811,35.27675679547056],[139.603708943681,35.27676166202911],[139.60366748913583,35.276776091722205],[139.60348207919063,35.276861098760506],[139.6031463140551,35.27700934529053],[139.60310759411556,35.277021314542836],[139.60304686149505,35.27703465145105],[139.6027846202343,35.27707796276476],[139.6026386433422,35.27708015232311],[139.60212919038946,35.27712031989685],[139.60208295949465,35.27713030333048],[139.60199989295552,35.27714606242659],[139.6018303256525,35.277146587820226],[139.60176299875695,35.27714610792764]]]},"properties":{"KEY_CODE":"143010010","PREF":"14","CITY":"301","CITY_NAME":"葉山町","S_NAME":"一色","SETAI":"3522"}},{"type":"Feature","geometry":{"type":"Polygon","coordinates":[[[139.62683570666215,35.27886661680527],[139.6257215728077,35.279346434432334],[139.62414132296934,35.27931984979737],[139.6232514232312,35.27903407309562],[139.62347822150167,35.27880100236035],[139.6238275940467,35.27868723295315],[139.62385536528657,35.27868375897007],[139.62388241103884,35.278660564908755],[139.62390883005764,35.278519406211466],[139.6239901675535,35.27843890768042],[139.62440837608816,35.27821229287186],[139.62441547081144,35.27820850212995],[139.62462637682484,35.27798498458738],[139.62462896195194,35.27795590302328],[139.62459175934237,35.27787724556851],[139.62447386445382,35.27762210458813],[139.62399348848916,35.277138023020754],[139.62384731242906,35.27697171001977],[139.62371164027914,35.27670048145672],[139.62358836508974,35.27653709398695],[139.62337949719114,35.27633729039465],[139.62336196563982,35.27630789297354],[139.62320475110016,35.276041486574584],[139.62313660876072,35.27593023790134],[139.62308113441858,35.27582718147825],[139.6230661254024,35.275675248678645],[139.62316028215255,35.275373429892795],[139.62306829595826,35.27533552317983],[139.62302696706783,35.27536918574342],[139.62268359786736,35.27565120555787],[139.62218532492793,35.27621099345861],[139.62142175707817,35.276385091958616],[139.62138553096577,35.276311857475136],[139.62133663651508,35.276256418885865],[139.62084906826863,35.276032461727965],[139.62052246848233,35.27608280664637],[139.6203282316796,35.276099087062995],[139.62025325575843,35.276041770232105],[139.62006163838703,35.2757991028548],[139.61923114213516,35.27614075107843],[139.61910056032607,35.27631601949533],[139.61901964585022,35.27635559568949],[139.6188392468578,35.2763007686997],[139.6188389456091,35.27630076816784],[139.61843557247855,35.27629921076796],[139.61841838401136,35.2763040391045],[139.61754819844714,35.276752649803306],[139.61741644581997,35.27674938740085],[139.61682070162755,35.27626183547649],[139.61631916622068,35.27598255240282],[139.61631822081367,35.27598283241183],[139.61624136540786,35.276021499506356],[139.61623331473612,35.2760292318045],[139.61618212783614,35.2761612559327],[139.61615137390754,35.27621380797514],[139.61612512893106,35.27625805799109],[139.61605320306865,35.27633229751218],[139.61571864769243,35.276581352992025],[139.6156447003743,35.276640236087374],[139.61553338745537,35.27675095541649],[139.61546282162266,35.27683012664939],[139.61542741660125,35.276871472085126],[139.61537106844816,35.27694045778115],[139.61534261045776,35.27697688595029],[139.61533509007458,35.27698750652301],[139.61532187929237,35.27700607482779],[139.6152856949876,35.277033475345675],[139.6152768576212,35.27702191043879],[139.6151907749428,35.27691125953336],[139.61517792988394,35.276897222571115],[139.61516148362725,35.27688099543441],[139.6150997796738,35.27683172839995],[139.6150211242888,35.276786867050156],[139.6148647580998,35.27672193636718],[139.6148547749428,35.276721777560454],[139.61484395099535,35.276722674154946],[139.6147837122567,35.27672869268519],[139.61474623118085,35.276734681171526],[139.61461079445698,35.27676014219919],[139.61459352142973,35.27676433709712],[139.6145644297893,35.27677259421146],[139.61452299768376,35.27678688667314],[139.61450762746335,35.27679411267976],[139.61449444650665,35.276801342629184],[139.61443713832813,35.276851732998594],[139.6144161716043,35.27688056915355],[139.6143945715642,35.276921799382194],[139.61439416083766,35.276922855005665],[139.6143602501671,35.27700723200114],[139.61433454094066,35.27706782092394],[139.61432948916115,35.27707830557731],[139.61429559232727,35.27714169614011],[139.6142435894234,35.277223294450536],[139.61423852436067,35.27723067985712],[139.6141765743167,35.277314655153155],[139.61414533474948,35.277355303421764],[139.61403421296865,35.27748200722681],[139.61394494826266,35.27757558114376],[139.61370600482942,35.27772930713403],[139.6134437785953,35.27768446516074],[139.61325371189858,35.27764813451237],[139.61298093460374,35.277631089438785],[139.61296860727634,35.27764015177823],[139.61275267635511,35.27781856705807],[139.6124583225976,35.27804958630024],[139.61242673030577,35.27802896440719],[139.61237203860816,35.27792703157226],[139.61235397485405,35.27790587145021],[139.61229443170066,35.27783604315522],[139.61192871061974,35.27769762762387],[139.61189389412442,35.27769474715107],[139.61165576125032,35.27769649564821],[139.6113958349823,35.277738556266186],[139.61129776482093,35.2777202080589],[139.61123729278978,35.277620728546474],[139.611225340334,35.27759486160216],[139.61119067878036,35.277533669555304],[139.61115399281655,35.27740374102923],[139.61115332312372,35.27737310479359],[139.6111508734632,35.277349930799446],[139.61114196503124,35.27731737858699],[139.61113691651258,35.27730279157007],[139.61111733137832,35.27725676937392],[139.61110269992037,35.27722019196453],[139.61108218489494,35.27717691405053],[139.6110571035222,35.27713834673612],[139.61099748242248,35.27707372860614],[139.61095203110995,35.27703399663978],[139.61091359666656,35.277002939668726],[139.6108752637214,35.27697406656866],[139.61085659873387,35.276961144225005],[139.6107983627363,35.27692441701971],[139.61078802767145,35.27691939797331],[139.61074786163033,35.27690178877318],[139.6106842036274,35.27687758705675],[139.61065473378198,35.27686668772138],[139.61064683994206,35.276863786411404],[139.61060088363044,35.27684398340397],[139.6105502731061,35.27681396036058],[139.61053027802788,35.27680068341267],[139.61052714806215,35.27679870634798],[139.61043609234545,35.27674346712909],[139.61042485977651,35.27673689707954],[139.6104020281338,35.27672431969698],[139.61036255008972,35.276706429948824],[139.61034167695826,35.27670005346399],[139.6102944220304,35.27669186847755],[139.61026585296568,35.276689068919794],[139.61020434306897,35.27668071631714],[139.61017464257836,35.276675520794136],[139.61017356898049,35.276675308099584],[139.61002745115215,35.27664088333502],[139.6100173686714,35.276637766690946],[139.60999229358524,35.276629128305125],[139.60995497748067,35.27661370724884],[139.60993301916687,35.2766037376291],[139.6099099516722,35.27659108875396],[139.60983886799644,35.27655807052203],[139.60982749553523,35.27655586590083],[139.60974735393395,35.276561352308654],[139.6096502564209,35.276588850133706],[139.6096375979489,35.27659375704611],[139.60958338456598,35.276618093740595],[139.60954639985866,35.276638589939644],[139.60953386436358,35.27664539796312],[139.6094976531256,35.27666617671621],[139.60944242501293,35.27669255431468],[139.609440468668,35.27669325439723],[139.6094331642067,35.276695213351005],[139.60940680195367,35.27670178404514],[139.6094062004115,35.27670192433402],[139.60938641713616,35.2767056197727],[139.6093644053772,35.27670719893023],[139.60933769141306,35.27670912208058],[139.60925840206482,35.27670989127618],[139.6092302933596,35.27671160048225],[139.60919687849747,35.27671499015294],[139.60914727690155,35.276725603873594],[139.60912689051958,35.27673000329073],[139.60908956980276,35.27674070987736],[139.60893087386464,35.27680943489384],[139.60890597106217,35.276824600870995],[139.6088855132546,35.27683921159169],[139.60888245915623,35.27684145956539],[139.60886174121674,35.27685698586774],[139.60884900562525,35.276866681048595],[139.60882869329362,35.27688305207594],[139.60880491222562,35.27690413570124],[139.6087953948104,35.276914400714155],[139.608781961357,35.27693571456302],[139.6087782248362,35.276944158592315],[139.608773528522,35.27695767138784],[139.6087732228735,35.27695978299639],[139.60877094520922,35.27697625857928],[139.60877007254072,35.276981115683206],[139.60876761420724,35.2770011121328],[139.60876638230914,35.27701174389311],[139.60876422981906,35.27702955666],[139.60875895449524,35.27706673084328],[139.60875116974228,35.27711087295054],[139.60874409097946,35.27715593131216],[139.60872755915895,35.27721914173374],[139.60871900897496,35.27722898487091],[139.60870895592916,35.27723882635416],[139.60870464978103,35.2772433255967],[139.60869604064843,35.277251408025634],[139.60869326467414,35.277253515657335],[139.60868651657498,35.2772559681297],[139.608679193211,35.27725680034668],[139.608668582251,35.27725889361909],[139.60865505183918,35.27726034717403],[139.60863402352476,35.27726439322086],[139.60862558183547,35.27726543410645],[139.60860990361778,35.277267447661295],[139.60850546160387,35.27728084798025],[139.6084229470124,35.277291401060694],[139.60831254639473,35.27730852330511],[139.6082679212637,35.27731273669493],[139.6082348934452,35.27731556398544],[139.60821211412107,35.277315873724525],[139.60811842712948,35.27731344807059],[139.6080458993267,35.277306976640936],[139.6080156370866,35.277303400371395],[139.6080074382777,35.27730246923911],[139.60784557609222,35.277264494766435],[139.6077863509831,35.27724565302258],[139.60764645654976,35.277151168759865],[139.6074396415196,35.277002262976296],[139.60733277962788,35.276942416825186],[139.6072504788181,35.276906348779484],[139.60695469198942,35.27683692806497],[139.60688613918035,35.27682166024488],[139.6067063950675,35.2767599886295],[139.6066031476755,35.276713529038396],[139.60645459333415,35.276630224109184],[139.6062359501607,35.276481999488645],[139.60620342965078,35.27646440306244],[139.60601019822346,35.27636587352404],[139.6059654985132,35.276334944824974],[139.60574850539084,35.276180384108585],[139.60567948780044,35.27615462094937],[139.6055625443946,35.2761317270175],[139.60536074384058,35.276143394189496],[139.60526124744501,35.276146307662195],[139.60520688980716,35.27614543233807],[139.60497058741652,35.27611879374445],[139.60493241535852,35.27611872258182],[139.60491214850717,35.27611917776338],[139.60482239878823,35.27613725024318],[139.6047192982074,35.27617797432775],[139.60466912328022,35.27620971241043],[139.60463193188278,35.27623513708742],[139.6045955392945,35.27626718256804],[139.60457750339418,35.27628306420579],[139.603899312612,35.27541712743318],[139.60386921652722,35.274674377143114],[139.60287499479267,35.273789037496535],[139.60058892240122,35.2725262965095],[139.59908467083434,35.272734346599925],[139.59921175486426,35.27171420883349],[139.59896090826598,35.26986395820641],[139.59924509623434,35.26887293196888],[139.59822214730937,35.26644070483587],[139.59837411388062,35.2655648502838],[139.5978582675975,35.26509969369617],[139.59768535147384,35.26350657862014],[139.5971606213666,35.26331626709165],[139.59815723716645,35.2626564813993],[139.59927718888662,35.26325737479028],[139.59928994571493,35.264027345833455],[139.60028852189996,35.26416031106349],[139.60061962681888,35.26314500236157],[139.6003760149371,35.26265614717185],[139.60085907536413,35.262255365783794],[139.60113280957688,35.26108001353414],[139.60291327938634,35.26006004637575],[139.60487227996967,35.25952420168814],[139.60801206466832,35.2590967046595],[139.6081083575683,35.25842686985054],[139.6100832624546,35.25815907835184],[139.61195229709995,35.257979587216944],[139.61264512412475,35.25783133110447],[139.61399459457502,35.25851792620535],[139.61392666940935,35.25929915616449],[139.61456502642156,35.25963002378527],[139.6163176196231,35.25971962898234],[139.6170980861352,35.26020031562491],[139.61922575609805,35.26059068788611],[139.62034340050013,35.2613675124633],[139.62177594122355,35.26104555766725],[139.6220344925307,35.262181810595216],[139.6230076064405,35.264317794071246],[139.6237505716512,35.26543354978856],[139.62326381240686,35.265669621287174],[139.6244107265467,35.26634140591234],[139.62394384391428,35.26767191839149],[139.6247231515707,35.26987304937177],[139.6244030904839,35.27085957630861],[139.62475077387316,35.27159378868569],[139.62593678234322,35.272548312268945],[139.6263728222959,35.273578667727016],[139.62715231164617,35.27408381123243],[139.62678556530076,35.27449299133535],[139.62748736162237,35.27567591224103],[139.62771597310856,35.277321002689035],[139.62683570666215,35.27886661680527]]]},"properties":{"KEY_CODE":"143010020","PREF":"14","CITY":"301","CITY_NAME":"葉山町","S_NAME":"上山口","SETAI":"718"}},{"type":"Feature","geometry":{"type":"Polygon","coordinates":[[[139.64192962626248,35.272034750670315],[139.6414488424979,35.27238985798017],[139.6395107521714,35.27287809655651],[139.63908387763453,35.273307859593935],[139.63841991637844,35.272999189532584],[139.63762830597943,35.27314723038179],[139.63698437444785,35.27365812113671],[139.63600464772358,35.273742820349206],[139.63534394231013,35.27323363797037],[139.63463780251377,35.27429929623789],[139.6338121706486,35.274806349694266],[139.63201655583504,35.274532183860664],[139.63129469056966,35.274903184360525],[139.631093903066,35.27553942297785],[139.6301594652298,35.276055137459544],[139.62967096242838,35.27702660801539],[139.62898340074383,35.277273842551175],[139.62769831518588,35.27832164142058],[139.62763936373236,35.27883255547989],[139.62683570666215,35.27886661680527],[139.62771597310856,35.277321002689035],[139.62748736162237,35.27567591224103],[139.62678556530076,35.27449299133535],[139.62715231164617,35.27408381123243],[139.6263728222959,35.273578667727016],[139.62593678234322,35.272548312268945],[139.62475077387316,35.27159378868569],[139.6244030904839,35.27085957630861],[139.6247231515707,35.26987304937177],[139.62394384391428,35.26767191839149],[139.6244107265467,35.26634140591234],[139.62326381240686,35.265669621287174],[139.6237505716512,35.26543354978856],[139.6230076064405,35.264317794071246],[139.6220344925307,35.262181810595216],[139.62177594122355,35.26104555766725],[139.62089072537984,35.258202422694076],[139.62167858764877,35.25771596323057],[139.6223732243744,35.25591874797372],[139.62453690138153,35.25550927550518],[139.62634850184173,35.255057826663815],[139.6265821028608,35.25508885569581],[139.62739125086077,35.25631827810582],[139.6283142821988,35.257230204194826],[139.62952142809394,35.25792893146948],[139.63034583596067,35.258933714073216],[139.63124855576277,35.25901802915645],[139.63239289104072,35.259544581093664],[139.63333881419916,35.2595997263655],[139.63449361372832,35.26100863743046],[139.63583448707783,35.261749785754965],[139.63752946326855,35.26181667405753],[139.63871626341944,35.26142517925401],[139.6397041935335,35.26238417604073],[139.64058502578501,35.26257487151901],[139.63920012993748,35.26316150022117],[139.6387039743423,35.26299302950664],[139.63866524087948,35.26368637090919],[139.63836438909715,35.264377745636324],[139.63782231006468,35.26449399641987],[139.6378160298001,35.26571677520469],[139.6386511724749,35.2674234456697],[139.63881320506658,35.26899699373405],[139.63860043880098,35.26923715664661],[139.6389459704692,35.27038042032061],[139.63979459056557,35.27128228929583],[139.64107699057217,35.271425437616564],[139.64192962626248,35.272034750670315]]]},"properties":{"KEY_CODE":"143010030","PREF":"14","CITY":"301","CITY_NAME":"葉山町","S_NAME":"木古庭","SETAI":"585"}},{"type":"Feature","geometry":{"type":"Polygon","coordinates":[[[139.6081083575683,35.25842686985054],[139.60801206466832,35.2590967046595],[139.60487227996967,35.25952420168814],[139.60291327938634,35.26006004637575],[139.60113280957688,35.26108001353414],[139.60085907536413,35.262255365783794],[139.6003760149371,35.26265614717185],[139.60061962681888,35.26314500236157],[139.60028852189996,35.26416031106349],[139.59928994571493,35.264027345833455],[139.59927718888662,35.26325737479028],[139.59815723716645,35.2626564813993],[139.5971606213666,35.26331626709165],[139.59707181988009,35.26305221665921],[139.59433120468088,35.26268415646825],[139.59316171584902,35.26232404940893],[139.5918447455693,35.26233886056338],[139.5915853192212,35.26268816847851],[139.59032543306543,35.26266918008584],[139.58690810428473,35.26196389981339],[139.5851733220769,35.262152238681246],[139.58269379039345,35.26209606987015],[139.58209778074632,35.2614721592761],[139.58095584372253,35.26165143889689],[139.58155942989075,35.26249178289736],[139.58111110175832,35.26251022821298],[139.58027340671265,35.261589326216594],[139.57922966682347,35.26154618075682],[139.57860235993488,35.26064147788512],[139.57749121152983,35.25970498686945],[139.57860335482778,35.25881052054554],[139.57906606466562,35.25815850753254],[139.57914965123362,35.256903298219555],[139.57977208651772,35.25602646651807],[139.57947082312387,35.254433480365904],[139.5790477916426,35.25374476958468],[139.57727105323679,35.25342838707117],[139.57662136170742,35.25402619749468],[139.5760386241224,35.25353080828149],[139.5765397256363,35.25295318426105],[139.57705916418888,35.25300716042234],[139.5774839202166,35.25323699548672],[139.57797731952073,35.25337633796662],[139.578100851313,35.25333159411905],[139.57956162252114,35.25373949562204],[139.58140176968482,35.25453718436837],[139.5832616889128,35.25508311792005],[139.58498676366736,35.25509852400041],[139.58698554680157,35.25532410732427],[139.58723777340143,35.25498509853467],[139.58919054796925,35.25528787847605],[139.58956353065508,35.255149461435266],[139.5924268818634,35.25571167706322],[139.59332721553065,35.255704849244204],[139.59566581282357,35.25623553801775],[139.5965136550013,35.25622703500671],[139.59874484100095,35.255787733020796],[139.6013235129465,35.25638489404772],[139.60091088591426,35.256957418336135],[139.6023922331335,35.25737488191486],[139.6032726959914,35.25809858465173],[139.60404911884578,35.25824143994159],[139.60569223151884,35.25738808333614],[139.60587925791856,35.257486742994594],[139.60590825712532,35.25750207889522],[139.6068355805043,35.258083810637196],[139.60756907924733,35.25793917734127],[139.6081083575683,35.25842686985054]]]},"properties":{"KEY_CODE":"143010040","PREF":"14","CITY":"301","CITY_NAME":"葉山町","S_NAME":"下山口","SETAI":"1128"}},{"type":"Feature","geometry":{"type":"Polygon","coordinates":[[[139.6039023157689,35.29188162492001],[139.6033726960857,35.29206486670954],[139.60141120333572,35.29184733570254],[139.6006244563126,35.29132953764462],[139.59886706521476,35.29145280257467],[139.59886624992566,35.291452308022556],[139.59884061095025,35.291436483218774],[139.59812302389153,35.29101648806154],[139.59638510389698,35.291010664486826],[139.59638704454628,35.29162612138075],[139.59525331547326,35.29108029599165],[139.59401393217715,35.291063151716514],[139.5937671250671,35.29053996669773],[139.59288853915135,35.29007596342567],[139.59227386278135,35.29021257440822],[139.5919493238499,35.290567582754655],[139.59166374204452,35.29065948656869],[139.59009485697607,35.29141133235894],[139.5890924362136,35.29112762677316],[139.5882165529655,35.289875112205415],[139.58732629576014,35.28884792584359],[139.58703986358483,35.28811492339105],[139.58611915722005,35.28810179544934],[139.5860582301243,35.287612497111716],[139.58490007010582,35.28747619858954],[139.5835442079891,35.28635086255956],[139.58210582066778,35.28633284869042],[139.5802855156039,35.2868957373374],[139.57919858290077,35.2871586348834],[139.57868280031636,35.28692980882546],[139.57857871065198,35.28608654157982],[139.5775583394896,35.284297399302304],[139.57726306525407,35.28422551225851],[139.57624878703473,35.2840355653781],[139.57440638433076,35.282425588150964],[139.57446744170028,35.28134935382494],[139.5752866222241,35.281405661599536],[139.57547428426201,35.28134859071616],[139.5752707434322,35.28031975601689],[139.57586315781188,35.27894611034023],[139.57720140209457,35.278334464575735],[139.57812280422795,35.27834469644458],[139.57915763985227,35.279040739770025],[139.5794389134563,35.27882589422263],[139.5800281545783,35.2788154235615],[139.58100078316562,35.278892221352955],[139.58224066496666,35.27856032396481],[139.58226109984676,35.27689722595603],[139.58299480519673,35.276727455088015],[139.5831924208609,35.27644749893488],[139.58348892260793,35.2761821815765],[139.58358135498855,35.276151735944],[139.58384519002678,35.27614600497183],[139.58391678455584,35.27611248841608],[139.58451511286404,35.27598510892733],[139.5846493960645,35.27592312620625],[139.58502601497972,35.27569226425814],[139.58515186221933,35.27551490880685],[139.585330128531,35.27545491519608],[139.58558976781703,35.27537881823448],[139.5858275546091,35.275258450112105],[139.58598137680752,35.27528129620851],[139.58654548625842,35.275580821107695],[139.58706912031437,35.276179564691255],[139.58730890088245,35.276500899368784],[139.58743039658808,35.27667424614643],[139.5877508440962,35.27685700569056],[139.58804681150602,35.27689717705247],[139.58908498569204,35.276971434012104],[139.59009268045264,35.27744577268691],[139.59068744223887,35.27780118570417],[139.59130175820695,35.27823332725583],[139.59171728229998,35.27860465046243],[139.59388752079562,35.27850249572238],[139.59425657643882,35.27860420496649],[139.5944158022979,35.27827999737658],[139.59465220615854,35.27825792177375],[139.59492811228358,35.27864966804586],[139.59538265271223,35.27883802193548],[139.59597598817558,35.278932062767474],[139.59611844647642,35.27908917425845],[139.59655529069133,35.279394747406286],[139.5964778051313,35.279470375596205],[139.59637993943937,35.27960089527759],[139.59631752167053,35.279753807556055],[139.59632469465936,35.27988931962047],[139.59633703097253,35.28002068604112],[139.59627418572973,35.280119582037585],[139.59621564534075,35.280177287164435],[139.59620410954702,35.28018656149544],[139.596130577542,35.28026120998832],[139.5961293228679,35.28031719595198],[139.5960998485421,35.280368267429935],[139.59605116969115,35.280453527699386],[139.59610287961445,35.28059370357427],[139.59614657791707,35.28068991765836],[139.59640641122544,35.28083472097422],[139.5964613123927,35.28086489910783],[139.5966184533016,35.28102450401443],[139.5966696066067,35.28108171691551],[139.597163981132,35.28124197131183],[139.59721891102762,35.28125404867225],[139.5976292256112,35.281323995024685],[139.59804338243885,35.281333803885616],[139.59826353069803,35.281253096166765],[139.59848727933328,35.281190353309434],[139.59875483970944,35.28119086487146],[139.59895129969064,35.28115060444551],[139.60020113055882,35.281564053347324],[139.60043431848848,35.28173358553628],[139.600640203137,35.28206997251217],[139.6007405239895,35.28214319234663],[139.60086446596875,35.2821993441391],[139.60094681436954,35.282211753831376],[139.6012540153913,35.28214176906834],[139.60151061775062,35.28209260475629],[139.6023119927712,35.282143059438226],[139.6024347200015,35.282204207386435],[139.60301701900497,35.282166636717484],[139.60366469029069,35.282162144700955],[139.60377493661542,35.28215587222537],[139.60431151351122,35.28194341714704],[139.60508024040217,35.282224643069476],[139.60611960732308,35.28261559336144],[139.6064526481151,35.2836294718282],[139.60736663293943,35.28413419405141],[139.60862774573175,35.284056291050454],[139.60892945215215,35.284475582394926],[139.60924422605024,35.28531018735928],[139.61003006562683,35.28591088685792],[139.61085054788268,35.285982059888426],[139.61128562057385,35.28631421176423],[139.61166920859753,35.286973552358695],[139.61172791583866,35.28709176941994],[139.61146848126452,35.28748357949235],[139.61149377696438,35.288808815765464],[139.610193868455,35.28919905155455],[139.60903775010445,35.29073951686983],[139.60687479971403,35.29053121793604],[139.6053848945337,35.29109250930752],[139.6039023157689,35.29188162492001]]]},"properties":{"KEY_CODE":"143010050","PREF":"14","CITY":"301","CITY_NAME":"葉山町","S_NAME":"長柄","SETAI":"3558"}},{"type":"Feature","geometry":{"type":"Polygon","coordinates":[[[139.57009106102598,35.285082361932474],[139.56961701540925,35.28471513589786],[139.56886220318572,35.28518112277641],[139.56862582446706,35.28415658952312],[139.56770901136414,35.28414198282547],[139.56719529895116,35.28458076325524],[139.5677103699285,35.28508668193068],[139.56554401956018,35.28425535101481],[139.56455680456926,35.28457900013057],[139.56543535069375,35.28324517716345],[139.56604711987057,35.283022397473786],[139.567691685474,35.28303499189149],[139.56882876880354,35.28257592271892],[139.56907701965312,35.28122375238849],[139.57038882005276,35.27896398796369],[139.5702393323716,35.27803019482263],[139.57090516420158,35.277508653123114],[139.57115904516343,35.27478441743518],[139.57073513693632,35.27370510550289],[139.5696377279167,35.273211893759175],[139.5688805085358,35.27224742459012],[139.57021362105084,35.27177866146563],[139.57088406922372,35.27093543040664],[139.5708446063772,35.26919133483332],[139.57102840453203,35.26911510653397],[139.57107598488423,35.26901514940211],[139.57123810712207,35.26893128294906],[139.57160664260263,35.26908566453775],[139.5716510906428,35.26927872129242],[139.57177875987054,35.269400052487875],[139.57178639581687,35.269591763624014],[139.57134367867715,35.27021104371927],[139.57168618480927,35.26999810761617],[139.5719824458819,35.27015916581193],[139.57212890045332,35.270077504241904],[139.57277430737668,35.27035740629785],[139.57343734787668,35.26923111198577],[139.5731686849214,35.26799016360461],[139.57395146241933,35.26757540408522],[139.57491348542706,35.267481871009764],[139.57551665430577,35.267913079548464],[139.5768034023336,35.26767175997365],[139.57810753525638,35.26801927813756],[139.58021609218463,35.26820344127694],[139.58005349785637,35.26930925647683],[139.5816437704631,35.270200368092105],[139.58312129858078,35.26950513661627],[139.58435631512666,35.2708110618779],[139.58558565783247,35.27087524199163],[139.58640515692068,35.27066597177298],[139.58736906417408,35.27105010108756],[139.5871145790033,35.270509646148895],[139.58945159431832,35.270350222259694],[139.59022593917737,35.270694302807904],[139.59123399885453,35.26983183512115],[139.59170277299896,35.271903308655745],[139.5915539630638,35.272422256134774],[139.5921360418874,35.272972359849035],[139.5933071822938,35.273175718184824],[139.59399686806535,35.27376658822158],[139.59501960014356,35.273600897825595],[139.59682744843883,35.273716157700235],[139.59761746968175,35.27420628794529],[139.59769654351837,35.275771344544275],[139.59866894207383,35.2763014654877],[139.59958231114769,35.27640701827755],[139.60014928816187,35.27719220367141],[139.60059389793997,35.277398547335295],[139.6008093660797,35.27774945840442],[139.60079564139718,35.27775168594279],[139.60049885112252,35.27773443241264],[139.60022373945995,35.27762792071842],[139.59953072503677,35.277596528665505],[139.59925894259194,35.27755854454909],[139.599119386252,35.27752947428049],[139.5989666035093,35.27751622404787],[139.59882345835194,35.27751158384891],[139.5987956516782,35.277505051025784],[139.59862901778797,35.27750811232292],[139.59811180023553,35.277272325762105],[139.59808799665606,35.27718720726582],[139.598082396093,35.27716353388019],[139.59805965905076,35.277066022709285],[139.59805010743773,35.277027270889256],[139.59803288312415,35.27698406703613],[139.5978550849526,35.27691971005384],[139.59784172122755,35.27693067003705],[139.5978374037672,35.276961789371406],[139.59784326984501,35.27701257672157],[139.59784890273008,35.277123084157154],[139.5978605129657,35.27713958580957],[139.59787481343182,35.27715426159405],[139.5978965029151,35.277182542956744],[139.597901493329,35.27720959555778],[139.59789987445245,35.277235015693364],[139.59788714534616,35.277264358249674],[139.59786169104763,35.277313888181155],[139.59785127317954,35.27732323516711],[139.59782931695673,35.27733629137165],[139.59782085032242,35.27733873995406],[139.59776310807956,35.277350038261666],[139.5976725407075,35.27736824433333],[139.5975717325893,35.27738636130895],[139.597346298768,35.277492760748395],[139.5972821213251,35.27753961083092],[139.59725675388222,35.27755928082412],[139.59720730500547,35.27765080730655],[139.59728669711194,35.27814766448948],[139.59712772075568,35.27845504405192],[139.597052393675,35.278504971026905],[139.59696469495114,35.27853318320571],[139.59679685364253,35.27865870945475],[139.59683263467556,35.27872237227779],[139.5973779583478,35.27928808996937],[139.59750005954766,35.279447344394846],[139.59713743926395,35.2794674218728],[139.59665153438073,35.279389651883804],[139.59655529069133,35.279394747406286],[139.59611844647642,35.27908917425845],[139.59597598817558,35.278932062767474],[139.59538265271223,35.27883802193548],[139.59492811228358,35.27864966804586],[139.59465220615854,35.27825792177375],[139.5944158022979,35.27827999737658],[139.59425657643882,35.27860420496649],[139.59388752079562,35.27850249572238],[139.59171728229998,35.27860465046243],[139.59130175820695,35.27823332725583],[139.59068744223887,35.27780118570417],[139.59009268045264,35.27744577268691],[139.58908498569204,35.276971434012104],[139.58804681150602,35.27689717705247],[139.5877508440962,35.27685700569056],[139.58743039658808,35.27667424614643],[139.58730890088245,35.276500899368784],[139.58706912031437,35.276179564691255],[139.58654548625842,35.275580821107695],[139.58598137680752,35.27528129620851],[139.5858275546091,35.275258450112105],[139.58558976781703,35.27537881823448],[139.585330128531,35.27545491519608],[139.58515186221933,35.27551490880685],[139.58502601497972,35.27569226425814],[139.5846493960645,35.27592312620625],[139.58451511286404,35.27598510892733],[139.58391678455584,35.27611248841608],[139.58384519002678,35.27614600497183],[139.58358135498855,35.276151735944],[139.58348892260793,35.2761821815765],[139.5831924208609,35.27644749893488],[139.58299480519673,35.276727455088015],[139.58226109984676,35.27689722595603],[139.58224066496666,35.27856032396481],[139.58100078316562,35.278892221352955],[139.5800281545783,35.2788154235615],[139.5794389134563,35.27882589422263],[139.57915763985227,35.279040739770025],[139.57812280422795,35.27834469644458],[139.57720140209457,35.278334464575735],[139.57586315781188,35.27894611034023],[139.5752707434322,35.28031975601689],[139.57547428426201,35.28134859071616],[139.5752866222241,35.281405661599536],[139.57446744170028,35.28134935382494],[139.57440638433076,35.282425588150964],[139.5734007726828,35.283513413446855],[139.57164844385002,35.28426892274845],[139.57121751013216,35.28419954835923],[139.57009106102598,35.285082361932474]]]},"properties":{"KEY_CODE":"143010060","PREF":"14","CITY":"301","CITY_NAME":"葉山町","S_NAME":"堀内","SETAI":"3421"}}]}