{"type":"FeatureCollection","features":[{"type":"Feature","geometry":{"type":"Polygon","coordinates":[[[136.88511095198237,35.27628345081783],[136.88283424339025,35.27610321012529],[136.88283468052083,35.2783193447921],[136.88038535097104,35.278311198759766],[136.88038622027133,35.27594752910821],[136.87857594064334,35.275819000742594],[136.87955157407848,35.27243950936886],[136.8805547870758,35.270909520857536],[136.88141907212542,35.2706540666307],[136.8813752897423,35.27182974441315],[136.88356995283763,35.27161623257998],[136.8840940349008,35.27287420478551],[136.8850178169181,35.27527936006149],[136.88507148967867,35.27565131554544],[136.88511095198237,35.27628345081783]]]},"properties":{"KEY_CODE":"232280010","PREF":"23","CITY":"228","CITY_NAME":"岩倉市","S_NAME":"大市場町","SETAI":"757"}},{"type":"Feature","geometry":{"type":"Polygon","coordinates":[[[136.87158831292803,35.271995822629165],[136.8717439682189,35.27373234109483],[136.87182114099792,35.27465133695602],[136.87092568295463,35.27449445320858],[136.8709271694718,35.271987036157924],[136.87158831292803,35.271995822629165]]]},"properties":{"KEY_CODE":"232280020","PREF":"23","CITY":"228","CITY_NAME":"岩倉市","S_NAME":"下本町","SETAI":"0"}},{"type":"Feature","geometry":{"type":"Polygon","coordinates":[[[136.88292474627235,35.27990281204738],[136.88028288892895,35.27972731320358],[136.87728208365633,35.27981682869021],[136.87677218550294,35.279485552901875],[136.87741613723244,35.27895079897395],[136.87400165325985,35.27902806350882],[136.8740299304226,35.277661079615775],[136.87300660371116,35.277853709393604],[136.87366161936404,35.27715702949725],[136.873845126107,35.2753777378808],[136.87390486320143,35.27500745600761],[136.87399090129202,35.27412680989091],[136.87415654734352,35.272538251217775],[136.87580482934524,35.27293907171607],[136.87586994101534,35.27221091230093],[136.87709164049483,35.271792460346724],[136.87929329648355,35.27199552262515],[136.87955157407848,35.27243950936886],[136.87857594064334,35.275819000742594],[136.88038622027133,35.27594752910821],[136.88038535097104,35.278311198759766],[136.88283468052083,35.2783193447921],[136.88292474627235,35.27990281204738]]]},"properties":{"KEY_CODE":"232280020","PREF":"23","CITY":"228","CITY_NAME":"岩倉市","S_NAME":"下本町","SETAI":"1976"}},{"type":"Feature","geometry":{"type":"Polygon","coordinates":[[[136.88261536549308,35.28275487756494],[136.87952774764238,35.28272522693871],[136.87961197484205,35.28219175740818],[136.87624694039343,35.281727991631634],[136.87499358657163,35.28341967805495],[136.8743146673662,35.28355411830933],[136.87383527507924,35.28433234565375],[136.87432189862554,35.282037084232655],[136.87471169911808,35.281752306265204],[136.8738228125308,35.281219833029425],[136.87400165325985,35.27902806350882],[136.87741613723244,35.27895079897395],[136.87677218550294,35.279485552901875],[136.87728208365633,35.27981682869021],[136.88028288892895,35.27972731320358],[136.88292474627235,35.27990281204738],[136.88299673403242,35.28098179446453],[136.88261536549308,35.28275487756494]]]},"properties":{"KEY_CODE":"232280030","PREF":"23","CITY":"228","CITY_NAME":"岩倉市","S_NAME":"中本町","SETAI":"922"}},{"type":"Feature","geometry":{"type":"Polygon","coordinates":[[[136.874700308509,35.28908112477133],[136.87253080467121,35.28905903232257],[136.8724848550987,35.28797272006535],[136.87198137035992,35.28680925098358],[136.87260275362993,35.286473771476345],[136.8726307365473,35.28563848240137],[136.87339187632924,35.285592137282435],[136.87383527507924,35.28433234565375],[136.8743146673662,35.28355411830933],[136.87499358657163,35.28341967805495],[136.87624694039343,35.281727991631634],[136.87961197484205,35.28219175740818],[136.87952774764238,35.28272522693871],[136.88261536549308,35.28275487756494],[136.88251218382123,35.283330209313625],[136.8856873726287,35.28336626995291],[136.88554016103072,35.28433200036972],[136.88449004966407,35.28650932001766],[136.88327170954975,35.286748977563114],[136.87472128636355,35.286664400888235],[136.874700308509,35.28908112477133]]]},"properties":{"KEY_CODE":"232280040","PREF":"23","CITY":"228","CITY_NAME":"岩倉市","S_NAME":"東町","SETAI":"1102"}},{"type":"Feature","geometry":{"type":"Polygon","coordinates":[[[136.87253080467121,35.28905903232257],[136.87105208538486,35.2896431433754],[136.87039715774262,35.28943218925487],[136.87031069508006,35.288900005950616],[136.86876464566794,35.28908335751272],[136.86867340299762,35.28844644324336],[136.86973833234345,35.28706544110108],[136.8698710350256,35.288110556148595],[136.87198137035992,35.28680925098358],[136.8724848550987,35.28797272006535],[136.87253080467121,35.28905903232257]]]},"properties":{"KEY_CODE":"232280050","PREF":"23","CITY":"228","CITY_NAME":"岩倉市","S_NAME":"中野町","SETAI":"210"}},{"type":"Feature","geometry":{"type":"Polygon","coordinates":[[[136.87198137035992,35.28680925098358],[136.8698710350256,35.288110556148595],[136.86973833234345,35.28706544110108],[136.86978637273444,35.285961612215054],[136.86953567596345,35.28425529590836],[136.8695276254187,35.28407943101737],[136.87117747849703,35.28413525886651],[136.87136369743112,35.28361324250713],[136.87136253949413,35.28344774561699],[136.87041809805507,35.283220180314565],[136.8695744292498,35.28328503692688],[136.86961652996672,35.283052462677944],[136.8693362106412,35.28273882312899],[136.869439108054,35.28107667630868],[136.86987751523554,35.28103872471672],[136.87145963436663,35.28113283068525],[136.8726611111188,35.279959443924504],[136.87276275769688,35.278732356110744],[136.87319338466662,35.27864894877587],[136.87300660371116,35.277853709393604],[136.8740299304226,35.277661079615775],[136.87400165325985,35.27902806350882],[136.8738228125308,35.281219833029425],[136.87471169911808,35.281752306265204],[136.87432189862554,35.282037084232655],[136.87383527507924,35.28433234565375],[136.87339187632924,35.285592137282435],[136.8726307365473,35.28563848240137],[136.87260275362993,35.286473771476345],[136.87198137035992,35.28680925098358]]]},"properties":{"KEY_CODE":"232280060","PREF":"23","CITY":"228","CITY_NAME":"岩倉市","S_NAME":"本町","SETAI":"1075"}},{"type":"Feature","geometry":{"type":"Polygon","coordinates":[[[136.86692543442598,35.28311829402153],[136.86568189471785,35.28314911442867],[136.8658545066047,35.285006787998945],[136.8641743268778,35.2850755290772],[136.86410380806404,35.28416472471727],[136.86012005753358,35.28393508620022],[136.86001240203586,35.28351573535826],[136.85992269295525,35.28319375260138],[136.85980955244605,35.28123630242952],[136.85818458794384,35.28127307862823],[136.8581774645256,35.28096299132062],[136.85631982686587,35.280990261351164],[136.85632439136575,35.27980717785988],[136.85508819866922,35.2796800401249],[136.8546347089655,35.27969013228924],[136.85465925638562,35.278676956122084],[136.8553202950156,35.278670499943445],[136.85631184961704,35.27866179566155],[136.85630392882416,35.278127900293526],[136.8568926392218,35.27811920669704],[136.8572791801735,35.27807442584405],[136.85833267587816,35.278046216159574],[136.85862311059728,35.2780425240355],[136.85903885065787,35.278164579407644],[136.85978446620328,35.27821760218041],[136.86415068016453,35.27857880596026],[136.86396804374434,35.279727857455896],[136.86570300879305,35.2796229062437],[136.8655816403474,35.28086697171619],[136.86785889540928,35.280949943221366],[136.869439108054,35.28107667630868],[136.8693362106412,35.28273882312899],[136.86961652996672,35.283052462677944],[136.86692543442598,35.28311829402153]]]},"properties":{"KEY_CODE":"232280070","PREF":"23","CITY":"228","CITY_NAME":"岩倉市","S_NAME":"西市町","SETAI":"1004"}},{"type":"Feature","geometry":{"type":"Polygon","coordinates":[[[136.86978637273444,35.285961612215054],[136.86973833234345,35.28706544110108],[136.86867340299762,35.28844644324336],[136.86876464566794,35.28908335751272],[136.86883238286927,35.28957204501643],[136.8675337440602,35.28972394165355],[136.86761817124273,35.29021485349685],[136.8654027506611,35.290478420086714],[136.866102013166,35.29147183467214],[136.86480774337403,35.29161638734451],[136.8647279114553,35.29139485184696],[136.864740737367,35.29118030557405],[136.86460942684226,35.29059188210237],[136.86380231739514,35.28978037536808],[136.86353531617561,35.28949858602873],[136.8622398875174,35.28860085644681],[136.86221673781446,35.28812713771199],[136.86213289869872,35.287764041638205],[136.86187328838358,35.28717733761491],[136.86162706460024,35.28644700590818],[136.86037433014454,35.284624731743456],[136.8601561504476,35.28408242895006],[136.86012005753358,35.28393508620022],[136.86410380806404,35.28416472471727],[136.8641743268778,35.2850755290772],[136.8658545066047,35.285006787998945],[136.8659152884094,35.285701020282225],[136.86711400074023,35.28518734514134],[136.86715299327173,35.286300819521905],[136.86978637273444,35.285961612215054]]]},"properties":{"KEY_CODE":"232280080","PREF":"23","CITY":"228","CITY_NAME":"岩倉市","S_NAME":"鈴井町","SETAI":"427"}},{"type":"Feature","geometry":{"type":"Polygon","coordinates":[[[136.86953567596345,35.28425529590836],[136.86978637273444,35.285961612215054],[136.86715299327173,35.286300819521905],[136.86711400074023,35.28518734514134],[136.8670637401104,35.284501800288666],[136.86953567596345,35.28425529590836]]]},"properties":{"KEY_CODE":"232280090","PREF":"23","CITY":"228","CITY_NAME":"岩倉市","S_NAME":"泉町","SETAI":"163"}},{"type":"Feature","geometry":{"type":"Polygon","coordinates":[[[136.88415361798678,35.29919624952087],[136.88121080184922,35.29978478277095],[136.8802243495801,35.30058044205585],[136.8789324300041,35.300803543126726],[136.87904322173458,35.30124422854446],[136.87797799397728,35.29978129147504],[136.87720276452916,35.29755993740871],[136.87534662362216,35.29692848671385],[136.87464706443137,35.296872875523185],[136.8752742625651,35.29538851175681],[136.8753117199907,35.29433746695642],[136.87453782931175,35.29277913638899],[136.874700308509,35.28908112477133],[136.87472128636355,35.286664400888235],[136.88327170954975,35.286748977563114],[136.88449004966407,35.28650932001766],[136.88363641386567,35.28824356666577],[136.883317469821,35.289259811125596],[136.88344255014795,35.29333225013354],[136.88379842265172,35.29435540648325],[136.88331535887298,35.29443907804279],[136.88325459313344,35.295527113859045],[136.88366711234877,35.29637081868629],[136.8837347975603,35.298081122893],[136.88415361798678,35.29919624952087]]]},"properties":{"KEY_CODE":"232280100","PREF":"23","CITY":"228","CITY_NAME":"岩倉市","S_NAME":"八剱町","SETAI":"1681"}},{"type":"Feature","geometry":{"type":"Polygon","coordinates":[[[136.87534662362216,35.29692848671385],[136.87720276452916,35.29755993740871],[136.87797799397728,35.29978129147504],[136.87904322173458,35.30124422854446],[136.8792884744436,35.301510228097285],[136.87749519238145,35.30223721177189],[136.87722654413994,35.30196854754845],[136.87603870175352,35.300351850883786],[136.87467962325942,35.299171777462014],[136.8734652069267,35.29840929095585],[136.87334556938356,35.29765765844118],[136.87527867853024,35.29752156969661],[136.87534662362216,35.29692848671385]]]},"properties":{"KEY_CODE":"232280110","PREF":"23","CITY":"228","CITY_NAME":"岩倉市","S_NAME":"井上町","SETAI":"139"}},{"type":"Feature","geometry":{"type":"Polygon","coordinates":[[[136.874700308509,35.28908112477133],[136.87453782931175,35.29277913638899],[136.8753117199907,35.29433746695642],[136.8752742625651,35.29538851175681],[136.87464706443137,35.296872875523185],[136.8743020717958,35.29608655146072],[136.87339558964112,35.29608410118542],[136.87330476581099,35.29493598384957],[136.87234957232144,35.29499284506766],[136.8715238866283,35.293471129021285],[136.8715713256893,35.29191039315209],[136.87072403858463,35.291650524565576],[136.87039715774262,35.28943218925487],[136.87105208538486,35.2896431433754],[136.87253080467121,35.28905903232257],[136.874700308509,35.28908112477133]]]},"properties":{"KEY_CODE":"232280120","PREF":"23","CITY":"228","CITY_NAME":"岩倉市","S_NAME":"神野町","SETAI":"581"}},{"type":"Feature","geometry":{"type":"Polygon","coordinates":[[[136.87534662362216,35.29692848671385],[136.87527867853024,35.29752156969661],[136.87334556938356,35.29765765844118],[136.8734652069267,35.29840929095585],[136.872516234078,35.297552709508935],[136.86939916191838,35.29781635451156],[136.86721832612628,35.297727073051696],[136.86654256221166,35.297704424681896],[136.86563301427114,35.29651639802854],[136.86510038110143,35.296561279394865],[136.86513308000357,35.29533782880049],[136.8650725566964,35.292269717581505],[136.86480774337403,35.29161638734451],[136.866102013166,35.29147183467214],[136.8654027506611,35.290478420086714],[136.86761817124273,35.29021485349685],[136.8675337440602,35.28972394165355],[136.86883238286927,35.28957204501643],[136.86876464566794,35.28908335751272],[136.87031069508006,35.288900005950616],[136.87039715774262,35.28943218925487],[136.87072403858463,35.291650524565576],[136.8715713256893,35.29191039315209],[136.8715238866283,35.293471129021285],[136.87234957232144,35.29499284506766],[136.87330476581099,35.29493598384957],[136.87339558964112,35.29608410118542],[136.8743020717958,35.29608655146072],[136.87464706443137,35.296872875523185],[136.87534662362216,35.29692848671385]]]},"properties":{"KEY_CODE":"232280130","PREF":"23","CITY":"228","CITY_NAME":"岩倉市","S_NAME":"石仏町","SETAI":"755"}},{"type":"Feature","geometry":{"type":"Polygon","coordinates":[[[136.8546347089655,35.27969013228924],[136.85148924295953,35.279863766468544],[136.8491103323596,35.27982216143019],[136.8491677133247,35.279213856474314],[136.849117934311,35.278849565735314],[136.84910464430297,35.2778946526093],[136.84774275625267,35.27779998901415],[136.84689671047965,35.27611029410526],[136.84682158882765,35.274817586880644],[136.84313788528831,35.27472878472884],[136.8434744973598,35.271828532389264],[136.84355556840262,35.271202249189436],[136.84501204500916,35.270255599917306],[136.846354544626,35.26986801529601],[136.84662404127437,35.26911953674522],[136.8461149719248,35.26778855199379],[136.84721849238488,35.267663501856404],[136.84671655670354,35.26717567343036],[136.84677584201168,35.266260150440964],[136.84829593459833,35.266355593661764],[136.84972876112298,35.26627177181058],[136.85181692071203,35.26678594503544],[136.8519993259989,35.26639225149212],[136.84993914378865,35.26628958091127],[136.84982455567666,35.26546980499288],[136.8510285115501,35.26530550327881],[136.8519942186973,35.26576045126167],[136.85248763334556,35.26687298556187],[136.85224254138177,35.267938303787055],[136.85159534503143,35.26825359498993],[136.851429362618,35.26833555792394],[136.84984855461957,35.26918278062362],[136.85030716713712,35.27108744131612],[136.85257820760768,35.27093894689463],[136.85263493328955,35.27387349839592],[136.85622742808843,35.273825778010064],[136.8562785930031,35.276307342874134],[136.85627506232316,35.276569174691296],[136.85627437780622,35.27674509509256],[136.8562790859509,35.27714089744552],[136.85630392882416,35.278127900293526],[136.85631184961701,35.27866179566154],[136.8553202950156,35.278670499943445],[136.85465925638562,35.278676956122084],[136.8546347089655,35.27969013228924]]]},"properties":{"KEY_CODE":"232280140","PREF":"23","CITY":"228","CITY_NAME":"岩倉市","S_NAME":"北島町","SETAI":"288"}},{"type":"Feature","geometry":{"type":"Polygon","coordinates":[[[136.85996601294713,35.27202915547958],[136.85994066814098,35.273072372481884],[136.85927198978396,35.2730619458538],[136.85920758218296,35.27409978094298],[136.85749343805895,35.27410933101004],[136.85750348242343,35.27658149487619],[136.85639157415906,35.27665236588231],[136.85639188094152,35.27657349043655],[136.8562750623231,35.276569174691296],[136.8562785930031,35.276307342874134],[136.85622742808843,35.273825778010064],[136.85263493328955,35.27387349839592],[136.85257820760768,35.27093894689463],[136.85030716713712,35.27108744131612],[136.84984855461957,35.26918278062362],[136.851429362618,35.26833555792394],[136.85159534503143,35.26825359498993],[136.85224254138177,35.267938303787055],[136.85248763334556,35.266872985561854],[136.8544423009107,35.26687371394218],[136.85443621315892,35.266101978299005],[136.85761974431492,35.26610746487414],[136.8576302371249,35.26740035166516],[136.85864142268477,35.26739773566948],[136.85864622201382,35.27137936351552],[136.85869461466663,35.272040499114546],[136.85996601294713,35.27202915547958]]]},"properties":{"KEY_CODE":"232280150","PREF":"23","CITY":"228","CITY_NAME":"岩倉市","S_NAME":"野寄町","SETAI":"209"}},{"type":"Feature","geometry":{"type":"Polygon","coordinates":[[[136.86415068016453,35.27857880596026],[136.85978446620328,35.27821760218041],[136.85903885065787,35.278164579407644],[136.85862311059728,35.2780425240355],[136.85833267587816,35.278046216159574],[136.8572791801735,35.27807442584405],[136.8568926392218,35.27811920669704],[136.85630392882416,35.278127900293526],[136.8562790859509,35.27714089744552],[136.8562750623231,35.276569174691296],[136.85639188094152,35.27657349043655],[136.85639157415906,35.27665236588231],[136.85750348242343,35.27658149487619],[136.85749343805895,35.27410933101004],[136.85920758218296,35.27409978094298],[136.85927198978396,35.2730619458538],[136.85994066814098,35.273072372481884],[136.85996601294713,35.27202915547958],[136.86075699457274,35.27202128589274],[136.8617134177165,35.271786000197956],[136.8633711810797,35.27172429368741],[136.86478866433075,35.27203500700972],[136.86508568753356,35.27067824343802],[136.86683089462267,35.27084770252565],[136.86939407604262,35.271262449390804],[136.87095215103454,35.271438358676924],[136.8709271694718,35.271987036157924],[136.87092568295463,35.27449445320858],[136.86998208086865,35.27431871140915],[136.86942057748567,35.27423269740499],[136.86889860813812,35.27421410084863],[136.86851700976317,35.27421662038795],[136.86816413950464,35.27423033592008],[136.86811762918546,35.274226701565944],[136.86748298522636,35.274244584529875],[136.8670269271387,35.274242761918444],[136.86633321709002,35.27422169138446],[136.86471904817344,35.27407524129306],[136.8644692135635,35.27633771196366],[136.86415068016453,35.27857880596026]]]},"properties":{"KEY_CODE":"232280160","PREF":"23","CITY":"228","CITY_NAME":"岩倉市","S_NAME":"大地町","SETAI":"1204"}},{"type":"Feature","geometry":{"type":"Polygon","coordinates":[[[136.86683089462267,35.27084770252565],[136.86508568753356,35.27067824343802],[136.86478866433075,35.27203500700972],[136.8633711810797,35.27172429368741],[136.8617134177165,35.271786000197956],[136.86075699457274,35.27202128589274],[136.85996601294713,35.27202915547958],[136.85869461466666,35.272040499114546],[136.85864622201382,35.27137936351552],[136.85864142268477,35.26739773566948],[136.8576302371249,35.26740035166516],[136.85761974431495,35.266107464874146],[136.85443621315892,35.266101978299005],[136.8544423009107,35.26687371394218],[136.85248763334556,35.26687298556187],[136.8519942186973,35.26576045126167],[136.8510285115501,35.26530550327881],[136.85074363311298,35.26484691733273],[136.85142461013507,35.264862088295224],[136.85186436656932,35.265614893622],[136.85227676525392,35.26543561440959],[136.85245403931296,35.265007891836866],[136.8525156350308,35.2645358505757],[136.85256518286224,35.2644307646842],[136.85404698280718,35.26388172532746],[136.8556298800971,35.26449248227712],[136.8576361769445,35.26430625595502],[136.86062038969953,35.264792554088494],[136.860663844755,35.26478498718883],[136.86091771376323,35.2647362615048],[136.8610674783422,35.264675159397186],[136.86200710881874,35.26410758631408],[136.86405437507335,35.26333890830061],[136.86549671407542,35.2622456624186],[136.86437287718758,35.26192848028817],[136.86463868455454,35.261048144682015],[136.86648490916397,35.26169903087935],[136.86827949908073,35.26125981389304],[136.86839702648976,35.262419766350234],[136.86931454224407,35.26236569108648],[136.86945458697548,35.26390703582053],[136.87012674719438,35.26387608062026],[136.8704649113734,35.2664138965903],[136.87064898291138,35.26808682083751],[136.86769577129604,35.268297469654904],[136.86773824646352,35.268808566107886],[136.86657227714952,35.26887301528867],[136.86610014692607,35.268776211690835],[136.86604050926914,35.26878824786949],[136.86596364457267,35.27010124850388],[136.86698432136646,35.27002517537439],[136.86673340589178,35.27016991174626],[136.86683089462267,35.27084770252565]]]},"properties":{"KEY_CODE":"232280170","PREF":"23","CITY":"228","CITY_NAME":"岩倉市","S_NAME":"川井町","SETAI":"270"}},{"type":"Feature","geometry":{"type":"Polygon","coordinates":[[[136.87358357808571,35.26630362732339],[136.87109824151642,35.26623051335997],[136.87097567982354,35.26502724999658],[136.87238928143836,35.265084983818845],[136.87253559415774,35.265650054710875],[136.87338928315887,35.265122527045335],[136.87346847938082,35.26452306943566],[136.87371365977899,35.26530443198697],[136.87358357808571,35.26630362732339]]]},"properties":{"KEY_CODE":"232280181","PREF":"23","CITY":"228","CITY_NAME":"岩倉市","S_NAME":"大山寺元町","SETAI":"141"}},{"type":"Feature","geometry":{"type":"Polygon","coordinates":[[[136.87494860481044,35.26394020348961],[136.87481906670874,35.264990526512676],[136.87371365977899,35.26530443198697],[136.87346847938082,35.26452306943566],[136.87219024136755,35.262852315537636],[136.8733004181036,35.26240379105156],[136.87347486261535,35.26281244947313],[136.8746252453313,35.26266401010427],[136.87494860481044,35.26394020348961]]]},"properties":{"KEY_CODE":"232280182","PREF":"23","CITY":"228","CITY_NAME":"岩倉市","S_NAME":"大山寺本町","SETAI":"182"}},{"type":"Feature","geometry":{"type":"Polygon","coordinates":[[[136.87346847938082,35.26452306943566],[136.87338928315887,35.265122527045335],[136.87253559415774,35.265650054710875],[136.87238928143836,35.265084983818845],[136.87097567982354,35.26502724999658],[136.87109824151642,35.26623051335997],[136.8704649113734,35.2664138965903],[136.87012674719438,35.26387608062026],[136.86945458697548,35.26390703582053],[136.86931454224407,35.26236569108648],[136.86839702648976,35.262419766350234],[136.86827949908073,35.26125981389304],[136.86867380895995,35.26094986862327],[136.8707238260025,35.25908214303165],[136.8718401148148,35.258615715892134],[136.87376485635448,35.25817536781223],[136.87424418418112,35.2605623864028],[136.87502108952557,35.26035966991957],[136.876196981544,35.262916351055445],[136.8754178874239,35.26312893097135],[136.87566918032763,35.26374354284023],[136.87494860481044,35.26394020348961],[136.8746252453313,35.26266401010427],[136.87347486261535,35.26281244947313],[136.8733004181036,35.26240379105156],[136.87219024136755,35.262852315537636],[136.87346847938082,35.26452306943566]]]},"properties":{"KEY_CODE":"232280183","PREF":"23","CITY":"228","CITY_NAME":"岩倉市","S_NAME":"大山寺町","SETAI":"532"}},{"type":"Feature","geometry":{"type":"Polygon","coordinates":[[[136.87709164049483,35.271792460346724],[136.87586994101534,35.27221091230093],[136.87580482934524,35.27293907171607],[136.87415654734352,35.272538251217775],[136.87426026604598,35.271385251193166],[136.87187491723878,35.27174785311845],[136.87158831292803,35.271995822629165],[136.8709271694718,35.271987036157924],[136.87095215103454,35.271438358676924],[136.86939407604262,35.271262449390804],[136.86952379795997,35.26974535036313],[136.86923590834687,35.26962640567882],[136.868440493035,35.26965135768535],[136.8678248907602,35.269056528677254],[136.86728918506958,35.26977064065667],[136.86701512765885,35.26997898274554],[136.86698432136646,35.27002517537439],[136.86596364457267,35.27010124850388],[136.86604050926914,35.26878824786949],[136.86610014692607,35.268776211690835],[136.86657227714952,35.26887301528867],[136.86773824646352,35.268808566107886],[136.86769577129604,35.268297469654904],[136.87064898291146,35.26808682083751],[136.8704649113734,35.2664138965903],[136.87109824151642,35.26623051335997],[136.87358357808571,35.26630362732339],[136.87471955727415,35.26639077924396],[136.8744651201793,35.26893615336493],[136.87636723856602,35.270939053203136],[136.87706003353165,35.27087576076333],[136.87709164049483,35.271792460346724]]]},"properties":{"KEY_CODE":"232280190","PREF":"23","CITY":"228","CITY_NAME":"岩倉市","S_NAME":"稲荷町","SETAI":"959"}},{"type":"Feature","geometry":{"type":"Polygon","coordinates":[[[136.88356995283763,35.27161623257998],[136.8813752897423,35.27182974441315],[136.88141907212542,35.2706540666307],[136.8805547870758,35.270909520857536],[136.87955157407848,35.27243950936886],[136.87929329648355,35.27199552262515],[136.87709164049483,35.271792460346724],[136.87706003353165,35.27087576076333],[136.87636723856602,35.270939053203136],[136.8744651201793,35.26893615336493],[136.87471955727415,35.26639077924396],[136.87358357808571,35.26630362732339],[136.87371365977899,35.26530443198697],[136.87481906670874,35.264990526512676],[136.87494860481044,35.26394020348961],[136.87566918032763,35.26374354284023],[136.8754178874239,35.26312893097135],[136.876196981544,35.262916351055445],[136.87502108952557,35.26035966991957],[136.87424418418112,35.2605623864028],[136.87376485635448,35.25817536781223],[136.87447142640042,35.25819932234671],[136.87553898879713,35.25948386238457],[136.8755781689105,35.25957135142958],[136.87620568876127,35.260612924152504],[136.876467855476,35.26094960536879],[136.87560623826846,35.26141882117024],[136.87662438836188,35.2626730026726],[136.8768966711487,35.262524001650874],[136.87753449881785,35.26231551550476],[136.87764379537646,35.26248478742195],[136.8788732883473,35.26442570425106],[136.87967923710332,35.2657233607182],[136.8805416011873,35.26661551085219],[136.88070689851796,35.266491954887435],[136.8818808026461,35.26865804075439],[136.88237250321077,35.26906297949246],[136.88348831192022,35.27142477660459],[136.88356995283763,35.27161623257998]]]},"properties":{"KEY_CODE":"232280200","PREF":"23","CITY":"228","CITY_NAME":"岩倉市","S_NAME":"曽野町","SETAI":"1034"}},{"type":"Feature","geometry":{"type":"Polygon","coordinates":[[[136.876467855476,35.26094960536879],[136.87701633940858,35.26163013592756],[136.87753449881785,35.26231551550476],[136.8768966711487,35.262524001650874],[136.87662438836188,35.2626730026726],[136.87560623826846,35.26141882117024],[136.876467855476,35.26094960536879]]]},"properties":{"KEY_CODE":"232280210","PREF":"23","CITY":"228","CITY_NAME":"岩倉市","S_NAME":"五条町","SETAI":"171"}},{"type":"Feature","geometry":{"type":"Polygon","coordinates":[[[136.86923590834687,35.26962640567882],[136.86952379795997,35.26974535036313],[136.86939407604262,35.271262449390804],[136.86683089462267,35.27084770252565],[136.86673340589178,35.27016991174626],[136.86698432136646,35.27002517537439],[136.86701512765885,35.26997898274554],[136.86728918506958,35.26977064065667],[136.8678248907602,35.269056528677254],[136.868440493035,35.26965135768535],[136.86923590834687,35.26962640567882]]]},"properties":{"KEY_CODE":"232280220","PREF":"23","CITY":"228","CITY_NAME":"岩倉市","S_NAME":"南新町","SETAI":"261"}},{"type":"Feature","geometry":{"type":"Polygon","coordinates":[[[136.88283468052083,35.2783193447921],[136.88283424339025,35.27610321012529],[136.88511095198237,35.27628345081783],[136.88523545505817,35.278156139247066],[136.88527192713008,35.27874200529841],[136.88527549317064,35.279058426634975],[136.8852898474799,35.279918894865595],[136.88551012743545,35.279920176974066],[136.88556267534094,35.2806327727685],[136.8856007492653,35.281545550053096],[136.8856873726287,35.28336626995291],[136.88251218382123,35.283330209313625],[136.88261536549308,35.28275487756494],[136.88299673403242,35.28098179446453],[136.88292474627235,35.27990281204738],[136.88283468052083,35.2783193447921]]]},"properties":{"KEY_CODE":"232280230","PREF":"23","CITY":"228","CITY_NAME":"岩倉市","S_NAME":"東新町","SETAI":"1857"}},{"type":"Feature","geometry":{"type":"Polygon","coordinates":[[[136.87136369743112,35.28361324250713],[136.87117747849697,35.28413525886651],[136.8695276254187,35.28407943101737],[136.86953977351558,35.28343136146706],[136.87041809805507,35.283220180314565],[136.87136253949413,35.28344774561699],[136.87136369743112,35.28361324250713]]]},"properties":{"KEY_CODE":"23228024001","PREF":"23","CITY":"228","CITY_NAME":"岩倉市","S_NAME":"宮前町一丁目","SETAI":"35"}},{"type":"Feature","geometry":{"type":"Polygon","coordinates":[[[136.86961652996672,35.283052462677944],[136.8695744292498,35.28328503692688],[136.86953977351558,35.28343136146706],[136.8695276254187,35.28407943101737],[136.86953567596345,35.28425529590836],[136.8670637401104,35.284501800288666],[136.86692543442598,35.28311829402153],[136.86961652996672,35.283052462677944]]]},"properties":{"KEY_CODE":"23228024002","PREF":"23","CITY":"228","CITY_NAME":"岩倉市","S_NAME":"宮前町二丁目","SETAI":"132"}},{"type":"Feature","geometry":{"type":"Polygon","coordinates":[[[136.86692543442598,35.28311829402153],[136.8670637401104,35.284501800288666],[136.86711400074023,35.28518734514134],[136.8659152884094,35.285701020282225],[136.8658545066047,35.285006787998945],[136.86568189471785,35.28314911442867],[136.86692543442598,35.28311829402153]]]},"properties":{"KEY_CODE":"23228024003","PREF":"23","CITY":"228","CITY_NAME":"岩倉市","S_NAME":"宮前町三丁目","SETAI":"113"}},{"type":"Feature","geometry":{"type":"Polygon","coordinates":[[[136.87319338466662,35.27864894877587],[136.87276275769688,35.278732356110744],[136.8726611111188,35.279959443924504],[136.87145963436663,35.28113283068525],[136.86987751523554,35.28103872471672],[136.86995189835125,35.27861692666632],[136.87319338466662,35.27864894877587]]]},"properties":{"KEY_CODE":"23228025001","PREF":"23","CITY":"228","CITY_NAME":"岩倉市","S_NAME":"栄町一丁目","SETAI":"381"}},{"type":"Feature","geometry":{"type":"Polygon","coordinates":[[[136.87300660371116,35.277853709393604],[136.87319338466662,35.27864894877587],[136.86995189835125,35.27861692666632],[136.8699867223471,35.27718072975378],[136.87366161936404,35.27715702949725],[136.87300660371116,35.277853709393604]]]},"properties":{"KEY_CODE":"23228025002","PREF":"23","CITY":"228","CITY_NAME":"岩倉市","S_NAME":"栄町二丁目","SETAI":"336"}},{"type":"Feature","geometry":{"type":"Polygon","coordinates":[[[136.87366161936404,35.27715702949725],[136.8699867223471,35.27718072975378],[136.86999489469486,35.27632573917964],[136.8700100146469,35.27536780636425],[136.873845126107,35.2753777378808],[136.87366161936404,35.27715702949725]]]},"properties":{"KEY_CODE":"23228026001","PREF":"23","CITY":"228","CITY_NAME":"岩倉市","S_NAME":"旭町一丁目","SETAI":"228"}},{"type":"Feature","geometry":{"type":"Polygon","coordinates":[[[136.873845126107,35.2753777378808],[136.8700100146469,35.27536780636425],[136.86998208086865,35.27431871140915],[136.87092568295463,35.27449445320858],[136.87182114099792,35.27465133695602],[136.87390486320143,35.27500745600761],[136.873845126107,35.2753777378808]]]},"properties":{"KEY_CODE":"23228026002","PREF":"23","CITY":"228","CITY_NAME":"岩倉市","S_NAME":"旭町二丁目","SETAI":"151"}},{"type":"Feature","geometry":{"type":"Polygon","coordinates":[[[136.86995189835125,35.27861692666632],[136.86987751523554,35.28103872471672],[136.869439108054,35.28107667630868],[136.86785889540928,35.280949943221366],[136.8678824293537,35.27861204235695],[136.86995189835125,35.27861692666632]]]},"properties":{"KEY_CODE":"23228027001","PREF":"23","CITY":"228","CITY_NAME":"岩倉市","S_NAME":"新柳町一丁目","SETAI":"560"}},{"type":"Feature","geometry":{"type":"Polygon","coordinates":[[[136.8678824293537,35.27861204235695],[136.86785889540928,35.280949943221366],[136.8655816403474,35.28086697171619],[136.86570300879305,35.2796229062437],[136.86626686441258,35.27960189604625],[136.86635632369945,35.27858690511526],[136.8678824293537,35.27861204235695]]]},"properties":{"KEY_CODE":"23228027002","PREF":"23","CITY":"228","CITY_NAME":"岩倉市","S_NAME":"新柳町二丁目","SETAI":"176"}},{"type":"Feature","geometry":{"type":"Polygon","coordinates":[[[136.86635632369945,35.27858690511526],[136.86626686441258,35.27960189604625],[136.86570300879305,35.2796229062437],[136.86396804374434,35.279727857455896],[136.86415068016453,35.27857880596026],[136.86635632369945,35.27858690511526]]]},"properties":{"KEY_CODE":"23228027003","PREF":"23","CITY":"228","CITY_NAME":"岩倉市","S_NAME":"新柳町三丁目","SETAI":"109"}},{"type":"Feature","geometry":{"type":"Polygon","coordinates":[[[136.86999489469486,35.27632573917964],[136.8699867223471,35.27718072975378],[136.86995189835125,35.27861692666632],[136.8678824293537,35.27861204235695],[136.86808260479134,35.27632897584719],[136.86999489469486,35.27632573917964]]]},"properties":{"KEY_CODE":"23228028001","PREF":"23","CITY":"228","CITY_NAME":"岩倉市","S_NAME":"中央町一丁目","SETAI":"224"}},{"type":"Feature","geometry":{"type":"Polygon","coordinates":[[[136.86808260479134,35.27632897584719],[136.8678824293537,35.27861204235695],[136.86635632369945,35.27858690511526],[136.86658995846062,35.27633821223985],[136.86808260479134,35.27632897584719]]]},"properties":{"KEY_CODE":"23228028002","PREF":"23","CITY":"228","CITY_NAME":"岩倉市","S_NAME":"中央町二丁目","SETAI":"155"}},{"type":"Feature","geometry":{"type":"Polygon","coordinates":[[[136.86635632369945,35.27858690511526],[136.86415068016453,35.27857880596026],[136.8644692135635,35.27633771196366],[136.86658995846062,35.27633821223985],[136.86635632369945,35.27858690511526]]]},"properties":{"KEY_CODE":"23228028003","PREF":"23","CITY":"228","CITY_NAME":"岩倉市","S_NAME":"中央町三丁目","SETAI":"145"}},{"type":"Feature","geometry":{"type":"Polygon","coordinates":[[[136.86942057748567,35.27423269740499],[136.86998208086865,35.27431871140915],[136.8700100146469,35.27536780636425],[136.86999489469486,35.27632573917964],[136.86808260479134,35.27632897584719],[136.86811762918546,35.274226701565944],[136.86816413950464,35.27423033592008],[136.86851700976317,35.27421662038795],[136.86889860813812,35.27421410084863],[136.86942057748567,35.27423269740499]]]},"properties":{"KEY_CODE":"23228029001","PREF":"23","CITY":"228","CITY_NAME":"岩倉市","S_NAME":"大地新町一丁目","SETAI":"220"}},{"type":"Feature","geometry":{"type":"Polygon","coordinates":[[[136.86811762918546,35.274226701565944],[136.86808260479134,35.27632897584719],[136.86658995846062,35.27633821223985],[136.86669611029686,35.27492196395665],[136.86633321709002,35.27422169138446],[136.8670269271387,35.274242761918444],[136.86748298522636,35.274244584529875],[136.86811762918546,35.274226701565944]]]},"properties":{"KEY_CODE":"23228029002","PREF":"23","CITY":"228","CITY_NAME":"岩倉市","S_NAME":"大地新町二丁目","SETAI":"130"}},{"type":"Feature","geometry":{"type":"Polygon","coordinates":[[[136.8644692135635,35.27633771196366],[136.86471904817344,35.27407524129306],[136.86633321709002,35.27422169138446],[136.86669611029686,35.27492196395665],[136.86658995846062,35.27633821223985],[136.8644692135635,35.27633771196366]]]},"properties":{"KEY_CODE":"23228029003","PREF":"23","CITY":"228","CITY_NAME":"岩倉市","S_NAME":"大地新町三丁目","SETAI":"107"}},{"type":"Feature","geometry":{"type":"Polygon","coordinates":[[[136.8717439682189,35.27373234109483],[136.87399090129202,35.27412680989091],[136.87390486320143,35.27500745600761],[136.87182114099792,35.27465133695602],[136.8717439682189,35.27373234109483]]]},"properties":{"KEY_CODE":"23228030001","PREF":"23","CITY":"228","CITY_NAME":"岩倉市","S_NAME":"昭和町一丁目","SETAI":"82"}},{"type":"Feature","geometry":{"type":"Polygon","coordinates":[[[136.87187491723878,35.27174785311845],[136.87194034508357,35.272414142880514],[136.87415654734352,35.272538251217775],[136.87399090129202,35.27412680989091],[136.8717439682189,35.27373234109483],[136.87158831292803,35.271995822629165],[136.87187491723878,35.27174785311845]]]},"properties":{"KEY_CODE":"23228030002","PREF":"23","CITY":"228","CITY_NAME":"岩倉市","S_NAME":"昭和町二丁目","SETAI":"178"}},{"type":"Feature","geometry":{"type":"Polygon","coordinates":[[[136.87187491723878,35.27174785311845],[136.87426026604598,35.271385251193166],[136.87415654734352,35.272538251217775],[136.87194034508357,35.272414142880514],[136.87187491723878,35.27174785311845]]]},"properties":{"KEY_CODE":"23228030003","PREF":"23","CITY":"228","CITY_NAME":"岩倉市","S_NAME":"昭和町三丁目","SETAI":"136"}}]}