{"type":"FeatureCollection","features":[{"type":"Feature","geometry":{"type":"Polygon","coordinates":[[[142.03060067439296,43.71683342813615],[142.04623261995297,43.721665497190436],[142.06866447629213,43.72881039448294],[142.06829486762507,43.72946683987793],[142.0555704584985,43.725528477086165],[142.04905234859424,43.723500844385235],[142.04199400650808,43.721295031351815],[142.0352641629432,43.71924486417097],[142.03011006886587,43.71767708850431],[142.03060067439296,43.71683342813615]]]},"properties":{"KEY_CODE":"012280010","PREF":"01","CITY":"228","CITY_NAME":"深川市","S_NAME":"一条","SETAI":"303"}},{"type":"Feature","geometry":{"type":"Polygon","coordinates":[[[142.0310317360197,43.71613604781042],[142.04107951469717,43.719253663916675],[142.05641671595814,43.72416720738496],[142.05934440059443,43.725085153867475],[142.06904031614994,43.72814288270563],[142.06866447629213,43.72881039448294],[142.04623261995297,43.721665497190436],[142.03060067439296,43.71683342813615],[142.0310317360197,43.71613604781042]]]},"properties":{"KEY_CODE":"012280020","PREF":"01","CITY":"228","CITY_NAME":"深川市","S_NAME":"二条","SETAI":"376"}},{"type":"Feature","geometry":{"type":"Polygon","coordinates":[[[142.03146917283192,43.7153891345285],[142.0694511344413,43.72741320801113],[142.06904031614994,43.72814288270563],[142.05934440059443,43.725085153867475],[142.05641671595814,43.72416720738496],[142.04107951469717,43.719253663916675],[142.0310317360197,43.71613604781042],[142.03146917283192,43.7153891345285]]]},"properties":{"KEY_CODE":"012280030","PREF":"01","CITY":"228","CITY_NAME":"深川市","S_NAME":"三条","SETAI":"280"}},{"type":"Feature","geometry":{"type":"Polygon","coordinates":[[[142.06032308220833,43.723427905675884],[142.06513029069887,43.7249998810871],[142.06739465362804,43.72579429536656],[142.06992712519954,43.726567761385894],[142.0694511344413,43.72741320801113],[142.03146917283192,43.7153891345285],[142.03188471081282,43.714689470847915],[142.04046461218138,43.71733359682118],[142.05249597309808,43.721209497184546],[142.05540118043638,43.7220837866389],[142.05885929716712,43.72329997137171],[142.06032308220833,43.723427905675884]]]},"properties":{"KEY_CODE":"012280040","PREF":"01","CITY":"228","CITY_NAME":"深川市","S_NAME":"四条","SETAI":"334"}},{"type":"Feature","geometry":{"type":"Polygon","coordinates":[[[142.05587978153991,43.721341311830784],[142.0593353650079,43.722513248645015],[142.05885929716712,43.72329997137171],[142.05540118043638,43.7220837866389],[142.05249597309808,43.721209497184546],[142.04046461218138,43.71733359682118],[142.03188471081282,43.714689470847915],[142.03232813598078,43.71399662449175],[142.05425071307386,43.720921837880134],[142.05587978153991,43.721341311830784]]]},"properties":{"KEY_CODE":"012280050","PREF":"01","CITY":"228","CITY_NAME":"深川市","S_NAME":"五条","SETAI":"307"}},{"type":"Feature","geometry":{"type":"Polygon","coordinates":[[[142.06779383281088,43.72517084519977],[142.06739465362804,43.72579429536656],[142.06513029069887,43.7249998810871],[142.06507009801166,43.72444100527784],[142.06779383281088,43.72517084519977]]]},"properties":{"KEY_CODE":"012280050","PREF":"01","CITY":"228","CITY_NAME":"深川市","S_NAME":"五条","SETAI":"0"}},{"type":"Feature","geometry":{"type":"Polygon","coordinates":[[[142.068021020785,43.72478396390101],[142.06779383281088,43.72517084519977],[142.06507009801166,43.72444100527784],[142.06513029069887,43.7249998810871],[142.06032308220833,43.723427905675884],[142.0593353650079,43.722513248645015],[142.05587978153991,43.721341311830784],[142.05425071307386,43.720921837880134],[142.03232813598078,43.71399662449175],[142.0331901872047,43.712597342740494],[142.03419507416507,43.71376366199239],[142.03609333108008,43.714368432904514],[142.03760098512186,43.714004811478915],[142.0377262536707,43.71404279012544],[142.03828637463562,43.715111971745905],[142.03978850044288,43.71546924697919],[142.05468197793064,43.720217963407045],[142.05769077944026,43.7211490701841],[142.05915041157073,43.7215549401391],[142.0595816494997,43.721771532809484],[142.0611276281643,43.72210567306],[142.06153646552676,43.72145356758808],[142.06264464110512,43.720936576962494],[142.06274235718482,43.7208494849857],[142.06278405125272,43.721479515744726],[142.06855501947976,43.722364533189435],[142.06820056076933,43.72296189594202],[142.0678157681473,43.72361613645433],[142.068021020785,43.72478396390101]]]},"properties":{"KEY_CODE":"012280060","PREF":"01","CITY":"228","CITY_NAME":"深川市","S_NAME":"六条","SETAI":"339"}},{"type":"Feature","geometry":{"type":"Polygon","coordinates":[[[142.0611276281643,43.72210567306],[142.0595816494997,43.721771532809484],[142.05915041157073,43.7215549401391],[142.05769077944026,43.7211490701841],[142.05468197793064,43.720217963407045],[142.03978850044288,43.71546924697919],[142.03828637463562,43.715111971745905],[142.0377262536707,43.71404279012544],[142.0538571104929,43.718987473545766],[142.06153646552676,43.72145356758808],[142.0611276281643,43.72210567306]]]},"properties":{"KEY_CODE":"012280070","PREF":"01","CITY":"228","CITY_NAME":"深川市","S_NAME":"七条","SETAI":"262"}},{"type":"Feature","geometry":{"type":"Polygon","coordinates":[[[142.06858198612844,43.723838800590535],[142.068021020785,43.72478396390101],[142.0678157681473,43.72361613645433],[142.06858198612844,43.723838800590535]]]},"properties":{"KEY_CODE":"012280070","PREF":"01","CITY":"228","CITY_NAME":"深川市","S_NAME":"七条","SETAI":"0"}},{"type":"Feature","geometry":{"type":"Polygon","coordinates":[[[142.05061399472692,43.71436457553677],[142.04924548084665,43.7167601120753],[142.06264464110512,43.720936576962494],[142.06153646552676,43.72145356758808],[142.0538571104929,43.718987473545766],[142.0377262536707,43.71404279012544],[142.03760098512186,43.714004811478915],[142.0416448502854,43.71176159403149],[142.04307963754394,43.713124730368975],[142.0461901602573,43.71433039078389],[142.05061399472692,43.71436457553677]]]},"properties":{"KEY_CODE":"012280080","PREF":"01","CITY":"228","CITY_NAME":"深川市","S_NAME":"八条","SETAI":"317"}},{"type":"Feature","geometry":{"type":"Polygon","coordinates":[[[142.06895434261054,43.723202787055534],[142.06858198612844,43.723838800590535],[142.0678157681473,43.72361613645433],[142.06820056076933,43.72296189594202],[142.06895434261054,43.723202787055534]]]},"properties":{"KEY_CODE":"012280080","PREF":"01","CITY":"228","CITY_NAME":"深川市","S_NAME":"八条","SETAI":"0"}},{"type":"Feature","geometry":{"type":"Polygon","coordinates":[[[142.0600751820885,43.7171568580328],[142.0597742904995,43.71766155277661],[142.06286162872976,43.72038668072669],[142.06274235718482,43.7208494849857],[142.06264464110512,43.720936576962494],[142.04924548084665,43.7167601120753],[142.05061399472692,43.71436457553677],[142.05479481752138,43.714340121705106],[142.0563310235522,43.71466560806198],[142.0600751820885,43.7171568580328]]]},"properties":{"KEY_CODE":"012280090","PREF":"01","CITY":"228","CITY_NAME":"深川市","S_NAME":"九条","SETAI":"114"}},{"type":"Feature","geometry":{"type":"Polygon","coordinates":[[[142.06855501947976,43.722364533189435],[142.06895434261054,43.723202787055534],[142.06820056076933,43.72296189594202],[142.06855501947976,43.722364533189435]]]},"properties":{"KEY_CODE":"012280090","PREF":"01","CITY":"228","CITY_NAME":"深川市","S_NAME":"九条","SETAI":"0"}},{"type":"Feature","geometry":{"type":"Polygon","coordinates":[[[142.03718156311726,43.70406326079232],[142.0388092216033,43.70859880717746],[142.0416448502854,43.71176159403149],[142.03760098512186,43.714004811478915],[142.03609333108008,43.714368432904514],[142.03419507416507,43.71376366199239],[142.0331901872047,43.712597342740494],[142.03359215845563,43.71048323052642],[142.03030284488344,43.70944428388955],[142.0312921585815,43.70630547247488],[142.03299142379416,43.70741193092731],[142.03718156311726,43.70406326079232]]]},"properties":{"KEY_CODE":"012280100","PREF":"01","CITY":"228","CITY_NAME":"深川市","S_NAME":"緑町","SETAI":"463"}},{"type":"Feature","geometry":{"type":"Polygon","coordinates":[[[142.03030284488344,43.70944428388955],[142.03359215845563,43.71048323052642],[142.0331901872047,43.712597342740494],[142.03232813598078,43.71399662449175],[142.03188471081282,43.714689470847915],[142.03146917283192,43.7153891345285],[142.0310317360197,43.71613604781042],[142.03060067439296,43.71683342813615],[142.03011006886587,43.71767708850431],[142.02798549726205,43.71700855121854],[142.02385028713394,43.71573660752247],[142.02784167216893,43.70878373548568],[142.03030284488344,43.70944428388955]]]},"properties":{"KEY_CODE":"012280110","PREF":"01","CITY":"228","CITY_NAME":"深川市","S_NAME":"西町","SETAI":"549"}},{"type":"Feature","geometry":{"type":"Polygon","coordinates":[[[142.02156015109338,43.70684874046512],[142.02784167216893,43.70878373548568],[142.02385028713394,43.71573660752247],[142.0227771600782,43.7153950680602],[142.0174716812135,43.71373099505919],[142.01883195425293,43.71144892725013],[142.02048161328537,43.70865167070093],[142.02156015109338,43.70684874046512]]]},"properties":{"KEY_CODE":"012280120","PREF":"01","CITY":"228","CITY_NAME":"深川市","S_NAME":"文光町","SETAI":"654"}},{"type":"Feature","geometry":{"type":"Polygon","coordinates":[[[142.0352641629432,43.71924486417097],[142.0315663161387,43.71938924820629],[142.0291385450953,43.72019672799597],[142.02661745496383,43.71940656139834],[142.02798549726205,43.71700855121854],[142.03011006886587,43.71767708850431],[142.0352641629432,43.71924486417097]]]},"properties":{"KEY_CODE":"01228013000","PREF":"01","CITY":"228","CITY_NAME":"深川市","S_NAME":"錦町","SETAI":"165"}},{"type":"Feature","geometry":{"type":"Polygon","coordinates":[[[142.02385028713394,43.71573660752247],[142.02798549726205,43.71700855121854],[142.02661745496383,43.71940656139834],[142.02486911507282,43.71883810267968],[142.02373387133005,43.71852345135561],[142.02240666342144,43.718082107528296],[142.02303835968846,43.717049722293446],[142.02385028713394,43.71573660752247]]]},"properties":{"KEY_CODE":"01228013001","PREF":"01","CITY":"228","CITY_NAME":"深川市","S_NAME":"錦町西","SETAI":"18"}},{"type":"Feature","geometry":{"type":"Polygon","coordinates":[[[142.02240666342144,43.718082107528296],[142.02373387133005,43.71852345135561],[142.02486911507282,43.71883810267968],[142.02661745496383,43.71940656139834],[142.0291385450953,43.72019672799597],[142.0264400795845,43.72273646854469],[142.02571690915758,43.72249575727174],[142.02071390632506,43.720966914697684],[142.02173781416755,43.719240696211685],[142.02240666342144,43.718082107528296]]]},"properties":{"KEY_CODE":"01228013002","PREF":"01","CITY":"228","CITY_NAME":"深川市","S_NAME":"錦町北","SETAI":"35"}},{"type":"Feature","geometry":{"type":"Polygon","coordinates":[[[142.0352641629432,43.71924486417097],[142.04199400650808,43.721295031351815],[142.0416479070566,43.722944015658825],[142.03222640656065,43.72026107747593],[142.0315663161387,43.71938924820629],[142.0352641629432,43.71924486417097]]]},"properties":{"KEY_CODE":"012280140","PREF":"01","CITY":"228","CITY_NAME":"深川市","S_NAME":"太子町","SETAI":"144"}},{"type":"Feature","geometry":{"type":"Polygon","coordinates":[[[142.04099312922006,43.72401247840284],[142.04039065555395,43.72395891814418],[142.0357475169772,43.72231273487716],[142.0291385450953,43.72019672799597],[142.0315663161387,43.71938924820629],[142.03222640656065,43.72026107747593],[142.0416479070566,43.722944015658825],[142.04099312922006,43.72401247840284]]]},"properties":{"KEY_CODE":"01228015001","PREF":"01","CITY":"228","CITY_NAME":"深川市","S_NAME":"新光町一丁目","SETAI":"129"}},{"type":"Feature","geometry":{"type":"Polygon","coordinates":[[[142.04039065555395,43.72395891814418],[142.03777553273545,43.72443160417686],[142.0369100159614,43.725405771842084],[142.03491883893562,43.72574288121594],[142.03450970566064,43.725999198640665],[142.03343528524172,43.72605561146085],[142.0357475169772,43.72231273487716],[142.04039065555395,43.72395891814418]]]},"properties":{"KEY_CODE":"01228015002","PREF":"01","CITY":"228","CITY_NAME":"深川市","S_NAME":"新光町二丁目","SETAI":"100"}},{"type":"Feature","geometry":{"type":"Polygon","coordinates":[[[142.0357475169772,43.72231273487716],[142.03343528524172,43.72605561146085],[142.03074832979533,43.72570962950208],[142.0262473477489,43.724279117424395],[142.02565756404368,43.72400529821484],[142.0264400795845,43.72273646854469],[142.0291385450953,43.72019672799597],[142.0357475169772,43.72231273487716]]]},"properties":{"KEY_CODE":"01228015003","PREF":"01","CITY":"228","CITY_NAME":"深川市","S_NAME":"新光町三丁目","SETAI":"74"}},{"type":"Feature","geometry":{"type":"Polygon","coordinates":[[[142.012456529128,43.709456296230485],[142.01883195425293,43.71144892725013],[142.0174716812135,43.71373099505919],[142.01106206047288,43.71174391013908],[142.012456529128,43.709456296230485]]]},"properties":{"KEY_CODE":"01228016101","PREF":"01","CITY":"228","CITY_NAME":"深川市","S_NAME":"開西町一丁目","SETAI":"40"}},{"type":"Feature","geometry":{"type":"Polygon","coordinates":[[[142.01411939703314,43.70668380397066],[142.02048161328537,43.70865167070093],[142.01883195425293,43.71144892725013],[142.012456529128,43.709456296230485],[142.01411939703314,43.70668380397066]]]},"properties":{"KEY_CODE":"01228016102","PREF":"01","CITY":"228","CITY_NAME":"深川市","S_NAME":"開西町二丁目","SETAI":"116"}},{"type":"Feature","geometry":{"type":"Polygon","coordinates":[[[142.01411939703314,43.70668380397066],[142.01518495869468,43.704894177115236],[142.02156015109338,43.70684874046512],[142.02048161328537,43.70865167070093],[142.01411939703314,43.70668380397066]]]},"properties":{"KEY_CODE":"01228016103","PREF":"01","CITY":"228","CITY_NAME":"深川市","S_NAME":"開西町三丁目","SETAI":"7"}},{"type":"Feature","geometry":{"type":"Polygon","coordinates":[[[141.9990054746681,43.7330545274013],[141.9958466739594,43.734214750485044],[141.9932258879956,43.73347347419667],[141.9901817359682,43.734222930500636],[141.98752946384448,43.735441115554785],[141.98634823495576,43.73528652296877],[141.9825846101475,43.73341171507768],[141.97763495315394,43.733384073570036],[141.97701944187924,43.73328689715572],[141.9760019392765,43.73323929950588],[141.97606769506572,43.733126536384205],[141.98261684267035,43.72183122698008],[141.97629108672686,43.71989103963247],[141.98030615348966,43.71307523695987],[141.97398147000354,43.711109387530506],[141.98080074172617,43.69957650912842],[141.98353542547687,43.69491812373325],[141.98998819477808,43.69692554323022],[141.99436840774695,43.68942332823261],[141.99258033135618,43.68921615012191],[141.98918109402027,43.685669680017064],[141.99057998484926,43.682286511810965],[141.9862421617758,43.68004134709212],[141.99001072963594,43.68023694702321],[141.99590922479828,43.679010244768506],[142.00367167946158,43.67827943939276],[142.00912613455498,43.674899302188116],[142.01134239862856,43.67409129218422],[142.0147364053535,43.67454854814196],[142.01796818019886,43.677580727069326],[142.02063989515844,43.67865825755153],[142.02636592175188,43.68166802819221],[142.02955297836488,43.68646701882884],[142.03143711248958,43.68979505333698],[142.03370448403786,43.6925756238963],[142.03439304491016,43.69617946399748],[142.03430194019955,43.698724164011004],[142.0360961689448,43.70145091895188],[142.03718156311726,43.70406326079232],[142.03299142379416,43.70741193092731],[142.0312921585815,43.70630547247488],[142.03030284488344,43.70944428388955],[142.02784167216893,43.70878373548568],[142.02156015109338,43.70684874046512],[142.01518495869468,43.704894177115236],[142.01411939703314,43.70668380397066],[142.012456529128,43.709456296230485],[142.01106206047288,43.71174391013908],[142.0174716812135,43.71373099505919],[142.0227771600782,43.7153950680602],[142.02385028713394,43.7157366075225],[142.02303835968846,43.717049722293446],[142.02240666342144,43.7180821075283],[142.02173781416755,43.719240696211685],[142.02071390632506,43.720966914697684],[142.02571690915758,43.72249575727174],[142.0264400795845,43.72273646854469],[142.02565756404368,43.72400529821484],[142.0262473477489,43.724279117424395],[142.03074832979533,43.72570962950208],[142.03343528524172,43.72605561146085],[142.02990722033658,43.73177535784139],[142.03077864821245,43.73231693153129],[142.03049616959808,43.7351716168997],[142.0276809133974,43.73366067924096],[142.023573604779,43.73309191669025],[142.02187644772204,43.73319754816008],[142.02074639357417,43.73146917949501],[142.01787598764824,43.7302927401018],[142.0144593461628,43.72966530253196],[142.01193243864682,43.72895818597063],[142.0102504950503,43.72874730992896],[142.00836501581512,43.72991578409915],[142.0070920351855,43.730563134198974],[142.0061791894644,43.73054523614735],[142.00427301109522,43.731433763774646],[142.0028897400404,43.732080812394145],[142.00185452694436,43.73241070692455],[142.00071414242043,43.73285423224321],[141.9990054746681,43.7330545274013]]]},"properties":{"KEY_CODE":"012280162","PREF":"01","CITY":"228","CITY_NAME":"深川市","S_NAME":"字メム","SETAI":"190"}},{"type":"Feature","geometry":{"type":"Polygon","coordinates":[[[141.9913216267088,43.74979832954575],[141.9911904707831,43.74979341141779],[141.97099459095506,43.74904042076276],[141.9666388552401,43.748860304366175],[141.9760019392765,43.73323929950588],[141.97701944187924,43.73328689715572],[141.97777987820686,43.735394343462445],[141.9882029628461,43.73901574889235],[141.98914145805796,43.74075661179213],[141.9913216267088,43.74979832954575]]]},"properties":{"KEY_CODE":"012280170","PREF":"01","CITY":"228","CITY_NAME":"深川市","S_NAME":"字大鳳","SETAI":"7"}},{"type":"Feature","geometry":{"type":"Polygon","coordinates":[[[142.03075001111918,43.74737047973559],[142.03489561353192,43.74051072455651],[142.04128846021118,43.742542447219655],[142.03992260803233,43.74485212009461],[142.03712459987676,43.749362058577425],[142.03075001111918,43.74737047973559]]]},"properties":{"KEY_CODE":"012280180","PREF":"01","CITY":"228","CITY_NAME":"深川市","S_NAME":"あけぼの町","SETAI":"431"}},{"type":"Feature","geometry":{"type":"Polygon","coordinates":[[[142.04199400650808,43.721295031351815],[142.04905234859424,43.723500844385235],[142.0492742857852,43.724287544762085],[142.04790759592206,43.72651877644077],[142.04081340243545,43.72425606573021],[142.04099312922006,43.72401247840284],[142.0416479070566,43.722944015658825],[142.04199400650808,43.721295031351815]]]},"properties":{"KEY_CODE":"01228019001","PREF":"01","CITY":"228","CITY_NAME":"深川市","S_NAME":"北光町一丁目","SETAI":"236"}},{"type":"Feature","geometry":{"type":"Polygon","coordinates":[[[142.04790759592206,43.72651877644077],[142.04702735454634,43.72648130201121],[142.0443643329643,43.73091751052073],[142.03961117762165,43.72940323874902],[142.0380223352583,43.728887320842354],[142.03893011125666,43.727352355995166],[142.03450970566067,43.72599919864065],[142.03491883893562,43.72574288121594],[142.0369100159614,43.725405771842084],[142.03777553273545,43.72443160417686],[142.04039065555395,43.72395891814418],[142.04099312922006,43.72401247840284],[142.04081340243545,43.72425606573021],[142.04790759592206,43.72651877644077]]]},"properties":{"KEY_CODE":"01228019002","PREF":"01","CITY":"228","CITY_NAME":"深川市","S_NAME":"北光町二丁目","SETAI":"474"}},{"type":"Feature","geometry":{"type":"Polygon","coordinates":[[[142.0435499327641,43.73224859495911],[142.04155493000192,43.73550721550728],[142.03687478956067,43.734031365310926],[142.03784687159828,43.732386271540655],[142.03961117762165,43.72940323874902],[142.0443643329643,43.73091751052073],[142.0435499327641,43.73224859495911]]]},"properties":{"KEY_CODE":"01228019003","PREF":"01","CITY":"228","CITY_NAME":"深川市","S_NAME":"北光町三丁目","SETAI":"29"}},{"type":"Feature","geometry":{"type":"Polygon","coordinates":[[[142.0555704584985,43.725528477086165],[142.05362859002415,43.72832300062147],[142.04790759592206,43.72651877644077],[142.0492742857852,43.724287544762085],[142.04905234859424,43.723500844385235],[142.0555704584985,43.725528477086165]]]},"properties":{"KEY_CODE":"01228020001","PREF":"01","CITY":"228","CITY_NAME":"深川市","S_NAME":"稲穂町一丁目","SETAI":"83"}},{"type":"Feature","geometry":{"type":"Polygon","coordinates":[[[142.04790759592206,43.72651877644077],[142.05362859002415,43.72832300062147],[142.05084366825173,43.73295281136677],[142.04895608273392,43.73237157596044],[142.0460017254357,43.731432744169986],[142.0443643329643,43.73091751052073],[142.04702735454634,43.72648130201121],[142.04790759592206,43.72651877644077]]]},"properties":{"KEY_CODE":"01228020002","PREF":"01","CITY":"228","CITY_NAME":"深川市","S_NAME":"稲穂町二丁目","SETAI":"236"}},{"type":"Feature","geometry":{"type":"Polygon","coordinates":[[[142.07682383218636,43.780883218890594],[142.0711399957981,43.78269234332446],[142.06257376845014,43.78258583758533],[142.0513958772763,43.78039466575436],[142.04107320340353,43.78178826884683],[142.03900740761247,43.78240741464809],[142.032703096517,43.78206334307518],[142.011564437154,43.77882377715475],[142.00727788336224,43.77932357737651],[142.0055353677506,43.77093056204271],[142.00390228698498,43.76384138506756],[142.0016716538352,43.75484863353582],[142.0010928293358,43.75021510956072],[141.9913216267088,43.74979832954575],[141.989141458058,43.74075661179209],[141.9882029628461,43.73901574889235],[141.97777987820686,43.735394343462445],[141.97763495315394,43.733384073570036],[141.9825846101475,43.73341171507768],[141.98634823495576,43.73528652296877],[141.98752946384448,43.735441115554785],[141.9901817359682,43.734222930500636],[141.9932258879956,43.73347347419667],[141.9958466739594,43.734214750485044],[141.9990054746681,43.7330545274013],[142.00071414242043,43.73285423224321],[142.00185452694436,43.73241070692455],[142.0028897400404,43.732080812394145],[142.00427301109522,43.731433763774646],[142.0061791894644,43.73054523614735],[142.0070920351855,43.730563134198974],[142.00836501581512,43.72991578409915],[142.0102504950503,43.72874730992896],[142.01193243864682,43.72895818597063],[142.0144593461628,43.72966530253196],[142.01787598764824,43.7302927401018],[142.02074639357417,43.73146917949501],[142.02187644772204,43.73319754816008],[142.023573604779,43.73309191669025],[142.0276809133974,43.73366067924096],[142.03049616959808,43.7351716168997],[142.03077864821245,43.73231693153129],[142.02990722033658,43.73177535784139],[142.03343528524172,43.72605561146085],[142.03450970566064,43.725999198640665],[142.03893011125666,43.72735235599519],[142.0380223352583,43.728887320842354],[142.03961117762165,43.72940323874902],[142.03784687159828,43.732386271540655],[142.03687478956067,43.734031365310926],[142.04155493000192,43.73550721550728],[142.0435499327641,43.73224859495911],[142.04436433296425,43.730917510520754],[142.0460017254357,43.731432744169986],[142.04895608273392,43.73237157596044],[142.05084366825173,43.73295281136677],[142.05362859002415,43.72832300062147],[142.0555704584985,43.725528477086165],[142.06829486762507,43.72946683987793],[142.06866447629213,43.72881039448294],[142.06904031614994,43.72814288270563],[142.0694511344413,43.72741320801113],[142.06992712519954,43.726567761385894],[142.06739465362804,43.72579429536656],[142.06779383281088,43.72517084519977],[142.068021020785,43.72478396390101],[142.06858198612844,43.723838800590535],[142.06895434261054,43.723202787055534],[142.06855501947976,43.722364533189435],[142.06278405125272,43.721479515744726],[142.06274235718482,43.7208494849857],[142.06286162872976,43.72038668072669],[142.0597742904995,43.71766155277661],[142.0600751820885,43.7171568580328],[142.06053324463355,43.71738275870254],[142.0620521594891,43.71493392018524],[142.0662614086623,43.71291049328424],[142.07062884707827,43.70903966686511],[142.07499158602778,43.7057379212504],[142.07939542789273,43.704113229267584],[142.08058982884748,43.70379856084258],[142.0831743894383,43.704329512902355],[142.0869427161486,43.707861814594175],[142.08843899864365,43.70838715813349],[142.09174190758552,43.708497374212484],[142.0974621147452,43.70691718080042],[142.09986972858866,43.7068147509121],[142.10900535195435,43.7073056539781],[142.11070642433302,43.70768951082384],[142.10639822682734,43.732470528931366],[142.10434258934762,43.74637128889097],[142.09915506172516,43.77693387101811],[142.09496159209527,43.77700239359227],[142.08739166187502,43.77758474340089],[142.07682383218636,43.780883218890594]],[[142.04128846021118,43.742542447219655],[142.03489561353192,43.74051072455651],[142.03075001111918,43.74737047973559],[142.03712459987676,43.749362058577425],[142.03992260803233,43.74485212009461],[142.04128846021118,43.742542447219655]]]},"properties":{"KEY_CODE":"012280210","PREF":"01","CITY":"228","CITY_NAME":"深川市","S_NAME":"字一已","SETAI":"388"}},{"type":"Feature","geometry":{"type":"Polygon","coordinates":[[[142.1339982537283,43.73276875336214],[142.1354907885077,43.73364162774386],[142.13524819119638,43.73491012121447],[142.13300576988058,43.73471634605035],[142.13220346335538,43.73764914935301],[142.12778963337888,43.73731111554931],[142.12836513755576,43.73421630945705],[142.12575659233806,43.733812537030005],[142.12593374692727,43.73241790566169],[142.1292547614359,43.73248121092645],[142.12925418542952,43.73277074083016],[142.1339982537283,43.73276875336214]]]},"properties":{"KEY_CODE":"01228022101","PREF":"01","CITY":"228","CITY_NAME":"深川市","S_NAME":"納内町北","SETAI":"92"}},{"type":"Feature","geometry":{"type":"Polygon","coordinates":[[[142.1308075346754,43.73251500982994],[142.1292547614359,43.73248121092645],[142.12195707990665,43.73219984048405],[142.12217229596084,43.73082362813196],[142.11988139856328,43.730713055517406],[142.12057455048534,43.726651160798426],[142.1285007828685,43.727342364660416],[142.1289381773242,43.72406001617848],[142.1312588397244,43.72337253450617],[142.13207710660993,43.718352502899265],[142.13349642889375,43.719132419766574],[142.13164067676053,43.729420608834886],[142.1308075346754,43.73251500982994]]]},"properties":{"KEY_CODE":"01228022102","PREF":"01","CITY":"228","CITY_NAME":"深川市","S_NAME":"納内町二丁目","SETAI":"145"}},{"type":"Feature","geometry":{"type":"Polygon","coordinates":[[[142.1339982537283,43.73276875336214],[142.12925418542952,43.73277074083016],[142.1292547614359,43.73248121092645],[142.1308075346754,43.73251500982994],[142.13164067676053,43.729420608834886],[142.13349642889375,43.719132419766574],[142.1344117581438,43.71963535748183],[142.1335632489433,43.724482202972816],[142.13531725483242,43.72463058130133],[142.1350765936507,43.726243223844605],[142.14169964915186,43.72688270988069],[142.14331317478963,43.72840593506817],[142.1466397966546,43.72846367055851],[142.14606280523822,43.732535006290206],[142.14078357903222,43.73252538323962],[142.1392308208359,43.73250968270866],[142.1396027964434,43.7301064625706],[142.13613338937128,43.72981580716364],[142.13576394763183,43.73248328850114],[142.1339982537283,43.73276875336214]]]},"properties":{"KEY_CODE":"01228022103","PREF":"01","CITY":"228","CITY_NAME":"深川市","S_NAME":"納内町三丁目","SETAI":"195"}},{"type":"Feature","geometry":{"type":"Polygon","coordinates":[[[142.13576394763183,43.73248328850114],[142.13613338937128,43.72981580716364],[142.1396027964434,43.7301064625706],[142.1392308208359,43.73250968270866],[142.13805195081585,43.73250394368057],[142.13576394763183,43.73248328850114]]]},"properties":{"KEY_CODE":"01228022104","PREF":"01","CITY":"228","CITY_NAME":"深川市","S_NAME":"納内町グリーンタウン","SETAI":"89"}},{"type":"Feature","geometry":{"type":"Polygon","coordinates":[[[142.22395649776382,43.78526455193578],[142.21563343417063,43.785086639052935],[142.2122229775396,43.785257912576526],[142.19959291081085,43.78526747502932],[142.18700335642313,43.78447136370309],[142.183951782294,43.78283212986739],[142.17792652956237,43.78116225506457],[142.17211937829055,43.778196023167716],[142.1682763155374,43.777464179007524],[142.16597776810568,43.7766581151472],[142.16149850893132,43.7759365527081],[142.15610234303986,43.778517831368525],[142.15076997430486,43.77821165959254],[142.1477957180488,43.77852503514337],[142.14006461299442,43.77823053111661],[142.1332701121817,43.7754513455267],[142.1285890069762,43.77668163645072],[142.12513894123285,43.77690761819534],[142.12190211037824,43.774756428438785],[142.1160284988251,43.77290387105584],[142.11059883873355,43.77209300602194],[142.1073664070344,43.772649234368394],[142.1046269261265,43.774283353429325],[142.10296092231755,43.77462598550503],[142.10033903692863,43.77671981444294],[142.09915506172516,43.77693387101811],[142.10434258934762,43.74637128889097],[142.10639822682734,43.732470528931366],[142.11070642433302,43.70768951082384],[142.11152173213284,43.70789462632539],[142.1169294638297,43.70957383605094],[142.12341067705879,43.7121604439567],[142.13480002830727,43.71754375072748],[142.14308394492073,43.72054542300948],[142.14446803907344,43.72174538578398],[142.1427981499844,43.726428956396205],[142.14320586077494,43.72704799839542],[142.14761339153506,43.72720670322677],[142.14919611886765,43.72665387233897],[142.15465094467285,43.72196050128039],[142.15904371657618,43.71986318126812],[142.16495408451144,43.7188559447737],[142.16761609137896,43.714971873210764],[142.1701759577375,43.71421324610761],[142.17461500451003,43.71692289224416],[142.17458550072166,43.71923643239122],[142.17346223887236,43.7211058196675],[142.17081705890666,43.725339381209295],[142.17156114381785,43.72869761312539],[142.17577026348152,43.73089941729737],[142.17951594340818,43.73104228942596],[142.18247338635643,43.730228037377145],[142.19353626602128,43.73137290579002],[142.19590726117931,43.73101288229354],[142.19579838790105,43.73171843977462],[142.19597596133596,43.73218963613723],[142.19624660220015,43.73247019438763],[142.1983816322319,43.73364899690522],[142.19919759945375,43.73431397894899],[142.19952982261208,43.73500957276344],[142.19880782926901,43.73843720073629],[142.19888362359004,43.740146516471754],[142.19904500205047,43.74209205017241],[142.19821986718196,43.74391903763169],[142.1966404196063,43.74487546847983],[142.19594444447856,43.746642337158455],[142.196371901579,43.74779043010503],[142.19656796079806,43.749251173429435],[142.19621449702183,43.75114673504439],[142.19700957984804,43.754484839688445],[142.19752339615493,43.75567844921759],[142.20096269325526,43.75786165296505],[142.2024037379806,43.7586827161561],[142.2035433366545,43.761001542840596],[142.20564420260044,43.76337048607088],[142.20825283165638,43.76396815038787],[142.20982284056964,43.76483267928084],[142.21104088630543,43.76588973030586],[142.21037884005813,43.76773548883486],[142.21144219430872,43.76922755746828],[142.21471184214613,43.77014231710915],[142.2164623191834,43.77110004130756],[142.21882156005165,43.77355582430389],[142.22003144118247,43.77449468205957],[142.22391163323837,43.77374982057147],[142.22427207616622,43.7738990745186],[142.22568780829724,43.77544704056127],[142.22668309224,43.77666546414393],[142.22559197428842,43.77903330474044],[142.225084859197,43.78058081345298],[142.2240108491839,43.78271244609165],[142.22395649776382,43.78526455193578]],[[142.12195707990665,43.73219984048405],[142.12593374692727,43.73241790566169],[142.12575659233806,43.733812537030005],[142.12836513755576,43.73421630945705],[142.12778963337888,43.73731111554931],[142.13220346335538,43.73764914935301],[142.13300576988058,43.73471634605035],[142.13524819119638,43.73491012121447],[142.1354907885077,43.73364162774386],[142.1339982537283,43.73276875336214],[142.13576394763183,43.73248328850114],[142.13805195081585,43.73250394368057],[142.14078357903222,43.73252538323962],[142.14606280523822,43.732535006290206],[142.1466397966546,43.72846367055851],[142.14331317478963,43.72840593506817],[142.14169964915186,43.72688270988069],[142.1350765936507,43.726243223844605],[142.13531725483242,43.72463058130133],[142.1335632489433,43.724482202972816],[142.1344117581438,43.71963535748183],[142.13349642889375,43.719132419766574],[142.13207710660993,43.718352502899265],[142.1312588397244,43.72337253450617],[142.1289381773242,43.72406001617848],[142.1285007828685,43.727342364660416],[142.12057455048534,43.726651160798426],[142.11988139856328,43.730713055517406],[142.12217229596084,43.73082362813196],[142.12195707990665,43.73219984048405]]]},"properties":{"KEY_CODE":"012280222","PREF":"01","CITY":"228","CITY_NAME":"深川市","S_NAME":"字納内","SETAI":"134"}},{"type":"Feature","geometry":{"type":"Polygon","coordinates":[[[142.21036492995313,43.645810634268535],[142.2069608525618,43.64546450207042],[142.2040832169292,43.64336276086719],[142.20133965060631,43.64212936856157],[142.19990958348944,43.64092323038245],[142.1972502334446,43.64263914566054],[142.1964960768596,43.644775143829946],[142.19517665632418,43.64583156313522],[142.19521904342244,43.647793862309626],[142.19441485612154,43.65201465401083],[142.1952403845281,43.65395505719614],[142.19254177776747,43.65580182974257],[142.19244859981347,43.6569186910811],[142.19020280615115,43.65873219263744],[142.1893057549682,43.6612636081941],[142.18803399144554,43.66218767223488],[142.185972579238,43.66565158512714],[142.18434776635206,43.66624951982493],[142.18389088637883,43.667608670937526],[142.18263664555795,43.667919911217844],[142.16840648629508,43.664360417481035],[142.16789596565494,43.66074427872046],[142.1663086681146,43.65985999408102],[142.15234802916208,43.655755363713666],[142.12342708168654,43.639649437589334],[142.12745812258078,43.640861903409004],[142.13352473429342,43.64103350742197],[142.13821815535232,43.64025880067306],[142.13964804688814,43.639199914070126],[142.14494278633853,43.63831966681451],[142.14852322397726,43.63740887048326],[142.15877834856192,43.63641067066881],[142.16307444910692,43.636539757006624],[142.16810266206662,43.63802877534795],[142.1741672440563,43.63853302858668],[142.17941318448337,43.63750026571386],[142.1835070809753,43.637859110083006],[142.18555075250165,43.63919588009183],[142.1906172779726,43.64021982790897],[142.1934484492207,43.64193119840673],[142.1946619771498,43.640590220285866],[142.19973626448385,43.637550146156144],[142.20211680673856,43.635050473319275],[142.20576783018979,43.632488695240845],[142.20667744902198,43.63304549745287],[142.21205675116698,43.63282323150729],[142.21563760565314,43.634108256272654],[142.21918497733975,43.63668248504664],[142.22354387050268,43.63891160071744],[142.22408179048614,43.63965981359447],[142.22930788404287,43.641065718952284],[142.23191995562715,43.64042814536137],[142.23635182866215,43.641043025959206],[142.23837227131756,43.644266495495984],[142.23802994762474,43.64700400752323],[142.23889934497242,43.64919936847898],[142.23848156281716,43.65239598355368],[142.2346109933299,43.651827090987005],[142.22853550431103,43.65050719219671],[142.22607193749846,43.64996587677869],[142.22379069001013,43.64996531602035],[142.2224753616978,43.649529063548194],[142.22084818192724,43.64931894170655],[142.2178479824043,43.64803489723906],[142.21734374392196,43.6478283007455],[142.2160153541517,43.64712641984344],[142.21395649936224,43.64614744400962],[142.21268593476898,43.646186873278154],[142.21121837444736,43.645871957338684],[142.21036492995313,43.645810634268535]]]},"properties":{"KEY_CODE":"012280230","PREF":"01","CITY":"228","CITY_NAME":"深川市","S_NAME":"字菊丘","SETAI":"14"}},{"type":"Feature","geometry":{"type":"Polygon","coordinates":[[[142.17638808692746,43.68268006629256],[142.17155753798139,43.68321454506908],[142.1697226551613,43.68381442081062],[142.16374144998943,43.687738952583835],[142.15284912783127,43.68431184519602],[142.14989433384665,43.68608262607835],[142.13826395959106,43.69506544992541],[142.1382366029673,43.68627661092897],[142.10903035462997,43.676031479780065],[142.1047804878807,43.66681186441156],[142.10678503050408,43.6557362340939],[142.1071380397622,43.65103821485584],[142.10631526939554,43.64923554566983],[142.10430344903688,43.64735704030351],[142.1033757471836,43.64666954938763],[142.1028684218846,43.64622206977714],[142.1030802022766,43.64624388852366],[142.10323518063046,43.64624738676466],[142.10392063508272,43.645458869469586],[142.10421436092804,43.64466989952825],[142.1052242775542,43.64350359641285],[142.10557433728926,43.64300763064265],[142.10587597650877,43.642150833580466],[142.1060475645736,43.641441736328105],[142.10660434198735,43.64045760216105],[142.1067408255936,43.64032780465538],[142.1074529794679,43.63971165699349],[142.10785652597207,43.63934714851379],[142.1083209685051,43.639004369905706],[142.11011218423823,43.638066893933726],[142.11103460033078,43.637351135925044],[142.11244825591876,43.63646026092093],[142.11320958419165,43.636134749764004],[142.11369643586508,43.6359683507328],[142.11807952168016,43.63586872319796],[142.11945599609518,43.637633082806445],[142.12342708168654,43.639649437589334],[142.15234802916208,43.655755363713666],[142.1663086681146,43.65985999408102],[142.16789596565494,43.66074427872046],[142.16840648629508,43.664360417481035],[142.18263664555795,43.667919911217844],[142.18175195546178,43.67021941960408],[142.17998679120947,43.670978833021444],[142.17784325241814,43.67329947719105],[142.17732069881612,43.674904420975786],[142.17796348634124,43.67801426668993],[142.17949984886263,43.678364276904716],[142.1799681650522,43.6795786303988],[142.17761881472418,43.68061589756812],[142.17507477851788,43.68106281887548],[142.17500617884227,43.68207283173451],[142.17638808692746,43.68268006629256]]]},"properties":{"KEY_CODE":"012280240","PREF":"01","CITY":"228","CITY_NAME":"深川市","S_NAME":"字吉住","SETAI":"13"}},{"type":"Feature","geometry":{"type":"Polygon","coordinates":[[[142.11070642433302,43.70768951082384],[142.10900535195435,43.7073056539781],[142.09986972858866,43.7068147509121],[142.0974621147452,43.70691718080042],[142.09174190758552,43.708497374212484],[142.08843899864365,43.70838715813349],[142.0869427161486,43.707861814594175],[142.0831743894383,43.704329512902355],[142.08058982884748,43.70379856084258],[142.08227888581686,43.69913656113548],[142.0834264796339,43.698781222333096],[142.08790096661187,43.70057296578477],[142.09804155817446,43.689939053173525],[142.10903035462997,43.676031479780065],[142.1382366029673,43.68627661092897],[142.13826395959106,43.69506544992541],[142.11213413139072,43.70748169247328],[142.11152173213284,43.70789462632539],[142.11070642433302,43.70768951082384]]]},"properties":{"KEY_CODE":"012280250","PREF":"01","CITY":"228","CITY_NAME":"深川市","S_NAME":"字国見","SETAI":"10"}},{"type":"Feature","geometry":{"type":"Polygon","coordinates":[[[142.17747676837752,43.684940988861925],[142.17871934492106,43.686167632681816],[142.17926068495396,43.68861631353651],[142.17774559916197,43.68978055481929],[142.17788065942827,43.69569070013058],[142.17860792369507,43.69829799016219],[142.17724051152723,43.70022781630695],[142.18118661394118,43.70508472955444],[142.18127188552063,43.707907414763135],[142.17813781602442,43.71072141808983],[142.17899304849942,43.7114098851688],[142.18259317887617,43.71089176587593],[142.18409628036838,43.71259004552601],[142.18258545185222,43.71489807772443],[142.18220874694174,43.7168545422057],[142.1805103495984,43.716226180854825],[142.180838891271,43.71515264326255],[142.1775903686948,43.71419745839447],[142.17441286643154,43.70811571266101],[142.16823375197941,43.707147764030886],[142.15668399969726,43.70565142193396],[142.15388470178695,43.704371119864675],[142.1486996375348,43.70519421683197],[142.14289588181424,43.70468613909212],[142.14038604663537,43.70323821118576],[142.13885857393115,43.701560693987744],[142.13796961859956,43.698144883514374],[142.13826395959106,43.69506544992541],[142.14989433384665,43.68608262607835],[142.15284912783127,43.68431184519602],[142.16374144998943,43.687738952583835],[142.1697226551613,43.68381442081062],[142.17155753798139,43.68321454506908],[142.17638808692746,43.68268006629256],[142.1756926038469,43.68361784225882],[142.17747676837752,43.684940988861925]]]},"properties":{"KEY_CODE":"012280260","PREF":"01","CITY":"228","CITY_NAME":"深川市","S_NAME":"字更進","SETAI":"32"}},{"type":"Feature","geometry":{"type":"Polygon","coordinates":[[[142.07475053338737,43.69676108921954],[142.0729353303431,43.698271612073924],[142.07301235887982,43.69894457465719],[142.0722008097921,43.69971382928944],[142.07143928415968,43.69906180554106],[142.07034292037454,43.698445846210895],[142.0708560294103,43.6970585310516],[142.06914297426334,43.694704055848376],[142.07021365148978,43.69369755267976],[142.06873352702294,43.692777388903586],[142.0693890485829,43.69226512153017],[142.0776747906719,43.697203487671146],[142.08287743909315,43.698645222967876],[142.0834264796339,43.698781222333096],[142.08227888581686,43.69913656113548],[142.0814872430021,43.69933331381368],[142.07735856864144,43.69812932699163],[142.0765316802388,43.69863002803653],[142.07552437671598,43.69723558165609],[142.07475053338737,43.69676108921954]]]},"properties":{"KEY_CODE":"01228027101","PREF":"01","CITY":"228","CITY_NAME":"深川市","S_NAME":"音江町一丁目","SETAI":"202"}},{"type":"Feature","geometry":{"type":"Polygon","coordinates":[[[142.0729354391013,43.69374275699499],[142.07410944741687,43.69414667960577],[142.07771639625219,43.69069633235797],[142.0817580078545,43.692286457507805],[142.07889504138444,43.69554558709229],[142.078416131809,43.69662455635059],[142.08380386696092,43.69806347019538],[142.08287743909315,43.698645222967876],[142.0776747906719,43.697203487671146],[142.0693890485829,43.69226512153017],[142.07032696604705,43.69170857318805],[142.07319356285822,43.69267148767475],[142.0729354391013,43.69374275699499]]]},"properties":{"KEY_CODE":"01228027102","PREF":"01","CITY":"228","CITY_NAME":"深川市","S_NAME":"音江町二丁目","SETAI":"63"}},{"type":"Feature","geometry":{"type":"Polygon","coordinates":[[[142.10903035462997,43.676031479780065],[142.09804155817446,43.689939053173525],[142.08790096661187,43.70057296578477],[142.0834264796339,43.698781222333096],[142.08287743909315,43.698645222967876],[142.08380386696092,43.69806347019538],[142.078416131809,43.69662455635059],[142.07889504138444,43.69554558709229],[142.0817580078545,43.692286457507805],[142.07771639625219,43.69069633235797],[142.07410944741687,43.69414667960577],[142.0729354391013,43.69374275699499],[142.07319356285822,43.69267148767475],[142.07032696604705,43.69170857318805],[142.0693890485829,43.69226512153017],[142.06873352702294,43.692777388903586],[142.07021365148978,43.69369755267976],[142.06914297426334,43.694704055848376],[142.0708560294103,43.6970585310516],[142.07034292037454,43.698445846210895],[142.06198484048434,43.69519689843268],[142.0589057344647,43.69380917253819],[142.05979520716775,43.69299902175058],[142.06103038495013,43.689328312968286],[142.05965459902183,43.68505245097829],[142.06144067423418,43.68210382020052],[142.0616729387945,43.68190551083477],[142.06179938277194,43.68187516447206],[142.0620843193554,43.68166547928791],[142.06249455846302,43.680945920880404],[142.06274282130852,43.68067886078828],[142.06292758935044,43.680511060327056],[142.06346587379667,43.68008399997323],[142.06531357915037,43.678394364064474],[142.0661975380572,43.67619700096964],[142.07166132088184,43.673627016403515],[142.07516882303787,43.668758021917455],[142.07946568331573,43.665995536488204],[142.07955601175925,43.66512799529841],[142.08249801238844,43.66272064892666],[142.08261689874365,43.65787193791828],[142.08949702036173,43.64785182433758],[142.08960726495317,43.647900077449734],[142.09072154188527,43.64786675300536],[142.0914079575201,43.647522460624955],[142.09328886382116,43.64522715936238],[142.09409672565482,43.6447996384443],[142.0942024719854,43.64478047445214],[142.09529725958146,43.644991489531314],[142.09559671672642,43.645306026525965],[142.09628800542305,43.64556738225525],[142.09666184116614,43.64571055883297],[142.098724164505,43.645948251752586],[142.09897132478216,43.64592079080022],[142.09939519673415,43.64602587180505],[142.09983486401916,43.64629725512002],[142.10015218899832,43.646477551769074],[142.10041471809743,43.64652545979303],[142.1006495664992,43.64649467378609],[142.10190065679487,43.64619578683398],[142.10243183104058,43.646177148956504],[142.1028684218846,43.64622206977714],[142.1033757471836,43.64666954938763],[142.10430344903688,43.64735704030351],[142.10631526939554,43.64923554566983],[142.1071380397622,43.65103821485584],[142.10678503050408,43.6557362340939],[142.1047804878807,43.66681186441156],[142.10903035462997,43.676031479780065]]]},"properties":{"KEY_CODE":"012280272","PREF":"01","CITY":"228","CITY_NAME":"深川市","S_NAME":"字音江","SETAI":"76"}},{"type":"Feature","geometry":{"type":"Polygon","coordinates":[[[142.08058982884748,43.70379856084258],[142.07939542789273,43.704113229267584],[142.0781221294744,43.703010241038236],[142.07450069548545,43.70135488549342],[142.07322408310418,43.70060514053837],[142.0722008097921,43.69971382928944],[142.07301235887982,43.69894457465719],[142.0729353303431,43.698271612073924],[142.07475053338737,43.69676108921954],[142.07552437671598,43.69723558165609],[142.0765316802388,43.69863002803653],[142.07735856864144,43.69812932699163],[142.0814872430021,43.69933331381368],[142.08227888581686,43.69913656113548],[142.08058982884748,43.70379856084258]]]},"properties":{"KEY_CODE":"012280272","PREF":"01","CITY":"228","CITY_NAME":"深川市","S_NAME":"字音江","SETAI":"0"}},{"type":"Feature","geometry":{"type":"Polygon","coordinates":[[[142.04795023558228,43.7055016495979],[142.05050168525676,43.70996486771455],[142.04867726632264,43.71128741943703],[142.0461901602573,43.71433039078389],[142.04307963754394,43.713124730368975],[142.0416448502854,43.71176159403149],[142.0388092216033,43.70859880717746],[142.0436987888575,43.7068446913592],[142.0462823008038,43.70632915916927],[142.04707750466878,43.70506972810438],[142.04795023558228,43.7055016495979]]]},"properties":{"KEY_CODE":"01228028101","PREF":"01","CITY":"228","CITY_NAME":"深川市","S_NAME":"広里町一丁目","SETAI":"208"}},{"type":"Feature","geometry":{"type":"Polygon","coordinates":[[[142.05564809075824,43.70726998594843],[142.0519381820722,43.7089826784266],[142.05050168525676,43.70996486771455],[142.04795023558228,43.7055016495979],[142.0511078107961,43.70669005527365],[142.05188560243505,43.70767609926579],[142.05468613260285,43.70576931052034],[142.05564809075824,43.70726998594843]]]},"properties":{"KEY_CODE":"01228028102","PREF":"01","CITY":"228","CITY_NAME":"深川市","S_NAME":"広里町二丁目","SETAI":"75"}},{"type":"Feature","geometry":{"type":"Polygon","coordinates":[[[142.05061399472692,43.71436457553677],[142.0461901602573,43.71433039078389],[142.04867726632264,43.71128741943703],[142.05050168525676,43.70996486771455],[142.0519381820722,43.7089826784266],[142.05416204209956,43.70953387292065],[142.05479481752138,43.714340121705106],[142.05061399472692,43.71436457553677]]]},"properties":{"KEY_CODE":"01228028103","PREF":"01","CITY":"228","CITY_NAME":"深川市","S_NAME":"広里町三丁目","SETAI":"17"}},{"type":"Feature","geometry":{"type":"Polygon","coordinates":[[[142.05798320528746,43.70859693638831],[142.05416204209956,43.70953387292065],[142.0519381820722,43.7089826784266],[142.05564809075824,43.70726998594843],[142.05736737225558,43.70672554387804],[142.05798320528746,43.70859693638831]]]},"properties":{"KEY_CODE":"01228028104","PREF":"01","CITY":"228","CITY_NAME":"深川市","S_NAME":"広里町四丁目","SETAI":"14"}},{"type":"Feature","geometry":{"type":"Polygon","coordinates":[[[142.05736737225558,43.70672554387804],[142.06164874661593,43.70524742052878],[142.06254030773664,43.70749607215391],[142.05798320528746,43.70859693638831],[142.05736737225558,43.70672554387804]]]},"properties":{"KEY_CODE":"01228028105","PREF":"01","CITY":"228","CITY_NAME":"深川市","S_NAME":"広里町五丁目","SETAI":"19"}},{"type":"Feature","geometry":{"type":"Polygon","coordinates":[[[142.07939542789273,43.704113229267584],[142.07499158602778,43.7057379212504],[142.07062884707827,43.70903966686511],[142.0662614086623,43.71291049328424],[142.0620521594891,43.71493392018524],[142.06053324463355,43.71738275870254],[142.0600751820885,43.7171568580328],[142.0563310235522,43.71466560806198],[142.05479481752138,43.714340121705106],[142.05416204209956,43.70953387292065],[142.05798320528746,43.70859693638831],[142.06254030773664,43.70749607215391],[142.06164874661593,43.70524742052878],[142.05736737225558,43.70672554387804],[142.05564809075824,43.70726998594843],[142.05468613260285,43.70576931052034],[142.05188560243505,43.70767609926579],[142.0511078107961,43.70669005527365],[142.04795023558228,43.7055016495979],[142.04707750466878,43.70506972810438],[142.0462823008038,43.70632915916927],[142.0436987888575,43.7068446913592],[142.0388092216033,43.70859880717746],[142.03718156311726,43.70406326079232],[142.0360961689448,43.70145091895188],[142.03430194019955,43.698724164011004],[142.03439304491016,43.69617946399748],[142.03370448403786,43.6925756238963],[142.03143711248958,43.68979505333698],[142.02955297836488,43.68646701882884],[142.0305213610786,43.68339133906648],[142.0342764071955,43.680414128192155],[142.03614977853013,43.68011290383647],[142.04593490070633,43.684335722708425],[142.05054048218756,43.687674120737604],[142.05572242437543,43.691440151557934],[142.0589057344647,43.69380917253819],[142.06198484048434,43.69519689843268],[142.07034292037454,43.698445846210895],[142.07143928415968,43.69906180554106],[142.07322408310418,43.70060514053837],[142.07450069548545,43.70135488549342],[142.0781221294744,43.703010241038236],[142.07939542789273,43.704113229267584]]]},"properties":{"KEY_CODE":"012280282","PREF":"01","CITY":"228","CITY_NAME":"深川市","S_NAME":"字広里","SETAI":"111"}},{"type":"Feature","geometry":{"type":"Polygon","coordinates":[[[142.04720635530788,43.634246452672464],[142.04998962757753,43.631335380617784],[142.05408838396377,43.63077879015294],[142.06062332216214,43.63126549830699],[142.06364644322377,43.63102625164252],[142.0666507033441,43.63180465756211],[142.07023065587674,43.63340090603933],[142.0715499768994,43.63452342022658],[142.0765038044141,43.636947620378166],[142.07892664902954,43.63899362979507],[142.08203095522276,43.64011409731738],[142.08338821652578,43.641282172506074],[142.0839530383958,43.64216316026297],[142.08391580363798,43.64220354419849],[142.08337296718935,43.64247531109482],[142.0830252455458,43.64275786681278],[142.08260966224157,43.642959766603525],[142.08222418379103,43.64328934809392],[142.08229411085722,43.64356026740695],[142.08240440257035,43.643775655357395],[142.08291498463882,43.64439334665482],[142.08335593698794,43.644634666097566],[142.08466410267334,43.644820175554536],[142.0854006919232,43.6450995537123],[142.08571019319973,43.6452808273605],[142.08652039687317,43.64591870999607],[142.08706379814626,43.646419613111185],[142.08771479297903,43.64694517098293],[142.08927041136016,43.64775267281529],[142.08949702036173,43.64785182433758],[142.08261689874365,43.65787193791828],[142.08249801238844,43.66272064892666],[142.07955601175925,43.66512799529841],[142.07946568331573,43.665995536488204],[142.07516882303787,43.668758021917455],[142.07166132088184,43.673627016403515],[142.0661975380572,43.67619700096964],[142.06531357915037,43.678394364064474],[142.06346587379667,43.68008399997323],[142.06292758935044,43.680511060327056],[142.06274282130852,43.68067886078828],[142.06249455846302,43.680945920880404],[142.0620843193554,43.68166547928791],[142.06179938277194,43.68187516447206],[142.0616729387945,43.68190551083477],[142.06144067423418,43.68210382020052],[142.05965459902183,43.68505245097829],[142.06103038495013,43.689328312968286],[142.05979520716775,43.69299902175058],[142.0589057344647,43.69380917253819],[142.05572242437543,43.691440151557934],[142.05054048218756,43.687674120737604],[142.04593490070633,43.684335722708425],[142.03614977853013,43.68011290383647],[142.03854097862052,43.67915126792506],[142.04153701354969,43.67660855344286],[142.04489475615998,43.671692905108294],[142.04775465697557,43.67053265697566],[142.0480845085687,43.66869513375301],[142.04530310966462,43.66634344207487],[142.04524248303892,43.66460177323695],[142.046531600135,43.65706805466822],[142.04614490379527,43.656037215105606],[142.04689660970317,43.65400404693946],[142.04720635530788,43.634246452672464]]]},"properties":{"KEY_CODE":"012280290","PREF":"01","CITY":"228","CITY_NAME":"深川市","S_NAME":"字豊泉","SETAI":"72"}},{"type":"Feature","geometry":{"type":"Polygon","coordinates":[[[142.04720635530788,43.634246452672464],[142.04689660970317,43.65400404693946],[142.04614490379527,43.656037215105606],[142.046531600135,43.65706805466822],[142.04524248303892,43.66460177323695],[142.04530310966462,43.66634344207487],[142.0480845085687,43.66869513375301],[142.04775465697557,43.67053265697566],[142.04489475615998,43.671692905108294],[142.04153701354969,43.67660855344286],[142.03854097862052,43.67915126792506],[142.03614977853013,43.68011290383647],[142.0342764071955,43.680414128192155],[142.0305213610786,43.68339133906648],[142.02955297836488,43.68646701882884],[142.02636592175188,43.68166802819221],[142.02063989515844,43.67865825755153],[142.01796818019886,43.677580727069326],[142.0147364053535,43.67454854814196],[142.01134239862856,43.67409129218422],[142.00912613455498,43.674899302188116],[142.00367167946158,43.67827943939276],[142.00170686652388,43.6756948222443],[142.00203799307855,43.674635230984975],[142.0015877145785,43.66491724480018],[142.0068895531394,43.65836467700025],[142.00893318109877,43.65543349588204],[142.015540580037,43.63792753063184],[142.01876971284995,43.6368619969265],[142.01931974132128,43.63604118222526],[142.02213406690257,43.63569090197643],[142.0237045724945,43.634967671430836],[142.02836768989266,43.634837540473264],[142.02942270340543,43.63545457845245],[142.03105636283823,43.635064029421116],[142.03507550292713,43.635779054282196],[142.0367948109804,43.635153527498375],[142.03945753830845,43.63563082635172],[142.0448162459781,43.63561423695236],[142.04720635530788,43.634246452672464]]]},"properties":{"KEY_CODE":"012280300","PREF":"01","CITY":"228","CITY_NAME":"深川市","S_NAME":"字向陽","SETAI":"49"}},{"type":"Feature","geometry":{"type":"Polygon","coordinates":[[[142.00367167946158,43.67827943939276],[141.99590922479828,43.679010244768506],[141.99001072963594,43.68023694702321],[141.9862421617758,43.68004134709212],[141.9844163368337,43.67920534339371],[141.97907518480585,43.67802146195931],[141.97770732178836,43.677276798197205],[141.97412802646414,43.675792924115484],[141.97015348194142,43.67249830397996],[141.96572713943715,43.67149159076075],[141.96202835098597,43.668891600617606],[141.9650043777789,43.6682198415631],[141.96723574963625,43.66721084135086],[141.9697010527206,43.66682144969253],[141.9728948739873,43.66768894755547],[141.97458206314488,43.666523790655795],[141.97397673525572,43.664218211229596],[141.97491030737908,43.66207108548611],[141.97661214088814,43.66024389106713],[141.98230887500517,43.657471808646115],[141.98348565013782,43.6564686493843],[141.98777700730636,43.65541251129642],[141.9897709627108,43.654351005792556],[141.9917349877667,43.65473372155105],[141.99337130220977,43.65422157348275],[142.00001030811046,43.6497223481543],[142.00243796503136,43.64929984272107],[142.00450575351152,43.647882592686045],[142.00866053380727,43.64017873627175],[142.01048704135894,43.638376777322705],[142.01287845074916,43.637516544922306],[142.015540580037,43.63792753063184],[142.00893318109877,43.65543349588204],[142.0068895531394,43.65836467700025],[142.0015877145785,43.66491724480018],[142.00203799307855,43.674635230984975],[142.00170686652388,43.6756948222443],[142.00367167946158,43.67827943939276]]]},"properties":{"KEY_CODE":"012280310","PREF":"01","CITY":"228","CITY_NAME":"深川市","S_NAME":"字稲田","SETAI":"65"}},{"type":"Feature","geometry":{"type":"Polygon","coordinates":[[[142.17346223887236,43.7211058196675],[142.17458550072166,43.71923643239122],[142.17461500451003,43.71692289224416],[142.1701759577375,43.71421324610761],[142.16761609137896,43.714971873210764],[142.16495408451144,43.7188559447737],[142.15904371657618,43.71986318126812],[142.15465094467285,43.72196050128039],[142.14919611886765,43.72665387233897],[142.14761339153506,43.72720670322677],[142.14320586077494,43.72704799839542],[142.1427981499844,43.726428956396205],[142.14446803907344,43.72174538578398],[142.14308394492073,43.72054542300948],[142.13480002830727,43.71754375072748],[142.12341067705879,43.7121604439567],[142.1169294638297,43.70957383605094],[142.11152173213284,43.70789462632539],[142.11213413139072,43.70748169247328],[142.13826395959106,43.69506544992541],[142.13796961859956,43.698144883514374],[142.13885857393115,43.701560693987744],[142.14038604663537,43.70323821118576],[142.14289588181424,43.70468613909212],[142.1486996375348,43.70519421683197],[142.15388470178695,43.704371119864675],[142.15668399969726,43.70565142193396],[142.16823375197941,43.707147764030886],[142.17441286643154,43.70811571266101],[142.1775903686948,43.71419745839447],[142.17847033832098,43.71631666668448],[142.17883925945299,43.71974718787371],[142.1776375956299,43.72139127719329],[142.17346223887236,43.7211058196675]]]},"properties":{"KEY_CODE":"012280320","PREF":"01","CITY":"228","CITY_NAME":"深川市","S_NAME":"字内園","SETAI":"40"}},{"type":"Feature","geometry":{"type":"Polygon","coordinates":[[[142.0789352293626,43.808620099452185],[142.0784820995953,43.81033084598606],[142.0733240188251,43.817603215592676],[142.06663520430416,43.820993669789836],[142.06457542023372,43.822531399201544],[142.06464652512074,43.82327547534178],[142.0627335747422,43.824760281352596],[142.0557582694561,43.82549261920721],[142.05304331088442,43.82522229469362],[142.04959011352113,43.82716719345992],[142.04496640498226,43.825412736975565],[142.04294179449633,43.82505341158788],[142.03995550472965,43.82558300249378],[142.04042397780458,43.823605745895236],[142.03641940878853,43.82518609005967],[142.03490208007997,43.82218507512817],[142.03130122931424,43.82028510976188],[142.0283874128596,43.81983914414265],[142.02134437955536,43.8205391253286],[142.0144182043167,43.81996306126293],[142.01338702315635,43.8195909259647],[142.01208997263038,43.818227002646076],[142.01459839885607,43.81320059449152],[142.01468668528744,43.81027998332721],[142.01331431369962,43.80556414527463],[142.01445549865664,43.805580655410985],[142.01581455036097,43.80700421149872],[142.01942330955507,43.80563719163464],[142.02342516051485,43.803717612830035],[142.02481165845046,43.80386003255675],[142.02680528193898,43.80536022106723],[142.03105201147622,43.804879867994714],[142.03406970689394,43.80651823199772],[142.0371261911899,43.80669642763662],[142.04264141125384,43.807584185656324],[142.04811741486415,43.80665264761624],[142.04996924200665,43.80522887426106],[142.05152555922152,43.805090690258176],[142.05291872067042,43.80587159369081],[142.05931747972568,43.80511741919186],[142.06136900854094,43.80452036448495],[142.0642920560848,43.80209045953038],[142.0678399062492,43.80161001792575],[142.06912012579298,43.8000600256273],[142.07287052042005,43.79866729349557],[142.0789352293626,43.808620099452185]]]},"properties":{"KEY_CODE":"012280340","PREF":"01","CITY":"228","CITY_NAME":"深川市","S_NAME":"多度志","SETAI":"171"}},{"type":"Feature","geometry":{"type":"Polygon","coordinates":[[[142.07287052042005,43.79866729349557],[142.06912012579298,43.8000600256273],[142.0678399062492,43.80161001792575],[142.0642920560848,43.80209045953038],[142.06136900854094,43.80452036448495],[142.05931747972568,43.80511741919186],[142.05291872067042,43.80587159369081],[142.05152555922152,43.805090690258176],[142.04996924200665,43.80522887426106],[142.04811741486415,43.80665264761624],[142.04264141125384,43.807584185656324],[142.0371261911899,43.80669642763662],[142.03406970689394,43.80651823199772],[142.03105201147622,43.804879867994714],[142.02680528193898,43.80536022106723],[142.02481165845046,43.80386003255675],[142.02342516051485,43.803717612830035],[142.01942330955507,43.80563719163464],[142.01581455036097,43.80700421149872],[142.01445549865664,43.805580655410985],[142.01331431369962,43.80556414527463],[142.01226182874942,43.80130459378191],[142.0096693246625,43.797720146542304],[142.01127123994786,43.79734383764435],[142.00727788336224,43.77932357737651],[142.011564437154,43.77882377715475],[142.032703096517,43.78206334307518],[142.03900740761247,43.78240741464809],[142.04107320340353,43.781788268846825],[142.0513958772763,43.78039466575436],[142.06257376845014,43.78258583758533],[142.0711399957981,43.78269234332446],[142.07682383218636,43.780883218890594],[142.07872171350763,43.7840134229438],[142.0802419942485,43.78471932001528],[142.08566995299972,43.78467416484351],[142.0880877311737,43.78568728903699],[142.08979891245684,43.78909464131271],[142.09130918290742,43.7901057224261],[142.08880757938482,43.79078987206458],[142.08843396748597,43.793340124016666],[142.0854251088795,43.79376096376739],[142.08277153257967,43.796907116550145],[142.08145713613015,43.79609338001315],[142.07793266608272,43.797150923699114],[142.07631589037433,43.79810501607004],[142.07455573383325,43.79788974174447],[142.07287052042005,43.79866729349557]]]},"properties":{"KEY_CODE":"012280350","PREF":"01","CITY":"228","CITY_NAME":"深川市","S_NAME":"多度志南","SETAI":"8"}},{"type":"Feature","geometry":{"type":"Polygon","coordinates":[[[142.21782561687917,43.85077913863062],[142.21922202890374,43.85286596031428],[142.21961287243306,43.85329369067218],[142.22015085337353,43.85502848533397],[142.22031724382467,43.856038986421275],[142.2167285711216,43.85941071885066],[142.21537732045073,43.86172433068772],[142.21488252450598,43.86282990301132],[142.21541014928545,43.86397606094227],[142.2154938002437,43.86416709592617],[142.21546146507004,43.86434876943841],[142.2147361995485,43.86501704931279],[142.21362640650528,43.86570192073891],[142.20959814068266,43.866718160157134],[142.20599570634278,43.86305906176863],[142.19929551770355,43.85848576303679],[142.19362644479665,43.85512515673155],[142.187799567538,43.85266733930537],[142.1833385183006,43.85171152372862],[142.1824048782025,43.850603927923935],[142.17904748560994,43.850909411620776],[142.17900735150883,43.848910529561685],[142.17607708288043,43.84749410363829],[142.1739951767342,43.84733898727617],[142.17374311356045,43.84506322127157],[142.170939777261,43.84429252729278],[142.16699090863017,43.84241389381443],[142.16644076584498,43.84084515547348],[142.16385178885704,43.83896738358972],[142.16138884225992,43.83816596762588],[142.15998611058043,43.83865689072218],[142.1538267718718,43.8380675951065],[142.1508501187965,43.839725630645866],[142.1494065953682,43.83914008967171],[142.14609228840544,43.83941389180225],[142.1427807335172,43.83815002855564],[142.140065785595,43.83596408144533],[142.1375272753202,43.830426309734314],[142.13457132458592,43.82835707280068],[142.13327407739843,43.822037309797736],[142.1241067642369,43.81873287959719],[142.11772837457397,43.815749886271895],[142.11228727986727,43.82031357223568],[142.11009381844252,43.816750532574545],[142.1057722573553,43.813291088812214],[142.10225327405686,43.81190498774129],[142.09843838229997,43.8115280477553],[142.09920890187664,43.806903365041165],[142.08985774147058,43.80611493755356],[142.0872779240423,43.80669439454566],[142.0835188563898,43.8084412800565],[142.0789352293626,43.808620099452185],[142.07287052042005,43.79866729349557],[142.07455573383325,43.79788974174447],[142.07631589037433,43.79810501607004],[142.07793266608272,43.797150923699114],[142.08145713613015,43.79609338001315],[142.08277153257967,43.796907116550145],[142.0854251088795,43.79376096376739],[142.08843396748597,43.793340124016666],[142.08880757938482,43.79078987206458],[142.09130918290742,43.7901057224261],[142.08979891245684,43.78909464131271],[142.0880877311737,43.78568728903699],[142.08566995299972,43.78467416484351],[142.0802419942485,43.78471932001528],[142.07872171350763,43.7840134229438],[142.07682383218636,43.780883218890594],[142.08739166187502,43.77758474340089],[142.09496159209527,43.77700239359227],[142.09915506172516,43.77693387101811],[142.10033903692863,43.77671981444294],[142.10296092231755,43.77462598550503],[142.1046269261265,43.774283353429325],[142.1073664070344,43.772649234368394],[142.11059883873355,43.77209300602194],[142.1160284988251,43.77290387105584],[142.12190211037824,43.774756428438785],[142.12513894123285,43.77690761819534],[142.1285890069762,43.77668163645072],[142.1332701121817,43.7754513455267],[142.14006461299442,43.77823053111661],[142.1477957180488,43.77852503514337],[142.15076997430486,43.77821165959254],[142.15610234303986,43.778517831368525],[142.16149850893132,43.7759365527081],[142.16597776810568,43.7766581151472],[142.1682763155374,43.777464179007524],[142.17211937829055,43.778196023167716],[142.17792652956237,43.78116225506457],[142.183951782294,43.78283212986739],[142.18700335642313,43.78447136370309],[142.19959291081085,43.78526747502932],[142.2122229775396,43.785257912576526],[142.21563343417063,43.785086639052935],[142.22395649776382,43.78526455193578],[142.22360581468394,43.786174316552454],[142.22186201676874,43.788156614990804],[142.22280600156,43.78912646122301],[142.22494337022485,43.79037625951224],[142.22617913911677,43.791967672156986],[142.22611875086605,43.79268243883703],[142.22704546212057,43.79434836625228],[142.22771474884144,43.79562887896122],[142.22972399054984,43.795952456512225],[142.23383661899578,43.79804773339158],[142.23727147194654,43.7983216598453],[142.23997635999004,43.79907399370874],[142.24011373757023,43.799185887958274],[142.23868789295906,43.80091365405824],[142.23891098312103,43.80189570000712],[142.23733886909207,43.80446252052933],[142.23703780098776,43.806755962804885],[142.23792209456363,43.8083161502163],[142.23586058663554,43.809322782061145],[142.2351734576329,43.809434566507214],[142.23345570510773,43.809372146199905],[142.2317376567434,43.81020474552837],[142.2301138428362,43.81166510034084],[142.23014781888483,43.81282117904484],[142.22903903749915,43.81495288134703],[142.2280595858765,43.81554936876879],[142.22677085660655,43.81622037536849],[142.22523262055418,43.817817405342616],[142.22301552189327,43.81974366538821],[142.2210621653188,43.82117698757345],[142.22092854393338,43.82152181021679],[142.2205942230927,43.82289427621517],[142.2197018860183,43.82486321682576],[142.2195300515143,43.825318396707225],[142.21920581603555,43.82549071885219],[142.21834769805366,43.825669817523845],[142.21800437978717,43.825849056769435],[142.21576296502946,43.827614092383044],[142.21387859114657,43.83010684240889],[142.2140166296572,43.830482787477294],[142.21527891963652,43.832376455715654],[142.21558363142776,43.83312145843226],[142.21657946939536,43.834201166611074],[142.21648387129818,43.834656361154224],[142.21299792907146,43.83616231712547],[142.21089973357462,43.83684444094558],[142.21018463607567,43.836747640718926],[142.20865338859008,43.83798516373674],[142.2092251699535,43.83855095255792],[142.2095194089711,43.840709907425456],[142.21088263547102,43.8414621820732],[142.21283184808127,43.84317683418672],[142.21522874567734,43.84627103043374],[142.2164777784941,43.84697492203174],[142.2166398325818,43.84715430728571],[142.21724475535544,43.84867532585695],[142.21782561687917,43.85077913863062]]]},"properties":{"KEY_CODE":"012280370","PREF":"01","CITY":"228","CITY_NAME":"深川市","S_NAME":"湯内","SETAI":"14"}},{"type":"Feature","geometry":{"type":"Polygon","coordinates":[[[142.08151209894572,43.835008082983684],[142.07895276434797,43.83534336293708],[142.0769979264729,43.83622933937896],[142.07303308633246,43.83734469160231],[142.07033576818426,43.83785639661604],[142.06944400230324,43.8381843850406],[142.06710281464592,43.83939172269665],[142.0655554599181,43.83988563696075],[142.0596204157278,43.84123269862538],[142.0590400185198,43.84098922938628],[142.05733062697936,43.8400744040066],[142.04852214519772,43.83642008331],[142.0440820973374,43.83377153216499],[142.03910477818843,43.83200306642223],[142.0379146785497,43.83038609604022],[142.03641940878853,43.82518609005967],[142.04042397780458,43.823605745895236],[142.03995550472965,43.82558300249378],[142.04294179449633,43.82505341158788],[142.04496640498226,43.825412736975565],[142.04959011352113,43.82716719345992],[142.05304331088442,43.82522229469362],[142.0557582694561,43.82549261920721],[142.0627335747422,43.824760281352596],[142.06464652512074,43.82327547534178],[142.06457542023372,43.822531399201544],[142.06663520430416,43.820993669789836],[142.0733240188251,43.817603215592676],[142.0784820995953,43.81033084598606],[142.0789352293626,43.808620099452185],[142.0835188563898,43.8084412800565],[142.0872779240423,43.80669439454566],[142.08985774147058,43.80611493755356],[142.09920890187664,43.806903365041165],[142.09843838229997,43.8115280477553],[142.10225327405686,43.81190498774129],[142.1057722573553,43.813291088812214],[142.11009381844252,43.816750532574545],[142.11228727986727,43.82031357223568],[142.11772837457397,43.815749886271895],[142.1241067642369,43.81873287959719],[142.13327407739843,43.822037309797736],[142.13457132458592,43.82835707280068],[142.13398109092773,43.8323434959182],[142.13276825482293,43.835812667789206],[142.13098549796734,43.837687920303054],[142.12869135703747,43.83890778917665],[142.11923081039325,43.83548876906957],[142.1152588609081,43.836949971061784],[142.10761422300345,43.841032543325504],[142.10116355389002,43.83698575858516],[142.09889525541013,43.836292661078446],[142.09857588271274,43.83571845798292],[142.09783074899227,43.834762039978706],[142.09744966410662,43.83449994126766],[142.0963317597041,43.83429016496203],[142.0935525147015,43.83552411265441],[142.09269948577725,43.83645789721783],[142.0900541108078,43.83766287415947],[142.0883763009147,43.837687170656245],[142.0846972451015,43.83601064019545],[142.08378128077769,43.83544254678473],[142.08254995110715,43.83509195570069],[142.08151209894572,43.835008082983684]]]},"properties":{"KEY_CODE":"012280380","PREF":"01","CITY":"228","CITY_NAME":"深川市","S_NAME":"宇摩","SETAI":"17"}},{"type":"Feature","geometry":{"type":"Polygon","coordinates":[[[142.10113812304564,43.866597793331294],[142.08313960426213,43.870661601357085],[142.08276808647818,43.86993170672828],[142.08323789130858,43.869315368645545],[142.08480538250632,43.8683655411263],[142.0856664611826,43.86729524918947],[142.08555816632537,43.86663160136307],[142.08440934095495,43.86555842039064],[142.08406176135813,43.865139923163326],[142.08219641315114,43.8627088173213],[142.0821129418782,43.86139167401894],[142.08169834695155,43.86034606560878],[142.08153444881964,43.85989464254171],[142.08110445018394,43.859436205086816],[142.08105000681275,43.85921717067728],[142.0820856828725,43.85804101390639],[142.08209533540906,43.85787514954259],[142.08202816594417,43.85728786085596],[142.08211141718004,43.85704912908106],[142.08174510558166,43.856789823284025],[142.07993960277844,43.856024114001],[142.07919386838702,43.85528984553866],[142.0784799922704,43.8546518186235],[142.0781088783669,43.85447543852422],[142.07727541447503,43.853950000148615],[142.07754326173657,43.85334664810969],[142.07713646502447,43.85282517948713],[142.07662504277835,43.85199503702011],[142.0762296880244,43.85069731724424],[142.07566269663786,43.850059519768635],[142.07532127457898,43.849153337290275],[142.0743663502976,43.84784147656919],[142.0739611967996,43.846782578367694],[142.072001215728,43.84410236972933],[142.07135089183421,43.843749697368274],[142.07063514866496,43.84380166304763],[142.07035522244814,43.84383770024879],[142.06840119750453,43.843808072544185],[142.06764223871625,43.84298414956194],[142.06738338850275,43.84212451167003],[142.06723342248927,43.84166314793808],[142.06652972602308,43.84077958811083],[142.06563263285852,43.84014784405015],[142.0655554599181,43.83988563696075],[142.06710281464592,43.83939172269665],[142.06944400230324,43.8381843850406],[142.07033576818426,43.83785639661604],[142.07303308633246,43.83734469160231],[142.0769979264729,43.83622933937896],[142.07895276434797,43.835343362937095],[142.08151209894572,43.835008082983684],[142.08254995110715,43.83509195570069],[142.08378128077769,43.83544254678473],[142.0846972451015,43.83601064019545],[142.0883763009147,43.837687170656245],[142.0900541108078,43.83766287415947],[142.09269948577725,43.83645789721783],[142.0935525147015,43.83552411265441],[142.0963317597041,43.83429016496203],[142.09744966410662,43.83449994126766],[142.09783074899227,43.834762039978706],[142.09857588271274,43.83571845798292],[142.09889525541013,43.836292661078446],[142.09880128501123,43.84213726520487],[142.09549275858325,43.84393962570007],[142.09401698631095,43.84675402775297],[142.09422905656677,43.849889574608376],[142.09488243447558,43.85276001094258],[142.09523993192963,43.85648028668343],[142.09589508664234,43.8587130438641],[142.09750394184957,43.86137217415257],[142.10035884688023,43.86509568939247],[142.10113812304564,43.866597793331294]]]},"properties":{"KEY_CODE":"012280390","PREF":"01","CITY":"228","CITY_NAME":"深川市","S_NAME":"ウッカ","SETAI":"10"}},{"type":"Feature","geometry":{"type":"Polygon","coordinates":[[[142.1591060094117,43.87548621212507],[142.15927182694597,43.877038496520484],[142.1603980596887,43.879795953323764],[142.15974186128312,43.88175470035921],[142.15948957279505,43.88301545614674],[142.15904548652364,43.88382664188417],[142.15857556661624,43.88468560680175],[142.15841320013791,43.88597187003124],[142.12796432350962,43.884661833319214],[142.1300379950054,43.87759936873803],[142.12253740981825,43.87607415519515],[142.1198089850818,43.876296656908664],[142.1145565782336,43.87576846069041],[142.11094939131493,43.87362129969996],[142.10938134093252,43.87319123299043],[142.1067830860614,43.873390621801164],[142.10321062524596,43.87492121619455],[142.09929795589778,43.871810778509186],[142.09906563661676,43.870676213731315],[142.10113812304564,43.866597793331294],[142.10035884688023,43.86509568939247],[142.09750394184957,43.86137217415257],[142.09589508664234,43.85871304386414],[142.09523993192963,43.85648028668343],[142.09488243447558,43.85276001094258],[142.09422905656677,43.849889574608376],[142.09401698631095,43.84675402775297],[142.09549275858325,43.84393962570007],[142.09880128501123,43.84213726520487],[142.09889525541013,43.836292661078446],[142.10116355389002,43.83698575858516],[142.10761422300345,43.841032543325504],[142.1152588609081,43.836949971061784],[142.11923081039325,43.83548876906957],[142.12869135703747,43.83890778917665],[142.13098549796734,43.837687920303054],[142.13276825482293,43.835812667789206],[142.13398109092773,43.8323434959182],[142.13457132458592,43.82835707280068],[142.1375272753202,43.830426309734314],[142.140065785595,43.83596408144533],[142.1427807335172,43.83815002855564],[142.14609228840544,43.83941389180225],[142.1494065953682,43.83914008967171],[142.1508501187965,43.839725630645866],[142.1538267718718,43.8380675951065],[142.15998611058043,43.83865689072218],[142.16138884225992,43.83816596762588],[142.16385178885704,43.83896738358972],[142.16644076584498,43.84084515547348],[142.16699090863017,43.84241389381443],[142.170939777261,43.84429252729278],[142.17374311356045,43.84506322127157],[142.1739951767342,43.84733898727617],[142.17607708288043,43.84749410363829],[142.17900735150883,43.848910529561685],[142.17904748560994,43.850909411620776],[142.1824048782025,43.850603927923935],[142.1833385183006,43.85171152372862],[142.187799567538,43.85266733930537],[142.19362644479665,43.85512515673155],[142.19929551770355,43.85848576303679],[142.20599570634278,43.86305906176863],[142.20959814068266,43.866718160157134],[142.20736036185562,43.86717839080046],[142.20553722746726,43.8677076579321],[142.20486934509267,43.86774878802998],[142.20444968053854,43.86758308496817],[142.2036822331869,43.86684822099547],[142.2019369552803,43.86604742320521],[142.20069677489644,43.86595033484891],[142.2002769671602,43.86598463546691],[142.19741895634016,43.86668342121056],[142.1950912277997,43.86650989674265],[142.19344554123273,43.86645736091593],[142.19267262863278,43.866601807529136],[142.1912027588129,43.86724249517063],[142.19058268158335,43.867180097566184],[142.18985317651735,43.86683829977261],[142.1880881057285,43.86691322847572],[142.18364203620723,43.86834273103753],[142.17908260912677,43.87089470791193],[142.17570989224848,43.87100926825372],[142.17299472680196,43.86967517442755],[142.17177525908787,43.86911454554876],[142.170468967747,43.86915887471091],[142.1701442412842,43.869240632833844],[142.16917362446262,43.869765823572195],[142.16795298388246,43.87007595228728],[142.16554184226948,43.87147650855605],[142.16352217461332,43.872566306560415],[142.16155761324524,43.87336773403216],[142.16134609689212,43.873576780265346],[142.15977975856788,43.8748195210807],[142.15912195666004,43.87528832741964],[142.1591060094117,43.87548621212507]]]},"properties":{"KEY_CODE":"012280410","PREF":"01","CITY":"228","CITY_NAME":"深川市","S_NAME":"幌内","SETAI":"23"}},{"type":"Feature","geometry":{"type":"Polygon","coordinates":[[[142.09788193148347,44.03908401780047],[142.09562437055328,44.04118469842341],[142.0963848949625,44.042806555073334],[142.09500893794618,44.04462683355674],[142.09144946839945,44.04524788424304],[142.09035010314557,44.04601605359737],[142.0863950021994,44.04681180586389],[142.08034908398497,44.047074285463566],[142.07782240808797,44.048294537837386],[142.07566475811072,44.047918422689584],[142.0733935192201,44.049517577995786],[142.0682357000796,44.04825858265135],[142.06623406247297,44.04842970576935],[142.06545502052813,44.04790391661887],[142.06432684888895,44.04722384506523],[142.063392409815,44.046483849782824],[142.05916556779763,44.044564153106606],[142.05800854778056,44.041966474440024],[142.05796651726254,44.041364215731235],[142.05875618253592,44.039906031090666],[142.058822862094,44.0396811085994],[142.0587375006881,44.03956211297192],[142.05839548021768,44.039257282811995],[142.05821214651786,44.03883861075319],[142.05818117447623,44.03821577825729],[142.0581412808625,44.03763094945084],[142.05791635392248,44.0371599208732],[142.05816736593266,44.03704623968572],[142.05836106530745,44.03697683365436],[142.0589059998196,44.0357068099994],[142.0601125538691,44.03378499940905],[142.06051372267942,44.03345604568323],[142.0606375722096,44.03322488095713],[142.06058917224757,44.03254496617888],[142.061111686496,44.032078346849154],[142.06134969314525,44.03189491088209],[142.06158143540412,44.03160846124897],[142.06147724184382,44.03118992983085],[142.06133705155548,44.03102805663453],[142.06084321299178,44.0307784477094],[142.05984000115274,44.030321973652015],[142.05901909827455,44.029921255413406],[142.05847366571163,44.02931340706152],[142.05823190197304,44.02929715249713],[142.05751749277925,44.029281698728546],[142.05724072013373,44.02921150587409],[142.05542162261585,44.02751597047737],[142.0567665708448,44.026285345942796],[142.058239780489,44.02548436990692],[142.05849621882982,44.02503157061006],[142.0584486535005,44.024787447898916],[142.0571807264428,44.02398029178335],[142.05578800391748,44.023025527408706],[142.0562654486113,44.02221180144127],[142.05640267018995,44.02192361789844],[142.05644137641252,44.02151324241867],[142.05599011852283,44.021037065405906],[142.05481177001232,44.02042812110528],[142.0545445335616,44.02014558459388],[142.0545229964935,44.02001242758658],[142.05483823929825,44.01972930756405],[142.05468501961923,44.019535713725084],[142.05382719311487,44.01905407728217],[142.0537003613047,44.01885735753647],[142.0537449590499,44.01866092049175],[142.05420131443353,44.0182449220568],[142.05601025218343,44.01756340362424],[142.05607693285964,44.01666497030449],[142.05622283469654,44.01640532955647],[142.056918914393,44.015931084639476],[142.05760619872493,44.01545048190414],[142.05768613256413,44.01520023277371],[142.057548000999,44.014423479442975],[142.05756910405827,44.01401623877574],[142.05774208453917,44.013537948892335],[142.05947219944977,44.012021087952625],[142.05985571380984,44.01166991372807],[142.05907581399623,44.01158779532928],[142.05770457710912,44.01155063210285],[142.05412492422155,44.011432052973745],[142.05288804911936,44.01196240881418],[142.0522114078123,44.01254283590799],[142.0515294542826,44.01274132989516],[142.0508105380421,44.01281456401852],[142.0492627146464,44.01299886269868],[142.04833847920077,44.01334587432556],[142.04766179614424,44.01327813002107],[142.04722115691987,44.0129524782744],[142.04654887172626,44.01224925562302],[142.0464655168438,44.011559749807844],[142.0463955727821,44.01144553192704],[142.04562259667978,44.0112698271683],[142.0444432136365,44.011047437468555],[142.04390721653837,44.01097991163245],[142.04343415896489,44.010506816071576],[142.04349517266664,44.01002358664715],[142.0434583971733,44.00985395541294],[142.04312584978095,44.00942864494437],[142.04283522435628,44.00895111576368],[142.04297221441516,44.00810670743423],[142.04374234108317,44.00719371401645],[142.04398743827304,44.0068566105426],[142.04371555837594,44.00604633251039],[142.0423800077084,44.00463667527676],[142.04091420944906,44.00404132349899],[142.04063023347277,44.003562216277146],[142.0405973856378,44.00290291413827],[142.04131719218714,44.000043794817124],[142.040843875473,43.999672097619346],[142.04054973382293,43.999589157666286],[142.0400880248485,43.99967705754725],[142.0374517112467,43.99956441839441],[142.03673044815736,43.99972471970972],[142.03547968128734,43.999872926197284],[142.03451750604123,43.99981090083278],[142.03405416659697,43.99912541694973],[142.03273834454106,43.99843832128378],[142.03386114023988,43.994209210167995],[142.03311124089572,43.99198443626623],[142.0318802311083,43.99097104657915],[142.0316725692665,43.988881989138726],[142.02770008099625,43.986089977314684],[142.02771067666797,43.982665398006795],[142.02706177397008,43.98055168227834],[142.02798422110547,43.97881819812404],[142.02739187168322,43.976284638791114],[142.02921947159984,43.97386670362286],[142.02989293311083,43.97170799834702],[142.0312503111618,43.96989290859988],[142.02905041644905,43.96852896068932],[142.02859812184843,43.967323682521275],[142.02684508763775,43.966302869401744],[142.02627108175886,43.964774049919235],[142.0262598961255,43.96190882322167],[142.02674335378478,43.960635631853506],[142.02607051047272,43.95913038384033],[142.02648258189703,43.95640383211605],[142.02495971757907,43.952098246651744],[142.0223128634815,43.952424216211284],[142.02129866094313,43.95182156922859],[142.02127200014434,43.949612376363085],[142.02195663192862,43.9485582943821],[142.02431396805392,43.94811448261547],[142.0247261561754,43.945934674739895],[142.02279610700862,43.94488333342318],[142.02257689424013,43.9430715170932],[142.02158724487026,43.94139961958685],[142.02260861345403,43.9405528667999],[142.0225362860503,43.938859537498615],[142.02376041715377,43.937265028639125],[142.02345987910672,43.93343177972548],[142.02489064319562,43.93163641408241],[142.0258451846091,43.92916194044208],[142.02522215313974,43.92727938737587],[142.02619629786372,43.92440680770011],[142.02806650191553,43.92165845144529],[142.03098981915437,43.92078028259057],[142.03435813980988,43.91912041625581],[142.0353295321446,43.918116587412676],[142.03958933145947,43.916703024542244],[142.03935080791103,43.9148623149404],[142.04331009035428,43.91524704158545],[142.04403401320826,43.91015516432623],[142.0451630490617,43.907113693230166],[142.04693376289345,43.90623506344586],[142.04946856126537,43.90635457531932],[142.05294056896997,43.90452331186502],[142.05387887737646,43.902218710122256],[142.05332591314686,43.901545361783676],[142.0560737316762,43.901376068625005],[142.05796932788206,43.89963632926298],[142.06169087958395,43.90002592693108],[142.06133757508667,43.898143795395],[142.06306082392865,43.89661602401751],[142.0621299362982,43.89539061150152],[142.06276787714404,43.89369591419466],[142.06471177595859,43.89335698213814],[142.06493419731825,43.89137847417008],[142.06630280229825,43.89094716412621],[142.0692143716589,43.88503290256231],[142.07298431045677,43.882573359513636],[142.07211299143248,43.88052826917288],[142.07261822114933,43.87940544122263],[142.07437153160362,43.878467396060024],[142.07508332094258,43.876460137746214],[142.078057899007,43.87217053871615],[142.0825286288713,43.870229922240696],[142.08313960426213,43.870661601357085],[142.10113812304564,43.866597793331294],[142.09906563661676,43.870676213731315],[142.09929795589778,43.871810778509186],[142.10321062524596,43.87492121619455],[142.1067830860614,43.873390621801164],[142.10938134093252,43.87319123299043],[142.11094939131493,43.87362129969996],[142.1145565782336,43.87576846069041],[142.1198089850818,43.876296656908664],[142.12253740981825,43.87607415519515],[142.1300379950054,43.87759936873803],[142.12796432350962,43.884661833319214],[142.15841320013791,43.88597187003124],[142.1585804537893,43.88659681937502],[142.15908058519514,43.88698737308187],[142.16013216981682,43.88748297658009],[142.16051457253843,43.888139203203416],[142.16079014989757,43.88958978827385],[142.16184355125645,43.89153574345669],[142.16206210922434,43.89190344688886],[142.15995386844165,43.894146596401015],[142.15888012934218,43.895259662230565],[142.15634570109518,43.89716032214609],[142.15632150204408,43.897618311730355],[142.1524787946662,43.89787518353129],[142.1506114985128,43.89842486515038],[142.14926479398312,43.898842109658354],[142.14863413049835,43.89925714246642],[142.14825225669512,43.900622334961575],[142.1485986654222,43.901705464665724],[142.14936380542096,43.90545488517286],[142.14302515796123,43.912303984488815],[142.1417682015096,43.91511792053675],[142.1405466434509,43.91664311030311],[142.13984211651297,43.918806329740036],[142.13593805811408,43.92081937413339],[142.13433344095748,43.92203985561314],[142.13285713448886,43.924174868204354],[142.12978302443096,43.92750124083851],[142.1292287145269,43.92889024705219],[142.1256735145662,43.930005955952545],[142.1244281522334,43.932397478803814],[142.12227826117572,43.93264120479478],[142.12227412639024,43.9356846658783],[142.1213245351591,43.93804811922661],[142.1214916997854,43.94070278349182],[142.11962882161149,43.944937927250564],[142.1199087340727,43.94687312307646],[142.11758169418204,43.94776612499748],[142.11595050277268,43.947683891842246],[142.114015151434,43.949134491806284],[142.11434339217547,43.95057065599959],[142.11560986955848,43.951768615663354],[142.11472737669635,43.9545980992583],[142.11504113526476,43.95618464603819],[142.1081233270451,43.96349186729044],[142.1055041817241,43.96534142503502],[142.10628518308965,43.96855064700869],[142.11108801050779,43.97154483598207],[142.11187035594892,43.971707160390984],[142.11272065805792,43.97709117219729],[142.11077764398368,43.977947565648634],[142.1088800191532,43.97985292290384],[142.1090261777432,43.98222186252393],[142.1085202812287,43.983322042654144],[142.10629815576127,43.98386105174898],[142.1043921050242,43.98579515001011],[142.10438895261257,43.987086134769946],[142.10559027489148,43.98876845681091],[142.10533806641425,43.99030658815279],[142.1031315681498,43.99223699923453],[142.10332956373983,43.99490787632563],[142.1020677668989,43.99733037912316],[142.09576303397137,44.00050246447197],[142.09460163921014,44.00350108563328],[142.09713117445398,44.00702035206479],[142.09625517186004,44.007575118815204],[142.09603408086534,44.00929154325819],[142.09437092924682,44.011437351905194],[142.09218223644407,44.01270920959017],[142.091083197757,44.01459120514606],[142.09091157527376,44.019113286382],[142.08861018783784,44.02259907539616],[142.08786526585106,44.02665254721899],[142.08841402157483,44.029231738297334],[142.09068384328123,44.029702661985],[142.09243335481395,44.02933413379175],[142.09415426107225,44.03023366204226],[142.09421490214729,44.031948515888466],[142.09680491709875,44.033615019455226],[142.09777724620125,44.03661932412731],[142.0971736552206,44.038116670913915],[142.09788193148347,44.03908401780047]]]},"properties":{"KEY_CODE":"012280430","PREF":"01","CITY":"228","CITY_NAME":"深川市","S_NAME":"鷹泊","SETAI":"20"}}]}