{"type":"FeatureCollection","features":[{"type":"Feature","geometry":{"type":"Polygon","coordinates":[[[141.0005996565432,42.7216618662824],[140.97430286713913,42.73601155524507],[140.97285923547722,42.7325238125498],[140.96979756993395,42.72755378522367],[140.96886255454646,42.72436131339666],[140.96887237571698,42.7223193680669],[140.9691317418793,42.72124701512239],[140.96933438612345,42.72090619633581],[140.96999544638706,42.7197252380483],[140.97028468288588,42.71813992085179],[140.97077901637078,42.71764481145094],[140.971467137051,42.71672761329682],[140.9765350704371,42.713780611976496],[140.97724926356548,42.71281317377774],[140.9779554151425,42.71182735490746],[140.97830337943898,42.71098384455557],[140.97726405934912,42.710262060964496],[140.97668045028743,42.70929242146722],[140.97430910483345,42.706214806551934],[140.97375203492027,42.70455351161575],[140.97384100960352,42.703234768308754],[140.97303492774185,42.702238155165304],[140.9725786917261,42.701309441507405],[140.97318545815608,42.69852114885087],[140.9726721247937,42.69675046586897],[140.97205508950896,42.69540245477311],[140.97096193553816,42.69229344051956],[140.96960975391215,42.691537562301946],[140.96962388630737,42.689272121634936],[140.96954659209655,42.68833356388897],[140.96794131512834,42.686311218104336],[140.96614224540625,42.68258586173015],[140.96537982625605,42.67856545645247],[140.96504282947066,42.676601190939074],[140.96422360566893,42.67299190400888],[140.96628980315037,42.67231428853869],[140.96746142970096,42.670899933007895],[140.9695214433779,42.67142841056547],[140.971703377513,42.67358516261871],[140.97464847998447,42.6741531079117],[140.9758613523274,42.67502735353067],[140.97800845410885,42.676150963741215],[140.98172192068202,42.679070781023995],[140.98224323599356,42.68014478529288],[140.9830045491993,42.68113240027106],[140.983836115198,42.68143179710174],[140.987521689722,42.68245377448921],[140.98780508459026,42.68273724795566],[140.98936594147287,42.68375936541145],[140.98892717175477,42.68441201582372],[140.98917764646126,42.68473071172299],[140.99004164255462,42.68515096780748],[140.9914376534332,42.68731052740408],[140.99190747122213,42.688561454766656],[140.9917500621155,42.68920342744751],[140.99177126327723,42.68948007513637],[140.99211212847186,42.69075335784361],[140.9908720185481,42.692652970680925],[140.9905743821172,42.69321237387783],[140.99222114130478,42.69383858317423],[140.99282933139565,42.694605296779265],[140.99485469878005,42.697960396483],[140.99523724935221,42.69823509755501],[140.99610981157352,42.698240719395656],[140.9963742301853,42.6984015870033],[140.99770491188346,42.69972110871563],[140.99788919310646,42.700477529602395],[140.99724715356447,42.70185049051866],[140.99822482835438,42.70235279630665],[141.0002524686347,42.7053640874019],[141.0033438036719,42.7070147127934],[141.00510375134002,42.70722542368825],[141.00986296414868,42.708884170768336],[141.01088660980275,42.710310820902144],[141.00986253072168,42.7133404632062],[141.01035436011085,42.71627918212523],[141.0005996565432,42.7216618662824]]]},"properties":{"KEY_CODE":"013970010","PREF":"01","CITY":"397","CITY_NAME":"留寿都村","S_NAME":"字旭野","SETAI":"0"}},{"type":"Feature","geometry":{"type":"Polygon","coordinates":[[[140.9417712309284,42.75384201684321],[140.93764789972656,42.75631073513883],[140.93760699997662,42.75602359262519],[140.93810236160104,42.755027319662815],[140.93943941456283,42.75233990790901],[140.94074987861993,42.74828337123318],[140.94206821206018,42.74572371858148],[140.9444762741416,42.742821438605525],[140.94734950545265,42.74134918740444],[140.94270800017273,42.73331997831498],[140.9442768076413,42.73130666582547],[140.9227766848419,42.7103255542105],[140.94057345191854,42.69870478691242],[140.94045714075347,42.6918954564719],[140.94579935011367,42.690672472136406],[140.94752086362868,42.688906015737786],[140.94731579137448,42.686707877028525],[140.94504762743995,42.68523448109769],[140.94452457188507,42.68403498704647],[140.94938553353597,42.68192640657415],[140.95078865042612,42.680984673292166],[140.95298640070794,42.68030680179101],[140.95477205508521,42.67858554172415],[140.95461112696682,42.67719168421634],[140.95610139918685,42.67539419283634],[140.9592513739046,42.674847196077486],[140.9632370145734,42.673480468357724],[140.96422360566896,42.67299190400888],[140.96504282947066,42.676601190939074],[140.96537982625605,42.67856545645247],[140.96614224540625,42.68258586173015],[140.96794131512834,42.686311218104336],[140.96954659209655,42.68833356388897],[140.96962388630737,42.689272121634936],[140.96960975391215,42.691537562301946],[140.97096193553816,42.69229344051956],[140.97205508950896,42.69540245477311],[140.9726721247937,42.69675046586897],[140.97318545815608,42.69852114885087],[140.9725786917261,42.701309441507405],[140.97303492774185,42.702238155165304],[140.97384100960352,42.703234768308754],[140.97375203492027,42.70455351161575],[140.97430910483345,42.706214806551934],[140.97668045028743,42.70929242146722],[140.97726405934912,42.710262060964496],[140.97830337943898,42.71098384455557],[140.9779554151425,42.71182735490746],[140.97724926356548,42.71281317377774],[140.9765350704371,42.713780611976496],[140.971467137051,42.71672761329682],[140.97077901637078,42.71764481145094],[140.97028468288588,42.71813992085179],[140.96999544638706,42.7197252380483],[140.96933438612345,42.72090619633581],[140.9691317418793,42.72124701512239],[140.96887237571698,42.7223193680669],[140.9688625545465,42.72436131339666],[140.96979756993395,42.72755378522367],[140.97285923547722,42.73252381254975],[140.97430286713913,42.736011555245085],[140.97186017290724,42.737341287681275],[140.96735302264193,42.73978249618982],[140.95861587409783,42.744551166458706],[140.94409173597907,42.75246931995657],[140.9417712309284,42.75384201684321]]]},"properties":{"KEY_CODE":"013970020","PREF":"01","CITY":"397","CITY_NAME":"留寿都村","S_NAME":"字登","SETAI":"18"}},{"type":"Feature","geometry":{"type":"Polygon","coordinates":[[[140.93196914592377,42.75967090173082],[140.9276438220907,42.762231114563036],[140.9108375866553,42.772217601950786],[140.90461741794465,42.767721219825106],[140.90389771426084,42.763859223339225],[140.90304985056767,42.76154325578009],[140.89985275029954,42.7601482047775],[140.89547554693303,42.75880930137969],[140.89074644411696,42.75818177191642],[140.88835991423426,42.75188717269336],[140.8940612733816,42.74285101698127],[140.89086528182423,42.740173428294746],[140.91355105968543,42.71602701898698],[140.91520937605765,42.714349662418016],[140.9227766848419,42.710325554210506],[140.94427680764127,42.7313066658255],[140.94270800017273,42.73331997831502],[140.94734950545265,42.74134918740445],[140.9444762741416,42.742821438605525],[140.94206821206015,42.74572371858148],[140.94074987861993,42.74828337123318],[140.93943941456283,42.75233990790901],[140.93810236160104,42.755027319662815],[140.93760699997662,42.75602359262519],[140.93764789972653,42.756310735138854],[140.93196914592377,42.75967090173082]]]},"properties":{"KEY_CODE":"013970030","PREF":"01","CITY":"397","CITY_NAME":"留寿都村","S_NAME":"字泉川","SETAI":"177"}},{"type":"Feature","geometry":{"type":"Polygon","coordinates":[[[140.91520937605765,42.71434966241798],[140.91355105968543,42.71602701898697],[140.8908652818243,42.740173428294746],[140.8897777900971,42.739468026646755],[140.8883013751361,42.73631395267963],[140.8852533839956,42.73519272436655],[140.88464319078247,42.73452136999912],[140.88333110578984,42.73429753691169],[140.8827440317758,42.73300076970802],[140.88238699375873,42.73252471467223],[140.88131283295587,42.73183950313831],[140.87888079565144,42.731303457498385],[140.8779606120714,42.73252073334831],[140.8765265443331,42.731532952074225],[140.87224611667259,42.72963220703994],[140.87161708959874,42.72745063952416],[140.87067100991246,42.7257347856205],[140.87008958810048,42.72546360455996],[140.86911742044413,42.72480214039583],[140.86876717151077,42.72430642510436],[140.8680004008199,42.72338761944014],[140.86789839254794,42.72321744720395],[140.86747225686258,42.72270336990047],[140.8661966806064,42.722207157508876],[140.86586686939097,42.721986543527414],[140.86339877354263,42.72110564212392],[140.86228656085063,42.71921455059347],[140.86292315891683,42.71872191481727],[140.863336490569,42.71717424649087],[140.8644509469453,42.71619140011628],[140.86352712986357,42.715342265228244],[140.86338350739584,42.71466912519831],[140.86360013596814,42.714278022918755],[140.86397535709528,42.7141103907386],[140.86606237914017,42.71356931704665],[140.86613494935523,42.713445282510776],[140.86632298818603,42.713065083870255],[140.86673429198646,42.71295977203972],[140.86701683201343,42.712816188713326],[140.86516545789092,42.70735946520699],[140.86980280819213,42.70800414601459],[140.87495346240914,42.70933477340276],[140.88809174328279,42.71072485789988],[140.89483392905183,42.71169275693321],[140.91520937605765,42.71434966241798]]]},"properties":{"KEY_CODE":"013970040","PREF":"01","CITY":"397","CITY_NAME":"留寿都村","S_NAME":"字向丘","SETAI":"18"}},{"type":"Feature","geometry":{"type":"Polygon","coordinates":[[[140.9227766848419,42.7103255542105],[140.91520937605765,42.71434966241798],[140.89483392905183,42.71169275693321],[140.88809174328279,42.71072485789988],[140.87495346240914,42.70933477340276],[140.86980280819213,42.70800414601459],[140.86516545789092,42.70735946520699],[140.86524107490374,42.70680643977896],[140.86458049789968,42.704554835064606],[140.86511745265346,42.70254404574029],[140.86472484389532,42.7025535048604],[140.86454884695584,42.703383834800675],[140.86375544834837,42.70347860706642],[140.85786191536872,42.70090764227417],[140.85769018549033,42.70109081136468],[140.85616846672895,42.70097707648794],[140.85569726096665,42.70075795393902],[140.8549764927088,42.69976494487737],[140.85510783356435,42.69918841041207],[140.8574189940964,42.699376322569975],[140.86254152196403,42.69715126468491],[140.8632582659839,42.697151082458724],[140.8646980608126,42.696558438009816],[140.86536196345523,42.696554509325445],[140.86679690080575,42.695934208116114],[140.86779295839182,42.69591866124649],[140.87004746610097,42.695517375780845],[140.87032448535146,42.69557599438379],[140.8715630442061,42.695002500830995],[140.8726088834027,42.69503294881822],[140.87505791274245,42.69406125846328],[140.8759371377946,42.69375601635144],[140.87722451005448,42.693637118925515],[140.87854040977572,42.69355610711302],[140.88029921484056,42.69280518259008],[140.8821600274245,42.69240880271402],[140.88300464848663,42.69184834817312],[140.88334232376096,42.69158398851597],[140.8849486917701,42.691314783122344],[140.8882831681104,42.68960923924163],[140.88908060490567,42.689004710293304],[140.88920208891292,42.688824413290526],[140.88923646033282,42.68848131522504],[140.89102612532443,42.68774479599382],[140.89411902037773,42.68789496988401],[140.89608927037054,42.68779055217622],[140.89801656234812,42.68787861144518],[140.899104434974,42.68779496638115],[140.89982256785095,42.68771257438566],[140.9016700065416,42.68686870739082],[140.9056039686146,42.687133605221035],[140.90783169422966,42.68615218257735],[140.90953761885774,42.68633675850243],[140.91045185097983,42.686617112843564],[140.91159831188565,42.68667595625437],[140.91208285874805,42.68670426620464],[140.91349497348187,42.68712109254471],[140.91408115808588,42.68708235856623],[140.9154273077956,42.687339440228385],[140.9172282651188,42.6879422123825],[140.91998050100847,42.68812599841668],[140.9237686054314,42.68693796498503],[140.92531211316566,42.686720763055455],[140.92554762665833,42.686723485043046],[140.92598261654442,42.68639682079392],[140.92620072242732,42.685576163383615],[140.92764548313792,42.685091228481156],[140.9311203194245,42.68502872358696],[140.93649175436818,42.68437566851825],[140.93913415385728,42.6848383079767],[140.9405979715257,42.68406716534484],[140.94292268703782,42.684364183216914],[140.94452457188507,42.68403498704647],[140.94504762743995,42.68523448109769],[140.94731579137448,42.686707877028525],[140.94752086362868,42.688906015737786],[140.94579935011367,42.690672472136406],[140.94045714075347,42.6918954564719],[140.94057345191854,42.69870478691242],[140.9227766848419,42.7103255542105]]]},"properties":{"KEY_CODE":"013970050","PREF":"01","CITY":"397","CITY_NAME":"留寿都村","S_NAME":"字黒田","SETAI":"8"}},{"type":"Feature","geometry":{"type":"Polygon","coordinates":[[[140.86516545789092,42.70735946520699],[140.8594266903599,42.70683697128725],[140.85294236211763,42.70670490706529],[140.84534794372462,42.70677465390031],[140.83728753598956,42.70550675956343],[140.83459979299283,42.70423629724653],[140.83236732647813,42.702311404971056],[140.82504418211064,42.70137290301103],[140.82014280297503,42.699650989579865],[140.8207170341141,42.695537075977576],[140.82214089680093,42.69044375579005],[140.82403917100297,42.681087970128246],[140.82485891681478,42.68007342402898],[140.8273937024575,42.680378811739125],[140.83061686900933,42.682316238601544],[140.83210087117266,42.682168634126434],[140.8358388573843,42.68374457901062],[140.83750258514007,42.68348278720147],[140.8428357124416,42.685884305493836],[140.84323423693573,42.68699328249377],[140.8419902228974,42.687338526651764],[140.84500876428342,42.690279201269064],[140.84501328496683,42.69101282712174],[140.84856729627384,42.694724908104114],[140.8491339718086,42.69650435686647],[140.85225388446358,42.69812761566106],[140.85480815597774,42.69853207502552],[140.85510783356438,42.69918841041203],[140.8549764927088,42.69976494487737],[140.85569726096665,42.70075795393902],[140.85616846672895,42.70097707648794],[140.85769018549033,42.70109081136468],[140.85786191536872,42.70090764227417],[140.86375544834837,42.70347860706642],[140.86454884695584,42.703383834800675],[140.86472484389532,42.7025535048604],[140.86511745265346,42.70254404574029],[140.86458049789968,42.704554835064606],[140.86524107490374,42.70680643977896],[140.86516545789092,42.70735946520699]]]},"properties":{"KEY_CODE":"013970060","PREF":"01","CITY":"397","CITY_NAME":"留寿都村","S_NAME":"字三ノ原","SETAI":"42"}},{"type":"Feature","geometry":{"type":"Polygon","coordinates":[[[140.80336877255218,42.69882043886893],[140.8023481551812,42.69956193723625],[140.80140680266322,42.69960827395159],[140.7996779648487,42.69924753485435],[140.7973025299907,42.69846304522954],[140.79469013456148,42.69906515810107],[140.79360802212048,42.69852476652813],[140.79258245463498,42.697569274173425],[140.79055031546253,42.69684192701456],[140.7885123046119,42.69621237296086],[140.78759454318302,42.69663223666443],[140.786118957774,42.69588799396252],[140.78460728498587,42.696055351305404],[140.78316785667184,42.6954823071034],[140.78259324810108,42.69336242267646],[140.78267639940464,42.69181486147599],[140.78268129586158,42.69114519913058],[140.78188450136935,42.69054729015196],[140.7814243814718,42.68860100901311],[140.78065625120144,42.687998108749646],[140.78025164273828,42.687047765504246],[140.78036366653146,42.68656220376558],[140.78014375052572,42.686448114811625],[140.7797307991124,42.68646673449651],[140.77949474213025,42.68521413509366],[140.77958807461005,42.68445022400152],[140.7794155819406,42.68415682359403],[140.77893834426928,42.684007780369896],[140.77937878509823,42.683287991777405],[140.77904482109722,42.68298998761684],[140.77913375769268,42.68196395188159],[140.7795252999088,42.68178891534002],[140.77919487634603,42.68119160978857],[140.77923757789375,42.68075537444113],[140.7791411010724,42.68028289004903],[140.77913376960382,42.67937743921865],[140.77914494323534,42.67844310677775],[140.779352567892,42.678159786146836],[140.77987033044863,42.677348427589244],[140.77975128127122,42.67692335123467],[140.78009890717735,42.67679023512766],[140.78008334787137,42.67622877225187],[140.78009139499366,42.67604094359332],[140.77992070357766,42.67475741426467],[140.77913046447222,42.6725157253129],[140.7795103805547,42.67146432601102],[140.7791943822667,42.67041454687512],[140.7779240459859,42.669519342316974],[140.77755278604474,42.66867267586599],[140.7793300748831,42.669598868307745],[140.78273574217408,42.66966812640329],[140.7837478135251,42.67034235651417],[140.7866710168825,42.66963885058262],[140.78832684052236,42.6709430214787],[140.78967248481257,42.67118441227294],[140.79092807518862,42.66984367908941],[140.79305071826158,42.66978841195437],[140.7944321349428,42.668994183785706],[140.79609933556753,42.669648366388245],[140.79861992779703,42.66980850195937],[140.80068893790613,42.671619513742954],[140.80293436521328,42.67207949506739],[140.8053638849213,42.67423891878193],[140.80706460701612,42.674283022435155],[140.8086822326889,42.67659109612605],[140.81164240078013,42.676631296596625],[140.8116734218043,42.67778684657804],[140.81431613752906,42.67706507148795],[140.81577984571925,42.678210302131355],[140.81837271909123,42.67789785295788],[140.82262799766616,42.680403215974735],[140.82334561431892,42.67966578454441],[140.82485891681478,42.68007342402898],[140.82403917100297,42.681087970128246],[140.82214089680093,42.69044375579005],[140.8207170341141,42.695537075977576],[140.82014280297503,42.699650989579865],[140.81836638834173,42.699397261627404],[140.81810656067844,42.699351250913026],[140.81733296500664,42.69938433829255],[140.81618864267318,42.69915620544142],[140.81496616087247,42.69854222045378],[140.81386976623867,42.69832901219695],[140.8131190939231,42.69801772808665],[140.8122576610186,42.697779600820354],[140.81167118102638,42.69765478001782],[140.81026087847408,42.698520158176386],[140.80841027586763,42.69880536029235],[140.80741851609883,42.69870678828615],[140.80471240172895,42.69834661515786],[140.80336877255218,42.69882043886893]]]},"properties":{"KEY_CODE":"013970070","PREF":"01","CITY":"397","CITY_NAME":"留寿都村","S_NAME":"字西ノ原","SETAI":"18"}},{"type":"Feature","geometry":{"type":"Polygon","coordinates":[[[140.86228656085063,42.71921455059347],[140.8602661205329,42.71863440829189],[140.85865766373632,42.71904052903507],[140.8577703413515,42.721295312020686],[140.86381453926887,42.7308470245173],[140.86171249333321,42.731333141557215],[140.86093928736545,42.73151984580516],[140.85852445971494,42.73027811288954],[140.85506596708828,42.728542269779915],[140.85169887576535,42.72707344022133],[140.84547343555786,42.72664599615566],[140.84145781853098,42.725876466844475],[140.84005176893012,42.72485045493372],[140.8399287387382,42.72441977168618],[140.83712146751537,42.723351424138016],[140.8354431935993,42.72277114113913],[140.83325156880076,42.72276922915286],[140.83300991092827,42.7229216744235],[140.83179272679754,42.72331566356841],[140.8303513847532,42.72325265580253],[140.82780591006772,42.7236903366365],[140.8268499842078,42.72471727124376],[140.82500774363595,42.72595148634018],[140.82349193732665,42.72645462373026],[140.81837291347222,42.72616992418677],[140.8160818380953,42.72603282110167],[140.8169524144679,42.72054274377446],[140.81899544261083,42.7071256681013],[140.82014280297503,42.699650989579865],[140.82504418211064,42.70137290301103],[140.83236732647813,42.702311404971056],[140.83459979299283,42.70423629724653],[140.83728753598956,42.70550675956343],[140.84534794372462,42.70677465390031],[140.85294236211763,42.70670490706529],[140.8594266903599,42.70683697128725],[140.86516545789092,42.70735946520699],[140.86701683201343,42.712816188713326],[140.86673429198646,42.71295977203972],[140.86632298818603,42.713065083870255],[140.86613494935523,42.713445282510776],[140.86606237914017,42.71356931704665],[140.86397535709528,42.7141103907386],[140.86360013596814,42.714278022918755],[140.86338350739584,42.71466912519831],[140.86352712986357,42.715342265228244],[140.8644509469453,42.71619140011628],[140.863336490569,42.71717424649087],[140.86292315891683,42.71872191481727],[140.86228656085063,42.71921455059347]]]},"properties":{"KEY_CODE":"013970080","PREF":"01","CITY":"397","CITY_NAME":"留寿都村","S_NAME":"字三豊","SETAI":"29"}},{"type":"Feature","geometry":{"type":"Polygon","coordinates":[[[140.86381453926887,42.7308470245173],[140.86775902509223,42.73707051610304],[140.8691367243954,42.73820506767028],[140.87649490169315,42.749685213886885],[140.87284166827874,42.75156195266018],[140.87380244115192,42.762595568781144],[140.8653175334191,42.76758965355046],[140.85183214061132,42.75645532699284],[140.8484595307087,42.753685643061644],[140.83960155189573,42.746135601254714],[140.8160818380953,42.72603282110167],[140.81837291347222,42.72616992418677],[140.82349193732665,42.72645462373026],[140.82500774363595,42.72595148634018],[140.8268499842078,42.72471727124376],[140.82780591006772,42.7236903366365],[140.8303513847532,42.72325265580253],[140.83179272679754,42.72331566356841],[140.83300991092827,42.7229216744235],[140.83325156880076,42.72276922915286],[140.8354431935993,42.72277114113913],[140.83712146751537,42.723351424138016],[140.8399287387382,42.72441977168618],[140.84005176893012,42.72485045493372],[140.84145781853098,42.725876466844475],[140.84547343555786,42.72664599615566],[140.85169887576535,42.72707344022135],[140.85506596708828,42.728542269779915],[140.85852445971494,42.73027811288954],[140.86093928736545,42.73151984580516],[140.86171249333321,42.731333141557215],[140.86381453926887,42.7308470245173]]]},"properties":{"KEY_CODE":"013970090","PREF":"01","CITY":"397","CITY_NAME":"留寿都村","S_NAME":"字豊岡","SETAI":"28"}},{"type":"Feature","geometry":{"type":"Polygon","coordinates":[[[140.89086528182423,42.740173428294746],[140.8940612733816,42.74285101698127],[140.88835991423426,42.75188717269336],[140.89074644411696,42.75818177191642],[140.89547554693303,42.75880930137969],[140.89985275029954,42.7601482047775],[140.90304985056767,42.76154325578009],[140.90389771426084,42.763859223339225],[140.90461741794465,42.767721219825106],[140.9108375866553,42.772217601950786],[140.91043065972184,42.772454916474985],[140.90716757983049,42.77217444623167],[140.8858183483385,42.77011234066872],[140.87936369649188,42.76940115492463],[140.8653175334191,42.76758965355046],[140.87380244115192,42.762595568781144],[140.87284166827874,42.75156195266018],[140.87649490169315,42.749685213886885],[140.8691367243954,42.73820506767028],[140.86775902509223,42.73707051610304],[140.86381453926887,42.7308470245173],[140.8577703413515,42.721295312020686],[140.85865766373632,42.71904052903507],[140.8602661205329,42.71863440829189],[140.86228656085063,42.71921455059347],[140.86339877354263,42.72110564212392],[140.86586686939097,42.721986543527414],[140.8661966806064,42.722207157508876],[140.86747225686258,42.72270336990047],[140.86789839254794,42.72321744720395],[140.8680004008199,42.72338761944014],[140.86876717151077,42.72430642510436],[140.86911742044413,42.72480214039583],[140.87008958810048,42.72546360455996],[140.87067100991246,42.7257347856205],[140.87161708959874,42.72745063952416],[140.87224611667259,42.729632207039906],[140.8765265443331,42.731532952074225],[140.8779606120714,42.73252073334833],[140.87888079565136,42.731303457498385],[140.88131283295587,42.73183950313831],[140.88238699375873,42.73252471467223],[140.8827440317758,42.73300076970802],[140.88333110578984,42.73429753691169],[140.88464319078247,42.73452136999912],[140.88525338399555,42.73519272436655],[140.8883013751361,42.73631395267963],[140.88977779009704,42.73946802664675],[140.89086528182423,42.740173428294746]]]},"properties":{"KEY_CODE":"013970100","PREF":"01","CITY":"397","CITY_NAME":"留寿都村","S_NAME":"字留寿都","SETAI":"621"}}]}