{"type":"FeatureCollection","features":[{"type":"Feature","geometry":{"type":"Polygon","coordinates":[[[140.79324171336944,43.19449977337194],[140.79133721021478,43.195396503850084],[140.78845290098945,43.193233885334394],[140.7878954040307,43.192142653660575],[140.78932655205583,43.19177870976293],[140.79020661023802,43.191520732644605],[140.79075109558073,43.19205422730803],[140.79192475826065,43.1931664541316],[140.79318174690897,43.1935253218972],[140.79324171336944,43.19449977337194]]]},"properties":{"KEY_CODE":"01408001001","PREF":"01","CITY":"408","CITY_NAME":"余市町","S_NAME":"大川町一丁目","SETAI":"54"}},{"type":"Feature","geometry":{"type":"Polygon","coordinates":[[[140.79318174690897,43.1935253218972],[140.79192475826065,43.1931664541316],[140.79075109558073,43.19205422730803],[140.79020661023802,43.191520732644605],[140.79061636645974,43.191419697130044],[140.79230528089204,43.19091785806929],[140.79318174690897,43.1935253218972]]]},"properties":{"KEY_CODE":"01408001002","PREF":"01","CITY":"408","CITY_NAME":"余市町","S_NAME":"大川町二丁目","SETAI":"50"}},{"type":"Feature","geometry":{"type":"Polygon","coordinates":[[[140.79345152611128,43.19046724468154],[140.7944188392921,43.19418816074873],[140.79324171336944,43.19449977337194],[140.79318174690897,43.1935253218972],[140.79230528089204,43.19091785806929],[140.79345152611128,43.19046724468154]]]},"properties":{"KEY_CODE":"01408001003","PREF":"01","CITY":"408","CITY_NAME":"余市町","S_NAME":"大川町三丁目","SETAI":"94"}},{"type":"Feature","geometry":{"type":"Polygon","coordinates":[[[140.7958214874465,43.194194964358275],[140.7944188392921,43.19418816074873],[140.79345152611128,43.19046724468154],[140.79454301668864,43.18999433187664],[140.79545802096808,43.19048884615612],[140.7958214874465,43.194194964358275]]]},"properties":{"KEY_CODE":"01408001004","PREF":"01","CITY":"408","CITY_NAME":"余市町","S_NAME":"大川町四丁目","SETAI":"84"}},{"type":"Feature","geometry":{"type":"Polygon","coordinates":[[[140.79719626968702,43.19395433499779],[140.7958214874465,43.194194964358275],[140.79545802096808,43.19048884615612],[140.79454301668864,43.18999433187664],[140.79547263748125,43.18960212647356],[140.79667793307775,43.18922896037554],[140.79719626968702,43.19395433499779]]]},"properties":{"KEY_CODE":"01408001005","PREF":"01","CITY":"408","CITY_NAME":"余市町","S_NAME":"大川町五丁目","SETAI":"103"}},{"type":"Feature","geometry":{"type":"Polygon","coordinates":[[[140.79860339137076,43.193914323501915],[140.79719626968702,43.19395433499779],[140.79667793307775,43.18922896037554],[140.79866418233306,43.18865949266987],[140.7991627844764,43.189423953796144],[140.79826399916894,43.18972459240498],[140.79860339137076,43.193914323501915]]]},"properties":{"KEY_CODE":"01408001006","PREF":"01","CITY":"408","CITY_NAME":"余市町","S_NAME":"大川町六丁目","SETAI":"144"}},{"type":"Feature","geometry":{"type":"Polygon","coordinates":[[[140.80019458038254,43.193951668890044],[140.79860339137076,43.193914323501915],[140.79826399916894,43.18972459240498],[140.7991627844764,43.189423953796144],[140.79988534595935,43.190639242242305],[140.80019458038254,43.193951668890044]]]},"properties":{"KEY_CODE":"01408001007","PREF":"01","CITY":"408","CITY_NAME":"余市町","S_NAME":"大川町七丁目","SETAI":"116"}},{"type":"Feature","geometry":{"type":"Polygon","coordinates":[[[140.80018913587108,43.18841137819623],[140.80044704229223,43.188495243942604],[140.80101566550698,43.18874247882294],[140.80158472354125,43.18898774777686],[140.8015473504735,43.193868664981345],[140.80019458038254,43.193951668890044],[140.79988534595935,43.190639242242305],[140.7991627844764,43.189423953796144],[140.79866418233306,43.18865949266987],[140.80018913587108,43.18841137819623]]]},"properties":{"KEY_CODE":"01408001008","PREF":"01","CITY":"408","CITY_NAME":"余市町","S_NAME":"大川町八丁目","SETAI":"151"}},{"type":"Feature","geometry":{"type":"Polygon","coordinates":[[[140.80299553098575,43.19373832559106],[140.8015473504735,43.193868664981345],[140.80158472354125,43.18898774777686],[140.80275637548797,43.18939388563316],[140.80390858495593,43.18930915900881],[140.80406344505815,43.18932054220839],[140.80433423531932,43.18934759485339],[140.80276609795203,43.189665826730774],[140.80299553098575,43.19373832559106]]]},"properties":{"KEY_CODE":"01408001009","PREF":"01","CITY":"408","CITY_NAME":"余市町","S_NAME":"大川町九丁目","SETAI":"141"}},{"type":"Feature","geometry":{"type":"Polygon","coordinates":[[[140.8044630559979,43.19383480997309],[140.80299553098575,43.19373832559106],[140.80276609795203,43.189665826730774],[140.80433423531932,43.18934759485339],[140.80566254400642,43.18944954684575],[140.8056868127622,43.19000192792071],[140.80426183021947,43.190081958298705],[140.8044630559979,43.19383480997309]]]},"properties":{"KEY_CODE":"01408001010","PREF":"01","CITY":"408","CITY_NAME":"余市町","S_NAME":"大川町十丁目","SETAI":"85"}},{"type":"Feature","geometry":{"type":"Polygon","coordinates":[[[140.80591864439168,43.193846589551306],[140.8044630559979,43.19383480997309],[140.80426183021947,43.190081958298705],[140.8056868127622,43.19000192792071],[140.80591864439168,43.193846589551306]]]},"properties":{"KEY_CODE":"01408001011","PREF":"01","CITY":"408","CITY_NAME":"余市町","S_NAME":"大川町十一丁目","SETAI":"75"}},{"type":"Feature","geometry":{"type":"Polygon","coordinates":[[[140.80882868011687,43.19372260212844],[140.80591864439168,43.193846589551306],[140.8056868127622,43.19000192792071],[140.80566254400642,43.18944954684575],[140.8068792398199,43.189605703892035],[140.8073643066461,43.192806541855035],[140.8088127859045,43.193495313399886],[140.80882868011687,43.19372260212844]]]},"properties":{"KEY_CODE":"01408001012","PREF":"01","CITY":"408","CITY_NAME":"余市町","S_NAME":"大川町十二丁目","SETAI":"121"}},{"type":"Feature","geometry":{"type":"Polygon","coordinates":[[[140.80838267576902,43.18980182269457],[140.8088127859045,43.193495313399886],[140.8073643066461,43.192806541855035],[140.8068792398199,43.189605703892035],[140.80838267576902,43.18980182269457]]]},"properties":{"KEY_CODE":"01408001013","PREF":"01","CITY":"408","CITY_NAME":"余市町","S_NAME":"大川町十三丁目","SETAI":"53"}},{"type":"Feature","geometry":{"type":"Polygon","coordinates":[[[140.81022501104408,43.193834642738665],[140.80882868011687,43.19372260212844],[140.8088127859045,43.193495313399886],[140.80838267576902,43.18980182269457],[140.81003269515898,43.189932886317884],[140.81022501104408,43.193834642738665]]]},"properties":{"KEY_CODE":"01408001014","PREF":"01","CITY":"408","CITY_NAME":"余市町","S_NAME":"大川町十四丁目","SETAI":"102"}},{"type":"Feature","geometry":{"type":"Polygon","coordinates":[[[140.8117326088942,43.19387499516879],[140.81022501104408,43.193834642738665],[140.81003269515898,43.189932886317884],[140.81116901965055,43.19009501865279],[140.8117326088942,43.19387499516879]]]},"properties":{"KEY_CODE":"01408001015","PREF":"01","CITY":"408","CITY_NAME":"余市町","S_NAME":"大川町十五丁目","SETAI":"106"}},{"type":"Feature","geometry":{"type":"Polygon","coordinates":[[[140.81392653998302,43.1939065080929],[140.8117326088942,43.19387499516879],[140.81116901965055,43.19009501865279],[140.81229676560875,43.18980990657522],[140.8129635255694,43.18967676770076],[140.81311102256936,43.19262874144369],[140.81392653998302,43.1939065080929]]]},"properties":{"KEY_CODE":"01408001016","PREF":"01","CITY":"408","CITY_NAME":"余市町","S_NAME":"大川町十六丁目","SETAI":"39"}},{"type":"Feature","geometry":{"type":"Polygon","coordinates":[[[140.81460968669992,43.19379151989419],[140.81392653998302,43.1939065080929],[140.81311102256936,43.19262874144369],[140.8129635255694,43.18967676770076],[140.81464560393073,43.18949422343306],[140.81516679530262,43.18954535222215],[140.8156740697209,43.18970242915544],[140.81594474841606,43.189705823960225],[140.8158116641572,43.18985205487109],[140.81574051061614,43.18995995998815],[140.81577511617013,43.190694619096945],[140.81443834562205,43.190570172878346],[140.81460968669992,43.19379151989419]]]},"properties":{"KEY_CODE":"01408001017","PREF":"01","CITY":"408","CITY_NAME":"余市町","S_NAME":"大川町十七丁目","SETAI":"85"}},{"type":"Feature","geometry":{"type":"Polygon","coordinates":[[[140.81460968669992,43.19379151989419],[140.81443834562205,43.190570172878346],[140.81577511617013,43.190694619096945],[140.81608438015158,43.19393182979057],[140.81460968669992,43.19379151989419]]]},"properties":{"KEY_CODE":"01408001018","PREF":"01","CITY":"408","CITY_NAME":"余市町","S_NAME":"大川町十八丁目","SETAI":"33"}},{"type":"Feature","geometry":{"type":"Polygon","coordinates":[[[140.81755019466965,43.194045215064044],[140.81608438015158,43.19393182979057],[140.81577511617013,43.190694619096945],[140.81574051061614,43.18995995998815],[140.8158116641572,43.18985205487109],[140.81594474841606,43.189705823960225],[140.8174222582803,43.18995593431235],[140.8182614508803,43.191329402416244],[140.81747846788303,43.19156370504554],[140.81755019466965,43.194045215064044]]]},"properties":{"KEY_CODE":"01408001019","PREF":"01","CITY":"408","CITY_NAME":"余市町","S_NAME":"大川町十九丁目","SETAI":"98"}},{"type":"Feature","geometry":{"type":"Polygon","coordinates":[[[140.81906083992166,43.19431915409719],[140.81755019466965,43.194045215064044],[140.81747846788303,43.19156370504554],[140.8182614508803,43.191329402416244],[140.8174222582803,43.18995593431235],[140.8182284705223,43.18989071010584],[140.81857391349055,43.19003871564839],[140.81909537343503,43.19007871757441],[140.81960367327855,43.19018831910593],[140.82015598216492,43.190220333043435],[140.81906083992166,43.19431915409719]]]},"properties":{"KEY_CODE":"01408001020","PREF":"01","CITY":"408","CITY_NAME":"余市町","S_NAME":"大川町二十丁目","SETAI":"76"}},{"type":"Feature","geometry":{"type":"Polygon","coordinates":[[[140.84572184818606,43.19534094286666],[140.84528002077795,43.197525121317014],[140.84638130832298,43.19793431403497],[140.84588956245818,43.1991809654506],[140.8456920697604,43.19942152435198],[140.84530163952098,43.19983799484299],[140.84566673591564,43.19907597162017],[140.8428020792249,43.197530798089545],[140.83774680606453,43.1968375530425],[140.8326342771465,43.19554129738017],[140.82018237939212,43.194096088713636],[140.81906083992166,43.19431915409719],[140.82015598216492,43.190220333043435],[140.82053778953303,43.18972887119276],[140.82134268738628,43.188808979762335],[140.8268009010966,43.18971781815719],[140.82919857076843,43.19028768723149],[140.82932347275917,43.19055507951617],[140.83248708478698,43.18885301189839],[140.83599505717893,43.18729365242004],[140.83675771884663,43.186081332006815],[140.8368071984407,43.18546551308189],[140.8363555298782,43.18354326025552],[140.8365107125561,43.18300716054374],[140.83664997848493,43.18197772109713],[140.83646949111622,43.18130300441105],[140.83704673170882,43.17958405457574],[140.8369910215741,43.17886601148002],[140.836028743427,43.17441558967712],[140.83554324474213,43.17259383142306],[140.83541758243595,43.17163953242562],[140.83522254845454,43.17018995828331],[140.8369574295313,43.16616642598602],[140.83519057378282,43.16432883522546],[140.83817537749871,43.161630823531034],[140.84217130833346,43.15970734876643],[140.84882260274728,43.15521601002015],[140.8548671489659,43.15188259955236],[140.8639174679094,43.14817053179914],[140.867979069611,43.14605645478341],[140.87418287279772,43.1435308405408],[140.88298671876197,43.140251360021935],[140.8844743497611,43.13796025340186],[140.8898525643235,43.131960542119806],[140.8899220143999,43.13185573321922],[140.89003464157116,43.13116412413579],[140.89028463500074,43.13064750738162],[140.89077229897455,43.13026424188795],[140.89325972654078,43.128489544143946],[140.8955596591874,43.1278146205172],[140.90043730775616,43.12772681545421],[140.90130932227464,43.12751485960678],[140.9015842017401,43.127398188857526],[140.90293423393112,43.12713165055672],[140.90594665721005,43.12680671119481],[140.9080964652556,43.12684847337722],[140.90945870194534,43.129623207276055],[140.911583418374,43.13105643440856],[140.912745807021,43.13206465811072],[140.91337078424516,43.13239792226209],[140.91668312083388,43.13185637218373],[140.9202085815911,43.13034426947583],[140.9203238140483,43.13050799553888],[140.92071995105863,43.13116664711307],[140.92141641392013,43.1322712202307],[140.92150407973512,43.13251986349879],[140.9215152283009,43.13285644537294],[140.92107862469254,43.13395413517726],[140.92088103002385,43.13459070962597],[140.92074493736442,43.13572592218504],[140.92082426230766,43.13630198896438],[140.92108551116345,43.137989168664106],[140.9224504870225,43.13923068704547],[140.92272006190865,43.13928852912788],[140.92352651695043,43.13938937483397],[140.92372372278552,43.13950742124673],[140.92332747712263,43.14026188366999],[140.9231649966438,43.140864753068996],[140.9231851647366,43.14134863495167],[140.92337084993943,43.14182634718879],[140.9233491293623,43.14226213114679],[140.92288298977428,43.142801348402315],[140.92267638716353,43.14504298648847],[140.9226500046448,43.14592023646951],[140.92293803278275,43.14636945836084],[140.9230857440722,43.14684940365572],[140.92276454827677,43.147879360169085],[140.92269334911566,43.14912749296614],[140.92273392075757,43.14991127851861],[140.9227999601977,43.15003765044791],[140.923421177462,43.1509994932518],[140.92347964983412,43.15112943500168],[140.92348769332384,43.15132152395645],[140.9233800470409,43.151510934149165],[140.92270197474284,43.15177762671464],[140.92072920528082,43.152271005331336],[140.92035463543854,43.15235660779584],[140.91980981541238,43.15254523833233],[140.91954184500227,43.15262307859566],[140.9189510359908,43.152761730289996],[140.91693546091852,43.153804506746965],[140.915886490803,43.154566069863634],[140.9156250278858,43.15481642362462],[140.9149055785734,43.15550086215692],[140.91437203498123,43.15601198884787],[140.9140871073686,43.15630257480837],[140.9137907446206,43.156742970188546],[140.91264932080682,43.15733096322968],[140.91221658194476,43.15726296245038],[140.91130433417774,43.1573902161233],[140.9110270381108,43.157427483138704],[140.91042216367927,43.1575433430961],[140.91016550181675,43.15766932304871],[140.90899793676328,43.158325961575066],[140.90843778702794,43.158649311614546],[140.90822321374952,43.1587217658673],[140.90744016380722,43.1589315161044],[140.9070996552526,43.159051510741946],[140.90654849101367,43.15932797515843],[140.9063809527125,43.159349497847415],[140.9048575344543,43.15884274097677],[140.90364855176054,43.158931904836905],[140.90292051102404,43.158902237565],[140.902500508385,43.15901945478308],[140.90113596463317,43.1597554737546],[140.90031730830924,43.159900894641254],[140.8999161859088,43.16003717299177],[140.89939912236963,43.160630412592354],[140.89909830132606,43.16116734339758],[140.89747621913543,43.16236797716539],[140.8969691826015,43.162648715503494],[140.89550182412344,43.16324005097774],[140.8936721330009,43.163801188177935],[140.89322966397003,43.16377244909777],[140.89302545724092,43.163713622528974],[140.89144923747756,43.16283710025791],[140.89094096166772,43.162596019713064],[140.89048301734448,43.16268931927827],[140.88947604117155,43.16314032423977],[140.88935302110144,43.16326348390506],[140.8895332838191,43.16462228419],[140.88976034211035,43.16567366604642],[140.88929185806245,43.16602009118063],[140.88894885942008,43.166058769556855],[140.88784029242802,43.166019759570425],[140.88751514295052,43.165990144907774],[140.88634501030154,43.16634352718858],[140.88564226402679,43.166663864914845],[140.88316780345454,43.167668788867935],[140.88261279359847,43.167675025180934],[140.88201667515642,43.167361754324574],[140.8815647219711,43.16709852246078],[140.87992889353697,43.166614908479076],[140.87911190445013,43.16653422839157],[140.87790791441918,43.16682270050321],[140.87728449531457,43.16694089942834],[140.8738091911575,43.16760812758909],[140.87343198608875,43.16753916682893],[140.87181514536655,43.16700404613134],[140.86913509409047,43.16637228888812],[140.8678569777047,43.166034594781415],[140.86682037823076,43.16554515636509],[140.86616632388697,43.16526654499239],[140.86567183390954,43.165546584054844],[140.86525552858208,43.16577214928027],[140.8629475049413,43.167235125760904],[140.86259337615766,43.16732752823117],[140.8618253482064,43.167414903191194],[140.86075469132652,43.167450209886006],[140.8591598857341,43.16749523268616],[140.85884051697562,43.16760091672856],[140.8584721275009,43.168164547883435],[140.85902927740682,43.16976237529448],[140.85914688850957,43.17059201437364],[140.85887307304827,43.17101403799072],[140.85792925495173,43.171473066349385],[140.8573962269024,43.171685728722956],[140.85744793978293,43.171731510539004],[140.85824239409715,43.17174012196281],[140.85950056616957,43.17217649504201],[140.8598942112271,43.17285131792289],[140.85725487681867,43.17448897970136],[140.85669664645098,43.17692016760859],[140.8542156997455,43.17703929738883],[140.8516508443938,43.18114241327976],[140.85036016993647,43.1821188948666],[140.84963931187232,43.18399327118407],[140.84724575434853,43.185214866849066],[140.84621040534935,43.18776283270006],[140.84676988993857,43.19055176747301],[140.84804022770402,43.19302668203286],[140.84625538450592,43.194219848312486],[140.84572184818606,43.19534094286666]]]},"properties":{"KEY_CODE":"014080020","PREF":"01","CITY":"408","CITY_NAME":"余市町","S_NAME":"栄町","SETAI":"488"}},{"type":"Feature","geometry":{"type":"Polygon","coordinates":[[[140.78932655205583,43.19177870976293],[140.7878954040307,43.192142653660575],[140.78731008025542,43.191154936244956],[140.78887672609326,43.18989281484818],[140.79098122462165,43.19091159123412],[140.79061636645974,43.191419697130044],[140.79020661023796,43.1915207326446],[140.78932655205583,43.19177870976293]]]},"properties":{"KEY_CODE":"01408003001","PREF":"01","CITY":"408","CITY_NAME":"余市町","S_NAME":"黒川町一丁目","SETAI":"21"}},{"type":"Feature","geometry":{"type":"Polygon","coordinates":[[[140.7910977759577,43.18815312757509],[140.79230528089204,43.19091785806929],[140.79061636645974,43.191419697130044],[140.79098122462165,43.19091159123412],[140.78887672609326,43.18989281484818],[140.78979531149918,43.189170816528794],[140.7910977759577,43.18815312757509]]]},"properties":{"KEY_CODE":"01408003002","PREF":"01","CITY":"408","CITY_NAME":"余市町","S_NAME":"黒川町二丁目","SETAI":"110"}},{"type":"Feature","geometry":{"type":"Polygon","coordinates":[[[140.79314938386602,43.18712731896566],[140.7927073443867,43.18955629932309],[140.79345152611128,43.19046724468154],[140.79230528089204,43.19091785806929],[140.7910977759577,43.18815312757509],[140.79314938386602,43.18712731896566]]]},"properties":{"KEY_CODE":"01408003003","PREF":"01","CITY":"408","CITY_NAME":"余市町","S_NAME":"黒川町三丁目","SETAI":"71"}},{"type":"Feature","geometry":{"type":"Polygon","coordinates":[[[140.79454301668864,43.18999433187664],[140.79345152611128,43.19046724468154],[140.7927073443867,43.18955629932309],[140.79314938386602,43.18712731896566],[140.7937607652997,43.18702546550323],[140.79384917418776,43.189399315925385],[140.79454301668864,43.18999433187664]]]},"properties":{"KEY_CODE":"01408003004","PREF":"01","CITY":"408","CITY_NAME":"余市町","S_NAME":"黒川町四丁目","SETAI":"34"}},{"type":"Feature","geometry":{"type":"Polygon","coordinates":[[[140.79547263748125,43.18960212647356],[140.79454301668864,43.18999433187664],[140.79384917418776,43.189399315925385],[140.7937607652997,43.18702546550323],[140.79478657461675,43.18686699516113],[140.79547263748125,43.18960212647356]]]},"properties":{"KEY_CODE":"01408003005","PREF":"01","CITY":"408","CITY_NAME":"余市町","S_NAME":"黒川町五丁目","SETAI":"35"}},{"type":"Feature","geometry":{"type":"Polygon","coordinates":[[[140.78731008025542,43.191154936244956],[140.78695183421473,43.19022216478218],[140.78753717831387,43.189421302125304],[140.78880190284292,43.188367851452874],[140.7910977759577,43.188153127575106],[140.78979531149918,43.189170816528794],[140.78887672609326,43.18989281484818],[140.78731008025542,43.191154936244956]]]},"properties":{"KEY_CODE":"01408003006","PREF":"01","CITY":"408","CITY_NAME":"余市町","S_NAME":"黒川町六丁目","SETAI":"19"}},{"type":"Feature","geometry":{"type":"Polygon","coordinates":[[[140.78684975719028,43.18981991811732],[140.7861232143784,43.18727072243027],[140.78628053843218,43.186132929362394],[140.7878385458961,43.18380679159987],[140.7908256196252,43.18389108435152],[140.79300743663757,43.1848641145962],[140.79314938386602,43.18712731896566],[140.7910977759577,43.18815312757509],[140.78880190284292,43.188367851452874],[140.78753717831387,43.189421302125304],[140.78684975719028,43.18981991811732]]]},"properties":{"KEY_CODE":"01408003007","PREF":"01","CITY":"408","CITY_NAME":"余市町","S_NAME":"黒川町七丁目","SETAI":"70"}},{"type":"Feature","geometry":{"type":"Polygon","coordinates":[[[140.79431476319243,43.184533414701654],[140.79478657461675,43.18686699516113],[140.7937607652997,43.18702546550323],[140.79314938386602,43.18712731896566],[140.79300743663757,43.1848641145962],[140.79431476319243,43.184533414701654]]]},"properties":{"KEY_CODE":"01408003008","PREF":"01","CITY":"408","CITY_NAME":"余市町","S_NAME":"黒川町八丁目","SETAI":"31"}},{"type":"Feature","geometry":{"type":"Polygon","coordinates":[[[140.79431476319243,43.184533414701654],[140.79300743663757,43.1848641145962],[140.7908256196252,43.18389108435152],[140.7878385458961,43.18380679159987],[140.7892813115275,43.1811818830642],[140.79201745433593,43.18103500440456],[140.7937658632828,43.18153474123277],[140.79431476319243,43.184533414701654]]]},"properties":{"KEY_CODE":"01408003009","PREF":"01","CITY":"408","CITY_NAME":"余市町","S_NAME":"黒川町九丁目","SETAI":"80"}},{"type":"Feature","geometry":{"type":"Polygon","coordinates":[[[140.79579302702984,43.18405788932254],[140.7972317508012,43.18635951510351],[140.79789750276294,43.18743414185741],[140.79866418233306,43.18865949266987],[140.79667793307775,43.18922896037554],[140.79547263748125,43.18960212647356],[140.79478657461675,43.18686699516113],[140.79431476319243,43.184533414701654],[140.79579302702984,43.18405788932254]]]},"properties":{"KEY_CODE":"01408003010","PREF":"01","CITY":"408","CITY_NAME":"余市町","S_NAME":"黒川町十丁目","SETAI":"156"}},{"type":"Feature","geometry":{"type":"Polygon","coordinates":[[[140.79413057149156,43.18125160343836],[140.79579302702984,43.18405788932254],[140.79431476319243,43.184533414701654],[140.7937658632828,43.18153474123277],[140.79413057149156,43.18125160343836]]]},"properties":{"KEY_CODE":"01408003011","PREF":"01","CITY":"408","CITY_NAME":"余市町","S_NAME":"黒川町十一丁目","SETAI":"33"}},{"type":"Feature","geometry":{"type":"Polygon","coordinates":[[[140.80018913587108,43.18841137819623],[140.79866418233306,43.188659492669906],[140.79789750276294,43.18743414185741],[140.7972317508012,43.18635951510351],[140.79579302702984,43.18405788932254],[140.79912315206798,43.18307839013386],[140.7993790701653,43.18365523177614],[140.7998862491651,43.18464885954008],[140.80037014357586,43.186838468074555],[140.79935362906141,43.18686060083995],[140.799476747197,43.18720156644396],[140.80093735829286,43.1878556363921],[140.80044704229223,43.188495243942604],[140.80018913587108,43.18841137819623]]]},"properties":{"KEY_CODE":"01408003012","PREF":"01","CITY":"408","CITY_NAME":"余市町","S_NAME":"黒川町十二丁目","SETAI":"188"}},{"type":"Feature","geometry":{"type":"Polygon","coordinates":[[[140.79799173192353,43.18019401209157],[140.79945286752505,43.18299402895416],[140.79912315206798,43.18307839013386],[140.79579302702984,43.18405788932254],[140.79413057149156,43.18125160343836],[140.79583782726442,43.18036032842418],[140.79760023569796,43.180031084111064],[140.79799173192353,43.18019401209157]]]},"properties":{"KEY_CODE":"01408003013","PREF":"01","CITY":"408","CITY_NAME":"余市町","S_NAME":"黒川町十三丁目","SETAI":"157"}},{"type":"Feature","geometry":{"type":"Polygon","coordinates":[[[140.8054094989363,43.18830724780864],[140.80566254400642,43.18944954684575],[140.80406344505815,43.18932054220839],[140.80390858495593,43.18930915900881],[140.80275637548797,43.18939388563316],[140.80101566550698,43.18874247882294],[140.80044704229223,43.188495243942604],[140.80093735829286,43.1878556363921],[140.799476747197,43.18720156644396],[140.79935362906141,43.18686060083995],[140.80513651980564,43.186800186767485],[140.80514090348004,43.18682488771984],[140.80526420191293,43.18751956848709],[140.8054094989363,43.18830724780864]]]},"properties":{"KEY_CODE":"01408003014","PREF":"01","CITY":"408","CITY_NAME":"余市町","S_NAME":"黒川町十四丁目","SETAI":"0"}},{"type":"Feature","geometry":{"type":"Polygon","coordinates":[[[140.80442335398078,43.182784794802224],[140.80506762057337,43.186408433780386],[140.80513651980564,43.186800186767485],[140.80037014357586,43.186838468074555],[140.7998862491651,43.18464885954008],[140.7993790701653,43.18365523177614],[140.79912315206798,43.18307839013386],[140.79965496012622,43.182974438670506],[140.8005642633574,43.18293146232167],[140.8018496563345,43.182895281659704],[140.80442335398078,43.182784794802224]]]},"properties":{"KEY_CODE":"01408003015","PREF":"01","CITY":"408","CITY_NAME":"余市町","S_NAME":"黒川町十五丁目","SETAI":"259"}},{"type":"Feature","geometry":{"type":"Polygon","coordinates":[[[140.8018496563345,43.182895281659704],[140.8005642633574,43.18293146232167],[140.79965496012622,43.182974438670506],[140.79945286752505,43.18299402895416],[140.79799173192353,43.18019401209157],[140.7978707639248,43.17998219520595],[140.80267560709794,43.179069547934496],[140.8039621508087,43.18051228830546],[140.80442335398078,43.182784794802224],[140.8018496563345,43.182895281659704]]]},"properties":{"KEY_CODE":"01408003016","PREF":"01","CITY":"408","CITY_NAME":"余市町","S_NAME":"黒川町十六丁目","SETAI":"297"}},{"type":"Feature","geometry":{"type":"Polygon","coordinates":[[[140.81229676560875,43.18980990657522],[140.81116901965055,43.19009501865279],[140.81003269515898,43.189932886317884],[140.80838267576902,43.18980182269457],[140.8068792398199,43.189605703892035],[140.80566254400642,43.18944954684575],[140.8054094989363,43.18830724780864],[140.80514090348007,43.18682488771984],[140.80638597537,43.18666354698008],[140.80677757176775,43.18661367107113],[140.80732624815,43.186588609033116],[140.81224387534738,43.18672115976535],[140.8123346623661,43.18672230994183],[140.81229676560875,43.18980990657522]]]},"properties":{"KEY_CODE":"01408003017","PREF":"01","CITY":"408","CITY_NAME":"余市町","S_NAME":"黒川町十七丁目","SETAI":"313"}},{"type":"Feature","geometry":{"type":"Polygon","coordinates":[[[140.81224387534738,43.18672115976535],[140.80732624815,43.186588609033116],[140.80677757176775,43.18661367107113],[140.80638597537,43.18666354698008],[140.80514090348007,43.18682488771984],[140.80513651980564,43.18680018676749],[140.80506762057337,43.186408433780386],[140.80442335398078,43.182784794802224],[140.81242361614318,43.18279938949606],[140.81224387534738,43.18672115976535]]]},"properties":{"KEY_CODE":"01408003018","PREF":"01","CITY":"408","CITY_NAME":"余市町","S_NAME":"黒川町十八丁目","SETAI":"291"}},{"type":"Feature","geometry":{"type":"Polygon","coordinates":[[[140.82053778953303,43.18972887119276],[140.82015598216492,43.190220333043435],[140.81960367327855,43.19018831910593],[140.81909537343503,43.19007871757441],[140.81857391349055,43.19003871564839],[140.8182284705223,43.18989071010584],[140.8174222582803,43.18995593431235],[140.81594474841606,43.189705823960225],[140.8156740697209,43.18970242915544],[140.81516679530262,43.18954535222215],[140.81464560393073,43.18949422343306],[140.8129635255694,43.18967676770076],[140.81229676560875,43.18980990657522],[140.8123346623661,43.18672230994183],[140.81386331162767,43.18673119793782],[140.81526163250277,43.18672336156082],[140.81777617286946,43.18668035747662],[140.8222298858668,43.187779964193226],[140.82134268738628,43.188808979762335],[140.82053778953303,43.18972887119276]]]},"properties":{"KEY_CODE":"01408003019","PREF":"01","CITY":"408","CITY_NAME":"余市町","S_NAME":"黒川町十九丁目","SETAI":"90"}},{"type":"Feature","geometry":{"type":"Polygon","coordinates":[[[140.8209345632408,43.18168742836483],[140.82236271026036,43.18481877727264],[140.8222298858668,43.187779964193226],[140.81777617286946,43.18668035747662],[140.81526163250277,43.18672336156082],[140.81386331162767,43.18673119793782],[140.8123346623661,43.18672230994183],[140.81224387534738,43.18672115976535],[140.81242361614318,43.18279938949606],[140.81651166002368,43.182792003212256],[140.8209345632408,43.18168742836483]]]},"properties":{"KEY_CODE":"01408003020","PREF":"01","CITY":"408","CITY_NAME":"余市町","S_NAME":"黒川町二十丁目","SETAI":"57"}},{"type":"Feature","geometry":{"type":"Polygon","coordinates":[[[140.80442335398078,43.182784794802224],[140.8039621508087,43.18051228830546],[140.80267560709794,43.179069547934496],[140.7978707639248,43.17998219520595],[140.79760023569796,43.180031084111064],[140.79583782726442,43.18036032842418],[140.79413057149156,43.18125160343836],[140.7937658632828,43.18153474123277],[140.79201745433593,43.18103500440456],[140.7892813115275,43.1811818830642],[140.7891548927871,43.17907598240594],[140.7867217415178,43.17695739645281],[140.782329601748,43.17521829918798],[140.78711142221636,43.17187316413991],[140.78899522726812,43.16908271387527],[140.7898161454257,43.16784888133404],[140.79187824999647,43.16516951954547],[140.7928681112264,43.16375109181859],[140.79377156624787,43.162607313397125],[140.79534964566187,43.16023432407656],[140.79709165925846,43.16216363167379],[140.79933815197288,43.16305078721039],[140.80120933183082,43.16706106867395],[140.80338532955207,43.16875947269646],[140.8070011837488,43.17342965563329],[140.8106181388639,43.176518124118054],[140.81116459102483,43.17670412600581],[140.81160708733643,43.176864905949465],[140.8120961203574,43.17706966184326],[140.81255355207273,43.17702407099347],[140.81451961160792,43.17686295474825],[140.8150392214226,43.1775845024346],[140.81798801285538,43.17782091111556],[140.81903329921906,43.17707458476336],[140.81917974054969,43.17859790243759],[140.82058804861774,43.178882970175835],[140.8209345632408,43.18168742836483],[140.81651166002368,43.182792003212256],[140.81242361614318,43.18279938949606],[140.80442335398078,43.182784794802224]]]},"properties":{"KEY_CODE":"01408003021","PREF":"01","CITY":"408","CITY_NAME":"余市町","S_NAME":"黒川町","SETAI":"465"}},{"type":"Feature","geometry":{"type":"Polygon","coordinates":[[[140.836028743427,43.17441558967712],[140.8369910215741,43.17886601148002],[140.83704673170882,43.17958405457574],[140.83646949111622,43.18130300441105],[140.83664997848493,43.18197772109713],[140.8365107125561,43.18300716054374],[140.8363555298782,43.18354326025552],[140.8368071984407,43.18546551308189],[140.83675771884663,43.186081332006815],[140.83599505717893,43.18729365242004],[140.83248708478698,43.18885301189839],[140.82932347275917,43.19055507951617],[140.82919857076843,43.19028768723149],[140.8268009010966,43.18971781815719],[140.82134268738628,43.188808979762335],[140.8222298858668,43.187779964193226],[140.82236271026036,43.18481877727264],[140.8209345632408,43.18168742836483],[140.82058804861774,43.178882970175835],[140.81917974054969,43.17859790243759],[140.81903329921906,43.17707458476336],[140.81798801285538,43.17782091111556],[140.8150392214226,43.1775845024346],[140.81451961160792,43.17686295474825],[140.81255355207273,43.17702407099347],[140.8120961203574,43.17706966184326],[140.81160708733643,43.176864905949465],[140.81116459102483,43.17670412600581],[140.8106181388639,43.176518124118054],[140.8070011837488,43.17342965563329],[140.80338532955207,43.16875947269646],[140.80120933183082,43.16706106867395],[140.79933815197288,43.16305078721039],[140.79709165925846,43.16216363167379],[140.79534964566187,43.16023432407656],[140.79791543093933,43.156722495908845],[140.80019488422246,43.154961119477086],[140.80176948825735,43.15230680866947],[140.7993196817411,43.15048308541403],[140.80068686962514,43.14943261215151],[140.79923884110704,43.147112250466215],[140.80137856808412,43.1463948690755],[140.79990037144174,43.144596534318026],[140.80221250499145,43.144122973825674],[140.80266261971764,43.143002159793795],[140.80508926347406,43.14183121871126],[140.80596337742338,43.141311352244855],[140.8069117936438,43.14074726552951],[140.8137957554041,43.139026890207525],[140.814588569601,43.13732702710683],[140.81483280042028,43.13600497065186],[140.81507702527685,43.13468264144414],[140.81681633128508,43.13474382756965],[140.81831163608084,43.13370623074576],[140.82038678994167,43.13266890175124],[140.8213631180974,43.13305552199011],[140.82438450171338,43.13059400377777],[140.82533059568803,43.13026850429934],[140.82563568947208,43.128844520858465],[140.82746671649497,43.1279497573815],[140.82780276444888,43.12489813999675],[140.83009141277765,43.122050544249795],[140.83018323343526,43.118347956025715],[140.82963398774612,43.11751415303042],[140.82786417060106,43.1163950442459],[140.8305018238576,43.11560583693873],[140.83342672180066,43.11401445475282],[140.83695152276798,43.11393124777946],[140.8387639203772,43.1145812272248],[140.84423895370992,43.111073481689175],[140.84733880062797,43.11089856226341],[140.84921338004546,43.11376499275513],[140.85213829921298,43.1150066206597],[140.8527756160824,43.11598986634096],[140.85566308596552,43.11630661431643],[140.8563378429693,43.11736484555538],[140.8557252286873,43.11890630777958],[140.85917499558317,43.12057295420757],[140.86101223751572,43.122322810129454],[140.86123703334636,43.12480588896675],[140.86446170024814,43.125705844177915],[140.8683615333566,43.125622573461555],[140.87134897573247,43.12373122467833],[140.87329882939432,43.123256259572535],[140.88054824594994,43.12389798502099],[140.88241084662224,43.12520043235238],[140.88351053768588,43.12528128394701],[140.88421049261677,43.125281267666615],[140.8849479952315,43.12541461665155],[140.8898525643235,43.131960542119806],[140.8844743497611,43.13796025340186],[140.88298671876197,43.140251360021935],[140.87418287279772,43.1435308405408],[140.867979069611,43.14605645478341],[140.8639174679094,43.14817053179914],[140.8548671489659,43.15188259955236],[140.84882260274728,43.15521601002015],[140.84217130833346,43.15970734876643],[140.83817537749871,43.161630823531034],[140.83519057378282,43.16432883522546],[140.8369574295313,43.16616642598602],[140.83522254845454,43.17018995828331],[140.83541758243595,43.17163953242562],[140.83554324474213,43.17259383142306],[140.836028743427,43.17441558967712]]]},"properties":{"KEY_CODE":"014080040","PREF":"01","CITY":"408","CITY_NAME":"余市町","S_NAME":"登町","SETAI":"197"}},{"type":"Feature","geometry":{"type":"Polygon","coordinates":[[[140.78816112527647,43.199086379873634],[140.78646100963164,43.19717430762243],[140.78467012907248,43.196091120849836],[140.78510387605073,43.19434609767082],[140.78331800934268,43.193114263075984],[140.78450650652937,43.19253734705331],[140.78273552734436,43.190526447061885],[140.78349413854662,43.18966095756243],[140.78283957581232,43.187559450310765],[140.78453148573325,43.18672160712481],[140.7861232143784,43.18727072243027],[140.78684975719028,43.18981991811732],[140.78695183421473,43.19022216478218],[140.78721804716966,43.190971890792035],[140.78731008025542,43.19115493624499],[140.78754961954368,43.19153671619998],[140.7878954040307,43.192142653660575],[140.78845290098945,43.193233885334394],[140.79133721021478,43.195396503850084],[140.79172685899553,43.19739215921855],[140.7892624852465,43.197704461721834],[140.78816112527647,43.199086379873634]]]},"properties":{"KEY_CODE":"014080050","PREF":"01","CITY":"408","CITY_NAME":"余市町","S_NAME":"入舟町","SETAI":"196"}},{"type":"Feature","geometry":{"type":"Polygon","coordinates":[[[140.78467012907248,43.196091120849836],[140.7836042607968,43.19719614396857],[140.77981524543478,43.19627403500977],[140.77779632862163,43.19725285890356],[140.7759755334476,43.1968476353971],[140.775430659006,43.195902998731604],[140.7762650358147,43.193710277161024],[140.7781888636361,43.19268460695408],[140.77919084967735,43.19183494735373],[140.78273552734436,43.190526447061885],[140.78450650652937,43.19253734705331],[140.78331800934268,43.193114263075984],[140.78510387605073,43.19434609767082],[140.78467012907248,43.196091120849836]]]},"properties":{"KEY_CODE":"014080060","PREF":"01","CITY":"408","CITY_NAME":"余市町","S_NAME":"朝日町","SETAI":"156"}},{"type":"Feature","geometry":{"type":"Polygon","coordinates":[[[140.78283957581232,43.187559450310765],[140.78349413854662,43.18966095756243],[140.78273552734436,43.190526447061885],[140.77919084967735,43.19183494735373],[140.7781888636361,43.19268460695408],[140.7762650358147,43.193710277161074],[140.77461363660765,43.1960288805023],[140.77346311944538,43.196203963950936],[140.77210046182677,43.19279895585536],[140.77224802559346,43.190663835348225],[140.77278916828843,43.18914185278346],[140.77200559024575,43.18816865984013],[140.77158643552494,43.18742866796486],[140.77134074976496,43.187159090322865],[140.77108765485403,43.18700137768044],[140.76862979947092,43.18662509543791],[140.76791699204526,43.18630986454832],[140.7669637475623,43.18583116447777],[140.7664375226799,43.18571744033922],[140.76469049172331,43.18495196304061],[140.76464139147066,43.184896047473536],[140.764224961807,43.184278227356124],[140.76307981124782,43.182503545420275],[140.76072001826563,43.18174424534535],[140.75930620622572,43.18002573632676],[140.7579802804524,43.17838734188087],[140.7565937999941,43.17529033024815],[140.7568502541857,43.17296914910679],[140.75944600035538,43.17425883094352],[140.76641593217673,43.175637650029095],[140.76883433106286,43.175365535024724],[140.77351858173463,43.17686958450057],[140.77447810785563,43.17775002491643],[140.77798922310734,43.182940885203365],[140.77907860245088,43.18443165246448],[140.78179761694247,43.18808119059789],[140.78283957581232,43.187559450310765]]]},"properties":{"KEY_CODE":"014080070","PREF":"01","CITY":"408","CITY_NAME":"余市町","S_NAME":"美園町","SETAI":"354"}},{"type":"Feature","geometry":{"type":"Polygon","coordinates":[[[140.7861232143784,43.18727072243027],[140.78453148573325,43.18672160712481],[140.78283957581232,43.187559450310765],[140.78179761694247,43.18808119059789],[140.77907860245088,43.18443165246448],[140.77798922310734,43.182940885203365],[140.77447810785563,43.17775002491643],[140.77351858173463,43.17686958450057],[140.76883433106286,43.175365535024724],[140.76641593217673,43.175637650029095],[140.75944600035538,43.17425883094352],[140.7568502541857,43.17296914910679],[140.75572254601212,43.17223758032561],[140.75374767003643,43.17072758192473],[140.7530755024697,43.17013239894506],[140.7511974106812,43.16770310477838],[140.75077603784746,43.16416306610875],[140.75209534172504,43.16371400773938],[140.75480614932886,43.16407178095617],[140.75604858530198,43.16461117822505],[140.75720312601032,43.16558488271791],[140.7587125351256,43.16515208336058],[140.7613188093414,43.16552254943168],[140.7648891918343,43.16660108922971],[140.76561395840247,43.16698379607361],[140.76655488279826,43.16473968419959],[140.76880162605468,43.16579199672808],[140.7711289798054,43.166355840723256],[140.77267809016493,43.16567763463565],[140.77446630138382,43.166194768086505],[140.775260270493,43.16634692810228],[140.77556068804017,43.16718235711026],[140.7762672772335,43.16799636670937],[140.77607624011432,43.168664902218005],[140.77718412526116,43.1701409353864],[140.77750840517055,43.17057277376792],[140.78050242545729,43.171400152359645],[140.7811504571124,43.17289387186613],[140.782329601748,43.17521829918798],[140.7867217415178,43.17695739645281],[140.7891548927871,43.17907598240594],[140.7892813115275,43.1811818830642],[140.7878385458961,43.18380679159987],[140.78628053843218,43.186132929362394],[140.7861232143784,43.18727072243027]]]},"properties":{"KEY_CODE":"014080080","PREF":"01","CITY":"408","CITY_NAME":"余市町","S_NAME":"山田町","SETAI":"352"}},{"type":"Feature","geometry":{"type":"Polygon","coordinates":[[[140.78816112527647,43.199086379873634],[140.78939694222467,43.19983730503216],[140.78564135375413,43.19897811009923],[140.77951217147455,43.2008159338754],[140.77595952829543,43.2025183294846],[140.77520539517556,43.204551751290985],[140.77397434425367,43.20405684886596],[140.77388195102503,43.20404503542763],[140.77408557977952,43.20330289726936],[140.77473561945433,43.20230300884199],[140.77441460130623,43.202160387807965],[140.77432963678353,43.20211174948174],[140.77394129677532,43.20085413340394],[140.77388599930626,43.20057998659139],[140.77417051975544,43.200625156571604],[140.7742231607362,43.19910374582726],[140.77346311944538,43.19620396395093],[140.77461363660765,43.1960288805023],[140.775430659006,43.195902998731604],[140.7759755334476,43.1968476353971],[140.77779632862163,43.19725285890356],[140.77981524543478,43.19627403500977],[140.7836042607968,43.19719614396857],[140.78467012907248,43.196091120849836],[140.78646100963164,43.19717430762243],[140.78816112527647,43.199086379873634]]]},"properties":{"KEY_CODE":"014080090","PREF":"01","CITY":"408","CITY_NAME":"余市町","S_NAME":"浜中町","SETAI":"221"}},{"type":"Feature","geometry":{"type":"Polygon","coordinates":[[[140.77388195102503,43.20404503542763],[140.7734507412086,43.203687472766944],[140.77267094634422,43.20364060774572],[140.77315540621294,43.20313741968015],[140.77441460130623,43.202160387807965],[140.77473561945433,43.20230300884199],[140.77408557977952,43.20330289726936],[140.77388195102503,43.20404503542763]]]},"properties":{"KEY_CODE":"01408010001","PREF":"01","CITY":"408","CITY_NAME":"余市町","S_NAME":"沢町一丁目","SETAI":"19"}},{"type":"Feature","geometry":{"type":"Polygon","coordinates":[[[140.77394129677532,43.20085413340394],[140.77432963678353,43.20211174948174],[140.77315540621294,43.20313741968015],[140.77267094634422,43.20364060774572],[140.7714170835224,43.20356643350281],[140.7714525588523,43.20258300792664],[140.77269055640335,43.20190756879266],[140.77394129677532,43.20085413340394]]]},"properties":{"KEY_CODE":"01408010002","PREF":"01","CITY":"408","CITY_NAME":"余市町","S_NAME":"沢町二丁目","SETAI":"55"}},{"type":"Feature","geometry":{"type":"Polygon","coordinates":[[[140.77394129677532,43.20085413340394],[140.77269055640335,43.20190756879266],[140.7714525588523,43.20258300792666],[140.77149062381105,43.20137337906977],[140.77333665963917,43.199991771522136],[140.77364965302763,43.19991656084589],[140.77388599930626,43.20057998659139],[140.77394129677532,43.20085413340394]]]},"properties":{"KEY_CODE":"01408010003","PREF":"01","CITY":"408","CITY_NAME":"余市町","S_NAME":"沢町三丁目","SETAI":"17"}},{"type":"Feature","geometry":{"type":"Polygon","coordinates":[[[140.77149062381105,43.20137337906977],[140.76999615917262,43.201352049554544],[140.77001157167734,43.20081410669242],[140.77002761113687,43.20025022006909],[140.77012028967707,43.199200382317024],[140.7724176816625,43.19772814874616],[140.7725652386863,43.19805869603752],[140.77257032282918,43.198429527135545],[140.77312044236282,43.199590079680135],[140.77333665963917,43.199991771522136],[140.77149062381105,43.20137337906977]]]},"properties":{"KEY_CODE":"01408010004","PREF":"01","CITY":"408","CITY_NAME":"余市町","S_NAME":"沢町四丁目","SETAI":"61"}},{"type":"Feature","geometry":{"type":"Polygon","coordinates":[[[140.7724176816625,43.19772814874616],[140.77012028967707,43.199200382317024],[140.76815229918654,43.19920468499911],[140.7659714634712,43.198888451704164],[140.7676225127479,43.19829636050496],[140.76694388371033,43.19638668569839],[140.76813710385647,43.19546506123139],[140.76923663455523,43.19474728133894],[140.76958477997294,43.194898775155],[140.7697868271115,43.1950778434449],[140.76973871050788,43.195255007217746],[140.76976327792224,43.19532424738044],[140.76978752457129,43.19591158050621],[140.77002624545034,43.19630337234866],[140.7701943958558,43.196433476091485],[140.77040781158794,43.196520281683824],[140.77044714821005,43.19653133854165],[140.7713720237891,43.196597042872085],[140.77175970172416,43.196704458477576],[140.77185946034484,43.196888461200814],[140.7719167473978,43.19697619701132],[140.77222445467626,43.19733434697426],[140.77238273278874,43.197587042005885],[140.7724176816625,43.19772814874616]]]},"properties":{"KEY_CODE":"01408010005","PREF":"01","CITY":"408","CITY_NAME":"余市町","S_NAME":"沢町五丁目","SETAI":"107"}},{"type":"Feature","geometry":{"type":"Polygon","coordinates":[[[140.76590854177746,43.19919186815097],[140.76467917189314,43.199471328689064],[140.76324363238797,43.198237763233],[140.7650738510032,43.19685032424699],[140.76513703256396,43.194896063516076],[140.7659835228598,43.19436364362767],[140.76605010901181,43.19435684322406],[140.7663675809636,43.19438142984436],[140.7672208355123,43.19422371958786],[140.76892202467005,43.19462807961536],[140.76923663455523,43.19474728133894],[140.76813710385647,43.19546506123139],[140.76694388371033,43.19638668569839],[140.7676225127479,43.19829636050496],[140.7659714634712,43.198888451704164],[140.76590854177746,43.19919186815097]]]},"properties":{"KEY_CODE":"01408010006","PREF":"01","CITY":"408","CITY_NAME":"余市町","S_NAME":"沢町六丁目","SETAI":"3"}},{"type":"Feature","geometry":{"type":"Polygon","coordinates":[[[140.77346311944538,43.196203963950936],[140.7742231607362,43.19910374582726],[140.77417051975544,43.200625156571604],[140.77364965302763,43.19991656084589],[140.77333665963917,43.199991771522136],[140.77312044236282,43.199590079680135],[140.77257032282918,43.198429527135545],[140.7725652386863,43.19805869603752],[140.77238273278874,43.197587042005885],[140.77222445467626,43.19733434697426],[140.7719167473978,43.19697619701132],[140.77185946034484,43.196888461200814],[140.77175970172416,43.196704458477576],[140.7713720237891,43.196597042872085],[140.77044714821005,43.19653133854165],[140.77040781158794,43.196520281683824],[140.7701943958558,43.196433476091485],[140.77002624545034,43.19630337234866],[140.76978752457129,43.19591158050621],[140.76976327792224,43.19532424738044],[140.76973871050788,43.195255007217746],[140.7697868271115,43.1950778434449],[140.76958477997294,43.194898775155],[140.76949171398547,43.19484390980447],[140.76892202467005,43.19462807961536],[140.7672208355123,43.19422371958786],[140.7663675809636,43.19438142984436],[140.76605010901181,43.19435684322406],[140.7659835228598,43.19436364362767],[140.76513703256396,43.194896063516076],[140.7650738510032,43.19685032424698],[140.76311477482827,43.19808530609192],[140.76169712941953,43.1972530268772],[140.76109808675946,43.19672283940085],[140.76066141021997,43.19710091684716],[140.75708016245125,43.19495752791486],[140.7532419343024,43.19463202709],[140.75035905629264,43.194025221411366],[140.7462424261895,43.19267636473754],[140.74134276855753,43.19102971276769],[140.74196119411428,43.19043585215011],[140.7434304406849,43.189758380612794],[140.74493638004043,43.18951438023007],[140.7463696035115,43.18928783176974],[140.74770834547274,43.18864588098906],[140.75113683205018,43.189049853629946],[140.754287175599,43.190017831699045],[140.75560971287084,43.190753212203596],[140.7593390138086,43.187724427260214],[140.76422496180703,43.18427822735613],[140.76464139147066,43.184896047473536],[140.76469049172331,43.18495196304061],[140.7664375226799,43.18571744033922],[140.7669637475623,43.18583116447777],[140.76791699204526,43.18630986454832],[140.76862979947092,43.18662509543791],[140.77108765485403,43.18700137768044],[140.77134074976496,43.187159090322865],[140.77158643552494,43.18742866796486],[140.77200559024575,43.18816865984013],[140.77278916828845,43.18914185278345],[140.77224802559346,43.190663835348225],[140.77210046182677,43.192798955855324],[140.77346311944538,43.196203963950936]]]},"properties":{"KEY_CODE":"01408010007","PREF":"01","CITY":"408","CITY_NAME":"余市町","S_NAME":"沢町","SETAI":"40"}},{"type":"Feature","geometry":{"type":"Polygon","coordinates":[[[140.77002761113687,43.20025022006909],[140.76451310074134,43.20014669583949],[140.7645804351673,43.19951927357413],[140.76590854177746,43.19919186815097],[140.7659714634712,43.198888451704164],[140.76815229918654,43.19920468499911],[140.77005675253486,43.199227970674514],[140.77002761113687,43.20025022006909]]]},"properties":{"KEY_CODE":"01408011001","PREF":"01","CITY":"408","CITY_NAME":"余市町","S_NAME":"富沢町一丁目","SETAI":"20"}},{"type":"Feature","geometry":{"type":"Polygon","coordinates":[[[140.77001157167734,43.20081410669242],[140.76762583374924,43.20131820917554],[140.7669549388511,43.201769434597125],[140.76439692072867,43.20153061791868],[140.76451310074134,43.20014669583949],[140.77002761113687,43.20025022006909],[140.77001157167734,43.20081410669242]]]},"properties":{"KEY_CODE":"01408011002","PREF":"01","CITY":"408","CITY_NAME":"余市町","S_NAME":"富沢町二丁目","SETAI":"14"}},{"type":"Feature","geometry":{"type":"Polygon","coordinates":[[[140.77145337244343,43.202489623239],[140.76537638831425,43.202423917065246],[140.76519925447712,43.20160997359398],[140.7669549388511,43.201769434597125],[140.76762583374924,43.20131820917554],[140.76999615917262,43.201352049554544],[140.77149062381105,43.20137337906977],[140.77145337244343,43.202489623239]]]},"properties":{"KEY_CODE":"01408011003","PREF":"01","CITY":"408","CITY_NAME":"余市町","S_NAME":"富沢町三丁目","SETAI":"65"}},{"type":"Feature","geometry":{"type":"Polygon","coordinates":[[[140.7675509274234,43.203510330792646],[140.7657049854022,43.20351462284154],[140.76537638831425,43.202423917065246],[140.77145337244343,43.202489623239],[140.7714525588523,43.20258300792664],[140.7714170835224,43.20356643350281],[140.767551992664,43.20348615172627],[140.7675509274234,43.203510330792646]]]},"properties":{"KEY_CODE":"01408011004","PREF":"01","CITY":"408","CITY_NAME":"余市町","S_NAME":"富沢町四丁目","SETAI":"93"}},{"type":"Feature","geometry":{"type":"Polygon","coordinates":[[[140.767551992664,43.20348615172627],[140.7714170835224,43.20356643350281],[140.77267094634422,43.20364060774572],[140.7734507412086,43.203687472766944],[140.77350677596453,43.20402295667191],[140.7705999497667,43.20461948853486],[140.76751295470734,43.20459837652096],[140.7675509274234,43.203510330792646],[140.767551992664,43.20348615172627]]]},"properties":{"KEY_CODE":"01408011005","PREF":"01","CITY":"408","CITY_NAME":"余市町","S_NAME":"富沢町五丁目","SETAI":"51"}},{"type":"Feature","geometry":{"type":"Polygon","coordinates":[[[140.77397434425367,43.20405684886596],[140.77418382928667,43.20581577710282],[140.77178534408446,43.20579024958258],[140.7674745095253,43.20569795170659],[140.76751295470734,43.20459837652096],[140.7705999497667,43.20461948853486],[140.77350677596453,43.20402295667191],[140.77388195102503,43.20404503542763],[140.77397434425367,43.20405684886596]]]},"properties":{"KEY_CODE":"01408011006","PREF":"01","CITY":"408","CITY_NAME":"余市町","S_NAME":"富沢町六丁目","SETAI":"58"}},{"type":"Feature","geometry":{"type":"Polygon","coordinates":[[[140.77173768370736,43.20723458567524],[140.77131619801273,43.206844226858905],[140.76743838129445,43.206673988852245],[140.7674745095253,43.20569795170659],[140.77178534408446,43.20579024958258],[140.77173768370736,43.20723458567524]]]},"properties":{"KEY_CODE":"01408011007","PREF":"01","CITY":"408","CITY_NAME":"余市町","S_NAME":"富沢町七丁目","SETAI":"49"}},{"type":"Feature","geometry":{"type":"Polygon","coordinates":[[[140.7717340109773,43.20798001131751],[140.769771103136,43.20796929635614],[140.76741032044293,43.20793615597066],[140.76743838129445,43.206673988852245],[140.77131619801273,43.206844226858905],[140.77173768370736,43.20723458567524],[140.7717340109773,43.20798001131751]]]},"properties":{"KEY_CODE":"01408011008","PREF":"01","CITY":"408","CITY_NAME":"余市町","S_NAME":"富沢町八丁目","SETAI":"45"}},{"type":"Feature","geometry":{"type":"Polygon","coordinates":[[[140.7717340109773,43.20798001131751],[140.7716719919764,43.20911499975999],[140.7673834324144,43.209050578920134],[140.76741032044293,43.20793615597066],[140.769771103136,43.20796929635614],[140.7717340109773,43.20798001131751]]]},"properties":{"KEY_CODE":"01408011009","PREF":"01","CITY":"408","CITY_NAME":"余市町","S_NAME":"富沢町九丁目","SETAI":"62"}},{"type":"Feature","geometry":{"type":"Polygon","coordinates":[[[140.771661011411,43.2095099589056],[140.77046574615235,43.21019312505461],[140.76734457442225,43.21015499926461],[140.7673834324144,43.209050578920134],[140.7716719919764,43.20911499975999],[140.771661011411,43.2095099589056]]]},"properties":{"KEY_CODE":"01408011010","PREF":"01","CITY":"408","CITY_NAME":"余市町","S_NAME":"富沢町十丁目","SETAI":"49"}},{"type":"Feature","geometry":{"type":"Polygon","coordinates":[[[140.77157855653505,43.211308154544454],[140.77045242375362,43.21128971437332],[140.76885843280712,43.21126323327867],[140.76731983708757,43.211133011992224],[140.76734457442225,43.21015499926461],[140.77046574615235,43.21019312505461],[140.7716237355273,43.210217464314475],[140.77157855653505,43.211308154544454]]]},"properties":{"KEY_CODE":"01408011011","PREF":"01","CITY":"408","CITY_NAME":"余市町","S_NAME":"富沢町十一丁目","SETAI":"85"}},{"type":"Feature","geometry":{"type":"Polygon","coordinates":[[[140.77157855653505,43.211308154544454],[140.77155608279435,43.21267735458301],[140.7711170062849,43.21267940932453],[140.7687942812736,43.21227793606875],[140.76885843280712,43.21126323327867],[140.77045242375362,43.21128971437332],[140.77157855653505,43.211308154544454]]]},"properties":{"KEY_CODE":"01408011012","PREF":"01","CITY":"408","CITY_NAME":"余市町","S_NAME":"富沢町十二丁目","SETAI":"40"}},{"type":"Feature","geometry":{"type":"Polygon","coordinates":[[[140.76846923023675,43.21390631449461],[140.76873944861669,43.21235458674353],[140.7711170062849,43.21267940932453],[140.7715189091807,43.21359591529177],[140.76911760170827,43.2135280530284],[140.76846923023675,43.21390631449461]]]},"properties":{"KEY_CODE":"01408011013","PREF":"01","CITY":"408","CITY_NAME":"余市町","S_NAME":"富沢町十三丁目","SETAI":"26"}},{"type":"Feature","geometry":{"type":"Polygon","coordinates":[[[140.77151734992336,43.2136246587613],[140.77162580682972,43.21460868061354],[140.7715070224308,43.215585892878245],[140.77031528652066,43.21554536892978],[140.77031847946157,43.21421530224075],[140.77023728593957,43.214173179992706],[140.76989127395052,43.21405596510131],[140.76962796208446,43.21409362733696],[140.76846923023675,43.21390631449461],[140.76911760170827,43.2135280530284],[140.77151734992336,43.2136246587613]]]},"properties":{"KEY_CODE":"01408011014","PREF":"01","CITY":"408","CITY_NAME":"余市町","S_NAME":"富沢町十四丁目","SETAI":"14"}},{"type":"Feature","geometry":{"type":"Polygon","coordinates":[[[140.77418382928667,43.20581577710282],[140.77424623560887,43.20937311826305],[140.77493983651448,43.21002353284138],[140.7755857795084,43.21330090805631],[140.77670882395876,43.213497401868345],[140.77868054507493,43.2165778374189],[140.77548575965767,43.21487910537688],[140.7715070224308,43.215585892878245],[140.77162580682972,43.21460868061354],[140.77151734992336,43.2136246587613],[140.7715189091807,43.21359591529177],[140.77155608279435,43.21267735458301],[140.77157855653505,43.211308154544454],[140.7716237355273,43.210217464314475],[140.771661011411,43.2095099589056],[140.7716719919764,43.20911499975999],[140.7717340109773,43.20798001131751],[140.77173768370736,43.20723458567524],[140.77178534408446,43.20579024958258],[140.77418382928667,43.20581577710282]]]},"properties":{"KEY_CODE":"014080120","PREF":"01","CITY":"408","CITY_NAME":"余市町","S_NAME":"港町","SETAI":"266"}},{"type":"Feature","geometry":{"type":"Polygon","coordinates":[[[140.77868054507493,43.2165778374189],[140.77752264202675,43.21962322767892],[140.77765985018672,43.22194222904786],[140.77711064254737,43.22451555429384],[140.77430293147245,43.22708907609291],[140.77230391937988,43.227444682515774],[140.77061076498237,43.225603785227435],[140.76594192817836,43.226254674119026],[140.76223409949424,43.2272003167314],[140.75877092840432,43.22622393180702],[140.75645154616942,43.227088535668294],[140.75552080979514,43.22823777793793],[140.75564294132167,43.22972266094528],[140.75468001203424,43.23061252953299],[140.75216563151116,43.22908102230018],[140.75136522769762,43.2290275010042],[140.75079506037,43.229013560673486],[140.74727898616325,43.22902981698928],[140.74444237297843,43.227815190608275],[140.74383594913164,43.22741478963882],[140.74196517028383,43.22582673248161],[140.7414108859314,43.225200762102574],[140.7401035814139,43.223297637625535],[140.7367914184046,43.21727405495949],[140.7358689600361,43.21599266671954],[140.73385833906428,43.215058784665466],[140.73216774535075,43.21485861173256],[140.73056735720073,43.21475124736264],[140.72660647785423,43.21412098353885],[140.72172901533773,43.2137628400965],[140.71982671402932,43.21340976642],[140.71675831082163,43.211678303549306],[140.71403704814026,43.209070740549684],[140.71208676582165,43.20703792194874],[140.71106332366423,43.20610531843776],[140.70804349161446,43.20314996647841],[140.70369613483552,43.199118304111515],[140.70153245064526,43.19760165950628],[140.6946700394642,43.194868096684274],[140.69453367261124,43.19481378017504],[140.69453655025953,43.19460972625445],[140.69791368559586,43.193440453315816],[140.70554949675076,43.19026175581541],[140.7137409596364,43.189353118174125],[140.71977339941697,43.18908244022662],[140.7244581956632,43.18966286146938],[140.72744266445704,43.18809185795521],[140.733161230851,43.187438457816604],[140.7371341012394,43.18872659722528],[140.74134276855753,43.19102971276769],[140.7462424261895,43.19267636473754],[140.75035905629264,43.1940252214114],[140.7532419343024,43.19463202709],[140.75708016245125,43.19495752791489],[140.76066141021997,43.19710091684716],[140.76109808675946,43.19672283940085],[140.76169712941953,43.1972530268772],[140.76311477482827,43.19808530609192],[140.76324363238797,43.198237763233],[140.76467917189314,43.199471328689064],[140.7645804351673,43.19951927357413],[140.76451310074134,43.20014669583949],[140.76439692072867,43.20153061791868],[140.76519925447712,43.20160997359398],[140.76537638831425,43.202423917065246],[140.7657049854022,43.20351462284154],[140.7675509274234,43.203510330792646],[140.76751295470734,43.20459837652096],[140.7674745095253,43.20569795170659],[140.76743838129445,43.206673988852245],[140.76741032044293,43.20793615597066],[140.7673834324144,43.209050578920134],[140.76734457442225,43.21015499926461],[140.76731983708757,43.211133011992224],[140.76885843280712,43.21126323327867],[140.7687942812736,43.21227793606875],[140.76873944861669,43.21235458674353],[140.76846923023675,43.21390631449461],[140.76962796208446,43.21409362733696],[140.76989127395052,43.21405596510131],[140.77023728593957,43.214173179992706],[140.77031847946157,43.21421530224075],[140.7703152865206,43.21554536892978],[140.7715070224308,43.215585892878245],[140.77548575965767,43.21487910537688],[140.77868054507493,43.2165778374189]]]},"properties":{"KEY_CODE":"014080130","PREF":"01","CITY":"408","CITY_NAME":"余市町","S_NAME":"梅川町","SETAI":"330"}},{"type":"Feature","geometry":{"type":"Polygon","coordinates":[[[140.74134276855753,43.19102971276769],[140.7371341012394,43.18872659722528],[140.733161230851,43.187438457816604],[140.72744266445704,43.18809185795521],[140.7244581956632,43.18966286146938],[140.71977339941697,43.18908244022662],[140.7137409596364,43.189353118174125],[140.70554949675076,43.19026175581541],[140.69791368559586,43.193440453315816],[140.69453655025953,43.19460972625445],[140.69415870528894,43.19376909690401],[140.69048089942547,43.190754677040175],[140.68985058797915,43.1898328828901],[140.68418184801757,43.18606628308216],[140.67923261050922,43.18497289691443],[140.6784142730298,43.18366433367124],[140.67252286371976,43.18128570809729],[140.66867495767252,43.18167834948962],[140.6617086969971,43.183151031897],[140.6608747869639,43.18475571599453],[140.65847762302278,43.18342867071241],[140.65513924786075,43.183447496217454],[140.6532552267954,43.1812468690916],[140.65401421741458,43.17815179886288],[140.65337834335986,43.17746885017291],[140.65334922366154,43.17364880966372],[140.65288929077875,43.172109461359966],[140.64899890396936,43.168033911890106],[140.65005927648363,43.16671646216369],[140.65009400714482,43.164330817220566],[140.6490064143055,43.162680507472494],[140.64887020496369,43.16071647423388],[140.64774055672822,43.15998748310882],[140.64887970882742,43.15883464575065],[140.64614536467008,43.15753146973838],[140.64711424748498,43.15597940473481],[140.64786359442883,43.15329156759659],[140.64853936606508,43.15278784272749],[140.64835033236588,43.14964789854867],[140.64996928382342,43.147936545516615],[140.6580482389961,43.14786736916605],[140.6605331960206,43.14728405979295],[140.66255826524352,43.14790170389419],[140.6669993182658,43.150232507778775],[140.66949488145386,43.15103467169071],[140.67097511467645,43.150623912374456],[140.67505327372464,43.150487723668284],[140.67858338435087,43.148828229629345],[140.68096644046335,43.14837451114218],[140.68403879146481,43.14595210997413],[140.68501280662827,43.14448507650806],[140.68663074865464,43.14410988277776],[140.6888320812463,43.14183525208526],[140.6909318911152,43.14323812739089],[140.69427179080523,43.14371900475971],[140.69720064622302,43.1449506946544],[140.7018638851585,43.14448646414911],[140.70389172943723,43.1451572449198],[140.7072632265019,43.14476606461275],[140.71150764488996,43.14615291324076],[140.7131422760472,43.14762695248732],[140.71529058503896,43.1476806112061],[140.71596348248875,43.149182492192956],[140.7165101936865,43.14956312193464],[140.71833852413616,43.15019411526143],[140.7208325912565,43.15061912247276],[140.7217907315284,43.150992493069964],[140.72278975201735,43.153292133122996],[140.72476246480753,43.15457395397661],[140.72658155211516,43.15496727316258],[140.72728131560987,43.15595077314465],[140.72776782943635,43.15727920498279],[140.72985178068475,43.15805203306659],[140.7305793579822,43.15854105110582],[140.73163833801183,43.15906266329034],[140.73218752912905,43.15919154465262],[140.733552953413,43.159194103710924],[140.73727877252455,43.16035474106257],[140.73849584557723,43.16073702269054],[140.73948653975557,43.16066529023422],[140.74173370777348,43.16125340805699],[140.7439990792964,43.16133697785306],[140.7454177111968,43.16176846347542],[140.74841783485203,43.16213877270758],[140.7490701292877,43.16342265324559],[140.75033309859037,43.16421971113818],[140.75077603784746,43.16416306610875],[140.7511974106812,43.16770310477838],[140.7530755024697,43.17013239894506],[140.75374767003643,43.17072758192473],[140.75572254601212,43.17223758032561],[140.7568502541857,43.17296914910679],[140.75659379999414,43.175290330248124],[140.7579802804524,43.178387341880835],[140.75930620622572,43.18002573632676],[140.76072001826563,43.18174424534535],[140.76307981124785,43.18250354542028],[140.764224961807,43.184278227356124],[140.75933901380859,43.187724427260214],[140.75560971287084,43.19075321220361],[140.754287175599,43.190017831699045],[140.75113683205018,43.189049853629946],[140.74770834547274,43.18864588098906],[140.7463696035115,43.18928783176974],[140.74493638004043,43.18951438023007],[140.7434304406849,43.189758380612794],[140.74196119411428,43.19043585215011],[140.74134276855753,43.19102971276769]]]},"properties":{"KEY_CODE":"014080140","PREF":"01","CITY":"408","CITY_NAME":"余市町","S_NAME":"豊丘町","SETAI":"134"}},{"type":"Feature","geometry":{"type":"Polygon","coordinates":[[[140.75216563151116,43.22908102230018],[140.74839547769068,43.23110593722641],[140.74609901480963,43.23420313712743],[140.74668641423978,43.23559160919672],[140.74297897631487,43.235550739434665],[140.74242968530828,43.2340555801543],[140.73959204084787,43.23354698512622],[140.73727261742158,43.23484872035547],[140.7358840802416,43.23489984800836],[140.734190518405,43.2377578207188],[140.7359144611536,43.239232678384546],[140.73597546759675,43.24171462081613],[140.73413779326503,43.24037785587588],[140.73243463239467,43.23768243573985],[140.73149490591936,43.233520044704775],[140.73138490261059,43.23064818342168],[140.73068235032883,43.22980309123444],[140.72723391159045,43.23017197360856],[140.72626592014922,43.2318038981241],[140.72652547692064,43.2360176205681],[140.7254360249605,43.237567103332765],[140.72360593561638,43.23796438355923],[140.72151437666548,43.23715302321998],[140.7179811950211,43.23838141775992],[140.71370841520567,43.23841203071586],[140.71175037383725,43.234315074508494],[140.71139849475307,43.2324578728308],[140.71171287563993,43.23107075962813],[140.7127050739585,43.229121981158215],[140.71375578261743,43.22728811802364],[140.71402129711254,43.226580259303645],[140.71351342705262,43.22420885205594],[140.70865012432165,43.22270506948689],[140.70569639789107,43.22187208830718],[140.7051659245924,43.221530031149015],[140.7039960083422,43.22029897989351],[140.70337606440066,43.21926291384446],[140.70288005279653,43.21588246130841],[140.70260962229779,43.214458116510194],[140.7010068451054,43.212705946131614],[140.6997365538922,43.21120011584802],[140.6986788197891,43.2075107070171],[140.6978289881162,43.20469976023753],[140.697587552509,43.20162039397063],[140.69689039138672,43.19886988801675],[140.69629853824884,43.19736955833558],[140.69467003946423,43.19486809668424],[140.70153245064526,43.19760165950628],[140.70369613483552,43.19911830411151],[140.70804349161446,43.20314996647841],[140.71106332366423,43.20610531843776],[140.71208676582165,43.20703792194874],[140.71403704814026,43.209070740549684],[140.71675831082163,43.211678303549306],[140.71982671402932,43.21340976642],[140.72172901533773,43.2137628400965],[140.72660647785423,43.21412098353884],[140.73056735720073,43.21475124736264],[140.73216774535075,43.21485861173256],[140.73385833906428,43.215058784665466],[140.7358689600361,43.21599266671954],[140.7367914184046,43.21727405495949],[140.7401035814139,43.223297637625535],[140.7414108859314,43.225200762102574],[140.74196517028383,43.22582673248161],[140.74383594913164,43.22741478963882],[140.74444237297843,43.227815190608275],[140.74727898616325,43.22902981698928],[140.75079506037,43.229013560673486],[140.75136522769762,43.2290275010042],[140.75216563151116,43.22908102230018]]]},"properties":{"KEY_CODE":"014080150","PREF":"01","CITY":"408","CITY_NAME":"余市町","S_NAME":"白岩町","SETAI":"9"}},{"type":"Feature","geometry":{"type":"Polygon","coordinates":[[[140.73597546759675,43.24171462081613],[140.7353652113497,43.24230460717533],[140.73293930464337,43.242294202999744],[140.7288044120306,43.24132785993451],[140.72698875023812,43.24193797923117],[140.72564610032717,43.24340279216562],[140.7222284978958,43.24561996482093],[140.72129760058039,43.24671841465264],[140.71765878552387,43.24885627426177],[140.71692877703563,43.24787014493625],[140.71642137653959,43.247222596636554],[140.71575216096332,43.245697728261376],[140.7154914899978,43.245056226689165],[140.7149532387267,43.242661485083936],[140.7150840569613,43.241213107977],[140.71476822832187,43.23974234811364],[140.71370841520567,43.23841203071586],[140.7179811950211,43.23838141775992],[140.72151437666548,43.23715302321998],[140.72360593561638,43.23796438355923],[140.7254360249605,43.237567103332765],[140.72652547692064,43.2360176205681],[140.72626592014922,43.2318038981241],[140.72723391159045,43.23017197360856],[140.73068235032883,43.22980309123444],[140.73138490261059,43.23064818342168],[140.73149490591936,43.233520044704775],[140.73243463239467,43.23768243573985],[140.73413779326503,43.24037785587588],[140.73597546759675,43.24171462081613]]]},"properties":{"KEY_CODE":"014080160","PREF":"01","CITY":"408","CITY_NAME":"余市町","S_NAME":"潮見町","SETAI":"3"}},{"type":"Feature","geometry":{"type":"Polygon","coordinates":[[[140.71692877703563,43.24787014493625],[140.71798665736114,43.24956639680416],[140.71423296712604,43.24943406643363],[140.71153256542078,43.247470830630135],[140.70980850805688,43.2484168094626],[140.70954898849558,43.251366474371366],[140.70838792288748,43.252698210620544],[140.70735194706015,43.251620844675664],[140.7059331750952,43.251915784337015],[140.70369029790697,43.250603634573565],[140.70027058273877,43.25063970463444],[140.6985296308568,43.24686805883191],[140.6972524490204,43.2432326550263],[140.69842413646128,43.240477924408886],[140.69802079174127,43.23880543791188],[140.69868998848708,43.2360239038747],[140.69717538004505,43.23437987730977],[140.69524629873155,43.23461458732848],[140.6922055889778,43.23276494903825],[140.69138328911086,43.2315795885559],[140.68946182708945,43.231325121256965],[140.687226645143,43.23190342901925],[140.685553526603,43.23047087087155],[140.68522894907196,43.2290132757112],[140.6803542107779,43.22661998400318],[140.67697349491004,43.22375776528345],[140.67446291338018,43.2202189905724],[140.67643826378384,43.21874945587068],[140.6788231732807,43.215988176911154],[140.68190101944893,43.21401908592209],[140.68360106379245,43.21206011465845],[140.68161821317133,43.208235071233474],[140.6828120495603,43.20611332324021],[140.68685283818746,43.20404855890503],[140.6876179128957,43.20183024806375],[140.68998503063284,43.19719494706109],[140.6937573831248,43.195716934265796],[140.69453367261124,43.19481378017504],[140.6946700394642,43.194868096684274],[140.69629853824884,43.19736955833558],[140.69689039138672,43.19886988801675],[140.697587552509,43.20162039397063],[140.6978289881162,43.20469976023753],[140.6986788197891,43.2075107070171],[140.69973655389217,43.21120011584802],[140.7010068451054,43.212705946131614],[140.70260962229779,43.214458116510194],[140.70288005279653,43.21588246130841],[140.70337606440066,43.21926291384446],[140.7039960083422,43.22029897989351],[140.7051659245924,43.221530031149015],[140.70569639789107,43.22187208830718],[140.70865012432165,43.22270506948689],[140.71351342705262,43.22420885205594],[140.71402129711254,43.226580259303645],[140.71375578261743,43.22728811802364],[140.7127050739585,43.229121981158215],[140.71171287563993,43.23107075962813],[140.71139849475307,43.2324578728308],[140.71175037383725,43.23431507450855],[140.71370841520567,43.238412030715864],[140.71476822832187,43.23974234811364],[140.7150840569613,43.241213107977],[140.7149532387267,43.242661485083936],[140.7154914899978,43.245056226689165],[140.71575216096332,43.245697728261376],[140.71642137653959,43.247222596636554],[140.71692877703563,43.24787014493625]]]},"properties":{"KEY_CODE":"014080170","PREF":"01","CITY":"408","CITY_NAME":"余市町","S_NAME":"豊浜町","SETAI":"17"}}]}