{"type":"FeatureCollection","features":[{"type":"Feature","geometry":{"type":"Polygon","coordinates":[[[142.4457483141059,43.51246308220284],[142.43805789822395,43.51612609830687],[142.4406550005821,43.51959303010967],[142.43507108571887,43.522223138376816],[142.43187574235793,43.51846620268596],[142.4238678672698,43.52214575372258],[142.42861510794742,43.52751909112148],[142.40430968306325,43.53905455524278],[142.40261270665997,43.537665113762856],[142.40288819651803,43.53624344718317],[142.40192632781387,43.53318743172256],[142.40233041078034,43.53170329877342],[142.4017512544912,43.530204569489804],[142.4022563624444,43.528359988338174],[142.40050996800383,43.52601504575814],[142.40135397275074,43.525717241315924],[142.40158687385548,43.52274450487947],[142.40118562793353,43.51952355019681],[142.40057772379532,43.518088470757704],[142.4014636741082,43.517144186759474],[142.4022452838636,43.51235864701825],[142.4017521547841,43.50732577158818],[142.40281067836895,43.50575946338004],[142.40677750039572,43.50362028031706],[142.41738137389135,43.50563096146308],[142.423029988503,43.51199238533494],[142.4257563730239,43.512038134458805],[142.42681687231118,43.50967638547797],[142.43898820141607,43.504429960166654],[142.4457483141059,43.51246308220284]]]},"properties":{"KEY_CODE":"014600011","PREF":"01","CITY":"460","CITY_NAME":"上富良野町","S_NAME":"静修","SETAI":"19"}},{"type":"Feature","geometry":{"type":"Polygon","coordinates":[[[142.43898820141607,43.504429960166654],[142.42681687231118,43.50967638547797],[142.4257563730239,43.512038134458805],[142.423029988503,43.51199238533494],[142.41738137389135,43.50563096146308],[142.40677750039572,43.50362028031706],[142.40281067836895,43.50575946338004],[142.401892696115,43.50531219735638],[142.40215735161843,43.503452080292995],[142.3994655815771,43.50114017689489],[142.39791777548191,43.49922406150754],[142.39721752963092,43.49559537732483],[142.3984869494894,43.49382930207531],[142.39775223337287,43.490990157961676],[142.39815483488798,43.489883289532024],[142.40797626764615,43.48692858643615],[142.4127155911992,43.48502413525437],[142.42207168686832,43.480564463808435],[142.42575035222578,43.48048604397694],[142.42641085587206,43.4786104936908],[142.43220655737875,43.47590653648676],[142.44255526886667,43.48799312993687],[142.4483915374919,43.49454367542194],[142.43552092313666,43.50030880645879],[142.43898820141607,43.504429960166654]]]},"properties":{"KEY_CODE":"014600012","PREF":"01","CITY":"460","CITY_NAME":"上富良野町","S_NAME":"江幌","SETAI":"20"}},{"type":"Feature","geometry":{"type":"Polygon","coordinates":[[[142.43220655737875,43.47590653648676],[142.42641085587206,43.4786104936908],[142.42575035222578,43.48048604397694],[142.42207168686832,43.480564463808435],[142.4127155911992,43.48502413525437],[142.40797626764615,43.48692858643615],[142.39815483488798,43.489883289532024],[142.3975016133571,43.48668265629829],[142.39776300335194,43.48345543531788],[142.39671723863358,43.481310802373265],[142.39771814646545,43.47997426771808],[142.39789159298735,43.47650343983866],[142.39889973527417,43.47519344756949],[142.39856143081423,43.473720895393654],[142.395794470787,43.47279187028003],[142.3936862034297,43.470404929640424],[142.3924652325784,43.47093631014083],[142.39087789147186,43.47035541232874],[142.38822616325803,43.4719746644828],[142.38597135109723,43.47222110257473],[142.38423759217076,43.47121639651006],[142.3819599837938,43.46884452398784],[142.41094174293565,43.45529811615075],[142.434617585241,43.44429361841988],[142.44874253463044,43.46024768575],[142.4490554226663,43.46035400596075],[142.442685772705,43.463248553399076],[142.44480934849736,43.46583479909884],[142.437945260728,43.46895662038933],[142.44070388113838,43.471941143272275],[142.43220655737875,43.47590653648676]]]},"properties":{"KEY_CODE":"014600013","PREF":"01","CITY":"460","CITY_NAME":"上富良野町","S_NAME":"江花","SETAI":"40"}},{"type":"Feature","geometry":{"type":"Polygon","coordinates":[[[142.4523789450234,43.47140306234693],[142.44634400524464,43.4742607174952],[142.44139105691235,43.47267793449149],[142.44070388113838,43.471941143272275],[142.437945260728,43.46895662038933],[142.44480934849736,43.46583479909884],[142.442685772705,43.463248553399076],[142.4490554226663,43.46035400596075],[142.44874253463044,43.46024768575],[142.434617585241,43.44429361841988],[142.44144509296027,43.44100947855633],[142.45396167339064,43.43509857986636],[142.4619932262052,43.43151092300814],[142.47168999344407,43.44249165886906],[142.47055390430856,43.4430235522559],[142.47199279572814,43.44443748764275],[142.47234895429787,43.44515229573793],[142.4720495181883,43.445177913510456],[142.4707588120502,43.4453557363098],[142.4701674214443,43.44543377798792],[142.46378572529838,43.44827875289884],[142.46374728936536,43.44879188772371],[142.46326286545292,43.45014417550509],[142.4629820905856,43.45075400225467],[142.46212212944272,43.452492120837725],[142.4617409057972,43.453279495036526],[142.4610766026632,43.45464585569435],[142.4605358284458,43.455759479898106],[142.46018003752826,43.4564945824279],[142.45974574097394,43.45739407468057],[142.45969747252315,43.45749191557767],[142.45871301873134,43.45948798043413],[142.4585047112475,43.459951701242694],[142.4582931085552,43.46038529199558],[142.4576084724662,43.46177958674677],[142.45676424502525,43.46344615446437],[142.4556444334366,43.465758982656844],[142.45440167497094,43.4684589205979],[142.45310833263437,43.46907727055977],[142.4543721542092,43.47048002030364],[142.4523789450234,43.47140306234693]]]},"properties":{"KEY_CODE":"014600014","PREF":"01","CITY":"460","CITY_NAME":"上富良野町","S_NAME":"島津","SETAI":"82"}},{"type":"Feature","geometry":{"type":"Polygon","coordinates":[[[142.48677898739226,43.486729773708845],[142.48268153875503,43.486951120026944],[142.47795116968945,43.486510739096325],[142.46682981400937,43.47395800460281],[142.4668563352146,43.47378023893279],[142.4670358954598,43.472904578364165],[142.46723626682194,43.47178143389855],[142.46754279303553,43.4702546222032],[142.46761443719464,43.470253186112416],[142.46773762383543,43.47020636137127],[142.470041795504,43.46911138073118],[142.4750249997789,43.466812931136104],[142.4763294678906,43.46618870940756],[142.4785750443812,43.464895515315995],[142.47853461398785,43.463100435114896],[142.47902910087774,43.46253518082115],[142.47934725729093,43.462479021281965],[142.4797890935927,43.46251896158485],[142.48080981435476,43.46207922959698],[142.48368826578027,43.46071098683451],[142.48661796427473,43.459380952531276],[142.48538822537373,43.457950477607454],[142.4841613850736,43.45656864957695],[142.48292681405454,43.45520176693832],[142.4827629337312,43.45502357589868],[142.48156477454745,43.45411675265429],[142.48135323200452,43.45397550746306],[142.48129148738585,43.45393428075122],[142.48458909028858,43.45244391224988],[142.48381171652065,43.45160250340988],[142.49287903504575,43.44734549688959],[142.4924243358028,43.44672621776585],[142.4971902442632,43.44471294930479],[142.49860701773883,43.444662749717935],[142.5021687497088,43.443440740205],[142.50776967096448,43.44285945296179],[142.5106665541652,43.441215312521756],[142.5131703795112,43.44076006592897],[142.51585235951538,43.44094245624456],[142.5162398899969,43.44211944729936],[142.51385131355912,43.442058720728646],[142.51471362816906,43.444243274761526],[142.51752977777684,43.44732740046779],[142.5196036313616,43.447123770509286],[142.5225748247633,43.44781756299842],[142.52237780124466,43.44887811082047],[142.52030417898246,43.45112819717004],[142.5167854191741,43.45313489131226],[142.51073222091284,43.45492526772664],[142.5088964387119,43.45575599799328],[142.49994777996517,43.460943709565456],[142.51604095547154,43.47830170882789],[142.51149896037097,43.480039361457294],[142.51045069241894,43.48081841097936],[142.50581373070193,43.48221655788162],[142.49950107662704,43.4815462431001],[142.49367660192613,43.481710135806026],[142.49103204117017,43.480973086093975],[142.4894924625907,43.482731221348445],[142.48991351489315,43.485209114594646],[142.48897713984064,43.48650234029164],[142.48677898739226,43.486729773708845]]]},"properties":{"KEY_CODE":"014600020","PREF":"01","CITY":"460","CITY_NAME":"上富良野町","S_NAME":"日の出","SETAI":"83"}},{"type":"Feature","geometry":{"type":"Polygon","coordinates":[[[142.45699530483688,43.46683512426697],[142.45964040196958,43.46737016106402],[142.45875223865923,43.46936345739127],[142.45946529312525,43.47203672252724],[142.46046676533805,43.47356650389312],[142.45606038998645,43.47563167431147],[142.4523789450234,43.47140306234693],[142.4543721542092,43.47048002030364],[142.45310833263437,43.46907727055977],[142.45440167497094,43.4684589205979],[142.4556444334366,43.465758982656844],[142.45602439358774,43.46563062577128],[142.45619032193466,43.46592179751137],[142.45598639972988,43.46621155653804],[142.45598663884257,43.46628174140117],[142.45674093734368,43.46685875443712],[142.45699530483688,43.46683512426697]]]},"properties":{"KEY_CODE":"014600020","PREF":"01","CITY":"460","CITY_NAME":"上富良野町","S_NAME":"日の出","SETAI":"0"}},{"type":"Feature","geometry":{"type":"Polygon","coordinates":[[[142.570452152849,43.51380915203907],[142.56734970321025,43.511812002773695],[142.56389349910125,43.50984218090679],[142.56354458062117,43.509089738192614],[142.56228827985208,43.50845872941095],[142.559892852315,43.50788695357722],[142.55868716153452,43.50826030176122],[142.55692972727343,43.509051485815334],[142.55589700444133,43.508627974408455],[142.55484244952433,43.50901062037456],[142.5527049786025,43.50943614497182],[142.55056217896893,43.50853969468284],[142.55035354361104,43.506749257673526],[142.5487627586517,43.505454789945325],[142.54580530287234,43.504087820179706],[142.54319418744723,43.50672487007822],[142.54161853886995,43.507594680944734],[142.53839149181778,43.509668128010745],[142.53540942873852,43.508862713984975],[142.5343401201871,43.50880064339566],[142.53529588491014,43.508065640685366],[142.53600661658967,43.507114252550416],[142.53854632714732,43.50424778502788],[142.54136728924612,43.50154777946669],[142.544171569336,43.49972530299931],[142.54425101086673,43.49967706511017],[142.54714643024462,43.49820654250619],[142.54855134907427,43.49748886127496],[142.5496163380403,43.49668196528235],[142.55345122287952,43.49220181607159],[142.55730519832537,43.487664867211336],[142.55911612463595,43.48640955035249],[142.5602056090829,43.48563079572187],[142.5636271536914,43.48283879401463],[142.56456383447642,43.48202381185981],[142.56557850975219,43.480523449903],[142.56880588838652,43.47821535648008],[142.57269266314924,43.47543898511441],[142.57473818036664,43.4742310832622],[142.58079005031914,43.47083603157674],[142.58484699246725,43.4691867699607],[142.58866429424722,43.46841832027006],[142.58906025390917,43.46841975284672],[142.59415295974748,43.47581920676284],[142.59594239611306,43.478112180280725],[142.59839916158944,43.4807137567994],[142.59722817408118,43.48202752671506],[142.5941663883728,43.483926633451105],[142.59396502711212,43.48531990640314],[142.59181873461824,43.488806647067804],[142.59232073758275,43.49058006794877],[142.59044061887346,43.4937906911502],[142.5905292676836,43.49445996484455],[142.59329270812066,43.495125838582084],[142.5950290669618,43.495556792902995],[142.59675935316452,43.49729963525928],[142.59710323663992,43.49789668251439],[142.5938566825862,43.50011381011097],[142.59088709767667,43.503189187018904],[142.58684123566155,43.50543492943929],[142.58410414671252,43.50714471760575],[142.57936461415088,43.51046290742371],[142.57535352831118,43.512569378858586],[142.57214068565423,43.51372508599863],[142.570452152849,43.51380915203907]]]},"properties":{"KEY_CODE":"014600031","PREF":"01","CITY":"460","CITY_NAME":"上富良野町","S_NAME":"清富","SETAI":"14"}},{"type":"Feature","geometry":{"type":"Polygon","coordinates":[[[142.525915762819,43.51173444529925],[142.52411815872844,43.511804878511796],[142.51881439299507,43.50753490570287],[142.5166558661725,43.50809512445444],[142.512565109846,43.507065645285394],[142.50977128034972,43.50571800858639],[142.50813770720438,43.503832749433656],[142.50889730010496,43.50273498957135],[142.50575066553108,43.50175815859774],[142.50419946368228,43.5017699293945],[142.5013219979174,43.50331445642346],[142.48677898739226,43.486729773708845],[142.48897713984064,43.48650234029164],[142.48991351489315,43.485209114594646],[142.4894924625907,43.482731221348445],[142.49103204117017,43.480973086093975],[142.49367660192613,43.481710135806026],[142.49950107662704,43.4815462431001],[142.50581373070193,43.48221655788162],[142.51045069241894,43.48081841097936],[142.51149896037097,43.480039361457294],[142.51604095547154,43.47830170882789],[142.5193614223793,43.47701632665936],[142.5240573932894,43.474145532557536],[142.53070575062392,43.46960253066732],[142.53368720023371,43.468530032252545],[142.53612293619418,43.4671907477514],[142.5551757124954,43.464516467185646],[142.56880588838652,43.47821535648008],[142.56557850975219,43.480523449903],[142.56456383447642,43.48202381185981],[142.5636271536914,43.48283879401463],[142.5602056090829,43.48563079572187],[142.55911612463595,43.48640955035249],[142.55730519832537,43.487664867211336],[142.55345122287952,43.49220181607159],[142.5496163380403,43.49668196528235],[142.54855134907427,43.49748886127496],[142.54714643024462,43.49820654250619],[142.54425101086673,43.49967706511017],[142.544171569336,43.49972530299931],[142.54136728924612,43.50154777946669],[142.53854632714732,43.50424778502788],[142.53600661658967,43.507114252550416],[142.53529588491014,43.508065640685366],[142.5343401201871,43.50880064339566],[142.5332552547569,43.50934178843168],[142.5317408897688,43.50978714418421],[142.5291072490166,43.51167053981014],[142.525915762819,43.51173444529925]]]},"properties":{"KEY_CODE":"014600032","PREF":"01","CITY":"460","CITY_NAME":"上富良野町","S_NAME":"日新","SETAI":"8"}},{"type":"Feature","geometry":{"type":"Polygon","coordinates":[[[142.58866429424722,43.46841832027006],[142.58484699246725,43.4691867699607],[142.58079005031914,43.47083603157679],[142.57473818036664,43.4742310832622],[142.57269266314924,43.47543898511441],[142.56880588838652,43.47821535648008],[142.5551757124954,43.464516467185646],[142.53612293619418,43.4671907477514],[142.53368720023371,43.468530032252545],[142.53070575062392,43.46960253066732],[142.5240573932894,43.474145532557536],[142.5193614223793,43.47701632665936],[142.51604095547154,43.47830170882789],[142.49994777996517,43.460943709565456],[142.5088964387119,43.45575599799328],[142.51073222091284,43.45492526772664],[142.5167854191741,43.45313489131226],[142.52030417898246,43.45112819717004],[142.52237780124466,43.44887811082047],[142.5225748247633,43.44781756299842],[142.52637912337786,43.444841327007595],[142.52819689490113,43.4446096937372],[142.53100008853363,43.44283915413003],[142.5351031831037,43.441500039133345],[142.53869384827877,43.44116042888969],[142.54375790683582,43.43964180453312],[142.54506641856082,43.438903345885294],[142.54921984479356,43.44022514315373],[142.54857678417022,43.44125123969213],[142.55015429581937,43.444533239932134],[142.55061219290343,43.4466199744554],[142.5523191192312,43.4474371423792],[142.55321096224014,43.446696982405626],[142.55574090604384,43.446383202637456],[142.55554289144263,43.44938349379997],[142.55803189799653,43.449589877340905],[142.5575379099744,43.451241920538536],[142.5581094303061,43.45446188364564],[142.56120175281592,43.45410490694211],[142.5616208664942,43.45523648663671],[142.57399307045898,43.45278475967715],[142.57779932443069,43.45185756681345],[142.5838148697075,43.44935310135444],[142.58732710598755,43.44861086013428],[142.58868126021522,43.45335948157301],[142.58923731590698,43.45842969901233],[142.58906025390917,43.46841975284672],[142.58866429424722,43.46841832027006]]]},"properties":{"KEY_CODE":"014600033","PREF":"01","CITY":"460","CITY_NAME":"上富良野町","S_NAME":"旭野","SETAI":"24"}},{"type":"Feature","geometry":{"type":"Polygon","coordinates":[[[142.51585235951538,43.44094245624456],[142.5131703795112,43.44076006592897],[142.5106665541652,43.441215312521756],[142.50776967096448,43.44285945296179],[142.5021687497088,43.443440740205],[142.49860701773883,43.444662749717935],[142.4971902442632,43.44471294930479],[142.4924243358028,43.44672621776585],[142.49287903504575,43.44734549688959],[142.48381171652065,43.45160250340988],[142.4833089338198,43.451058290797164],[142.48086031948552,43.448305274462044],[142.47966428751573,43.44689264868861],[142.4758946303433,43.44266968266298],[142.47592862863146,43.442573022398754],[142.47585509269695,43.44260179054844],[142.4748870608681,43.443052662313775],[142.4739312795613,43.44350532949837],[142.47253416656292,43.44210744360676],[142.47168999344407,43.44249165886906],[142.4619932262052,43.43151092300814],[142.47070620305522,43.42746222767423],[142.47361040529907,43.426043138852876],[142.47713391390593,43.43009060050083],[142.47421969095447,43.43145936221636],[142.47791070739143,43.43565703064222],[142.49188302249107,43.42919777876892],[142.49674807446888,43.42835381007815],[142.51063509424458,43.42936718962592],[142.5115338455268,43.430637868443334],[142.50935878165896,43.431504971853236],[142.50942993695296,43.434312073139324],[142.5100841374799,43.434632326565605],[142.51036047048876,43.43774269541985],[142.51537747099272,43.43950007934805],[142.51585235951538,43.44094245624456]]]},"properties":{"KEY_CODE":"014600041","PREF":"01","CITY":"460","CITY_NAME":"上富良野町","S_NAME":"富原","SETAI":"40"}},{"type":"Feature","geometry":{"type":"Polygon","coordinates":[[[142.51063509424458,43.42936718962592],[142.49674807446888,43.42835381007815],[142.49188302249107,43.42919777876892],[142.47791070739143,43.43565703064222],[142.47421969095447,43.43145936221636],[142.47713391390593,43.43009060050083],[142.47361040529907,43.426043138852876],[142.47070620305522,43.42746222767423],[142.45329615589156,43.40769900932743],[142.47897880227953,43.395575957437245],[142.4853910720672,43.392767146387804],[142.49756117866994,43.393487416420186],[142.50757815769302,43.39391546444155],[142.5212642860633,43.39471271738219],[142.5268808231011,43.39491570310317],[142.53516030255219,43.391900755079675],[142.53347661873266,43.39567543643336],[142.53405727481334,43.398139018888635],[142.53803454699857,43.39896587527277],[142.53781603878784,43.40447730047586],[142.53741920458148,43.40634484020614],[142.53869940884377,43.406405187250975],[142.53755839057393,43.41328495465843],[142.53666629272612,43.413318913870135],[142.53606871778734,43.41806714084818],[142.5347449362635,43.419106709443],[142.5345409163549,43.42326249104159],[142.53103846567737,43.42350379731229],[142.52769855483248,43.42313947773951],[142.52518791128878,43.42389600512487],[142.52257602313858,43.42526955364229],[142.5240170384487,43.426532898386924],[142.5241327949494,43.42839550011152],[142.51888595282648,43.4298369440075],[142.5136748180987,43.43016167953898],[142.51063509424458,43.42936718962592]]]},"properties":{"KEY_CODE":"014600042","PREF":"01","CITY":"460","CITY_NAME":"上富良野町","S_NAME":"東中","SETAI":"168"}},{"type":"Feature","geometry":{"type":"Polygon","coordinates":[[[142.68618834301628,43.41788779529315],[142.6849649841322,43.41910046152369],[142.68073793744958,43.420294345170895],[142.67799587645416,43.42039530995969],[142.6752772821369,43.42217574090596],[142.67673108751282,43.426368314408094],[142.67209458602056,43.428730895152874],[142.6704570723401,43.43025628438828],[142.66688040656751,43.43263623303702],[142.6653252335465,43.43325822005761],[142.65947487533967,43.433431345292384],[142.6558707043745,43.43407477544179],[142.65347802878526,43.43512106819047],[142.65184651014312,43.43669011011191],[142.65024191198606,43.43961211391527],[142.64927171546614,43.442991667827414],[142.64751837650016,43.44528357478005],[142.64757101268742,43.44846816218961],[142.64706605378896,43.44997413264549],[142.64588120085995,43.4501070495702],[142.6416264082715,43.454797204522784],[142.63873303991699,43.45696295149335],[142.6374005588926,43.45842999080344],[142.6348245909008,43.459029790226964],[142.62837395814367,43.462963038072864],[142.62549883995422,43.46386802544662],[142.6242866303902,43.46367951706436],[142.62117231224732,43.466886722940615],[142.6181438139692,43.465557279591536],[142.61456797634315,43.466552426281936],[142.61226394459166,43.46667202353541],[142.60893667596116,43.46875683453952],[142.60682250120655,43.47058920051335],[142.60155484121043,43.476112103894856],[142.59992742728488,43.4790468288072],[142.59839916158944,43.4807137567994],[142.59594239611306,43.478112180280725],[142.59415295974748,43.47581920676284],[142.58906025390917,43.46841975284672],[142.58923731590698,43.45842969901233],[142.58868126021522,43.45335948157301],[142.58732710598755,43.44861086013428],[142.5838148697075,43.44935310135444],[142.57779932443069,43.45185756681345],[142.57399307045898,43.45278475967715],[142.5616208664942,43.45523648663671],[142.56120175281592,43.45410490694211],[142.5581094303061,43.45446188364564],[142.5575379099744,43.451241920538536],[142.55803189799653,43.449589877340905],[142.55554289144263,43.44938349379997],[142.55574090604384,43.446383202637456],[142.55321096224014,43.446696982405626],[142.5523191192312,43.4474371423792],[142.55061219290343,43.4466199744554],[142.55015429581937,43.444533239932134],[142.54857678417022,43.44125123969213],[142.54921984479356,43.44022514315373],[142.54506641856082,43.438903345885294],[142.54375790683582,43.43964180453312],[142.53869384827877,43.44116042888969],[142.5351031831037,43.441500039133345],[142.53100008853363,43.44283915413003],[142.52819689490113,43.4446096937372],[142.52637912337786,43.444841327007595],[142.5225748247633,43.44781756299842],[142.5196036313616,43.447123770509286],[142.51752977777684,43.44732740046779],[142.51471362816906,43.444243274761526],[142.51385131355912,43.442058720728646],[142.5162398899969,43.44211944729936],[142.51585235951538,43.44094245624456],[142.51537747099272,43.43950007934805],[142.51036047048876,43.43774269541985],[142.5100841374799,43.434632326565605],[142.50942993695296,43.434312073139324],[142.50935878165896,43.431504971853236],[142.5115338455268,43.430637868443334],[142.51063509424458,43.42936718962592],[142.5136748180987,43.43016167953898],[142.51888595282648,43.4298369440075],[142.5241327949494,43.42839550011152],[142.5240170384487,43.426532898386924],[142.52257602313858,43.42526955364229],[142.52518791128878,43.42389600512487],[142.52769855483248,43.42313947773951],[142.53103846567737,43.42350379731229],[142.5345409163549,43.42326249104159],[142.5347449362635,43.419106709443],[142.53606871778734,43.41806714084818],[142.53666629272612,43.413318913870135],[142.53755839057393,43.41328495465843],[142.53869940884377,43.406405187250975],[142.53741920458148,43.40634484020614],[142.53781603878784,43.40447730047586],[142.53803454699857,43.39896587527277],[142.53405727481334,43.398139018888635],[142.53347661873266,43.39567543643336],[142.53516030255219,43.391900755079675],[142.55459850686404,43.384827231272894],[142.56096565678817,43.38264016956131],[142.56244149144618,43.38243683817231],[142.56686235384808,43.38282903745545],[142.5712949410689,43.38467938473968],[142.57657245018086,43.38603045966201],[142.5846210464956,43.38935148342564],[142.58719582891686,43.390932334743496],[142.5886596891888,43.39141032668448],[142.59003584475906,43.3910654635255],[142.59063706928922,43.390942440008935],[142.59282493676523,43.39059224833865],[142.59832717022988,43.38954464411073],[142.60057422534035,43.38916817681388],[142.60193348365758,43.38797704409462],[142.60203608167444,43.38654423742482],[142.60317307125294,43.3852729619122],[142.60387632295465,43.383641956013506],[142.60694140197162,43.38168878449804],[142.60933054819355,43.3819672955181],[142.610884067641,43.383550839032075],[142.6111302613408,43.38367138166264],[142.61318989385623,43.383791986003466],[142.6174478986425,43.3840528254877],[142.6202020326022,43.38703309482029],[142.62602075091564,43.3906887497654],[142.62891767621292,43.39217978085837],[142.63198714784176,43.39369920907357],[142.63650560562527,43.39388048312934],[142.638528676914,43.39397666299882],[142.64097039399846,43.39393937669083],[142.64345198325196,43.39528972243798],[142.64465295629148,43.39526632051863],[142.64643843964143,43.3961649725005],[142.64929639522296,43.39695356903395],[142.65144764773598,43.39703941628676],[142.65224309734208,43.39712677476784],[142.6542894054898,43.39670096171557],[142.65544404976765,43.39634263149305],[142.65748318025535,43.39684094695751],[142.66248726816414,43.39823013660233],[142.66376130962755,43.3985475483107],[142.66561282207022,43.39935231087975],[142.66726637909045,43.400263954016275],[142.66794595433294,43.40147225783352],[142.66804374112363,43.402612506578066],[142.67166007591928,43.40512874871103],[142.67537459827196,43.40845875625369],[142.67599909047976,43.41106628106712],[142.67861396246892,43.41445720603826],[142.68169371394404,43.41631340898868],[142.68618834301628,43.41788779529315]]]},"properties":{"KEY_CODE":"014600043","PREF":"01","CITY":"460","CITY_NAME":"上富良野町","S_NAME":"十勝岳地区","SETAI":"0"}},{"type":"Feature","geometry":{"type":"Polygon","coordinates":[[[142.47052713805627,43.51193269007373],[142.46793230565146,43.50893460067475],[142.45424326018477,43.51516372756306],[142.45020765744428,43.510544047820986],[142.4457483141059,43.51246308220284],[142.43898820141607,43.504429960166654],[142.43552092313666,43.50030880645879],[142.4483915374919,43.49454367542194],[142.44255526886667,43.48799312993687],[142.43220655737875,43.47590653648676],[142.44070388113838,43.471941143272275],[142.44139105691235,43.47267793449149],[142.44634400524464,43.4742607174952],[142.4523789450234,43.47140306234693],[142.45606038998645,43.47563167431147],[142.46046676533805,43.47356650389312],[142.46145103466318,43.47422197165204],[142.46170709748492,43.47439925126481],[142.4628193137371,43.475114425113084],[142.4635466342225,43.47613207540974],[142.4637877442102,43.476896395525515],[142.46402398970653,43.477888054762694],[142.46406457663508,43.4781277584182],[142.46416312186972,43.47832350536432],[142.46428901674628,43.47844978871289],[142.4653630245093,43.47690790757326],[142.46662803153237,43.47825731689764],[142.46640972908136,43.47737980416499],[142.46636375204838,43.47666909826978],[142.4664213242618,43.47607272500087],[142.46682981400937,43.47395800460281],[142.47795116968945,43.486510739096325],[142.48268153875503,43.486951120026944],[142.48677898739226,43.486729773708845],[142.5013219979174,43.50331445642346],[142.49986722209727,43.50368511083038],[142.4980510683506,43.50307464001042],[142.49502090160246,43.50426130097799],[142.48195680708977,43.50668354196783],[142.47838074290974,43.50811071417266],[142.47052713805627,43.51193269007373]]]},"properties":{"KEY_CODE":"014600050","PREF":"01","CITY":"460","CITY_NAME":"上富良野町","S_NAME":"草分","SETAI":"98"}},{"type":"Feature","geometry":{"type":"Polygon","coordinates":[[[142.43839075757063,43.54564507315463],[142.43735625697312,43.54665178225741],[142.43715797041617,43.548485432283634],[142.43339943631247,43.55099766802932],[142.43202670589613,43.55084027209982],[142.42955198192607,43.550675228312805],[142.42719471550785,43.549232334795036],[142.42870516079682,43.54759804825482],[142.42910713714028,43.54557336564524],[142.4311783264799,43.54394345107099],[142.4304022557247,43.54015616281182],[142.4293545783108,43.538075459112115],[142.42805465184836,43.53686935105848],[142.42831092402707,43.53486612461203],[142.42732556497506,43.534131123221606],[142.42479265741716,43.5346330159112],[142.42334142083058,43.53647907029326],[142.42140526029678,43.53688462500043],[142.41963769728912,43.53513873405633],[142.41678553222178,43.53363294782665],[142.41496784039094,43.534790663543774],[142.41264311712914,43.53705127349465],[142.41221935952157,43.53931442393402],[142.41105951831003,43.54145675047159],[142.40948984797947,43.540107818960614],[142.40535192992246,43.53983793780016],[142.40430968306325,43.53905455524278],[142.42861510794742,43.52751909112148],[142.4238678672698,43.52214575372258],[142.43187574235793,43.51846620268596],[142.43507108571887,43.522223138376816],[142.4406550005821,43.51959303010967],[142.43805789822395,43.51612609830687],[142.4457483141059,43.51246308220284],[142.45020765744428,43.510544047820986],[142.45424326018477,43.51516372756306],[142.46793230565146,43.50893460067475],[142.47052713805627,43.51193269007373],[142.46546985991463,43.517143083694336],[142.45968591568183,43.52463519817659],[142.4527917047764,43.52937905958569],[142.44968309125392,43.53402067693145],[142.44805089475344,43.53510423528506],[142.44644759416644,43.53615573628975],[142.44590358500957,43.536500853582545],[142.4450364129553,43.53705094949049],[142.44180348756785,43.538675485136864],[142.44033790628313,43.54171913760302],[142.44039629261323,43.54281596454916],[142.43839075757063,43.54564507315463]]]},"properties":{"KEY_CODE":"014600060","PREF":"01","CITY":"460","CITY_NAME":"上富良野町","S_NAME":"里仁","SETAI":"47"}},{"type":"Feature","geometry":{"type":"Polygon","coordinates":[[[142.4724903104009,43.454597549227],[142.4734632586515,43.4556650372956],[142.47174059550986,43.45644897807853],[142.47082364002233,43.45538980422616],[142.4724903104009,43.454597549227]]]},"properties":{"KEY_CODE":"01460102001","PREF":"01","CITY":"460","CITY_NAME":"上富良野町","S_NAME":"南町一丁目","SETAI":"63"}},{"type":"Feature","geometry":{"type":"Polygon","coordinates":[[[142.47314537371952,43.45182287794001],[142.4726405635687,43.45352741416093],[142.4724903104009,43.454597549227],[142.47082364002233,43.45538980422616],[142.469300628763,43.4536610793316],[142.47314537371952,43.45182287794001]]]},"properties":{"KEY_CODE":"01460102002","PREF":"01","CITY":"460","CITY_NAME":"上富良野町","S_NAME":"南町二丁目","SETAI":"23"}},{"type":"Feature","geometry":{"type":"Polygon","coordinates":[[[142.47375603332858,43.449873225919006],[142.47324084229544,43.45146979506391],[142.47314537371952,43.45182287794001],[142.469300628763,43.4536610793316],[142.46809575556134,43.45225428430449],[142.47325062044885,43.44982375441156],[142.47375603332858,43.449873225919006]]]},"properties":{"KEY_CODE":"01460102003","PREF":"01","CITY":"460","CITY_NAME":"上富良野町","S_NAME":"南町三丁目","SETAI":"166"}},{"type":"Feature","geometry":{"type":"Polygon","coordinates":[[[142.47375603332858,43.449873225919006],[142.47325062044877,43.449823754411526],[142.4680957555614,43.45225428430449],[142.46684532676156,43.45082763074892],[142.4643306391395,43.4480413678365],[142.4701674214443,43.44543377798792],[142.4707588120502,43.4453557363098],[142.4720495181883,43.445177913510456],[142.47234895429787,43.44515229573793],[142.4741788976847,43.44672107667369],[142.4747078593008,43.448491416184204],[142.47388628119896,43.44965953014919],[142.47375603332858,43.449873225919006]]]},"properties":{"KEY_CODE":"01460102004","PREF":"01","CITY":"460","CITY_NAME":"上富良野町","S_NAME":"南町四丁目","SETAI":"39"}},{"type":"Feature","geometry":{"type":"Polygon","coordinates":[[[142.4753719882131,43.45132882927629],[142.47628730678062,43.45235223685569],[142.4775170483555,43.45375492278247],[142.47597701957517,43.45447499225981],[142.4734632586515,43.4556650372956],[142.4724903104009,43.454597549227],[142.4726405635687,43.45352741416093],[142.47447715880205,43.45267114916923],[142.4739220959359,43.452019644695405],[142.4753719882131,43.45132882927629]]]},"properties":{"KEY_CODE":"01460103001","PREF":"01","CITY":"460","CITY_NAME":"上富良野町","S_NAME":"緑町一丁目","SETAI":"95"}},{"type":"Feature","geometry":{"type":"Polygon","coordinates":[[[142.47324084229544,43.45146979506391],[142.4739220959359,43.452019644695405],[142.47447715880205,43.45267114916923],[142.4726405635687,43.45352741416093],[142.47314537371952,43.45182287794001],[142.47324084229544,43.45146979506391]]]},"properties":{"KEY_CODE":"01460103002","PREF":"01","CITY":"460","CITY_NAME":"上富良野町","S_NAME":"緑町二丁目","SETAI":"21"}},{"type":"Feature","geometry":{"type":"Polygon","coordinates":[[[142.47375603332858,43.449873225919006],[142.47509477295566,43.45099750581375],[142.4753719882131,43.45132882927629],[142.4739220959359,43.452019644695405],[142.47324084229544,43.45146979506391],[142.47375603332858,43.449873225919006]]]},"properties":{"KEY_CODE":"01460103003","PREF":"01","CITY":"460","CITY_NAME":"上富良野町","S_NAME":"緑町三丁目","SETAI":"11"}},{"type":"Feature","geometry":{"type":"Polygon","coordinates":[[[142.47900312977663,43.45308023164474],[142.4775170483555,43.45375492278247],[142.47628730678062,43.45235223685569],[142.47774218307586,43.45167611479474],[142.47798730705983,43.452042799690894],[142.47900312977663,43.45308023164474]]]},"properties":{"KEY_CODE":"01460104001","PREF":"01","CITY":"460","CITY_NAME":"上富良野町","S_NAME":"桜町一丁目","SETAI":"0"}},{"type":"Feature","geometry":{"type":"Polygon","coordinates":[[[142.47774218307586,43.45167611479474],[142.47628730678062,43.45235223685569],[142.47509477295566,43.45099750581375],[142.47602393746047,43.45057438255465],[142.47631531714566,43.45084667203109],[142.47658583125778,43.45102427319186],[142.4771683880575,43.451222773397866],[142.47743025205585,43.45134511331469],[142.47774218307586,43.45167611479474]]]},"properties":{"KEY_CODE":"01460104002","PREF":"01","CITY":"460","CITY_NAME":"上富良野町","S_NAME":"桜町二丁目","SETAI":"2"}},{"type":"Feature","geometry":{"type":"Polygon","coordinates":[[[142.47509477295566,43.45099750581375],[142.47388628119896,43.44965953014919],[142.4747078593008,43.448491416184204],[142.4751153117995,43.44894277790103],[142.4758578552259,43.45027624665059],[142.47602393746047,43.45057438255465],[142.47509477295566,43.45099750581375]]]},"properties":{"KEY_CODE":"01460104003","PREF":"01","CITY":"460","CITY_NAME":"上富良野町","S_NAME":"桜町三丁目","SETAI":"23"}},{"type":"Feature","geometry":{"type":"Polygon","coordinates":[[[142.4833089338198,43.451058290797164],[142.47900312977663,43.45308023164474],[142.47798730705983,43.452042799690894],[142.4777421830759,43.45167611479474],[142.47758461458125,43.45146921221141],[142.47743025205585,43.45134511331469],[142.4771683880575,43.451222773397866],[142.47658583125778,43.45102427319186],[142.47631531714566,43.45084667203109],[142.4758578552259,43.45027624665059],[142.4751153117995,43.44894277790103],[142.47668066248983,43.448200624933605],[142.47797973291387,43.44964831155315],[142.48086031948552,43.448305274462044],[142.4833089338198,43.451058290797164]]]},"properties":{"KEY_CODE":"01460105001","PREF":"01","CITY":"460","CITY_NAME":"上富良野町","S_NAME":"丘町一丁目","SETAI":"94"}},{"type":"Feature","geometry":{"type":"Polygon","coordinates":[[[142.47966428751573,43.44689264868861],[142.48086031948552,43.44830527446205],[142.47797973291387,43.44964831155315],[142.47668066248983,43.4482006249336],[142.47959049033855,43.446853448258],[142.47966428751573,43.44689264868861]]]},"properties":{"KEY_CODE":"01460105002","PREF":"01","CITY":"460","CITY_NAME":"上富良野町","S_NAME":"丘町二丁目","SETAI":"3"}},{"type":"Feature","geometry":{"type":"Polygon","coordinates":[[[142.4751153117995,43.44894277790103],[142.4747078593008,43.448491416184204],[142.4749516807136,43.445907429558034],[142.47540419559726,43.44413744451526],[142.47585509269695,43.44260179054841],[142.47592862863146,43.442573022398754],[142.4758946303433,43.44266968266298],[142.47959049033855,43.446853448258],[142.47668066248983,43.4482006249336],[142.4751153117995,43.44894277790103]]]},"properties":{"KEY_CODE":"01460105003","PREF":"01","CITY":"460","CITY_NAME":"上富良野町","S_NAME":"丘町三丁目","SETAI":"4"}},{"type":"Feature","geometry":{"type":"Polygon","coordinates":[[[142.4747078593008,43.448491416184204],[142.4741788976847,43.44672107667369],[142.47234895429787,43.44515229573793],[142.47199279572814,43.44443748764275],[142.47055390430856,43.4430235522559],[142.47253416656292,43.44210744360676],[142.4739312795613,43.44350532949837],[142.4748870608681,43.443052662313775],[142.47585509269695,43.44260179054841],[142.47540419559726,43.44413744451526],[142.4749516807136,43.445907429558034],[142.4747078593008,43.448491416184204]]]},"properties":{"KEY_CODE":"01460105004","PREF":"01","CITY":"460","CITY_NAME":"上富良野町","S_NAME":"丘町四丁目","SETAI":"4"}},{"type":"Feature","geometry":{"type":"Polygon","coordinates":[[[142.48381171652065,43.45160250340988],[142.48458909028858,43.45244391224988],[142.48129148738585,43.45393428075122],[142.47900312977663,43.45308023164474],[142.4833089338198,43.451058290797164],[142.48381171652065,43.45160250340988]]]},"properties":{"KEY_CODE":"014601060","PREF":"01","CITY":"460","CITY_NAME":"上富良野町","S_NAME":"向町","SETAI":"7"}},{"type":"Feature","geometry":{"type":"Polygon","coordinates":[[[142.4630008944058,43.46510513153531],[142.46509260114627,43.4674527439134],[142.46224514059094,43.468779294707325],[142.4613629532337,43.46778935280437],[142.46101710153025,43.46738550562954],[142.4606406933092,43.46697390775903],[142.46067452160455,43.46695594658488],[142.4630008944058,43.46510513153531]]]},"properties":{"KEY_CODE":"01460516001","PREF":"01","CITY":"460","CITY_NAME":"上富良野町","S_NAME":"泉町一丁目","SETAI":"108"}},{"type":"Feature","geometry":{"type":"Polygon","coordinates":[[[142.46509260114627,43.4674527439134],[142.46587816407677,43.468313122694326],[142.46578462229542,43.469103803450956],[142.46348493536252,43.470171366709344],[142.4626579717006,43.469224331775564],[142.46224514059094,43.468779294707325],[142.46509260114627,43.4674527439134]]]},"properties":{"KEY_CODE":"01460516002","PREF":"01","CITY":"460","CITY_NAME":"上富良野町","S_NAME":"泉町二丁目","SETAI":"111"}},{"type":"Feature","geometry":{"type":"Polygon","coordinates":[[[142.46587816407677,43.468313122694326],[142.46748312062385,43.47025473510588],[142.46727377844027,43.470389385309524],[142.46548300736168,43.471248456650216],[142.46472068902034,43.47159244395066],[142.46348493536252,43.470171366709344],[142.46578462229542,43.469103803450956],[142.46587816407677,43.468313122694326]]]},"properties":{"KEY_CODE":"01460516003","PREF":"01","CITY":"460","CITY_NAME":"上富良野町","S_NAME":"泉町三丁目","SETAI":"43"}},{"type":"Feature","geometry":{"type":"Polygon","coordinates":[[[142.4653630245093,43.47690790757326],[142.46519709194726,43.476657151948],[142.46499043051864,43.47576073248854],[142.46548300736168,43.471248456650216],[142.46727377844027,43.470389385309524],[142.46748312062385,43.47025473510588],[142.46723626682194,43.47178143389855],[142.4670358954598,43.472904578364165],[142.4668563352146,43.47378023893279],[142.46682981400937,43.47395800460281],[142.4664213242618,43.47607272500087],[142.46636375204838,43.47666909826978],[142.46640972908136,43.47737980416499],[142.46662803153237,43.47825731689764],[142.4653630245093,43.47690790757326]]]},"properties":{"KEY_CODE":"01460517001","PREF":"01","CITY":"460","CITY_NAME":"上富良野町","S_NAME":"北町一丁目","SETAI":"5"}},{"type":"Feature","geometry":{"type":"Polygon","coordinates":[[[142.46519709194726,43.476657151948],[142.46186494646705,43.47292097424002],[142.46339167228982,43.47220732463357],[142.46472068902034,43.47159244395066],[142.46548300736168,43.471248456650216],[142.46499043051864,43.47576073248854],[142.46519709194726,43.476657151948]]]},"properties":{"KEY_CODE":"01460517002","PREF":"01","CITY":"460","CITY_NAME":"上富良野町","S_NAME":"北町二丁目","SETAI":"40"}},{"type":"Feature","geometry":{"type":"Polygon","coordinates":[[[142.4653630245093,43.47690790757326],[142.46428901674628,43.47844978871289],[142.46416312186972,43.47832350536432],[142.46406457663508,43.4781277584182],[142.46402398970653,43.477888054762694],[142.4637877442102,43.476896395525515],[142.4635466342225,43.47613207540974],[142.4628193137371,43.475114425113084],[142.46170709748492,43.47439925126481],[142.46145103466318,43.47422197165204],[142.4604667653381,43.47356650389312],[142.46186494646705,43.47292097424002],[142.46519709194726,43.476657151948],[142.4653630245093,43.47690790757326]]]},"properties":{"KEY_CODE":"01460517003","PREF":"01","CITY":"460","CITY_NAME":"上富良野町","S_NAME":"北町三丁目","SETAI":"9"}},{"type":"Feature","geometry":{"type":"Polygon","coordinates":[[[142.4606406933092,43.46697390775903],[142.46101710153025,43.46738550562954],[142.4613629532337,43.46778935280437],[142.46224514059094,43.468779294707325],[142.46072674434583,43.469466471626916],[142.45875223865923,43.46936345739127],[142.45964040196958,43.46737016106402],[142.4597484473462,43.46734215042478],[142.46026315900542,43.46717443043502],[142.4606406933092,43.46697390775903]]]},"properties":{"KEY_CODE":"01460518001","PREF":"01","CITY":"460","CITY_NAME":"上富良野町","S_NAME":"扇町一丁目","SETAI":"87"}},{"type":"Feature","geometry":{"type":"Polygon","coordinates":[[[142.46348493536252,43.470171366709344],[142.45946529312525,43.47203672252724],[142.45875223865923,43.46936345739127],[142.46072674434583,43.469466471626916],[142.4626579717006,43.469224331775564],[142.46348493536252,43.470171366709344]]]},"properties":{"KEY_CODE":"01460518002","PREF":"01","CITY":"460","CITY_NAME":"上富良野町","S_NAME":"扇町二丁目","SETAI":"2"}},{"type":"Feature","geometry":{"type":"Polygon","coordinates":[[[142.46348493536252,43.470171366709344],[142.46472068902034,43.47159244395066],[142.46339167228982,43.47220732463357],[142.46046676533805,43.47356650389312],[142.45946529312525,43.47203672252724],[142.46348493536252,43.470171366709344]]]},"properties":{"KEY_CODE":"01460518003","PREF":"01","CITY":"460","CITY_NAME":"上富良野町","S_NAME":"扇町三丁目","SETAI":"18"}},{"type":"Feature","geometry":{"type":"Polygon","coordinates":[[[142.46283346086986,43.46078785045158],[142.46305755656266,43.463525563784465],[142.4630008944058,43.46510513153531],[142.46155563175168,43.46342963536186],[142.46022941116993,43.461829258625],[142.46223569873086,43.460863257169926],[142.46283346086986,43.46078785045158]]]},"properties":{"KEY_CODE":"01460519001","PREF":"01","CITY":"460","CITY_NAME":"上富良野町","S_NAME":"西町一丁目","SETAI":"9"}},{"type":"Feature","geometry":{"type":"Polygon","coordinates":[[[142.46155563175168,43.46342963536186],[142.45847040832905,43.46449966448742],[142.45602439358774,43.46563062577128],[142.4556444334366,43.465758982656844],[142.45676424502525,43.46344615446437],[142.46022941116993,43.461829258625],[142.46155563175168,43.46342963536186]]]},"properties":{"KEY_CODE":"01460519002","PREF":"01","CITY":"460","CITY_NAME":"上富良野町","S_NAME":"西町二丁目","SETAI":"63"}},{"type":"Feature","geometry":{"type":"Polygon","coordinates":[[[142.46155563175168,43.46342963536186],[142.4630008944058,43.46510513153531],[142.46067452160455,43.46695594658488],[142.45847040832905,43.46449966448742],[142.46155563175168,43.46342963536186]]]},"properties":{"KEY_CODE":"01460519003","PREF":"01","CITY":"460","CITY_NAME":"上富良野町","S_NAME":"西町三丁目","SETAI":"42"}},{"type":"Feature","geometry":{"type":"Polygon","coordinates":[[[142.46067452160455,43.46695594658488],[142.4606406933092,43.46697390775902],[142.46026315900542,43.46717443043502],[142.4597484473462,43.46734215042478],[142.45699530483688,43.46683512426697],[142.45674093734368,43.46685875443712],[142.45598663884257,43.46628174140117],[142.45598639972988,43.46621155653804],[142.45619032193466,43.46592179751137],[142.45847040832905,43.46449966448742],[142.46067452160455,43.46695594658488]]]},"properties":{"KEY_CODE":"01460519004","PREF":"01","CITY":"460","CITY_NAME":"上富良野町","S_NAME":"西町四丁目","SETAI":"21"}},{"type":"Feature","geometry":{"type":"Polygon","coordinates":[[[142.46283346086986,43.46078785045158],[142.45871301873134,43.459487980434105],[142.45969747252315,43.45749191557767],[142.45974574097394,43.45739407468057],[142.46273979720962,43.459035636655464],[142.46342132244033,43.459488081510635],[142.4630753466139,43.460484506629456],[142.46283346086986,43.46078785045158]]]},"properties":{"KEY_CODE":"01460520001","PREF":"01","CITY":"460","CITY_NAME":"上富良野町","S_NAME":"光町一丁目","SETAI":"17"}},{"type":"Feature","geometry":{"type":"Polygon","coordinates":[[[142.45871301873134,43.45948798043413],[142.46223569873086,43.460863257169926],[142.46022941116993,43.461829258625],[142.4585047112475,43.459951701242694],[142.45871301873134,43.45948798043413]]]},"properties":{"KEY_CODE":"01460520002","PREF":"01","CITY":"460","CITY_NAME":"上富良野町","S_NAME":"光町二丁目","SETAI":"33"}},{"type":"Feature","geometry":{"type":"Polygon","coordinates":[[[142.46022941116993,43.461829258625],[142.45676424502525,43.46344615446437],[142.4576084724662,43.46177958674677],[142.4582931085552,43.46038529199558],[142.46022941116993,43.461829258625]]]},"properties":{"KEY_CODE":"01460520003","PREF":"01","CITY":"460","CITY_NAME":"上富良野町","S_NAME":"光町三丁目","SETAI":"1"}},{"type":"Feature","geometry":{"type":"Polygon","coordinates":[[[142.4673799717175,43.458489967935066],[142.46884377667328,43.46017434967009],[142.46915621721928,43.46170564138701],[142.46770054497333,43.4615957114378],[142.46792871452888,43.45999007757391],[142.467184100682,43.45858788075159],[142.4673799717175,43.458489967935066]]]},"properties":{"KEY_CODE":"01460613001","PREF":"01","CITY":"460","CITY_NAME":"上富良野町","S_NAME":"錦町一丁目","SETAI":"29"}},{"type":"Feature","geometry":{"type":"Polygon","coordinates":[[[142.467184100682,43.45858788075159],[142.46792871452888,43.45999007757391],[142.46770054497333,43.4615957114378],[142.465946768117,43.46147911598841],[142.4662462879144,43.45902535774965],[142.467184100682,43.45858788075159]]]},"properties":{"KEY_CODE":"01460613002","PREF":"01","CITY":"460","CITY_NAME":"上富良野町","S_NAME":"錦町二丁目","SETAI":"39"}},{"type":"Feature","geometry":{"type":"Polygon","coordinates":[[[142.465946768117,43.46147911598841],[142.46283346086986,43.46078785045158],[142.4630753466139,43.460484506629456],[142.46331258703978,43.460335115979355],[142.4662462879144,43.45902535774965],[142.465946768117,43.46147911598841]]]},"properties":{"KEY_CODE":"01460613003","PREF":"01","CITY":"460","CITY_NAME":"上富良野町","S_NAME":"錦町三丁目","SETAI":"31"}},{"type":"Feature","geometry":{"type":"Polygon","coordinates":[[[142.4691811869331,43.46429340405782],[142.46836174474967,43.46658275774478],[142.4687341578458,43.464254134153215],[142.46738410951096,43.46383779566599],[142.46770054497333,43.4615957114378],[142.46915621721928,43.46170564138701],[142.46936049083996,43.46172705266907],[142.4691811869331,43.46429340405782]]]},"properties":{"KEY_CODE":"01460614001","PREF":"01","CITY":"460","CITY_NAME":"上富良野町","S_NAME":"中町一丁目","SETAI":"29"}},{"type":"Feature","geometry":{"type":"Polygon","coordinates":[[[142.465946768117,43.46147911598841],[142.46770054497333,43.4615957114378],[142.46738410951096,43.46383779566599],[142.46563781495612,43.463712108313835],[142.465946768117,43.46147911598841]]]},"properties":{"KEY_CODE":"01460614002","PREF":"01","CITY":"460","CITY_NAME":"上富良野町","S_NAME":"中町二丁目","SETAI":"47"}},{"type":"Feature","geometry":{"type":"Polygon","coordinates":[[[142.46283346086986,43.46078785045158],[142.465946768117,43.46147911598841],[142.46563781495612,43.463712108313835],[142.46305755656266,43.463525563784465],[142.46283346086986,43.46078785045158]]]},"properties":{"KEY_CODE":"01460614003","PREF":"01","CITY":"460","CITY_NAME":"上富良野町","S_NAME":"中町三丁目","SETAI":"53"}},{"type":"Feature","geometry":{"type":"Polygon","coordinates":[[[142.46808118726824,43.4680638058746],[142.46678779859164,43.46781237371871],[142.46738410951096,43.46383779566599],[142.4687341578458,43.464254134153215],[142.46836174474967,43.46658275774478],[142.46808118726824,43.4680638058746]]]},"properties":{"KEY_CODE":"01460615001","PREF":"01","CITY":"460","CITY_NAME":"上富良野町","S_NAME":"栄町一丁目","SETAI":"10"}},{"type":"Feature","geometry":{"type":"Polygon","coordinates":[[[142.46738410951096,43.46383779566599],[142.46678779859164,43.46781237371871],[142.46808118726824,43.4680638058746],[142.4679675942604,43.46860173814107],[142.46761443719464,43.470253186112416],[142.46754279303553,43.4702546222032],[142.46748312062385,43.47025473510588],[142.46587816407677,43.468313122694326],[142.4645180468398,43.46574533992517],[142.46537652148947,43.46540490147017],[142.46563781495612,43.463712108313835],[142.46738410951096,43.46383779566599]]]},"properties":{"KEY_CODE":"01460615002","PREF":"01","CITY":"460","CITY_NAME":"上富良野町","S_NAME":"栄町二丁目","SETAI":"63"}},{"type":"Feature","geometry":{"type":"Polygon","coordinates":[[[142.46305755656266,43.463525563784465],[142.46563781495612,43.463712108313835],[142.46537652148947,43.46540490147017],[142.4645180468398,43.46574533992517],[142.46587816407677,43.468313122694326],[142.46509260114627,43.4674527439134],[142.4630008944058,43.46510513153531],[142.46305755656266,43.463525563784465]]]},"properties":{"KEY_CODE":"01460615003","PREF":"01","CITY":"460","CITY_NAME":"上富良野町","S_NAME":"栄町三丁目","SETAI":"34"}},{"type":"Feature","geometry":{"type":"Polygon","coordinates":[[[142.47597701957517,43.45447499225981],[142.477617624178,43.45633651963018],[142.4750879266051,43.45752353726473],[142.47484502879078,43.45724369307689],[142.4734632586515,43.4556650372956],[142.47597701957517,43.45447499225981]]]},"properties":{"KEY_CODE":"01460709001","PREF":"01","CITY":"460","CITY_NAME":"上富良野町","S_NAME":"旭町一丁目","SETAI":"40"}},{"type":"Feature","geometry":{"type":"Polygon","coordinates":[[[142.47800984298314,43.456158550764286],[142.4786893588076,43.45693307419504],[142.47750129039375,43.457496683220015],[142.4757689993983,43.45829385519534],[142.4750879266051,43.45752353726473],[142.477617624178,43.45633651963018],[142.47800984298314,43.456158550764286]]]},"properties":{"KEY_CODE":"01460709002","PREF":"01","CITY":"460","CITY_NAME":"上富良野町","S_NAME":"旭町二丁目","SETAI":"112"}},{"type":"Feature","geometry":{"type":"Polygon","coordinates":[[[142.4788631857835,43.45905915806692],[142.47834320044564,43.45931354796325],[142.47712898462643,43.45986225989416],[142.4757689993983,43.45829385519534],[142.47750129039375,43.457496683220015],[142.4788631857835,43.45905915806692]]]},"properties":{"KEY_CODE":"01460709003","PREF":"01","CITY":"460","CITY_NAME":"上富良野町","S_NAME":"旭町三丁目","SETAI":"74"}},{"type":"Feature","geometry":{"type":"Polygon","coordinates":[[[142.47834320044564,43.45931354796325],[142.47957589758374,43.460688642542706],[142.4773358128002,43.46170722132673],[142.47667907075973,43.462028017272345],[142.47546581044605,43.460656861738926],[142.47712898462643,43.45986225989416],[142.47834320044564,43.45931354796325]]]},"properties":{"KEY_CODE":"01460709004","PREF":"01","CITY":"460","CITY_NAME":"上富良野町","S_NAME":"旭町四丁目","SETAI":"35"}},{"type":"Feature","geometry":{"type":"Polygon","coordinates":[[[142.4804450628308,43.461681457823374],[142.4797890935927,43.46251896158485],[142.47934725729093,43.462479021281965],[142.47902910087774,43.46253518082115],[142.47853461398785,43.463100435114896],[142.47793576967263,43.46342780419148],[142.47667907075973,43.462028017272345],[142.4773358128002,43.46170722132673],[142.47957589758374,43.460688642542706],[142.4801804713321,43.46137578647248],[142.4804450628308,43.461681457823374]]]},"properties":{"KEY_CODE":"01460709005","PREF":"01","CITY":"460","CITY_NAME":"上富良野町","S_NAME":"旭町五丁目","SETAI":"2"}},{"type":"Feature","geometry":{"type":"Polygon","coordinates":[[[142.4734632586515,43.4556650372956],[142.47484502879078,43.45724369307689],[142.4709854627718,43.45905613678824],[142.4695625371636,43.457472374709674],[142.47174059550986,43.45644897807853],[142.4734632586515,43.4556650372956]]]},"properties":{"KEY_CODE":"01460710001","PREF":"01","CITY":"460","CITY_NAME":"上富良野町","S_NAME":"宮町一丁目","SETAI":"46"}},{"type":"Feature","geometry":{"type":"Polygon","coordinates":[[[142.4750879266051,43.45752353726473],[142.4757689993983,43.45829385519534],[142.4718896584242,43.460120925633476],[142.4709854627718,43.45905613678824],[142.47484502879078,43.45724369307689],[142.4750879266051,43.45752353726473]]]},"properties":{"KEY_CODE":"01460710002","PREF":"01","CITY":"460","CITY_NAME":"上富良野町","S_NAME":"宮町二丁目","SETAI":"136"}},{"type":"Feature","geometry":{"type":"Polygon","coordinates":[[[142.4757689993983,43.45829385519534],[142.47712898462643,43.45986225989416],[142.47546581044605,43.460656861738926],[142.47324788167936,43.46169926224021],[142.4718896584242,43.460120925633476],[142.4757689993983,43.45829385519534]]]},"properties":{"KEY_CODE":"01460710003","PREF":"01","CITY":"460","CITY_NAME":"上富良野町","S_NAME":"宮町三丁目","SETAI":"160"}},{"type":"Feature","geometry":{"type":"Polygon","coordinates":[[[142.47546581044605,43.460656861738926],[142.47667907075973,43.462028017272345],[142.4737977405595,43.463363033329145],[142.47263540267335,43.46198605156635],[142.47324788167936,43.46169926224021],[142.47546581044605,43.460656861738926]]]},"properties":{"KEY_CODE":"01460710004","PREF":"01","CITY":"460","CITY_NAME":"上富良野町","S_NAME":"宮町四丁目","SETAI":"51"}},{"type":"Feature","geometry":{"type":"Polygon","coordinates":[[[142.47508746740132,43.46475543665277],[142.47505226794814,43.464766934435374],[142.4737977405595,43.463363033329145],[142.47667907075973,43.462028017272345],[142.47793576967263,43.46342780419148],[142.47508746740132,43.46475543665277]]]},"properties":{"KEY_CODE":"01460710005","PREF":"01","CITY":"460","CITY_NAME":"上富良野町","S_NAME":"宮町五丁目","SETAI":"40"}},{"type":"Feature","geometry":{"type":"Polygon","coordinates":[[[142.4763294678906,43.46618870940756],[142.47508746740132,43.46475543665277],[142.47793576967263,43.46342780419148],[142.4785750443812,43.464895515315995],[142.4763294678906,43.46618870940756]]]},"properties":{"KEY_CODE":"01460710006","PREF":"01","CITY":"460","CITY_NAME":"上富良野町","S_NAME":"宮町六丁目","SETAI":"2"}},{"type":"Feature","geometry":{"type":"Polygon","coordinates":[[[142.4695625371636,43.457472374709674],[142.4709854627718,43.45905613678824],[142.46884377667328,43.46017434967009],[142.4673799717175,43.458489967935066],[142.4695625371636,43.457472374709674]]]},"properties":{"KEY_CODE":"01460711001","PREF":"01","CITY":"460","CITY_NAME":"上富良野町","S_NAME":"本町一丁目","SETAI":"58"}},{"type":"Feature","geometry":{"type":"Polygon","coordinates":[[[142.4709854627718,43.45905613678824],[142.4718896584242,43.460120925633476],[142.46936049083996,43.46172705266907],[142.46915621721928,43.46170564138701],[142.46884377667328,43.46017434967009],[142.4709854627718,43.45905613678824]]]},"properties":{"KEY_CODE":"01460711002","PREF":"01","CITY":"460","CITY_NAME":"上富良野町","S_NAME":"本町二丁目","SETAI":"20"}},{"type":"Feature","geometry":{"type":"Polygon","coordinates":[[[142.47324788167936,43.46169926224021],[142.47263540267335,43.46198605156635],[142.46983208324318,43.463263737733236],[142.46963038399105,43.464338151906766],[142.4691811869331,43.46429340405782],[142.46936049083996,43.46172705266907],[142.4718896584242,43.460120925633476],[142.47324788167936,43.46169926224021]]]},"properties":{"KEY_CODE":"01460711003","PREF":"01","CITY":"460","CITY_NAME":"上富良野町","S_NAME":"本町三丁目","SETAI":"53"}},{"type":"Feature","geometry":{"type":"Polygon","coordinates":[[[142.47263540267335,43.46198605156635],[142.4737977405595,43.463363033329145],[142.4738331603759,43.46341145438637],[142.46943661345549,43.46543822004034],[142.46963038399105,43.464338151906766],[142.46983208324318,43.463263737733236],[142.47263540267335,43.46198605156635]]]},"properties":{"KEY_CODE":"01460711004","PREF":"01","CITY":"460","CITY_NAME":"上富良野町","S_NAME":"本町四丁目","SETAI":"143"}},{"type":"Feature","geometry":{"type":"Polygon","coordinates":[[[142.47008489073377,43.467082938749655],[142.46808118726824,43.4680638058746],[142.46836174474967,43.46658275774478],[142.4691811869331,43.46429340405782],[142.46963038399105,43.464338151906766],[142.46943661345549,43.46543822004034],[142.4738331603759,43.46341145438637],[142.47505226794814,43.464766934435374],[142.47008489073377,43.467082938749655]]]},"properties":{"KEY_CODE":"01460711005","PREF":"01","CITY":"460","CITY_NAME":"上富良野町","S_NAME":"本町五丁目","SETAI":"177"}},{"type":"Feature","geometry":{"type":"Polygon","coordinates":[[[142.470041795504,43.46911138073118],[142.46773762383543,43.47020636137127],[142.4679675942604,43.46860173814107],[142.46808118726824,43.4680638058746],[142.47008489073377,43.467082938749655],[142.47505226794814,43.464766934435374],[142.47508746740132,43.46475543665277],[142.4763294678906,43.46618870940756],[142.4750249997789,43.466812931136104],[142.470041795504,43.46911138073118]]]},"properties":{"KEY_CODE":"01460711006","PREF":"01","CITY":"460","CITY_NAME":"上富良野町","S_NAME":"本町六丁目","SETAI":"10"}},{"type":"Feature","geometry":{"type":"Polygon","coordinates":[[[142.47900312977663,43.45308023164474],[142.48129148738585,43.45393428075122],[142.48135323200452,43.45397550746306],[142.48024297516204,43.454492786407634],[142.4787918692621,43.45516788013816],[142.4775170483555,43.45375492278247],[142.47900312977663,43.45308023164474]]]},"properties":{"KEY_CODE":"01460807001","PREF":"01","CITY":"460","CITY_NAME":"上富良野町","S_NAME":"東町一丁目","SETAI":"41"}},{"type":"Feature","geometry":{"type":"Polygon","coordinates":[[[142.4827629337312,43.45502357589868],[142.48000258237965,43.456563547465954],[142.47985072508706,43.45639186918657],[142.47956912085576,43.45608025428356],[142.47917311143837,43.45561886057309],[142.4787918692621,43.45516788013816],[142.48024297516204,43.454492786407634],[142.48156477454745,43.45411675265429],[142.4827629337312,43.45502357589868]]]},"properties":{"KEY_CODE":"01460807002","PREF":"01","CITY":"460","CITY_NAME":"上富良野町","S_NAME":"東町二丁目","SETAI":"2"}},{"type":"Feature","geometry":{"type":"Polygon","coordinates":[[[142.48292681405454,43.45520176693832],[142.4841613850736,43.45656864957695],[142.48122443046344,43.45795977834726],[142.48000258237968,43.456563547465954],[142.48292681405454,43.45520176693832]]]},"properties":{"KEY_CODE":"01460807003","PREF":"01","CITY":"460","CITY_NAME":"上富良野町","S_NAME":"東町三丁目","SETAI":"25"}},{"type":"Feature","geometry":{"type":"Polygon","coordinates":[[[142.48538822537373,43.457950477607454],[142.48245991720728,43.459335258907565],[142.48122443046344,43.45795977834726],[142.4841613850736,43.45656864957695],[142.48538822537373,43.457950477607454]]]},"properties":{"KEY_CODE":"01460807004","PREF":"01","CITY":"460","CITY_NAME":"上富良野町","S_NAME":"東町四丁目","SETAI":"64"}},{"type":"Feature","geometry":{"type":"Polygon","coordinates":[[[142.48538822537373,43.457950477607454],[142.48661796427473,43.459380952531276],[142.48368826578027,43.46071098683451],[142.48245991720728,43.459335258907565],[142.48538822537373,43.457950477607454]]]},"properties":{"KEY_CODE":"01460807005","PREF":"01","CITY":"460","CITY_NAME":"上富良野町","S_NAME":"東町五丁目","SETAI":"52"}},{"type":"Feature","geometry":{"type":"Polygon","coordinates":[[[142.4775170483555,43.45375492278247],[142.4787918692621,43.45516788013816],[142.47917311143837,43.45561886057309],[142.47800984298314,43.456158550764286],[142.477617624178,43.45633651963018],[142.47597701957517,43.45447499225981],[142.4775170483555,43.45375492278247]]]},"properties":{"KEY_CODE":"01460808001","PREF":"01","CITY":"460","CITY_NAME":"上富良野町","S_NAME":"新町一丁目","SETAI":"76"}},{"type":"Feature","geometry":{"type":"Polygon","coordinates":[[[142.47917311143837,43.45561886057309],[142.47956912085576,43.45608025428356],[142.47985072508698,43.45639186918657],[142.4786893588076,43.45693307419504],[142.47800984298314,43.456158550764286],[142.47917311143837,43.45561886057309]]]},"properties":{"KEY_CODE":"01460808002","PREF":"01","CITY":"460","CITY_NAME":"上富良野町","S_NAME":"新町二丁目","SETAI":"21"}},{"type":"Feature","geometry":{"type":"Polygon","coordinates":[[[142.48000258237968,43.456563547465954],[142.48122443046344,43.45795977834726],[142.4788631857835,43.45905915806692],[142.47750129039375,43.457496683220015],[142.4786893588076,43.45693307419504],[142.47985072508698,43.45639186918657],[142.48000258237968,43.456563547465954]]]},"properties":{"KEY_CODE":"01460808003","PREF":"01","CITY":"460","CITY_NAME":"上富良野町","S_NAME":"新町三丁目","SETAI":"75"}},{"type":"Feature","geometry":{"type":"Polygon","coordinates":[[[142.48122443046344,43.45795977834726],[142.48245991720728,43.459335258907565],[142.47957589758374,43.460688642542706],[142.47834320044564,43.45931354796325],[142.4788631857835,43.45905915806692],[142.48122443046344,43.45795977834726]]]},"properties":{"KEY_CODE":"01460808004","PREF":"01","CITY":"460","CITY_NAME":"上富良野町","S_NAME":"新町四丁目","SETAI":"92"}},{"type":"Feature","geometry":{"type":"Polygon","coordinates":[[[142.48245991720728,43.459335258907565],[142.48368826578027,43.46071098683451],[142.48080981435476,43.46207922959698],[142.4804450628308,43.461681457823374],[142.4801804713321,43.46137578647248],[142.47957589758374,43.460688642542706],[142.48245991720728,43.459335258907565]]]},"properties":{"KEY_CODE":"01460808005","PREF":"01","CITY":"460","CITY_NAME":"上富良野町","S_NAME":"新町五丁目","SETAI":"38"}},{"type":"Feature","geometry":{"type":"Polygon","coordinates":[[[142.47082364002233,43.45538980422616],[142.47174059550986,43.45644897807853],[142.4695625371636,43.457472374709674],[142.4673799717175,43.458489967935066],[142.46642689606344,43.45741461603087],[142.47082364002233,43.45538980422616]]]},"properties":{"KEY_CODE":"01460901001","PREF":"01","CITY":"460","CITY_NAME":"上富良野町","S_NAME":"大町一丁目","SETAI":"96"}},{"type":"Feature","geometry":{"type":"Polygon","coordinates":[[[142.469300628763,43.4536610793316],[142.47082364002233,43.45538980422616],[142.46642689606344,43.45741461603087],[142.465567710286,43.45641893654488],[142.46492886338564,43.455704706723886],[142.469300628763,43.4536610793316]]]},"properties":{"KEY_CODE":"01460901002","PREF":"01","CITY":"460","CITY_NAME":"上富良野町","S_NAME":"大町二丁目","SETAI":"86"}},{"type":"Feature","geometry":{"type":"Polygon","coordinates":[[[142.46809575556134,43.45225428430449],[142.469300628763,43.4536610793316],[142.46492886338564,43.455704706723886],[142.46368027732612,43.45429984677693],[142.46770017747764,43.4524312384588],[142.46809575556134,43.45225428430449]]]},"properties":{"KEY_CODE":"01460901003","PREF":"01","CITY":"460","CITY_NAME":"上富良野町","S_NAME":"大町三丁目","SETAI":"57"}},{"type":"Feature","geometry":{"type":"Polygon","coordinates":[[[142.46770017747764,43.4524312384588],[142.46368027732612,43.45429984677693],[142.46246596877955,43.452888053542736],[142.46684532676156,43.45082763074892],[142.4680957555614,43.45225428430449],[142.46770017747764,43.4524312384588]]]},"properties":{"KEY_CODE":"01460901004","PREF":"01","CITY":"460","CITY_NAME":"上富良野町","S_NAME":"大町四丁目","SETAI":"8"}},{"type":"Feature","geometry":{"type":"Polygon","coordinates":[[[142.46246596877955,43.452888053542736],[142.46212212944272,43.452492120837725],[142.4629820905856,43.45075400225467],[142.46326286545292,43.45014417550509],[142.46374728936536,43.44879188772371],[142.46378572529838,43.44827875289884],[142.4643306391395,43.4480413678365],[142.46684532676156,43.45082763074892],[142.46246596877955,43.452888053542736]]]},"properties":{"KEY_CODE":"01460901005","PREF":"01","CITY":"460","CITY_NAME":"上富良野町","S_NAME":"大町五丁目","SETAI":"1"}},{"type":"Feature","geometry":{"type":"Polygon","coordinates":[[[142.4673799717175,43.458489967935066],[142.467184100682,43.45858788075159],[142.4662462879144,43.45902535774965],[142.46331258703978,43.460335115979355],[142.46342132244033,43.459488081510635],[142.46273979720962,43.459035636655464],[142.45974574097394,43.45739407468057],[142.46018003752826,43.4564945824279],[142.46254046486908,43.457492558373325],[142.465567710286,43.45641893654488],[142.46642689606344,43.45741461603087],[142.4673799717175,43.458489967935066]]]},"properties":{"KEY_CODE":"01460912001","PREF":"01","CITY":"460","CITY_NAME":"上富良野町","S_NAME":"富町一丁目","SETAI":"73"}},{"type":"Feature","geometry":{"type":"Polygon","coordinates":[[[142.465567710286,43.45641893654488],[142.46254046486908,43.457492558373325],[142.46018003752826,43.4564945824279],[142.4605358284458,43.455759479898106],[142.46316186783662,43.45455577932931],[142.46368027732612,43.45429984677693],[142.46492886338564,43.455704706723886],[142.465567710286,43.45641893654488]]]},"properties":{"KEY_CODE":"01460912002","PREF":"01","CITY":"460","CITY_NAME":"上富良野町","S_NAME":"富町二丁目","SETAI":"174"}},{"type":"Feature","geometry":{"type":"Polygon","coordinates":[[[142.46316186783662,43.45455577932931],[142.4605358284458,43.4557594798981],[142.4610766026632,43.45464585569435],[142.4617409057972,43.453279495036526],[142.46212212944272,43.452492120837725],[142.46246596877955,43.452888053542736],[142.46368027732612,43.45429984677693],[142.46316186783662,43.45455577932931]]]},"properties":{"KEY_CODE":"01460912003","PREF":"01","CITY":"460","CITY_NAME":"上富良野町","S_NAME":"富町三丁目","SETAI":"5"}}]}