{"type":"FeatureCollection","features":[{"type":"Feature","geometry":{"type":"Polygon","coordinates":[[[143.11659194101762,44.46944451170513],[143.1153836628898,44.47059122544925],[143.11413195685557,44.4710341915223],[143.11390118953958,44.47071391625408],[143.11172651090874,44.46866541315172],[143.11105440456015,44.46830484336962],[143.11194362411507,44.46677121391748],[143.11226519973306,44.4669924744499],[143.11473083107327,44.467721687360154],[143.11485332410075,44.4677719088984],[143.11815652787584,44.46933936981343],[143.11659194101762,44.46944451170513]]]},"properties":{"KEY_CODE":"01561001001","PREF":"01","CITY":"561","CITY_NAME":"興部町","S_NAME":"字興部幸町","SETAI":"33"}},{"type":"Feature","geometry":{"type":"Polygon","coordinates":[[[143.11550674398174,44.47357725351063],[143.11413195685557,44.4710341915223],[143.1153836628898,44.47059122544925],[143.11659194101762,44.46944451170513],[143.11815652787584,44.46933936981343],[143.1201845863589,44.470556988864665],[143.11550674398174,44.47357725351063]]]},"properties":{"KEY_CODE":"01561001002","PREF":"01","CITY":"561","CITY_NAME":"興部町","S_NAME":"字興部仲町","SETAI":"81"}},{"type":"Feature","geometry":{"type":"Polygon","coordinates":[[[143.1221789978836,44.471639340632905],[143.11748669026673,44.475266302115806],[143.11550674398174,44.47357725351063],[143.1201845863589,44.470556988864665],[143.12077250151228,44.47095566372599],[143.1221789978836,44.471639340632905]]]},"properties":{"KEY_CODE":"01561001003","PREF":"01","CITY":"561","CITY_NAME":"興部町","S_NAME":"字興部本町","SETAI":"125"}},{"type":"Feature","geometry":{"type":"Polygon","coordinates":[[[143.12372389994493,44.472402905141905],[143.12459837575526,44.472951204454695],[143.12585209249428,44.475460849924666],[143.12698231287678,44.478798203165006],[143.12702094337163,44.47990799211958],[143.12657293191418,44.480905787749684],[143.12630473926697,44.4811498254138],[143.1216865438514,44.47867623196678],[143.11748669026673,44.475266302115806],[143.1221789978836,44.471639340632905],[143.12372389994493,44.472402905141905]]]},"properties":{"KEY_CODE":"01561001004","PREF":"01","CITY":"561","CITY_NAME":"興部町","S_NAME":"字興部元町","SETAI":"118"}},{"type":"Feature","geometry":{"type":"Polygon","coordinates":[[[143.13108041649434,44.469477576844085],[143.13186695683802,44.46934921851131],[143.13246167174304,44.47150447738425],[143.13213643855673,44.471528465033636],[143.12900168350853,44.471967315314416],[143.1281917615412,44.472078041995836],[143.1267721027314,44.47227178136201],[143.12477104966433,44.472303468604224],[143.12392127663978,44.47218592193156],[143.1273476031567,44.47004219065584],[143.13108041649434,44.469477576844085]]]},"properties":{"KEY_CODE":"01561001005","PREF":"01","CITY":"561","CITY_NAME":"興部町","S_NAME":"字興部東町","SETAI":"45"}},{"type":"Feature","geometry":{"type":"Polygon","coordinates":[[[143.12170101203176,44.46644840327355],[143.12470702705403,44.46464267420539],[143.1275253523482,44.464201606518564],[143.13130971190935,44.466821428357385],[143.13108041649434,44.469477576844085],[143.1273476031567,44.47004219065584],[143.12418008666035,44.468026312981955],[143.12170101203176,44.46644840327355]]]},"properties":{"KEY_CODE":"01561001007","PREF":"01","CITY":"561","CITY_NAME":"興部町","S_NAME":"字興部緑ケ丘","SETAI":"123"}},{"type":"Feature","geometry":{"type":"Polygon","coordinates":[[[143.12418008666035,44.468026312981955],[143.1273476031567,44.47004219065584],[143.12392127663978,44.47218592193156],[143.1221789978836,44.471639340632905],[143.12077250151228,44.47095566372599],[143.12418008666035,44.468026312981955]]]},"properties":{"KEY_CODE":"01561001008","PREF":"01","CITY":"561","CITY_NAME":"興部町","S_NAME":"字興部旭町","SETAI":"92"}},{"type":"Feature","geometry":{"type":"Polygon","coordinates":[[[143.12170101203176,44.46644840327355],[143.12418008666035,44.468026312981955],[143.12077250151228,44.47095566372599],[143.1201845863589,44.470556988864665],[143.11815652787584,44.46933936981343],[143.12097926166243,44.46707044403036],[143.12170101203176,44.46644840327355]]]},"properties":{"KEY_CODE":"01561001009","PREF":"01","CITY":"561","CITY_NAME":"興部町","S_NAME":"字興部栄町","SETAI":"130"}},{"type":"Feature","geometry":{"type":"Polygon","coordinates":[[[143.12097926166243,44.46707044403036],[143.11815652787584,44.46933936981343],[143.1152329675947,44.46792792890918],[143.1183693337523,44.465382215732916],[143.12097926166243,44.46707044403036]]]},"properties":{"KEY_CODE":"01561001010","PREF":"01","CITY":"561","CITY_NAME":"興部町","S_NAME":"字興部泉町","SETAI":"149"}},{"type":"Feature","geometry":{"type":"Polygon","coordinates":[[[143.11563095660043,44.463763378164806],[143.1183693337523,44.465382215732916],[143.1152329675947,44.46792792890918],[143.11485332410075,44.4677719088984],[143.11473083107327,44.467721687360154],[143.11226519973306,44.4669924744499],[143.11194362411507,44.46677121391748],[143.11373536622085,44.46526856741835],[143.11563095660043,44.463763378164806]]]},"properties":{"KEY_CODE":"01561001011","PREF":"01","CITY":"561","CITY_NAME":"興部町","S_NAME":"字興部新泉町","SETAI":"99"}},{"type":"Feature","geometry":{"type":"Polygon","coordinates":[[[143.14529238730157,44.47415635520136],[143.13837802703594,44.47813828081583],[143.13337327392867,44.48058945612023],[143.1291315513878,44.48299989305109],[143.12657293191418,44.480905787749684],[143.12702094337163,44.47990799211958],[143.12698231287678,44.478798203165006],[143.12585209249428,44.475460849924666],[143.12459837575526,44.472951204454695],[143.12372389994493,44.472402905141905],[143.12392127663978,44.47218592193156],[143.12477104966433,44.472303468604224],[143.1267721027314,44.47227178136201],[143.1281917615412,44.472078041995836],[143.12900168350853,44.471967315314416],[143.13213643855673,44.471528465033636],[143.1356720527993,44.4712676971726],[143.13772362617922,44.47098063117811],[143.1434737754722,44.46932813107651],[143.1442597791855,44.4703098694781],[143.14383221584112,44.47242450385487],[143.14529238730157,44.47415635520136]]]},"properties":{"KEY_CODE":"01561001012","PREF":"01","CITY":"561","CITY_NAME":"興部町","S_NAME":"字興部浜町","SETAI":"18"}},{"type":"Feature","geometry":{"type":"Polygon","coordinates":[[[143.11194362411507,44.46677121391748],[143.11105440456015,44.46830484336962],[143.11047610746817,44.467986448725284],[143.10819081486656,44.46756722855566],[143.1046316247125,44.466545071053694],[143.1123618547271,44.45937004045848],[143.11892041304878,44.454066487204116],[143.12167725151727,44.4546053568813],[143.12326186500945,44.45484336383176],[143.12156005194768,44.45634939608506],[143.12239072189914,44.4588338012639],[143.1222484090341,44.45945671850718],[143.12090073333016,44.459401596391785],[143.11967659294507,44.46038070823232],[143.11563095660043,44.463763378164806],[143.11373536622085,44.46526856741835],[143.11194362411507,44.46677121391748]]]},"properties":{"KEY_CODE":"01561001013","PREF":"01","CITY":"561","CITY_NAME":"興部町","S_NAME":"字興部新町","SETAI":"53"}},{"type":"Feature","geometry":{"type":"Polygon","coordinates":[[[143.1046316247125,44.466545071053694],[143.10819081486656,44.46756722855566],[143.11047610746817,44.467986448725284],[143.11105440456015,44.46830484336962],[143.11172651090874,44.46866541315172],[143.11390118953958,44.47071391625408],[143.11413195685557,44.4710341915223],[143.11550674398174,44.47357725351063],[143.11748669026673,44.475266302115806],[143.1216865438514,44.47867623196678],[143.12630473926697,44.4811498254138],[143.1291315513878,44.4829998930511],[143.12197555726254,44.48721058157985],[143.11674225382276,44.48991623187128],[143.1086555396783,44.49370975548055],[143.10046954948834,44.49787166160892],[143.09791833636282,44.494133508910615],[143.09593214534993,44.490109349058784],[143.09299144404883,44.485123498127194],[143.087873266299,44.47867601442962],[143.0843893689717,44.47493358124982],[143.08295240572215,44.473926118129434],[143.07837287799592,44.47216165811475],[143.07482644136664,44.47123507822337],[143.07122702120293,44.46979981793137],[143.06913584000563,44.46500954130043],[143.06785780895228,44.46428790998276],[143.06630998930808,44.46340668347405],[143.06587164143463,44.46337022738396],[143.0643413415506,44.463490470798064],[143.06204064058394,44.46310721688803],[143.0674838649131,44.459007426679676],[143.07248943636915,44.462369661806456],[143.07828322118488,44.465472379030395],[143.08279303731317,44.46165420598193],[143.08806201584582,44.46490318965892],[143.09067504003113,44.46257572712406],[143.09239989407945,44.461602205966706],[143.09748345907292,44.46097889190824],[143.10069421285093,44.46197127719124],[143.10275073794548,44.46394602243476],[143.1046316247125,44.466545071053694]]]},"properties":{"KEY_CODE":"01561001014","PREF":"01","CITY":"561","CITY_NAME":"興部町","S_NAME":"字興部宮下町","SETAI":"19"}},{"type":"Feature","geometry":{"type":"Polygon","coordinates":[[[143.1434737754722,44.46932813107651],[143.13772362617922,44.47098063117811],[143.1356720527993,44.4712676971726],[143.13246167174304,44.47150447738425],[143.13186695683802,44.46934921851131],[143.13108041649434,44.469477576844085],[143.13130971190935,44.466821428357385],[143.1275253523482,44.464201606518564],[143.12470702705403,44.46464267420539],[143.12170101203176,44.46644840327355],[143.12097926166243,44.46707044403036],[143.1183693337523,44.465382215732916],[143.11563095660043,44.463763378164806],[143.11967659294507,44.46038070823232],[143.12090073333016,44.459401596391785],[143.1222484090341,44.45945671850718],[143.12239072189914,44.4588338012639],[143.12156005194768,44.45634939608506],[143.12326186500945,44.45484336383176],[143.12352076949392,44.454615331909395],[143.1295558226217,44.45810074974568],[143.13897716559794,44.4640097706425],[143.1436459649427,44.467092049574234],[143.14328426233317,44.46753794207418],[143.14357222121518,44.46868819649734],[143.1434737754722,44.46932813107651]]]},"properties":{"KEY_CODE":"01561001015","PREF":"01","CITY":"561","CITY_NAME":"興部町","S_NAME":"字興部春日町","SETAI":"68"}},{"type":"Feature","geometry":{"type":"Polygon","coordinates":[[[143.16257756333562,44.466259427659494],[143.15810327846575,44.46155544969045],[143.15358578045252,44.46289460626553],[143.1502179143762,44.460860517988365],[143.14679295233924,44.4601157357974],[143.14087921725854,44.45527388356654],[143.1393085742698,44.45235901602084],[143.13838261011634,44.45151771297807],[143.1367971859079,44.44849271653436],[143.13571211248956,44.44782675421956],[143.12990423282736,44.4522990197265],[143.1279631122785,44.45095170919934],[143.1266995882366,44.451417535039944],[143.1246411741138,44.45078106677699],[143.12055815200728,44.448152873920954],[143.1218102808211,44.44618926470496],[143.11478155848516,44.44227428169803],[143.09783023553373,44.431575551367374],[143.1017514865811,44.42601403574065],[143.10025054926385,44.424782392037855],[143.10131125919983,44.42319181423307],[143.09973825833467,44.41858677800088],[143.1013204553287,44.416458802575725],[143.10472766895077,44.41244980460757],[143.10646352751542,44.41297559773292],[143.10800539882615,44.41387864730958],[143.1104810235439,44.41633249982909],[143.1138659163303,44.419978138190515],[143.1163804843175,44.42180648696243],[143.11749605561428,44.42154298991025],[143.11757373156664,44.42038604823123],[143.11799270286684,44.41814706683972],[143.12012716602052,44.41659011305075],[143.12150567961,44.41632329965823],[143.12596347425662,44.4178875549301],[143.1281747465931,44.42153795333166],[143.13056625235518,44.423031702535596],[143.13172950188746,44.42380950082397],[143.12508562976876,44.428796900418405],[143.13455860323066,44.43664623958162],[143.13533976707507,44.43598245402815],[143.1483759034508,44.44659079703554],[143.14979705015097,44.44674245301128],[143.15072936291548,44.445876357853926],[143.15330354097551,44.44814540458723],[143.15285492801007,44.44939855892635],[143.1572480554682,44.44966641017159],[143.16175413906126,44.45569035414856],[143.162739910433,44.45865600282573],[143.16808570412758,44.463177834051926],[143.16257756333562,44.466259427659494]]]},"properties":{"KEY_CODE":"01561003001","PREF":"01","CITY":"561","CITY_NAME":"興部町","S_NAME":"字秋里秋里","SETAI":"19"}},{"type":"Feature","geometry":{"type":"Polygon","coordinates":[[[143.09783023553373,44.431575551367374],[143.0966049641968,44.4318714588148],[143.093106583441,44.430351287538215],[143.06161677147986,44.41796062778666],[143.05229680561683,44.414460553541694],[143.01737164127715,44.400223320108566],[143.0111639603634,44.3975151179937],[143.01497785145625,44.39295443453317],[143.0218801815412,44.384763182978155],[143.05326567752118,44.39771861571638],[143.1013204553287,44.416458802575725],[143.09973825833467,44.41858677800088],[143.10131125919983,44.42319181423307],[143.10025054926385,44.424782392037855],[143.1017514865811,44.42601403574065],[143.09783023553373,44.431575551367374]]]},"properties":{"KEY_CODE":"01561003002","PREF":"01","CITY":"561","CITY_NAME":"興部町","S_NAME":"字秋里朝日二区","SETAI":"13"}},{"type":"Feature","geometry":{"type":"Polygon","coordinates":[[[143.10472766895077,44.41244980460757],[143.1013204553287,44.416458802575725],[143.05326567752118,44.39771861571638],[143.0218801815412,44.384763182978155],[143.03213808969124,44.372888134887354],[143.0314572416158,44.37087310524953],[143.03302448693984,44.36871294481552],[143.03295870136557,44.36667032726214],[143.03204477855934,44.36529752746258],[143.02939498696327,44.36499529654116],[143.0297497858148,44.36279549834956],[143.0289664647794,44.35980357619156],[143.02866145623227,44.355881822556164],[143.02901533512795,44.35381048952518],[143.03078774401877,44.3533163422147],[143.03307922932504,44.35159081753613],[143.03309207003375,44.34850119862272],[143.03235787468108,44.34754342150946],[143.02896139349278,44.34689156194598],[143.02799677752628,44.34328247751639],[143.02590497088616,44.341043530449234],[143.0255571463732,44.339854770354584],[143.02653337655468,44.3372773424509],[143.02639796140338,44.33222071145471],[143.0272601858607,44.32981429619724],[143.0310066127673,44.329023657423875],[143.03260403658226,44.32754095076548],[143.03323813797772,44.32411838362764],[143.03289577162712,44.322417003778696],[143.03387958981398,44.31970365363834],[143.03562128370024,44.31866663853999],[143.03592748617172,44.31567019808325],[143.03658307663218,44.315171651058854],[143.03794746393172,44.314567484463616],[143.0433412906855,44.31348637761049],[143.04691724766255,44.31229410207256],[143.04730556487277,44.311267141062665],[143.05073664570148,44.30879160578489],[143.05094563899755,44.307056759990246],[143.04807578076895,44.30553760790233],[143.04804138399905,44.303756761639775],[143.04939481961273,44.30278063542733],[143.05002748210447,44.30102967007908],[143.0529451472759,44.299341617996916],[143.0567623218468,44.29877750119958],[143.0583338812871,44.29902226516798],[143.0589270305078,44.297667194620246],[143.06124376918046,44.29637728268626],[143.061076529999,44.29521189449158],[143.06320338981408,44.291372127589746],[143.06387494388426,44.2891151734161],[143.06626282016668,44.28847117374439],[143.06870210725788,44.28866816010757],[143.07230534849256,44.29118488684643],[143.0753933206566,44.290592854080664],[143.07952601876534,44.291702486438176],[143.08235447524095,44.29159247629809],[143.08360872094227,44.294463377217184],[143.08571097817386,44.29728687634226],[143.0849403412947,44.29957304843669],[143.08165710893346,44.29979981877561],[143.07720016686727,44.30474530117216],[143.0730653906377,44.30715905783872],[143.07318554937936,44.31082444848752],[143.06998139532325,44.313736178010146],[143.06931978027023,44.31823206029054],[143.06971059471658,44.31938154377455],[143.06761127765105,44.32163306776143],[143.06723569634346,44.32288577769521],[143.06788919136727,44.326086999413],[143.06773679533777,44.33337471684118],[143.06842125784462,44.337191961539624],[143.07034466048017,44.33920967862681],[143.07026857613465,44.340759388417965],[143.06917716512842,44.34386910283678],[143.06991092153345,44.34951910906214],[143.0701437288293,44.35092318572353],[143.07000076866416,44.35149371824953],[143.06833827134238,44.352649900224264],[143.06466681789388,44.35376483012924],[143.0636288857966,44.355340828516496],[143.0638006344963,44.35652428932457],[143.06578672080005,44.35974255038855],[143.06679091964966,44.360822071012926],[143.06870407159997,44.364404555044025],[143.06936009881326,44.365424668577724],[143.0733365170841,44.367530398540104],[143.07686793538556,44.36897710688119],[143.0797220593672,44.370431234656],[143.0834143077981,44.37468918893366],[143.08723369312418,44.37810794254469],[143.09088137372757,44.38032736623494],[143.09402204814066,44.382773600674085],[143.0938201442423,44.38516233777598],[143.09292559975987,44.386152240438996],[143.0924759062108,44.387832532266046],[143.09345430800377,44.39021501442215],[143.09245364458857,44.39108619736487],[143.08856248881577,44.392132442802435],[143.08777973453266,44.3928603746894],[143.08881988739836,44.39412896121011],[143.09203782834211,44.39646503359768],[143.09323703443044,44.39840340844303],[143.09488874801426,44.39941467834378],[143.09687491276188,44.401109244744674],[143.09933339377702,44.404250903517905],[143.1013579227444,44.40525758112747],[143.09854769188001,44.409884180619194],[143.10472766895077,44.41244980460757]]]},"properties":{"KEY_CODE":"01561003003","PREF":"01","CITY":"561","CITY_NAME":"興部町","S_NAME":"字秋里朝日一区","SETAI":"5"}},{"type":"Feature","geometry":{"type":"Polygon","coordinates":[[[143.14529238730157,44.47415635520136],[143.14383221584112,44.47242450385487],[143.1442597791855,44.4703098694781],[143.1434737754722,44.46932813107651],[143.14357222121518,44.46868819649734],[143.14328426233317,44.46753794207418],[143.1436459649427,44.467092049574234],[143.13897716559794,44.4640097706425],[143.1295558226217,44.45810074974568],[143.12352076949392,44.454615331909395],[143.12389448403212,44.454496420258984],[143.12626589567864,44.454647882694715],[143.12756055287474,44.45388961157576],[143.12990423282736,44.4522990197265],[143.13571211248956,44.44782675421956],[143.1367971859079,44.44849271653436],[143.13838261011634,44.45151771297807],[143.1393085742698,44.45235901602084],[143.14087921725854,44.45527388356654],[143.14679295233924,44.4601157357974],[143.1502179143762,44.460860517988365],[143.15358578045252,44.46289460626553],[143.15810327846575,44.46155544969045],[143.16257756333562,44.466259427659494],[143.1573897167943,44.46839504761017],[143.15583346677013,44.469320695280324],[143.14747184372033,44.47329732162942],[143.14529238730157,44.47415635520136]]]},"properties":{"KEY_CODE":"01561003015","PREF":"01","CITY":"561","CITY_NAME":"興部町","S_NAME":"字秋里春日町","SETAI":"6"}},{"type":"Feature","geometry":{"type":"Polygon","coordinates":[[[143.1677202799361,44.427088835033516],[143.16758675557648,44.429403911699566],[143.17816480322995,44.443212724399174],[143.18116588955928,44.44421173791056],[143.18432088473602,44.447846155464525],[143.18942773827058,44.45254376050143],[143.18258098719596,44.45620100927419],[143.1771184232075,44.4585196375632],[143.17553185697867,44.45962833641683],[143.16808570412755,44.46317783405193],[143.162739910433,44.45865600282573],[143.16175413906126,44.45569035414856],[143.15724805546822,44.44966641017159],[143.15285492801004,44.44939855892641],[143.1533035409755,44.44814540458723],[143.15072936291548,44.445876357853926],[143.14979705015097,44.44674245301128],[143.14837590345084,44.44659079703554],[143.13533976707507,44.43598245402815],[143.13455860323066,44.43664623958162],[143.12508562976876,44.42879690041844],[143.13172950188752,44.42380950082397],[143.13056625235518,44.423031702535596],[143.1281747465931,44.42153795333166],[143.12596347425662,44.4178875549301],[143.12150567961,44.41632329965823],[143.12012716602052,44.41659011305075],[143.11799270286684,44.41814706683972],[143.11757373156664,44.42038604823123],[143.11749605561428,44.42154298991025],[143.1163804843175,44.42180648696247],[143.1138659163303,44.419978138190515],[143.1104810235439,44.41633249982909],[143.10800539882618,44.41387864730954],[143.10646352751542,44.41297559773292],[143.10472766895077,44.41244980460757],[143.09854769188001,44.409884180619194],[143.1013579227444,44.40525758112747],[143.09933339377702,44.404250903517905],[143.09687491276188,44.401109244744674],[143.09488874801426,44.39941467834378],[143.09323703443047,44.39840340844303],[143.09203782834211,44.39646503359768],[143.08881988739836,44.39412896121011],[143.0877797345327,44.392860374689405],[143.08856248881577,44.392132442802435],[143.09245364458857,44.39108619736487],[143.09345430800377,44.39021501442215],[143.09247590621075,44.387832532266046],[143.09292559975987,44.386152240438996],[143.0938201442423,44.38516233777598],[143.09402204814066,44.38277360067409],[143.09088137372754,44.38032736623494],[143.08723369312412,44.37810794254469],[143.0834143077981,44.37468918893366],[143.0797220593672,44.370431234656],[143.07686793538556,44.36897710688119],[143.0733365170841,44.367530398540104],[143.06936009881326,44.365424668577724],[143.06870407159997,44.364404555044025],[143.06679091964966,44.360822071012905],[143.06578672080005,44.35974255038855],[143.0638006344963,44.35652428932457],[143.0636288857966,44.355340828516496],[143.06466681789388,44.35376483012924],[143.06833827134238,44.352649900224264],[143.07000076866416,44.35149371824953],[143.0701437288293,44.35092318572353],[143.06991092153345,44.34951910906215],[143.07287700957747,44.349739412406976],[143.07540762537153,44.35094430486032],[143.0767415970981,44.35192527680553],[143.07684625517814,44.35424744009584],[143.07643838199067,44.356006230962215],[143.07687756438335,44.35694968782454],[143.07846638491858,44.357232437331895],[143.07893076602568,44.361178445543196],[143.0803086414543,44.36215890817731],[143.08029949900663,44.362601527730945],[143.08185811525627,44.3643543882005],[143.0821124836411,44.36578981311692],[143.08148314663342,44.367693320158644],[143.0820144173528,44.36947337433576],[143.0875787200713,44.37408974023775],[143.09596844732167,44.378437136154055],[143.0967867722904,44.38010326212807],[143.09797989183517,44.38481545889184],[143.09850129407192,44.38604234902989],[143.10157999119693,44.384047972577086],[143.10284083959644,44.38223203276639],[143.10635574754008,44.38133892764883],[143.10746230185413,44.382812052502864],[143.10758241017683,44.38443858649362],[143.1082309245086,44.3858694748512],[143.11079351599997,44.38776859540215],[143.1125275319459,44.38920398933452],[143.11417194357236,44.389355833690374],[143.11590965416232,44.386604153423455],[143.1192145651363,44.38528630485287],[143.1212086983038,44.38611696119934],[143.12448747633417,44.38902691421599],[143.12854103311088,44.38910219740955],[143.13020920756802,44.38945663805025],[143.13330304598944,44.3901474558021],[143.13445756195748,44.39269084604697],[143.13643703851676,44.39465006044178],[143.1410897571032,44.39793454306245],[143.1437608206732,44.39897594883995],[143.14809063002627,44.39727246302692],[143.14449733708898,44.39276194852648],[143.1476699867098,44.39105336834548],[143.14886041190567,44.38981356033428],[143.15096977316136,44.38887404029524],[143.15643420947995,44.38582741115969],[143.15782350197804,44.389044327748614],[143.1579706333764,44.39103335959784],[143.15931812561232,44.39301238103879],[143.159589901662,44.394231161307225],[143.1574913455555,44.39649529867752],[143.15874746400925,44.39796819849204],[143.15712789574977,44.40011478798106],[143.15737599555308,44.401096664919926],[143.15961314478238,44.40241367547788],[143.16164757168397,44.40295457445726],[143.1651724759951,44.40423141411781],[143.16690792814518,44.40555511482558],[143.1692815107954,44.40747344855814],[143.17096826087896,44.40818136305339],[143.17434995858025,44.40794190714774],[143.1785196674533,44.407968580458956],[143.18029726370307,44.409072109586305],[143.18103127070563,44.41066157897866],[143.1803358032419,44.41102763529233],[143.17759761253313,44.412492551926],[143.17727983167472,44.41363778290951],[143.17466293481266,44.41398546117571],[143.17188113872203,44.415496779057996],[143.16899754084403,44.41530360480407],[143.16923069586943,44.41707342282568],[143.1693046050246,44.41808370597484],[143.17238294245857,44.42064507704252],[143.1710830319618,44.42186739828677],[143.16753880874597,44.42364882410444],[143.16705865062113,44.426304578073136],[143.1677202799361,44.427088835033516]]]},"properties":{"KEY_CODE":"01561004001","PREF":"01","CITY":"561","CITY_NAME":"興部町","S_NAME":"字豊野豊野","SETAI":"23"}},{"type":"Feature","geometry":{"type":"Polygon","coordinates":[[[143.15643420947995,44.38582741115969],[143.15096977316136,44.38887404029524],[143.14886041190567,44.389813560334275],[143.1476699867098,44.39105336834548],[143.14449733708898,44.39276194852648],[143.14809063002627,44.39727246302692],[143.1437608206732,44.39897594883995],[143.1410897571032,44.39793454306245],[143.13643703851676,44.39465006044178],[143.13445756195748,44.39269084604697],[143.13330304598944,44.39014745580211],[143.13020920756802,44.38945663805025],[143.12854103311088,44.38910219740955],[143.12448747633417,44.38902691421599],[143.1212086983038,44.38611696119934],[143.11921456513625,44.38528630485287],[143.11590965416232,44.386604153423455],[143.11417194357236,44.389355833690374],[143.1125275319459,44.38920398933452],[143.11079351599997,44.38776859540215],[143.10823092450858,44.38586947485116],[143.10758241017683,44.38443858649362],[143.10746230185413,44.382812052502864],[143.10635574754008,44.38133892764883],[143.10284083959644,44.38223203276639],[143.10157999119693,44.384047972577086],[143.09850129407192,44.38604234902989],[143.09797989183517,44.38481545889184],[143.0967867722904,44.380103262128074],[143.09596844732158,44.378437136154055],[143.0875787200713,44.37408974023775],[143.0820144173528,44.36947337433576],[143.08148314663342,44.367693320158644],[143.0821124836411,44.36578981311692],[143.08185811525627,44.3643543882005],[143.08029949900663,44.362601527730945],[143.0803086414543,44.36215890817731],[143.07893076602568,44.361178445543224],[143.07846638491856,44.35723243733193],[143.07687756438335,44.35694968782457],[143.07643838199067,44.356006230962215],[143.07684625517814,44.35424744009584],[143.07674159709816,44.35192527680553],[143.07540762537153,44.35094430486032],[143.07287700957747,44.349739412406976],[143.06991092153345,44.34951910906214],[143.06917716512842,44.34386910283678],[143.07026857613465,44.340759388417965],[143.07034466048017,44.33920967862681],[143.06842125784462,44.337191961539624],[143.06773679533777,44.33337471684118],[143.06788919136727,44.326086999413],[143.06723569634346,44.32288577769521],[143.06761127765105,44.32163306776143],[143.06971059471658,44.31938154377455],[143.06931978027023,44.31823206029054],[143.06998139532325,44.313736178010146],[143.07318554937936,44.31082444848752],[143.0730653906377,44.30715905783872],[143.07720016686727,44.30474530117216],[143.08165710893346,44.29979981877561],[143.0849403412947,44.29957304843669],[143.08571097817386,44.29728687634226],[143.08360872094227,44.294463377217184],[143.08235447524095,44.29159247629809],[143.08259577992618,44.290483297298216],[143.084933827989,44.28774383707082],[143.0876970825249,44.28818741438684],[143.0902780356507,44.287403598810414],[143.09131120425587,44.28640543332758],[143.09519731196943,44.286876150567686],[143.09520623462657,44.286938755128844],[143.0953393585627,44.28708879161134],[143.09602009860657,44.28764363040486],[143.09698459088565,44.28874199907596],[143.09783568291013,44.289126050247035],[143.09848458479075,44.28939049271222],[143.0996906838732,44.28934162666314],[143.10112982362264,44.28893772617092],[143.10340429343177,44.28824690905718],[143.10459565557971,44.28814256992016],[143.10500465808764,44.28815090206052],[143.1054348120693,44.288247407669836],[143.10886890722784,44.289090667375085],[143.11006539106114,44.28950470749372],[143.11049189612896,44.28973236116356],[143.11089687086087,44.29014102777832],[143.11229379040105,44.290790091558826],[143.11304579598274,44.290909788529504],[143.1133097047119,44.2910360152498],[143.11366106406032,44.29131115934057],[143.11401785688722,44.29195664958643],[143.11441334938252,44.29320448468197],[143.1142594814924,44.293680033413914],[143.114128002036,44.29432068650058],[143.114069665304,44.29521578358413],[143.1141328589003,44.29613988127486],[143.11408427740378,44.29661891948018],[143.11410867775865,44.296793959414785],[143.11422651720164,44.296978279200474],[143.11573018670794,44.29852824887071],[143.11335561320962,44.30243112313094],[143.1133928661142,44.303215805503804],[143.1142445859624,44.303487184756875],[143.115650836561,44.30393383800262],[143.11621387817658,44.3045549894701],[143.11729519163168,44.30531463162205],[143.1179166658326,44.30572589858705],[143.1182183596961,44.306118213758324],[143.1182279850764,44.30663812236471],[143.11837409934205,44.308604392178694],[143.11971993623862,44.309656933449105],[143.11970000582843,44.31314734600714],[143.12030710783787,44.31378526031819],[143.12051957495714,44.313914673180726],[143.12288346170203,44.316048842336585],[143.1255815558191,44.3176939327878],[143.12619384359982,44.318725717588215],[143.1291704293861,44.3206543063976],[143.13021443776478,44.323007784291654],[143.13269180908313,44.326872771203746],[143.1338595117986,44.32959939227619],[143.1335704927705,44.33087582998081],[143.1349860408853,44.331151126907066],[143.13461060121472,44.33237950633803],[143.13562865451837,44.33389821578281],[143.1359401247157,44.33574271033492],[143.14024839139074,44.34100323369545],[143.14440326218303,44.34843864384482],[143.14693509114989,44.35718577715025],[143.1468789760358,44.360969357073074],[143.14773172448812,44.36311796662208],[143.15123227375113,44.36630743667804],[143.15249162286642,44.36784613803636],[143.15270910821127,44.376439266298775],[143.15515606671093,44.38090543090768],[143.15643420947995,44.38582741115969]]]},"properties":{"KEY_CODE":"01561004002","PREF":"01","CITY":"561","CITY_NAME":"興部町","S_NAME":"字豊野豊畑","SETAI":"3"}},{"type":"Feature","geometry":{"type":"Polygon","coordinates":[[[143.21180330662222,44.41194337430765],[143.21405035149442,44.41415811725558],[143.21631334517116,44.41571093468796],[143.2169797292939,44.416952197715176],[143.21863660206543,44.41904619627166],[143.22067626392942,44.42002752192484],[143.2207395558654,44.42215685619609],[143.21979009707752,44.423385744647156],[143.221095005666,44.42836133475098],[143.21846303460345,44.43043890484394],[143.22107500920083,44.43386356335098],[143.2197545803264,44.434206182481844],[143.22096820748004,44.435841502713856],[143.22042832748565,44.436035891759325],[143.22024709460322,44.436458916488974],[143.2199221948801,44.43720905232168],[143.21973445452983,44.437802813231635],[143.21794027221821,44.43831044280099],[143.21795350099055,44.438636261611514],[143.21771497364017,44.438919283251835],[143.21748308806758,44.439129156678334],[143.21748763035208,44.43940449631358],[143.21763200196688,44.43961870973748],[143.20984773961683,44.44281667397673],[143.20777248590383,44.44416947306582],[143.19658804874294,44.449203600207845],[143.1945128687547,44.45058695715664],[143.18942773827058,44.45254376050143],[143.18432088473602,44.447846155464525],[143.18116588955928,44.44421173791056],[143.17816480322995,44.443212724399174],[143.16758675557648,44.429403911699566],[143.1677202799361,44.427088835033516],[143.17516787823138,44.42463581524947],[143.19116564106693,44.41869154316741],[143.2038516543378,44.41383806885513],[143.2112060923183,44.41108164879926],[143.21180330662222,44.41194337430765]]]},"properties":{"KEY_CODE":"01561005001","PREF":"01","CITY":"561","CITY_NAME":"興部町","S_NAME":"字沙留西町","SETAI":"49"}},{"type":"Feature","geometry":{"type":"Polygon","coordinates":[[[143.22765400140824,44.43642993256976],[143.22686061865917,44.43837271626774],[143.22336620562018,44.439999862309236],[143.22303057179002,44.441515480868574],[143.22141338827115,44.43951148860211],[143.21748763035208,44.43940449631358],[143.21748308806758,44.439129156678334],[143.21771497364017,44.438919283251835],[143.21795350099055,44.438636261611514],[143.21794027221821,44.43831044280099],[143.21973445452983,44.437802813231635],[143.2199221948801,44.43720905232168],[143.22024709460322,44.436458916488974],[143.22042832748565,44.436035891759325],[143.22096820748004,44.435841502713856],[143.22153891068513,44.43657837811638],[143.22384780449804,44.437990359868785],[143.22492402245388,44.43701060241831],[143.22520833213824,44.436585497761],[143.22563593767356,44.43645658951898],[143.22601734711805,44.436182001450796],[143.22613427265853,44.43602536734285],[143.22765400140824,44.43642993256976]]]},"properties":{"KEY_CODE":"01561005002","PREF":"01","CITY":"561","CITY_NAME":"興部町","S_NAME":"字沙留汐見町","SETAI":"54"}},{"type":"Feature","geometry":{"type":"Polygon","coordinates":[[[143.22765400140824,44.43642993256976],[143.22613427265853,44.43602536734285],[143.2262163841544,44.43588808541559],[143.22645489571553,44.434899784499535],[143.2267120947526,44.43378497178221],[143.22671292024887,44.433781413428754],[143.22922813699643,44.43396036238363],[143.22765400140824,44.43642993256976]]]},"properties":{"KEY_CODE":"01561005003","PREF":"01","CITY":"561","CITY_NAME":"興部町","S_NAME":"字沙留北浜町","SETAI":"41"}},{"type":"Feature","geometry":{"type":"Polygon","coordinates":[[[143.2258017158172,44.43231650796203],[143.22596370498297,44.432745504174555],[143.22634353930013,44.43294968340189],[143.22675354542466,44.43359266556419],[143.2267120947526,44.43378497178221],[143.22645489571553,44.434899784499535],[143.2262163841544,44.43588808541559],[143.22613427265853,44.43602536734285],[143.22601734711805,44.436182001450796],[143.22563593767356,44.43645658951898],[143.22520833213824,44.436585497761],[143.22492402245388,44.43701060241831],[143.22384780449804,44.437990359868785],[143.22153891068513,44.43657837811638],[143.22096820748004,44.435841502713856],[143.2197545803264,44.434206182481844],[143.22107500920083,44.43386356335098],[143.2256661106714,44.43211660837626],[143.2258017158172,44.43231650796203]]]},"properties":{"KEY_CODE":"01561005004","PREF":"01","CITY":"561","CITY_NAME":"興部町","S_NAME":"字沙留旭町","SETAI":"86"}},{"type":"Feature","geometry":{"type":"Polygon","coordinates":[[[143.22472632101343,44.428739963180746],[143.2250284136636,44.42979380441963],[143.2257402358112,44.43188862105078],[143.22577499194077,44.432060835515564],[143.2256661106714,44.43211660837626],[143.22107500920083,44.43386356335098],[143.21846303460345,44.43043890484394],[143.221095005666,44.42836133475098],[143.22207692642982,44.42829509074142],[143.22341561478373,44.426654958753005],[143.2254546163815,44.42688012969337],[143.22472632101343,44.428739963180746]]]},"properties":{"KEY_CODE":"01561005005","PREF":"01","CITY":"561","CITY_NAME":"興部町","S_NAME":"字沙留緑町","SETAI":"60"}},{"type":"Feature","geometry":{"type":"Polygon","coordinates":[[[143.22922813699643,44.43396036238363],[143.22671292024887,44.433781413428754],[143.22675354542466,44.43359266556419],[143.22634353930013,44.43294968340189],[143.22596370498297,44.432745504174555],[143.2258017158172,44.43231650796203],[143.22577499194077,44.432060835515564],[143.2285856291478,44.431464445659266],[143.2298209574937,44.43130375134246],[143.22922813699643,44.43396036238363]]]},"properties":{"KEY_CODE":"01561005006","PREF":"01","CITY":"561","CITY_NAME":"興部町","S_NAME":"字沙留港町","SETAI":"32"}},{"type":"Feature","geometry":{"type":"Polygon","coordinates":[[[143.2285856291478,44.431464445659266],[143.22577499194077,44.432060835515564],[143.2257402358112,44.43188862105078],[143.2250284136636,44.42979380441963],[143.22704431257077,44.42920833916937],[143.2285856291478,44.431464445659266]]]},"properties":{"KEY_CODE":"01561005007","PREF":"01","CITY":"561","CITY_NAME":"興部町","S_NAME":"字沙留元町","SETAI":"26"}},{"type":"Feature","geometry":{"type":"Polygon","coordinates":[[[143.233514229341,44.421854848737475],[143.23067594693492,44.42386862448192],[143.227959952869,44.427408049799965],[143.22791400002814,44.42913727267614],[143.22704431257077,44.42920833916937],[143.2250284136636,44.42979380441963],[143.22472632101343,44.428739963180746],[143.2254546163815,44.42688012969337],[143.22636982895835,44.42530108819564],[143.23302412239607,44.42128506770335],[143.233514229341,44.421854848737475]]]},"properties":{"KEY_CODE":"01561005008","PREF":"01","CITY":"561","CITY_NAME":"興部町","S_NAME":"字沙留海運町","SETAI":"42"}},{"type":"Feature","geometry":{"type":"Polygon","coordinates":[[[143.233514229341,44.421854848737475],[143.23302412239607,44.42128506770335],[143.2314794184197,44.41948944495431],[143.2276844455301,44.41294447562688],[143.22700825983017,44.41067839302954],[143.2295334620254,44.40758486024178],[143.22935286769845,44.40461794183166],[143.22663456732275,44.40105534394806],[143.22695680602556,44.398160169078935],[143.21973058833447,44.3979875811661],[143.22117646260403,44.39474330899904],[143.219297338601,44.39231311426458],[143.22008224184728,44.39133950415595],[143.2258345452722,44.39163706864407],[143.23125740341536,44.390702715165396],[143.2297374472945,44.38892832103099],[143.22883904626204,44.38555918091861],[143.22590767307582,44.38094659393405],[143.22467828820984,44.375470416415155],[143.2246273328669,44.37356947207392],[143.22555150626283,44.37216599181249],[143.23011831240348,44.370213909476206],[143.23671328323053,44.368593651236374],[143.2394519063233,44.36839841537588],[143.2422228450825,44.368806154410514],[143.24594097393978,44.36771792962453],[143.24800816911593,44.3654385321702],[143.24817847592433,44.36548767086365],[143.24855394641492,44.365716248545105],[143.25031303636516,44.36569619697078],[143.25054510006092,44.365722361957346],[143.25176364001584,44.36681926349816],[143.251999017063,44.36716029509542],[143.2520915530046,44.36720648791372],[143.25235913647694,44.36725740519912],[143.25313134775365,44.36755610849158],[143.25327526715745,44.367792960736416],[143.25453643855292,44.367926029749526],[143.2552225798675,44.367913706609215],[143.2558560073438,44.36852696264745],[143.25641657759547,44.36935545136897],[143.25694052167827,44.369830232515646],[143.2572109610451,44.37030407994016],[143.25728622019753,44.370994277602165],[143.2572444001514,44.371488137432515],[143.25776985244613,44.3719237030239],[143.25806130619688,44.37234723089221],[143.2593885240355,44.37402433553484],[143.26192838780437,44.375159593709846],[143.2631122509223,44.37573970750956],[143.26350507522818,44.37595556722494],[143.26406149714182,44.37615271495604],[143.2642738182631,44.37654873211958],[143.26417422057656,44.377361132860074],[143.26399835984242,44.37781072730013],[143.26444825590056,44.37778792778782],[143.26547129040756,44.37778827189115],[143.26642234232898,44.37804771521157],[143.26670987551108,44.3782393988615],[143.26681524930007,44.378266657529956],[143.26708390868683,44.37830248423231],[143.2688592917171,44.3793586005876],[143.26969660361962,44.38094175580512],[143.2712963913245,44.38224999393417],[143.27308375968914,44.38230006627849],[143.27508346700876,44.38406658224476],[143.274595827518,44.38726617944767],[143.27344572510663,44.391915544268336],[143.27240822680642,44.392765417934065],[143.27603191480907,44.40073900860907],[143.27278813166876,44.40255118421696],[143.26608992779003,44.405215837311786],[143.2573929877975,44.40981299451004],[143.2516407768746,44.41247775692028],[143.233514229341,44.421854848737475]]]},"properties":{"KEY_CODE":"015610060","PREF":"01","CITY":"561","CITY_NAME":"興部町","S_NAME":"字富丘","SETAI":"15"}},{"type":"Feature","geometry":{"type":"Polygon","coordinates":[[[143.2254546163815,44.42688012969337],[143.22341561478373,44.426654958753005],[143.22207692642982,44.42829509074142],[143.221095005666,44.42836133475098],[143.21979009707752,44.423385744647156],[143.2207395558654,44.42215685619609],[143.22067626392942,44.42002752192484],[143.21863660206543,44.41904619627166],[143.2169797292939,44.416952197715176],[143.21631334517116,44.415710934687965],[143.21405035149442,44.41415811725558],[143.21180330662222,44.41194337430765],[143.21120609231835,44.411081648799275],[143.2038516543378,44.41383806885513],[143.19116564106693,44.41869154316741],[143.17516787823138,44.42463581524947],[143.1677202799361,44.427088835033516],[143.16705865062113,44.426304578073136],[143.16753880874597,44.42364882410444],[143.1710830319618,44.42186739828677],[143.17238294245857,44.42064507704252],[143.1693046050246,44.41808370597484],[143.16923069586943,44.41707342282568],[143.16899754084403,44.41530360480407],[143.17188113872203,44.415496779057996],[143.17466293481266,44.41398546117571],[143.17727983167472,44.41363778290951],[143.17759761253313,44.41249255192597],[143.1803358032419,44.41102763529233],[143.18103127070563,44.41066157897866],[143.18029726370307,44.40907210958629],[143.1785196674533,44.407968580458956],[143.17434995858025,44.40794190714774],[143.17096826087896,44.40818136305339],[143.1692815107954,44.40747344855814],[143.16690792814518,44.40555511482558],[143.1651724759951,44.40423141411781],[143.16164757168397,44.40295457445726],[143.15961314478238,44.40241367547788],[143.15737599555308,44.401096664919926],[143.15712789574977,44.40011478798106],[143.15874746400925,44.39796819849204],[143.1574913455555,44.39649529867752],[143.159589901662,44.39423116130722],[143.15931812561232,44.39301238103879],[143.1579706333764,44.39103335959784],[143.15782350197804,44.389044327748614],[143.15643420947995,44.38582741115969],[143.15515606671093,44.38090543090768],[143.15270910821127,44.376439266298775],[143.15249162286642,44.36784613803636],[143.15123227375113,44.36630743667804],[143.14773172448812,44.36311796662208],[143.1468789760358,44.360969357073074],[143.14693509114989,44.35718577715025],[143.14440326218303,44.34843864384482],[143.14024839139074,44.34100323369545],[143.1359401247157,44.33574271033492],[143.13562865451837,44.33389821578281],[143.13461060121472,44.33237950633803],[143.1349860408853,44.331151126907066],[143.1335704927705,44.33087582998081],[143.1338595117986,44.32959939227619],[143.13269180908313,44.326872771203746],[143.13021443776478,44.323007784291654],[143.1291704293861,44.3206543063976],[143.12619384359982,44.318725717588215],[143.1255815558191,44.3176939327878],[143.12288346170203,44.316048842336585],[143.12051957495714,44.313914673180726],[143.1210154641198,44.31401773528754],[143.12523652178993,44.312911366083114],[143.12604909281887,44.312940755812036],[143.12702273751353,44.313258109922174],[143.12733186560303,44.31361044146004],[143.1281067124842,44.31364439638059],[143.12960344725659,44.31347759784353],[143.1303717249328,44.31360275178232],[143.13234321394816,44.31397786981211],[143.1344854651612,44.31422488343817],[143.13510487667176,44.314217237988295],[143.1380251864775,44.314570652730936],[143.1390911695836,44.31467919003975],[143.1398737325428,44.314949468764524],[143.14143631560285,44.31546295789295],[143.14340783785144,44.31609430997166],[143.14411592666573,44.31643640544414],[143.14436933999954,44.31677488420817],[143.14449690731948,44.317197005063505],[143.14638913887964,44.318223533086915],[143.14620109079075,44.31943878126809],[143.14593424803033,44.31965455972],[143.14575700861963,44.31974711429867],[143.1448218109762,44.320285849622294],[143.14510681280032,44.321528718428276],[143.14842027931317,44.32236885616354],[143.1495079306843,44.32271219162445],[143.14983845075395,44.322766579502975],[143.1509500164521,44.32273215902176],[143.15263281171315,44.32368191396909],[143.1527732993858,44.323907322123915],[143.15305304710208,44.32401624634163],[143.15443306202786,44.32412497437818],[143.15555357426427,44.32389387125928],[143.15683984052976,44.324497696243945],[143.15734642237638,44.32553218955278],[143.15713588111825,44.326565275811134],[143.15639798549668,44.32959270404945],[143.15621646937032,44.33057280668923],[143.1568872450858,44.33092506691409],[143.15747119856422,44.33117971276459],[143.15766895579068,44.33202289197279],[143.15784418308192,44.33205285807752],[143.15939380872754,44.331688648158554],[143.16005677386954,44.331147753720735],[143.16146595984313,44.33094702053248],[143.16198784823598,44.331045442711336],[143.16594928663218,44.33186563402914],[143.16775404493896,44.33156479402026],[143.16831284830866,44.33097054323224],[143.17134117537697,44.33003727513745],[143.1720095994644,44.32984667626796],[143.17221705276268,44.32990768617867],[143.17296720552037,44.33062530024421],[143.17311200015632,44.33136921449834],[143.17412544439796,44.33266309623697],[143.17521852344308,44.3333366115489],[143.1758506615036,44.33374606297314],[143.1796306283239,44.333869212229594],[143.18055182735534,44.3325824169006],[143.18304290554823,44.3324694925562],[143.18358712298738,44.33271863408615],[143.18462192912034,44.33321306266124],[143.18613604774086,44.33312515321549],[143.18780929255152,44.331551512958505],[143.18788158907716,44.33134862726509],[143.18851335148156,44.32986188312941],[143.18874678232842,44.327932475183026],[143.18954375354033,44.326846109611665],[143.19169754522406,44.32764036712803],[143.19180054284135,44.32787602106749],[143.1920201889743,44.32819614577052],[143.19220473066449,44.32830575548425],[143.19456320251456,44.32959834937061],[143.19511842573309,44.3297932057691],[143.19581556428128,44.32991277304688],[143.19628816266126,44.33027498671612],[143.19670225865497,44.330337092127756],[143.19765466332115,44.33027220951481],[143.1981470297433,44.33050462717043],[143.19845229495007,44.33133261229773],[143.1990935067765,44.33204670958365],[143.19927843091926,44.33230586321466],[143.19963797734502,44.33304796139157],[143.20025885528932,44.333361886487616],[143.2041202738195,44.333845427102766],[143.20467123910802,44.334141419409654],[143.20354114668982,44.335740690681085],[143.20439211994207,44.336888915133926],[143.20445865114937,44.337197496026924],[143.20414996398918,44.337519194432616],[143.2037808427189,44.337781559262545],[143.20368266185295,44.337980383035],[143.2038377357176,44.33847483682631],[143.20427595054244,44.33903530628402],[143.20467827268186,44.33934536998247],[143.20486039918913,44.34003904243821],[143.20480919808222,44.340434072907534],[143.2052628542074,44.34121382474863],[143.2054255491037,44.341446082031005],[143.20542278067714,44.341523029757305],[143.20514113196535,44.34215933463231],[143.20521788753967,44.34284959732566],[143.2059384642273,44.344038803182215],[143.2073391700459,44.34416098900178],[143.20772846020748,44.344154879002296],[143.20800741363416,44.345057160047595],[143.2082317258504,44.345293185486604],[143.20878761454554,44.34551074995763],[143.2088542635716,44.34569824554345],[143.2087676854669,44.346482476238954],[143.20871224963255,44.346736527279596],[143.20827286675592,44.3470849610338],[143.20799780606384,44.34764425581499],[143.20787521399268,44.34828777545251],[143.2085982214342,44.34851821104986],[143.20969726164105,44.34841494820333],[143.21090919262747,44.34816830629344],[143.21144654979315,44.34798143203609],[143.2126064215555,44.347225188239825],[143.21423249810394,44.34703770732649],[143.2151537802633,44.347240770715885],[143.2163639494898,44.3473730044255],[143.21781410680572,44.34675530163401],[143.2181050898433,44.346729108526894],[143.21841291840798,44.34689891091133],[143.22046525067583,44.348103285217235],[143.22188712919086,44.34860427788563],[143.22242816413697,44.348866757498264],[143.22362015615064,44.34885645689763],[143.2245500625103,44.348931562344326],[143.22582156798796,44.3499100137311],[143.22623639962367,44.34989391669076],[143.22709910566533,44.349739298182],[143.22830871502774,44.34981510680926],[143.22894498050758,44.35023888132764],[143.22908059243144,44.35024401069405],[143.22952079518808,44.35017441985024],[143.23148621099347,44.34971417583081],[143.23318548702767,44.34941442974167],[143.23429323079114,44.34954590002723],[143.23539321757164,44.350120755231195],[143.23579932059283,44.350361625090066],[143.23619193333937,44.35032378138774],[143.2367007166178,44.35017211642353],[143.23735201802967,44.35005212278161],[143.23813301893009,44.350372781778596],[143.23834753148736,44.350652917772834],[143.2391869904646,44.350807020586636],[143.24019238953426,44.35082337488475],[143.24098028933005,44.350511062498114],[143.2411987367313,44.350512297423876],[143.24201567136788,44.351009632162025],[143.2421793998958,44.35113041579929],[143.24260720184236,44.351104759583514],[143.2434739649889,44.35106435262437],[143.24393297873573,44.351719898599654],[143.24409477104874,44.35224172695021],[143.24432735437077,44.3533331777781],[143.24427564081137,44.3540244878422],[143.2443536133932,44.354370031066644],[143.24431000022136,44.35463046411383],[143.24398142999482,44.3548463719604],[143.24379240112683,44.35516604323538],[143.24382683807565,44.355394471343686],[143.24380641911276,44.35547923503272],[143.24361892270937,44.35588973757965],[143.2436160492456,44.35598064160491],[143.2437226221499,44.356336905709725],[143.24363469954426,44.35695645915188],[143.24377987105987,44.357398555991274],[143.2442411869538,44.35779870020464],[143.2444164073038,44.358209208633035],[143.2451086856644,44.358953560428255],[143.24528535594382,44.35945489991252],[143.24637341001343,44.36008301556535],[143.2473013301893,44.361450388981424],[143.24749922913244,44.36203457990589],[143.24737698188025,44.36229882847241],[143.24676708370674,44.36332400399297],[143.2467592049683,44.36376113988786],[143.24691840214987,44.36412636420603],[143.24694891431167,44.364376729098765],[143.24697044304233,44.365131632871694],[143.2471566598178,44.36528666753164],[143.24800816911593,44.3654385321702],[143.24594097393978,44.36771792962453],[143.2422228450825,44.368806154410514],[143.2394519063233,44.36839841537588],[143.23671328323053,44.368593651236374],[143.23011831240348,44.370213909476206],[143.22555150626283,44.37216599181249],[143.2246273328669,44.37356947207392],[143.22467828820984,44.375470416415155],[143.22590767307582,44.38094659393405],[143.22883904626204,44.38555918091861],[143.2297374472945,44.38892832103099],[143.23125740341536,44.390702715165396],[143.2258345452722,44.39163706864407],[143.22008224184728,44.39133950415595],[143.219297338601,44.39231311426458],[143.22117646260403,44.39474330899904],[143.21973058833447,44.3979875811661],[143.22695680602556,44.398160169078935],[143.22663456732275,44.40105534394806],[143.22935286769845,44.40461794183166],[143.2295334620254,44.40758486024178],[143.22700825983017,44.41067839302954],[143.2276844455301,44.41294447562688],[143.2314794184197,44.41948944495431],[143.23302412239607,44.42128506770335],[143.22636982895835,44.42530108819564],[143.2254546163815,44.42688012969337]]]},"properties":{"KEY_CODE":"015610070","PREF":"01","CITY":"561","CITY_NAME":"興部町","S_NAME":"字住吉","SETAI":"14"}},{"type":"Feature","geometry":{"type":"Polygon","coordinates":[[[143.1046316247125,44.466545071053694],[143.10275073794548,44.46394602243476],[143.10069421285093,44.46197127719124],[143.09748345907292,44.46097889190824],[143.09239989407945,44.461602205966706],[143.09067504003113,44.46257572712406],[143.08806201584582,44.46490318965892],[143.08279303731317,44.46165420598193],[143.07828322118488,44.465472379030395],[143.07248943636915,44.462369661806456],[143.0674838649131,44.459007426679676],[143.06204064058394,44.46310721688803],[143.06174129391684,44.46305808629244],[143.05981398297382,44.46292877295845],[143.05922976741545,44.46271620907493],[143.05826120339168,44.461541748860114],[143.05621020459185,44.460533467360676],[143.0522903937661,44.45959269706791],[143.04998360234973,44.45543079466083],[143.04895640280046,44.45367536301144],[143.04595338228856,44.451208451360074],[143.04812392596034,44.44446042930181],[143.04622477398397,44.445138692859494],[143.0435743617147,44.444813743976226],[143.04483556342748,44.442860699899484],[143.04478803220965,44.43993933820211],[143.04308555895065,44.43786821279308],[143.04378166043364,44.437090694326905],[143.0513014883989,44.436467065106775],[143.0513998588473,44.434981914463584],[143.05030904711757,44.432791903546445],[143.04714557572146,44.42901687795746],[143.04424182858378,44.42472326848115],[143.048521918476,44.4225337061065],[143.05298778434775,44.421763380210436],[143.05999709403338,44.42110384181782],[143.06161677147986,44.41796062778666],[143.09310658344097,44.430351287538215],[143.0966049641968,44.43187145881482],[143.0978302355337,44.43157555136738],[143.11478155848516,44.442274281698],[143.12181028082114,44.44618926470496],[143.12055815200728,44.448152873920954],[143.12464117411375,44.45078106677699],[143.1266995882366,44.451417535039944],[143.1279631122785,44.45095170919938],[143.12990423282736,44.4522990197265],[143.12756055287474,44.45388961157576],[143.1262658956787,44.454647882694736],[143.12389448403212,44.454496420258984],[143.12352076949392,44.454615331909395],[143.12326186500945,44.45484336383176],[143.12167725151727,44.4546053568813],[143.1189204130488,44.454066487204116],[143.1123618547271,44.459370040458474],[143.1046316247125,44.466545071053694]]]},"properties":{"KEY_CODE":"015610080","PREF":"01","CITY":"561","CITY_NAME":"興部町","S_NAME":"字北興","SETAI":"45"}},{"type":"Feature","geometry":{"type":"Polygon","coordinates":[[[142.9284941838911,44.44701632268639],[142.92784070969483,44.44834493684107],[142.92534797695168,44.4511217959812],[142.9248567635196,44.45150497483856],[142.9242351616314,44.452133673072225],[142.92381351251584,44.45271179633694],[142.92337180002002,44.45349685539301],[142.92250637149218,44.454970287941784],[142.92250256059148,44.457574985269474],[142.9223703466287,44.459195799151],[142.921821732361,44.46060074178471],[142.92097482110984,44.46174088397092],[142.92023858522762,44.462170304333334],[142.92002819474806,44.46229559998886],[142.91943149481583,44.46300800865857],[142.91893129306624,44.46345790440792],[142.91798929194417,44.46400456423036],[142.91613655808683,44.464595585172745],[142.91558232398378,44.4674987661867],[142.9152315216912,44.46782905633073],[142.91347681333355,44.46774539239176],[142.91170115821473,44.466792877918834],[142.91070609098998,44.465341748304745],[142.91004842661505,44.464641238268804],[142.9069888951215,44.46249654158638],[142.90646597464374,44.461074824623545],[142.90757618886002,44.460076910071436],[142.90851712932957,44.459438412779186],[142.9067138896505,44.45785746816671],[142.90286534091925,44.4561227390172],[142.90154170828427,44.455093961377024],[142.90018019607768,44.45469495513367],[142.8991485373454,44.454384831973684],[142.89821986768078,44.45410171225179],[142.89722585561367,44.452117333794185],[142.89441286201313,44.45011561082268],[142.8913875456567,44.44875056773082],[142.89180611988238,44.44620628536461],[142.89191605836348,44.44513083748068],[142.89160008178234,44.44355262202068],[142.8912951128057,44.443078985421366],[142.89045973290155,44.442749610871395],[142.88717778973813,44.4432255657627],[142.88386517126588,44.44107122783591],[142.88264233577658,44.44025648952341],[142.88229698158227,44.43990563823603],[142.88083572738194,44.43868543576228],[142.88039014345276,44.438407553111055],[142.87946009707568,44.43796340636715],[142.87826688319095,44.43750691566643],[142.876532601459,44.43683280410216],[142.87325026512337,44.4376136170677],[142.87128251062404,44.43962822649424],[142.87057258387148,44.44005100492294],[142.86905494169307,44.44101692802636],[142.86845427707095,44.441343757433856],[142.86686526511755,44.44180146659311],[142.86632964622862,44.441609553159985],[142.8648600057682,44.44109008518209],[142.86455634051052,44.44098579033826],[142.86343997641976,44.44074154287351],[142.86243468209426,44.44023101025408],[142.86190905092016,44.43957362030617],[142.8613364657677,44.43790414404797],[142.86170399238839,44.437147437693994],[142.86162515098172,44.43624067969724],[142.86187457729108,44.4350721820474],[142.86197719958366,44.43422397202248],[142.8617408531302,44.4333775385357],[142.86164164062862,44.43313274659308],[142.8615273503145,44.43286275695982],[142.86070227189157,44.432060248651915],[142.8599824885703,44.431647587208694],[142.85886551334193,44.4309949456856],[142.85771552398407,44.4307720186143],[142.85642318339225,44.430390154357106],[142.85588760822563,44.43017080454536],[142.85571000430392,44.42925471657033],[142.85707155001901,44.428471903810845],[142.85935320167894,44.42734203107029],[142.861258013364,44.426738821729636],[142.86287992507258,44.42650201818558],[142.86742002622552,44.42566911787739],[142.87016821406039,44.42591504971839],[142.87110057948152,44.42513812996476],[142.8716949575263,44.42219904137551],[142.87184365172791,44.42142229152912],[142.8721058271937,44.420513682775315],[142.8729415191065,44.419531045106886],[142.8740494957285,44.418596665658534],[142.8760933169678,44.41723246836638],[142.87709923361496,44.41622931840845],[142.87744189203045,44.41583864193685],[142.87774292103393,44.415004689538826],[142.87866264894757,44.4131633673228],[142.87897841346043,44.41291071622571],[142.88036479281732,44.41153442881567],[142.8805709895665,44.409982137881315],[142.88095303203838,44.40923193083625],[142.8823921169824,44.40739737390637],[142.8845794725191,44.405057419465486],[142.88635515570954,44.404191730283664],[142.88676111358555,44.40335892323249],[142.8869559130924,44.40255495934219],[142.887218846563,44.401139736822245],[142.88748066355606,44.40062523500661],[142.88836997379818,44.40022901395905],[142.88960245654764,44.39992462898745],[142.8905088523181,44.3993302562764],[142.89098997144134,44.398411408400925],[142.89118767518372,44.398195140520805],[142.89292387190366,44.397592817422655],[142.89383698799026,44.397197261424246],[142.89519846207412,44.397260493370915],[142.89727869073928,44.39848603087242],[142.89821329190374,44.399524065624604],[142.9003358599095,44.400045094675306],[142.90226895012896,44.3997773640915],[142.90457474514665,44.3995930473822],[142.90570975173426,44.398207468990904],[142.90658017072192,44.39807128501252],[142.91291135470865,44.39638353185956],[142.91537484620005,44.39608562925538],[142.91665821759938,44.396083874938896],[142.91793950491723,44.39589466389774],[142.91818512172594,44.39550362497107],[142.91839133287158,44.39474360029655],[142.91892009044082,44.39415772290322],[142.9193812478977,44.39382821825564],[142.92002733088486,44.393368818573244],[142.92014888306704,44.39276415338524],[142.92001404983418,44.39200447170391],[142.9204042500967,44.39123845182355],[142.92191966789173,44.390460988132084],[142.923290828427,44.389992424386556],[142.92785563720702,44.38919934315374],[142.92932196611235,44.38851336824703],[142.92962581417646,44.387271029492894],[142.93045166000329,44.38673793569476],[142.93253814512752,44.38543854307209],[142.93471632592158,44.385186722890566],[142.93582757567972,44.38603508462289],[142.9366212752327,44.3865527890645],[142.9391759990799,44.38681046774939],[142.941219131645,44.38724889446356],[142.94213351287104,44.38738927103046],[142.9443178415373,44.38784471779877],[142.94569428022857,44.388609841275844],[142.94697993170797,44.38909433943088],[142.94833961065112,44.38901511929379],[142.94974841644853,44.39048173092574],[142.9506858751504,44.3910229119626],[142.9531173897131,44.39187843946007],[142.95389348567917,44.392231480255795],[142.954534435909,44.39259920089052],[142.95891788808038,44.39316705500641],[142.96146890223199,44.39354893909156],[142.96224871731877,44.393172398202324],[142.96368095949123,44.39265115015092],[142.96652291409913,44.39386606665881],[142.96886988638354,44.394076306474076],[142.97146474719085,44.39331046562092],[142.97200545210734,44.391746030456034],[142.9735297883585,44.39138042138676],[142.97440780320906,44.391171334282944],[142.9757328639155,44.391540429192744],[142.97646814216805,44.391782904274],[142.98139628931327,44.39125650838716],[142.98274970149677,44.39045961821751],[142.98311107150286,44.39042165121823],[142.98498147673524,44.39051660578548],[142.98619461370953,44.391051677635026],[142.98814622701775,44.3916022476827],[142.98894105947755,44.39173790766002],[142.9907255465659,44.39317239709292],[142.9913702375658,44.39343378306458],[142.99227125973752,44.39355399713895],[142.99564773617408,44.39420579570689],[142.99711755094503,44.39461553820118],[142.99896845399633,44.39512415928472],[142.99965471185376,44.3952770537764],[143.00115113382324,44.395620126763],[143.0021870749155,44.39629453644621],[143.0027723744972,44.39666386654055],[143.0034218550441,44.39689077418126],[143.00412918525586,44.397017063189054],[143.00539537022868,44.397253985071494],[143.00676708471147,44.39715947719556],[143.00903179203212,44.39808695615442],[143.0111639603634,44.3975151179937],[143.01737164127715,44.400223320108566],[143.05229680561678,44.41446055354174],[143.06161677147986,44.41796062778666],[143.05999709403338,44.42110384181782],[143.05298778434775,44.421763380210436],[143.048521918476,44.4225337061065],[143.04424182858378,44.42472326848115],[143.04714557572146,44.42901687795746],[143.05030904711757,44.432791903546445],[143.0513998588473,44.434981914463584],[143.0513014883989,44.436467065106775],[143.04378166043364,44.437090694326905],[143.04308555895065,44.43786821279308],[143.04478803220965,44.43993933820211],[143.04483556342748,44.442860699899484],[143.0435743617147,44.444813743976226],[143.04622477398397,44.445138692859494],[143.04812392596034,44.44446042930181],[143.04595338228856,44.451208451360074],[143.0450184520285,44.450771954758515],[143.0445688530315,44.45067266854655],[143.0394067558587,44.45151708097031],[143.0387985772503,44.45161777622767],[143.03560391187682,44.452145288159514],[143.0318216637679,44.4527560155229],[143.03111998294457,44.4541453102093],[143.03078967606845,44.45583883559677],[143.0306281750376,44.45659936935459],[143.02978907560023,44.457686407054034],[143.02864084194132,44.45821646145682],[143.02705114807105,44.4587060116854],[143.0253006456288,44.45967534019737],[143.02457937706106,44.46031126168642],[143.0218650025787,44.45996239584579],[143.01966307441074,44.45864299094872],[143.01819266076623,44.45735234718842],[143.01681669226838,44.45591852375347],[143.01637879264328,44.4555538137538],[143.0153524920852,44.45521256767713],[143.01384801163263,44.456092414978706],[143.0128743801685,44.45622532451261],[143.0112757888494,44.45591663082497],[143.0093653934185,44.45555940126019],[143.00757956453336,44.45503242183777],[143.00639899154785,44.45392234472758],[143.00671084463315,44.45285747326754],[143.0067044023138,44.45223360526042],[143.00576436676513,44.45136091947532],[143.00420014641475,44.45009478060856],[143.0032609438053,44.44927718838201],[143.00290899048935,44.44872686639594],[143.00261200675186,44.44821066782768],[143.00145699703927,44.44757142330285],[143.00041979417813,44.447238158635614],[142.9995922857767,44.44687246523428],[142.99801371269658,44.445468479655965],[142.99733459312571,44.44516387872391],[142.9960841903815,44.44508586701886],[142.9944250192791,44.44528058298507],[142.99285443999804,44.44461752268695],[142.99252400659216,44.4441095276502],[142.99170277266043,44.44283724513659],[142.99137437451472,44.4427405570937],[142.98863039804763,44.44351555746459],[142.9880109881778,44.44361719921334],[142.98657242476162,44.44490073209075],[142.98504271978007,44.445058826518064],[142.98406784488407,44.444953665241364],[142.98159709026663,44.4441192966582],[142.98075274381802,44.44406266179126],[142.9781130435163,44.44407954881222],[142.9720425210366,44.44395499220771],[142.9696382471068,44.44277066320878],[142.96759071012275,44.44320638013987],[142.96546588798117,44.444931681610896],[142.96416002109484,44.44582804364637],[142.95895453661487,44.44549397212809],[142.95524644846523,44.44511366165935],[142.95333158174657,44.44553335048369],[142.9515209691354,44.44702666135434],[142.94947873545829,44.44793766456512],[142.94828214828976,44.44861024001102],[142.94533921399875,44.45135465776356],[142.94396341180638,44.45126075311667],[142.94162105943448,44.450415535803366],[142.9410752407896,44.4499672979459],[142.94086108496404,44.4497618061336],[142.93978966657343,44.44936268681256],[142.93726808646315,44.44867356857724],[142.9356062899479,44.44826185575792],[142.93469146146776,44.44807778104358],[142.93346804886787,44.44784038462326],[142.92949785745517,44.446841474279104],[142.9284941838911,44.44701632268639]]]},"properties":{"KEY_CODE":"015610090","PREF":"01","CITY":"561","CITY_NAME":"興部町","S_NAME":"字宇津","SETAI":"39"}}]}