{"type":"FeatureCollection","features":[{"type":"Feature","geometry":{"type":"Polygon","coordinates":[[[142.8613364657677,44.43790414404797],[142.8588148421188,44.4388104681971],[142.8523386740824,44.43895243718969],[142.85129963685114,44.43828346246589],[142.85039942803203,44.437814915744326],[142.84705035237099,44.43613924405044],[142.84396117551873,44.434751318984105],[142.84134625121925,44.43307165456228],[142.84047478879464,44.43252929546526],[142.8399445320757,44.43161180130394],[142.83992837667165,44.42928235620038],[142.8367328115643,44.4267431724663],[142.83533082174836,44.42596161058304],[142.83268618647887,44.42565961135812],[142.83230294925872,44.42549326608958],[142.83035235180097,44.424877418610265],[142.82705496072862,44.42385291772756],[142.8250885409066,44.4238628155928],[142.82451502913935,44.42373948192554],[142.82050032364845,44.42062024108032],[142.81967863518656,44.41987236230537],[142.81881905481495,44.41900372830404],[142.81927141381138,44.416472134860776],[142.8183241348574,44.41412104360431],[142.81872306452695,44.41288856025477],[142.8199602411394,44.411110301099335],[142.82026163302834,44.41041465632053],[142.8221341619343,44.40835450123636],[142.82200661319013,44.406561987759],[142.8242804385711,44.40504671559238],[142.82592127253335,44.404817632541594],[142.83037731536476,44.397033735845376],[142.83059733574447,44.39629117319482],[142.83008309392838,44.39324393366697],[142.82937191936347,44.39178043140299],[142.82767538800786,44.39078989845053],[142.82644256113267,44.38921861527486],[142.82431711940654,44.388593032932526],[142.82328280345925,44.387809448215684],[142.82345586067825,44.386010200862806],[142.82636234103148,44.38404476275227],[142.82627403985106,44.38028549216845],[142.82651968007733,44.379916136891126],[142.82859736492293,44.37944293456817],[142.82851053571085,44.37807618269139],[142.82743808289544,44.37712984124423],[142.82714275103723,44.37692098699898],[142.826794661677,44.375818475305486],[142.8260487335177,44.37451813048185],[142.82686263767653,44.37303644407907],[142.82684567676523,44.371311748465395],[142.82603660072442,44.369548991578384],[142.82078214905147,44.36822386415109],[142.81794322760808,44.367270455387604],[142.8169092642401,44.36647629997802],[142.81930675447293,44.36500781572842],[142.82008603382386,44.363731369576115],[142.8211645142341,44.363073940362646],[142.81944577715845,44.360448045809314],[142.8163742520432,44.357376558661585],[142.81517867622117,44.35652007153193],[142.8149176225658,44.355290906927955],[142.8161332798734,44.35442777567923],[142.81531975816657,44.34986217966979],[142.81379995570578,44.348807446544704],[142.81295590547677,44.34790715544709],[142.81133445257586,44.34847249708651],[142.81114834646488,44.34893617782713],[142.8098246210106,44.34922134996452],[142.80798446261255,44.348367943311445],[142.80764589916626,44.346676372294894],[142.80593672022368,44.34494415842819],[142.80422923311951,44.344153165805196],[142.80227907916247,44.342490418317645],[142.80209380107632,44.34070869124367],[142.8028610198037,44.339705894263915],[142.80322542674742,44.335607770366614],[142.80276441022457,44.333036824232636],[142.80264303443235,44.33139055184771],[142.80571789379752,44.33180638383823],[142.8079433041492,44.331972870562005],[142.81167158038974,44.332138445559174],[142.81617867526535,44.33216992907245],[142.81843926601698,44.332057736933095],[142.82084837067322,44.3310786974963],[142.82181123334772,44.32993985346777],[142.82241219611706,44.329424216374825],[142.8240701032137,44.328545971705886],[142.82400345711224,44.32841685758235],[142.8262201460368,44.32860304148643],[142.82766858075257,44.32862621177177],[142.82972922029492,44.329197418876575],[142.83350568362803,44.32904020741185],[142.83801181482858,44.329502829584946],[142.8401644288135,44.32927591140413],[142.8443033689103,44.32804907340691],[142.8491600136864,44.33019018236006],[142.8530121963959,44.331044699479364],[142.85548396657464,44.3322635595026],[142.86207172649554,44.33310496882541],[142.86548047441102,44.33374833174567],[142.86692302954629,44.3360192699171],[142.86457701684625,44.338756012516036],[142.86184981037192,44.34086828224048],[142.85936047332655,44.34303476658987],[142.85651844581082,44.34589021718173],[142.85558141066812,44.34725846883828],[142.85487939324523,44.34865876232232],[142.85480549770534,44.35287346219628],[142.85396220783758,44.35618006665689],[142.85128582189284,44.36128260104224],[142.8493002799214,44.363656297475195],[142.84790835240835,44.36621041006967],[142.84826833966005,44.367162822370915],[142.8507356236806,44.3698116684775],[142.85089558176335,44.37303091058951],[142.85225193835086,44.37531484948748],[142.85245172072717,44.37701297584458],[142.85306615095482,44.379495756449565],[142.8560313983903,44.38244583563199],[142.85952654822952,44.38501029395336],[142.86567661494954,44.387989483667155],[142.86986495892265,44.39039582071409],[142.87212767207936,44.39263925218173],[142.87380568572368,44.39548810526162],[142.87663925334883,44.396766237730276],[142.88055823209825,44.39631601977462],[142.88311783152906,44.397166055093386],[142.887218846563,44.401139736822245],[142.8869559130924,44.40255495934219],[142.88676111358555,44.40335892323249],[142.88635515570954,44.404191730283664],[142.8845794725191,44.405057419465486],[142.8823921169824,44.40739737390637],[142.88095303203838,44.40923193083625],[142.8805709895665,44.409982137881315],[142.88036479281732,44.41153442881567],[142.87897841346043,44.41291071622571],[142.87866264894757,44.4131633673228],[142.87774292103393,44.415004689538826],[142.87744189203045,44.41583864193685],[142.87709923361496,44.41622931840845],[142.8760933169678,44.41723246836638],[142.8740494957285,44.418596665658534],[142.8729415191065,44.419531045106886],[142.8721058271937,44.420513682775315],[142.87184365172791,44.42142229152912],[142.8716949575263,44.42219904137551],[142.87110057948152,44.42513812996476],[142.87016821406039,44.42591504971839],[142.86742002622552,44.42566911787739],[142.86287992507258,44.42650201818558],[142.861258013364,44.426738821729636],[142.85935320167894,44.42734203107029],[142.85707155001901,44.428471903810845],[142.85571000430392,44.42925471657033],[142.85588760822563,44.43017080454536],[142.85642318339225,44.430390154357106],[142.85771552398407,44.4307720186143],[142.85886551334193,44.4309949456856],[142.8599824885703,44.431647587208694],[142.86070227189157,44.432060248651915],[142.8615273503145,44.43286275695982],[142.86164164062862,44.43313274659308],[142.8617408531302,44.4333775385357],[142.86197719958366,44.43422397202248],[142.86187457729108,44.4350721820474],[142.86162515098172,44.43624067969724],[142.86170399238839,44.437147437693994],[142.8613364657677,44.43790414404797]]]},"properties":{"KEY_CODE":"015620010","PREF":"01","CITY":"562","CITY_NAME":"西興部村","S_NAME":"字奥興部","SETAI":"19"}},{"type":"Feature","geometry":{"type":"Polygon","coordinates":[[[142.93728711724935,44.345497739696086],[142.9342838297782,44.347660717711925],[142.93489886152884,44.35149550589245],[142.93237695640613,44.35291752162367],[142.92868388767923,44.35254934257806],[142.92641669235766,44.35278017534783],[142.92391961352268,44.3539884526298],[142.9210816360694,44.356915840419546],[142.91804669243695,44.35736953268457],[142.91424433838657,44.357360325665695],[142.9103298780429,44.36014995626099],[142.90841357989157,44.36454073401301],[142.90580405356448,44.366838797725485],[142.90154883376718,44.36826700167359],[142.9013954603564,44.369930364943244],[142.90018198201608,44.37110765893836],[142.89783670242983,44.37167498225713],[142.89600928563473,44.37308671837876],[142.89074069298678,44.37434326857911],[142.8866661140905,44.37854809250653],[142.8823562369707,44.378783844940386],[142.88017778211199,44.38008196564842],[142.87810478498298,44.380098781927],[142.872720780241,44.378476361799166],[142.8719407917632,44.37895757128145],[142.8704129504104,44.38189861223823],[142.86899719411934,44.380994648756705],[142.86693512443253,44.37997737011589],[142.86519121589816,44.377904283560106],[142.86508284475354,44.37699424679701],[142.86526158134595,44.37525342713601],[142.86494087014447,44.37436597463895],[142.86451047973452,44.37244568848121],[142.8632738108681,44.36878163924892],[142.86401591690452,44.368015809363705],[142.86489859998713,44.36636003241524],[142.86570002348583,44.36399381846907],[142.8661695116465,44.3619023075994],[142.86860625721727,44.359571007955005],[142.8703574912842,44.35796901060086],[142.8732774794741,44.35591318330683],[142.8747588446329,44.35391236805849],[142.87486670130048,44.35142699286899],[142.87462232547603,44.35053544883639],[142.874790420698,44.34758887824619],[142.8774319588616,44.3445091968893],[142.87835648357262,44.34395679879692],[142.88029402592136,44.34180844973307],[142.88182125108924,44.33935825945331],[142.8826569397331,44.33814149424681],[142.88228259219943,44.33808703067287],[142.88185557569645,44.33804962734846],[142.88268993709409,44.33511902936719],[142.88252029167612,44.33499913242326],[142.88492337074734,44.336052447782755],[142.8879578999507,44.336089841537564],[142.89063001268272,44.336627009004665],[142.8970155588428,44.33879534536689],[142.90211359714573,44.33930170198595],[142.90343658245135,44.3384036249514],[142.90290707946625,44.33689084864843],[142.9051137609575,44.33604550458372],[142.90926698358743,44.336278719393576],[142.91297434032757,44.333587124343545],[142.91506171649397,44.334345278731384],[142.91749173177692,44.33434761593257],[142.9229639996704,44.332420069866856],[142.92509620024623,44.33260598695097],[142.92736515534276,44.33154453716708],[142.9306477171414,44.33168898250621],[142.93201385421065,44.33394050719913],[142.93240216050117,44.335605194768384],[142.9320703631087,44.33952784527109],[142.93354930235566,44.34134115849994],[142.93533617435273,44.34215458176316],[142.93545440703036,44.34330151195348],[142.93728711724935,44.345497739696086]]]},"properties":{"KEY_CODE":"015620020","PREF":"01","CITY":"562","CITY_NAME":"西興部村","S_NAME":"字東興","SETAI":"7"}},{"type":"Feature","geometry":{"type":"Polygon","coordinates":[[[142.86729549268892,44.33606943399048],[142.86692302954629,44.3360192699171],[142.86548047441102,44.33374833174567],[142.86207172649554,44.33310496882541],[142.85548396657464,44.3322635595026],[142.8530121963959,44.331044699479364],[142.8491600136864,44.33019018236006],[142.8443033689103,44.32804907340691],[142.8401644288135,44.32927591140413],[142.83801181482858,44.329502829584946],[142.83350568362803,44.32904020741185],[142.82972922029492,44.329197418876575],[142.82766858075257,44.32862621177177],[142.8262201460368,44.32860304148643],[142.82400345711224,44.32841685758235],[142.8235261747526,44.327142801662625],[142.82306643215247,44.32660140204677],[142.82330912733855,44.32486029352389],[142.82389565883418,44.322868933582576],[142.82298391824682,44.32146764125422],[142.82351746723256,44.32070374466097],[142.82348991308837,44.320098054019184],[142.82587022555447,44.31789570220626],[142.82612497340793,44.31739733323811],[142.8244309114737,44.31564266143648],[142.8244468825352,44.315067799830516],[142.82295916889717,44.31338199562837],[142.82417702262924,44.31180689901076],[142.8258054337528,44.31018310015014],[142.82711097777573,44.30763661211354],[142.82718625829506,44.30648665624722],[142.8246479587605,44.30575379187904],[142.82373138270802,44.30493504482803],[142.82467279849757,44.30276321725433],[142.8255758701278,44.29999353259286],[142.82610477347566,44.29877917782172],[142.8264483539021,44.29741816608152],[142.82664511697075,44.295428740929026],[142.82767995761463,44.2950817509042],[142.82889870582028,44.2936463896064],[142.82831986211173,44.291971585793924],[142.8277754331292,44.28828485396278],[142.82739207621435,44.286686735491095],[142.8278027024197,44.2855583942861],[142.82701188532286,44.28430407197376],[142.82686390221718,44.2824406464391],[142.82560167493148,44.281623683732036],[142.8242922751451,44.279292294795326],[142.82426381380026,44.27637190977448],[142.82607242892178,44.27447532712148],[142.82667891569923,44.27237507046775],[142.82973491702612,44.27093037070061],[142.8321163206976,44.27124446195209],[142.83327827885435,44.270679275444486],[142.8338329792593,44.269930784065416],[142.83731211934477,44.26975757478082],[142.84238969976911,44.268372050373884],[142.8448976067122,44.26837454640054],[142.8468279856524,44.26685763085856],[142.84840762599325,44.26487648353766],[142.85043434598165,44.26328908791521],[142.85152457099846,44.26208717502705],[142.8519900189272,44.25897776249564],[142.8539420945606,44.258571311282346],[142.8561364337794,44.25754991512877],[142.85916006308236,44.25730079477006],[142.8595285511603,44.25531035835682],[142.86108461373306,44.2532048483055],[142.86152227073947,44.25268208377934],[142.86255468393304,44.25011329729382],[142.8641180939021,44.24934444298737],[142.87027049604146,44.25135683779],[142.8767053287176,44.253027392377916],[142.8794007582451,44.25481106008895],[142.8827276805707,44.25595558775252],[142.887400322872,44.25669888621712],[142.89090498426802,44.25767501926102],[142.8936633629427,44.25910999787823],[142.89762863395677,44.259131541504],[142.90326654584015,44.25801045906219],[142.90861721733916,44.25946283011063],[142.90892589737916,44.26251021438078],[142.90678699503178,44.26575387331546],[142.9020083614768,44.27035110112824],[142.90070892853566,44.27210153635357],[142.90233703567677,44.275320909803945],[142.90124844705286,44.27718431951376],[142.89743895797545,44.278118883113414],[142.89277841513612,44.28279473892491],[142.89020502346108,44.28739720558117],[142.887987972892,44.287930935586274],[142.8873172769754,44.28908706650603],[142.8860091962846,44.29436729231131],[142.88567794513418,44.2988857059862],[142.8868707698333,44.30048523525209],[142.88943752689164,44.3020996759263],[142.89017657748977,44.303158383213],[142.8935187263185,44.30504454913974],[142.89464084898717,44.306846197480716],[142.89857529837093,44.3076095741153],[142.89922557040484,44.309601067402625],[142.90067274074684,44.310380470800595],[142.9034671438835,44.31480563565027],[142.90642630574712,44.316645477939616],[142.90702649969927,44.318726712282164],[142.90984989706607,44.32219622546237],[142.91248572834405,44.32402389116165],[142.91344192031417,44.32745499852877],[142.91507297889484,44.32794236700182],[142.91999365246247,44.32709976954232],[142.92317736543077,44.32824312174746],[142.92895593845856,44.329807679519774],[142.9306477171414,44.33168898250621],[142.92736515534276,44.33154453716708],[142.92509620024623,44.33260598695097],[142.9229639996704,44.332420069866856],[142.91749173177692,44.33434761593257],[142.91506171649397,44.334345278731384],[142.91297434032757,44.333587124343545],[142.90926698358743,44.336278719393576],[142.9051137609575,44.33604550458372],[142.90290707946625,44.33689084864843],[142.90343658245135,44.3384036249514],[142.90211359714573,44.33930170198595],[142.8970155588428,44.33879534536689],[142.89063001268272,44.336627009004665],[142.8879578999507,44.336089841537564],[142.88492337074734,44.336052447782755],[142.88252029167612,44.33499913242326],[142.88025352514316,44.33457671740737],[142.87795871167341,44.334606744195376],[142.87698919636026,44.334891456276125],[142.8711050387144,44.33555621816724],[142.86910320403024,44.33542384429541],[142.86729549268892,44.33606943399048]]]},"properties":{"KEY_CODE":"015620030","PREF":"01","CITY":"562","CITY_NAME":"西興部村","S_NAME":"字札滑","SETAI":"5"}},{"type":"Feature","geometry":{"type":"Polygon","coordinates":[[[142.88185557569645,44.33804962734846],[142.88228259219943,44.33808703067287],[142.8826569397331,44.33814149424681],[142.88182125108924,44.33935825945331],[142.88029402592136,44.34180844973307],[142.87835648357262,44.34395679879692],[142.8774319588616,44.3445091968893],[142.874790420698,44.34758887824619],[142.87462232547603,44.35053544883639],[142.87486670130048,44.35142699286899],[142.8747588446329,44.35391236805849],[142.8732774794741,44.35591318330683],[142.8703574912842,44.35796901060086],[142.86860625721727,44.359571007955005],[142.8661695116465,44.3619023075994],[142.86570002348583,44.36399381846907],[142.86489859998713,44.36636003241524],[142.86401591690452,44.368015809363705],[142.8632738108681,44.36878163924892],[142.86451047973452,44.37244568848121],[142.86494087014447,44.37436597463895],[142.86526158134595,44.37525342713601],[142.86508284475354,44.37699424679701],[142.86519121589816,44.377904283560106],[142.86693512443253,44.379977370115846],[142.86899719411934,44.380994648756705],[142.8704129504104,44.38189861223823],[142.8693915019215,44.38391924024963],[142.8710677846028,44.386464574814845],[142.87095506679725,44.38722868615359],[142.8691040715743,44.38812284629767],[142.86567661494954,44.387989483667155],[142.85952654822952,44.38501029395336],[142.8560313983903,44.38244583563199],[142.85306615095482,44.379495756449565],[142.85245172072717,44.37701297584458],[142.85225193835086,44.37531484948748],[142.85089558176335,44.37303091058951],[142.8507356236806,44.36981166847751],[142.84826833966005,44.367162822370915],[142.84790835240835,44.36621041006969],[142.8493002799214,44.363656297475195],[142.85128582189284,44.36128260104224],[142.85396220783758,44.35618006665689],[142.85480549770534,44.35287346219628],[142.85487939324523,44.34865876232228],[142.85558141066812,44.34725846883828],[142.85651844581082,44.34589021718173],[142.85936047332655,44.34303476658987],[142.86184981037192,44.34086828224048],[142.86457701684625,44.338756012516036],[142.86729549268892,44.33606943399048],[142.86910320403024,44.33542384429541],[142.87110503871446,44.33555621816724],[142.87698919636026,44.334891456276125],[142.87795871167341,44.334606744195376],[142.88025352514316,44.33457671740737],[142.88252029167612,44.33499913242326],[142.88268993709409,44.33511902936719],[142.88185557569645,44.33804962734846]]]},"properties":{"KEY_CODE":"015620040","PREF":"01","CITY":"562","CITY_NAME":"西興部村","S_NAME":"字上興部","SETAI":"103"}},{"type":"Feature","geometry":{"type":"Polygon","coordinates":[[[142.95472388032871,44.331490591408986],[142.95493774368188,44.33229666449562],[142.95529659981506,44.33278656743716],[142.95435029235736,44.33299823492575],[142.95415745229022,44.33242592935576],[142.95120252875375,44.33167182445174],[142.950537617135,44.33141362452454],[142.95027587102362,44.331435023396864],[142.94953444808115,44.33198295554561],[142.94920533556925,44.332431292118095],[142.9481751899977,44.332769119894756],[142.94778276378068,44.33281606155803],[142.94759062103554,44.33289145070075],[142.94698997218632,44.333136926163334],[142.94546728849576,44.33226645260257],[142.9457996169564,44.33194270766099],[142.9453441755239,44.33157741381308],[142.94404163263368,44.331238250207434],[142.94388833129375,44.331243257294794],[142.94216612727698,44.33069500296799],[142.9420453317916,44.33056934429368],[142.942356136966,44.329947602262976],[142.94235548855005,44.329892549061704],[142.94277068511298,44.32944757943202],[142.9420922897801,44.328766642045494],[142.9417846669097,44.327560701040895],[142.94273715761554,44.327483677066006],[142.94329196292495,44.32732481547152],[142.943505105624,44.32720781955149],[142.94389207038444,44.32692917085516],[142.94632142379447,44.326137606590535],[142.94734402985387,44.3263291692947],[142.94736240682002,44.32632986524834],[142.94802711834154,44.326465700218044],[142.94887841039377,44.326648520084234],[142.94950463423277,44.32708496753344],[142.95039513421375,44.327939360840325],[142.95138795210534,44.32831909060755],[142.95224644375114,44.328617860579676],[142.95282149932294,44.32885912764837],[142.95329431282406,44.329216969944284],[142.95397846605408,44.329868376136496],[142.95445465377117,44.330335077654375],[142.9546918177112,44.33057641202226],[142.95486601863232,44.33084021584267],[142.9548877559454,44.33092917039909],[142.95472388032871,44.331490591408986]]]},"properties":{"KEY_CODE":"015620050","PREF":"01","CITY":"562","CITY_NAME":"西興部村","S_NAME":"字西興部","SETAI":"282"}},{"type":"Feature","geometry":{"type":"Polygon","coordinates":[[[142.95529659981506,44.33278656743716],[142.95493774368188,44.33229666449562],[142.95472388032871,44.331490591408986],[142.9548877559454,44.33092917039909],[142.95486601863232,44.33084021584267],[142.9546918177112,44.33057641202226],[142.95445465377117,44.330335077654375],[142.95397846605408,44.329868376136496],[142.95329431282406,44.329216969944284],[142.95282149932294,44.32885912764837],[142.95224644375114,44.328617860579676],[142.95138795210534,44.32831909060755],[142.95039513421375,44.327939360840325],[142.94950463423277,44.32708496753344],[142.9494868412843,44.326795623920916],[142.9531470275885,44.32669290182107],[142.95698548009804,44.32667607754079],[142.9605384218096,44.32738033716169],[142.9630594067483,44.32939769853219],[142.9632531057488,44.33128673034605],[142.96436445877475,44.33304265221878],[142.96855813751077,44.334636020917735],[142.969224640407,44.336323556694715],[142.9710247001829,44.33754116641618],[142.97424297838612,44.33849161458677],[142.97483548778308,44.33941456455862],[142.97018303477196,44.34117061705432],[142.96653849442066,44.341804320643725],[142.96561807427108,44.34095935546238],[142.9615649427035,44.341052490532675],[142.95152054863314,44.343448784993605],[142.94515514139945,44.34306425520993],[142.94221830872183,44.34410339486687],[142.93986634921694,44.34553718963929],[142.93728711724935,44.345497739696086],[142.93545440703036,44.34330151195348],[142.93533617435273,44.34215458176316],[142.93354930235566,44.34134115849994],[142.9320703631087,44.33952784527109],[142.93240216050117,44.335605194768384],[142.93201385421065,44.33394050719913],[142.9306477171414,44.33168898250621],[142.92895593845856,44.329807679519774],[142.92317736543077,44.32824312174746],[142.9257256144078,44.32777549994781],[142.92799550189432,44.32809981446012],[142.9331250645391,44.3294782518372],[142.9363919139549,44.32980388056388],[142.94235548855005,44.329892549061704],[142.942356136966,44.329947602262976],[142.9420453317916,44.33056934429368],[142.94216612727698,44.33069500296799],[142.94388833129375,44.331243257294794],[142.94404163263368,44.331238250207434],[142.9453441755239,44.33157741381308],[142.9457996169564,44.33194270766099],[142.94546728849576,44.33226645260257],[142.94698997218632,44.333136926163334],[142.94759062103554,44.33289145070075],[142.94778276378068,44.33281606155803],[142.9481751899977,44.332769119894756],[142.94920533556925,44.332431292118095],[142.94953444808115,44.33198295554561],[142.95027587102362,44.331435023396864],[142.950537617135,44.33141362452454],[142.95120252875375,44.33167182445174],[142.95415745229022,44.33242592935576],[142.95435029235736,44.33299823492575],[142.95529659981506,44.33278656743716]]]},"properties":{"KEY_CODE":"015620060","PREF":"01","CITY":"562","CITY_NAME":"西興部村","S_NAME":"字七重","SETAI":"45"}},{"type":"Feature","geometry":{"type":"Polygon","coordinates":[[[142.94235548855005,44.329892549061704],[142.9363919139549,44.32980388056388],[142.9331250645391,44.3294782518372],[142.92799550189432,44.32809981446012],[142.9257256144078,44.32777549994781],[142.92317736543077,44.32824312174746],[142.91999365246247,44.32709976954232],[142.91507297889484,44.32794236700182],[142.91344192031417,44.32745499852877],[142.91248572834405,44.32402389116165],[142.90984989706607,44.32219622546237],[142.90702649969927,44.318726712282164],[142.90642630574712,44.316645477939616],[142.9034671438835,44.31480563565027],[142.90067274074684,44.310380470800595],[142.89922557040484,44.309601067402625],[142.89857529837093,44.3076095741153],[142.89464084898717,44.306846197480716],[142.8935187263185,44.30504454913974],[142.89017657748977,44.303158383213],[142.88943752689164,44.3020996759263],[142.8868707698333,44.30048523525209],[142.88567794513418,44.2988857059862],[142.8860091962846,44.29436729231131],[142.8873172769754,44.28908706650603],[142.887987972892,44.287930935586274],[142.89020502346108,44.28739720558117],[142.89277841513612,44.28279473892491],[142.89743895797545,44.278118883113414],[142.90124844705286,44.27718431951376],[142.90233703567677,44.275320909803945],[142.90070892853566,44.27210153635357],[142.9020083614768,44.27035110112824],[142.90678699503178,44.26575387331546],[142.90892589737916,44.26251021438078],[142.90861721733916,44.25946283011063],[142.91106753770606,44.258861826057],[142.91504870421537,44.25887154665293],[142.9170066223002,44.25959579713102],[142.9198556567918,44.26210961556931],[142.92260283828708,44.26279066052238],[142.9251146944871,44.26287525206495],[142.92806729766536,44.26379273664095],[142.93496625526853,44.26242567510474],[142.93718686111856,44.263835917594164],[142.93902827144808,44.26578488107597],[142.94478699730934,44.269867117153495],[142.94918562971628,44.27159659264871],[142.94987274897863,44.27245243709572],[142.94865388464808,44.27484439909025],[142.9487656493719,44.2761374741182],[142.95099350510864,44.28015561989076],[142.95083079147184,44.28171791090326],[142.95129084344606,44.287980698195675],[142.95104463151122,44.291746255736115],[142.95177661874817,44.29470444004302],[142.95331044810757,44.305612369889914],[142.95240263690977,44.309313587749344],[142.9524206329327,44.31082177744299],[142.9534938586237,44.312200526077206],[142.95658585955516,44.31268150338592],[142.9558608733796,44.31556679346634],[142.95405320214044,44.31660851294694],[142.95108368662562,44.31909801388059],[142.9493553353429,44.321683150759924],[142.9475216053626,44.326335926987525],[142.94736240682002,44.32632986524834],[142.94734402985387,44.3263291692947],[142.94632142379447,44.326137606590535],[142.94389207038444,44.32692917085516],[142.943505105624,44.32720781955149],[142.94329196292495,44.32732481547152],[142.94273715761554,44.327483677066006],[142.9417846669097,44.327560701040895],[142.9420922897801,44.328766642045494],[142.94277068511298,44.32944757943202],[142.94235548855005,44.329892549061704]]]},"properties":{"KEY_CODE":"015620080","PREF":"01","CITY":"562","CITY_NAME":"西興部村","S_NAME":"字忍路子","SETAI":"10"}},{"type":"Feature","geometry":{"type":"Polygon","coordinates":[[[143.01497785145625,44.39295443453317],[143.0111639603634,44.3975151179937],[143.00903179203212,44.39808695615442],[143.00676708471147,44.39715947719556],[143.00539537022868,44.397253985071494],[143.00412918525586,44.397017063189054],[143.0034218550441,44.39689077418126],[143.0027723744972,44.39666386654055],[143.0021870749155,44.39629453644621],[143.00115113382324,44.395620126763],[142.99965471185376,44.3952770537764],[142.99896845399633,44.39512415928472],[142.99711755094503,44.39461553820118],[142.99564773617408,44.39420579570689],[142.99227125973752,44.39355399713895],[142.9913702375658,44.39343378306458],[142.9907255465659,44.39317239709292],[142.98894105947755,44.39173790766002],[142.98814622701775,44.3916022476827],[142.98619461370953,44.391051677635026],[142.98498147673524,44.39051660578548],[142.98311107150286,44.39042165121823],[142.98274970149677,44.39045961821751],[142.98139628931327,44.39125650838716],[142.97646814216805,44.391782904274],[142.9757328639155,44.391540429192744],[142.97440780320906,44.391171334282944],[142.9735297883585,44.39138042138676],[142.97200545210734,44.39174603045603],[142.97146474719085,44.39331046562092],[142.96886988638354,44.394076306474076],[142.96652291409913,44.39386606665881],[142.96368095949123,44.39265115015092],[142.96224871731877,44.393172398202324],[142.96146890223199,44.39354893909156],[142.95891788808038,44.39316705500641],[142.954534435909,44.39259920089052],[142.95389348567917,44.392231480255795],[142.9531173897131,44.39187843946007],[142.9506858751504,44.3910229119626],[142.94974841644853,44.39048173092574],[142.94833961065112,44.38901511929379],[142.94697993170797,44.38909433943088],[142.94569428022857,44.388609841275844],[142.9443178415373,44.38784471779877],[142.94213351287104,44.38738927103046],[142.941219131645,44.38724889446356],[142.9391759990799,44.38681046774939],[142.9366212752327,44.3865527890645],[142.93582757567972,44.38603508462289],[142.93471632592158,44.385186722890566],[142.93253814512752,44.38543854307209],[142.93045166000329,44.38673793569476],[142.92962581417646,44.387271029492894],[142.92932196611235,44.38851336824703],[142.92785563720702,44.38919934315374],[142.923290828427,44.389992424386556],[142.92191966789173,44.390460988132084],[142.9204042500967,44.39123845182355],[142.92001404983418,44.39200447170391],[142.92014888306704,44.39276415338524],[142.92002733088486,44.393368818573244],[142.9193812478977,44.39382821825564],[142.91892009044082,44.39415772290322],[142.91839133287158,44.39474360029655],[142.91818512172594,44.39550362497107],[142.91793950491723,44.39589466389774],[142.91665821759938,44.396083874938896],[142.91537484620005,44.39608562925538],[142.91291135470865,44.39638353185956],[142.90658017072192,44.39807128501252],[142.90570975173426,44.398207468990904],[142.90457474514665,44.3995930473822],[142.90226895012896,44.3997773640915],[142.9003358599095,44.400045094675306],[142.89821329190372,44.399524065624604],[142.89727869073928,44.39848603087242],[142.89519846207412,44.397260493370915],[142.89383698799026,44.397197261424246],[142.89292387190366,44.397592817422655],[142.89118767518372,44.398195140520805],[142.89098997144134,44.398411408400925],[142.8905088523181,44.3993302562764],[142.88960245654764,44.39992462898745],[142.88836997379818,44.40022901395905],[142.88748066355606,44.40062523500661],[142.887218846563,44.401139736822245],[142.88311783152906,44.397166055093386],[142.88055823209825,44.39631601977462],[142.87663925334883,44.396766237730276],[142.87380568572368,44.39548810526162],[142.87212767207936,44.39263925218173],[142.86986495892265,44.39039582071409],[142.86567661494954,44.387989483667155],[142.8691040715743,44.38812284629767],[142.87095506679725,44.38722868615359],[142.8710677846028,44.386464574814845],[142.8693915019215,44.38391924024963],[142.8704129504104,44.38189861223823],[142.8719407917632,44.37895757128145],[142.872720780241,44.378476361799166],[142.87810478498298,44.380098781927],[142.88017778211199,44.38008196564842],[142.8823562369707,44.378783844940386],[142.8866661140905,44.37854809250653],[142.89074069298678,44.37434326857911],[142.89600928563473,44.37308671837876],[142.89783670242983,44.37167498225713],[142.90018198201608,44.37110765893836],[142.9013954603564,44.369930364943244],[142.90154883376718,44.36826700167359],[142.90580405356448,44.366838797725485],[142.90841357989157,44.36454073401301],[142.9103298780429,44.36014995626099],[142.91424433838657,44.357360325665695],[142.91804669243695,44.35736953268457],[142.9210816360694,44.356915840419546],[142.92391961352268,44.3539884526298],[142.92641669235766,44.35278017534783],[142.92868388767923,44.35254934257806],[142.93237695640613,44.35291752162367],[142.93489886152884,44.35149550589245],[142.9342838297782,44.347660717711925],[142.93728711724935,44.345497739696086],[142.93986634921694,44.34553718963929],[142.94221830872183,44.34410339486687],[142.94515514139945,44.34306425520993],[142.95152054863314,44.343448784993605],[142.9615649427035,44.341052490532675],[142.96561807427108,44.34095935546238],[142.96653849442066,44.341804320643725],[142.97018303477196,44.34117061705432],[142.97483548778308,44.33941456455862],[142.97835986177276,44.34182692214335],[142.9829368895596,44.34385883061896],[142.9855026167979,44.344549241311405],[142.98766420097797,44.34599203079338],[142.99037468783618,44.34690738624107],[142.98942069145988,44.34855823794993],[142.98883318413615,44.35100786753225],[142.98889430941657,44.35381839890015],[142.98724132587282,44.35694062416391],[142.9874521422603,44.36195475223717],[142.98676677935123,44.364865075416155],[142.98588621565176,44.365897706497606],[142.98197454858683,44.36868981187156],[142.98134916429302,44.36954303979088],[142.98300489510999,44.37055780064017],[142.98710934402234,44.37213901500923],[142.98952021502487,44.37251423856629],[142.99193969767262,44.37374380630257],[142.99375142287653,44.375433188122564],[143.00018380574627,44.37894021284806],[143.00439123902092,44.38101558645555],[143.0050274727423,44.38307384201105],[143.00763732517274,44.383156718397444],[143.0084253935911,44.38528259764201],[143.00990313336425,44.386847521198746],[143.01165452858646,44.38993046002218],[143.0135529093869,44.39213673495511],[143.01497785145625,44.39295443453317]]]},"properties":{"KEY_CODE":"015620090","PREF":"01","CITY":"562","CITY_NAME":"西興部村","S_NAME":"字中興部","SETAI":"7"}},{"type":"Feature","geometry":{"type":"Polygon","coordinates":[[[143.0218801815412,44.384763182978155],[143.01497785145625,44.39295443453317],[143.0135529093869,44.39213673495511],[143.01165452858646,44.38993046002218],[143.00990313336425,44.386847521198746],[143.0084253935911,44.38528259764201],[143.00763732517274,44.383156718397444],[143.0050274727423,44.38307384201105],[143.00439123902092,44.38101558645555],[143.00018380574627,44.37894021284806],[142.99375142287653,44.375433188122564],[142.99193969767262,44.37374380630257],[142.98952021502487,44.37251423856629],[142.98710934402234,44.37213901500923],[142.98300489510999,44.37055780064017],[142.98134916429302,44.36954303979088],[142.98197454858683,44.36868981187156],[142.98588621565176,44.365897706497606],[142.98676677935123,44.364865075416155],[142.9874521422603,44.36195475223717],[142.98724132587282,44.35694062416391],[142.98889430941657,44.35381839890015],[142.98883318413615,44.35100786753225],[142.98942069145988,44.34855823794993],[142.99037468783618,44.34690738624107],[142.98766420097797,44.34599203079338],[142.9855026167979,44.344549241311405],[142.9829368895596,44.34385883061896],[142.97835986177276,44.34182692214335],[142.97483548778308,44.33941456455862],[142.97424297838612,44.33849161458677],[142.9710247001829,44.33754116641618],[142.969224640407,44.336323556694715],[142.96855813751077,44.334636020917735],[142.96436445877475,44.33304265221878],[142.9632531057488,44.33128673034605],[142.9630594067483,44.32939769853219],[142.9605384218096,44.32738033716169],[142.95698548009804,44.32667607754079],[142.9531470275885,44.32669290182107],[142.95865058597482,44.32640968065163],[142.96141073354062,44.32687620800523],[142.96327461709944,44.326655097748066],[142.9681289724281,44.324854797392824],[142.97192043984728,44.32401903492846],[142.97644828119783,44.323645413923906],[142.9827137332532,44.32206069290406],[142.98343427473463,44.31974617384375],[142.986572373952,44.3176046353049],[142.98642277387447,44.31505244321938],[142.98536892417283,44.31234125616038],[142.9844894975451,44.306392664293554],[142.98569803197898,44.30456241150512],[142.98892097291716,44.302926847641714],[142.99154639029572,44.30013222193912],[142.99611012243045,44.29749825029699],[143.00103021290363,44.29342572309127],[143.00762728286503,44.29404360086626],[143.0087939768829,44.294551357747295],[143.01102667003795,44.29751154557768],[143.01415941022088,44.298966655618656],[143.01717529280214,44.29956710891852],[143.02018557003512,44.3006508624665],[143.02217747309933,44.30207029022761],[143.02631159982963,44.30642692385734],[143.02821192507386,44.30889162193438],[143.0308149871304,44.31012064109891],[143.03185729365086,44.31207818329041],[143.03658307663218,44.315171651058854],[143.03592748617172,44.31567019808325],[143.03562128370024,44.31866663853999],[143.03387958981398,44.31970365363834],[143.03289577162712,44.322417003778696],[143.03323813797772,44.32411838362764],[143.03260403658226,44.32754095076548],[143.0310066127673,44.329023657423875],[143.0272601858607,44.32981429619724],[143.02639796140338,44.33222071145471],[143.02653337655468,44.3372773424509],[143.0255571463732,44.339854770354584],[143.02590497088616,44.341043530449234],[143.02799677752628,44.34328247751639],[143.02896139349278,44.34689156194598],[143.03235787468108,44.34754342150946],[143.03309207003375,44.34850119862272],[143.03307922932504,44.35159081753613],[143.03078774401877,44.3533163422147],[143.02901533512795,44.35381048952518],[143.02866145623227,44.355881822556164],[143.0289664647794,44.35980357619156],[143.0297497858148,44.36279549834956],[143.02939498696327,44.36499529654116],[143.03204477855934,44.36529752746258],[143.03295870136557,44.36667032726214],[143.03302448693984,44.36871294481552],[143.0314572416158,44.37087310524953],[143.03213808969124,44.372888134887354],[143.0218801815412,44.384763182978155]]]},"properties":{"KEY_CODE":"015620100","PREF":"01","CITY":"562","CITY_NAME":"西興部村","S_NAME":"字中藻","SETAI":"7"}},{"type":"Feature","geometry":{"type":"Polygon","coordinates":[[[142.9531470275885,44.32669290182107],[142.9494868412843,44.326795623920916],[142.94887841039377,44.326648520084234],[142.94802711834154,44.326465700218044],[142.9475216053626,44.326335926987525],[142.9493553353429,44.321683150759924],[142.95108368662562,44.31909801388059],[142.95405320214044,44.31660851294694],[142.9558608733796,44.31556679346634],[142.95658585955516,44.31268150338592],[142.9534938586237,44.312200526077206],[142.9524206329327,44.31082177744299],[142.95240263690977,44.309313587749344],[142.95331044810757,44.305612369889914],[142.95177661874817,44.29470444004302],[142.95104463151122,44.291746255736115],[142.95129084344606,44.287980698195675],[142.95083079147184,44.28171791090326],[142.95099350510864,44.28015561989076],[142.9487656493719,44.2761374741182],[142.94865388464808,44.27484439909025],[142.94987274897863,44.27245243709572],[142.94918562971628,44.27159659264871],[142.94478699730934,44.269867117153495],[142.93902827144808,44.26578488107597],[142.93718686111856,44.263835917594164],[142.93496625526853,44.26242567510474],[142.92806729766536,44.26379273664095],[142.9251146944871,44.26287525206495],[142.92260283828708,44.26279066052238],[142.9198556567918,44.26210961556931],[142.9170066223002,44.25959579713102],[142.91504870421537,44.25887154665293],[142.91106753770606,44.258861826057],[142.90861721733916,44.25946283011063],[142.90326654584015,44.25801045906219],[142.89762863395677,44.259131541504],[142.8936633629427,44.25910999787823],[142.89090498426802,44.25767501926102],[142.887400322872,44.25669888621712],[142.8827276805707,44.25595558775252],[142.8794007582451,44.25481106008895],[142.8767053287176,44.253027392377916],[142.87027049604146,44.25135683779],[142.8641180939021,44.24934444298737],[142.86504913537135,44.24890370834076],[142.86673866336707,44.248264624840736],[142.86606186361402,44.24595085784335],[142.86576196284275,44.24465933965964],[142.86601220902335,44.24058477800111],[142.8670246810997,44.239609909602834],[142.86807474569767,44.23758514625214],[142.86829981199023,44.235727011336365],[142.86832488860634,44.23473543247831],[142.87094989536456,44.23156915629556],[142.87227486302723,44.23073592538988],[142.87423731788925,44.22956109377055],[142.87569971980128,44.22882787035391],[142.8755314154819,44.22876267744921],[142.88020109704343,44.225568927372095],[142.8846167576958,44.224828735816914],[142.88764130704178,44.22499742074645],[142.8924622786931,44.2237699399596],[142.89561489675643,44.22529528342865],[142.8985660899747,44.2274143658536],[142.90246658118704,44.22891636353341],[142.90719812682138,44.22912022915176],[142.9094595488186,44.22812829229883],[142.9099210869653,44.22724896445495],[142.91252400856064,44.22572482356527],[142.9147366908045,44.223462584210765],[142.9143601094677,44.221817500536886],[142.91564976067224,44.21967230584064],[142.91675214679802,44.21960339846635],[142.91714753011516,44.21684044744002],[142.91795702544815,44.21555386269374],[142.92271475194093,44.21537068160652],[142.9266136616061,44.216517792974294],[142.93158835581377,44.21961994402091],[142.93369942276323,44.220260575602545],[142.93664410583128,44.21968057089977],[142.9386599334244,44.21846988723574],[142.93972492305033,44.217007416951],[142.94254876302452,44.21579750256633],[142.94555053909698,44.21561831547767],[142.94738394149599,44.21637775971114],[142.9508975343141,44.21606847557304],[142.95129602599349,44.21681581593455],[142.95352965031276,44.21756892311827],[142.95684680570332,44.21712054163692],[142.96070699230745,44.218700329502866],[142.96202520865145,44.21863720872497],[142.96707696015238,44.220758460932636],[142.9692829858045,44.22332721969141],[142.96929644284958,44.22421514536644],[142.97096397901484,44.22514566073487],[142.97429646397472,44.225277946295314],[142.977625493335,44.22619971985438],[142.97670717397884,44.227104945464596],[142.97689515114243,44.22847268771938],[142.97918359188148,44.23168068953443],[142.9809324072067,44.233189928164784],[142.98358441764796,44.23320131654651],[142.98495427735807,44.23387226322227],[142.98928570470213,44.233617114346686],[142.99005684274545,44.235257488668566],[142.98914453477914,44.237060240924265],[142.99006268139942,44.23782491485618],[142.99083648615098,44.240930804948455],[142.99582145010405,44.24337305431951],[142.9946424464088,44.24407562802818],[142.9933568758185,44.247611421529946],[142.99383901135914,44.250965309384355],[142.9926733113954,44.25295208531217],[142.9925870994933,44.256714461553635],[142.99342652140098,44.25870688849674],[142.9956643864679,44.26083827247923],[142.9985476580401,44.26279146500957],[143.00104093556783,44.26248246618775],[143.00651560395863,44.26435610666508],[143.00944017435307,44.266547301506456],[143.01193768438716,44.266939641905076],[143.01334339895752,44.26877183159934],[143.0165159471981,44.27037593826676],[143.01995440465154,44.27141285460428],[143.02121533273987,44.27277700126503],[143.02584036352803,44.27447087851353],[143.03061786251914,44.27394352807784],[143.03395810086826,44.27530385851072],[143.03446725412675,44.27632162721556],[143.03651457078033,44.27762026189456],[143.03953530077916,44.27769812506291],[143.04102086413437,44.27893826921279],[143.04449902438742,44.280297364570025],[143.04763801626495,44.2807608292337],[143.05105866341077,44.282449203588705],[143.05169465895688,44.28229901024184],[143.0541570501199,44.284841328789156],[143.05590058309173,44.285166320249374],[143.05736193444258,44.28626776058054],[143.05924768972184,44.286460072966655],[143.06387494388426,44.2891151734161],[143.06320338981408,44.291372127589746],[143.061076529999,44.29521189449158],[143.06124376918046,44.29637728268626],[143.0589270305078,44.297667194620246],[143.0583338812871,44.29902226516798],[143.0567623218468,44.29877750119958],[143.0529451472759,44.299341617996916],[143.05002748210447,44.30102967007908],[143.04939481961273,44.30278063542733],[143.04804138399905,44.303756761639775],[143.04807578076895,44.30553760790233],[143.05094563899755,44.307056759990246],[143.05073664570148,44.30879160578489],[143.04730556487277,44.311267141062665],[143.04691724766255,44.31229410207256],[143.0433412906855,44.31348637761049],[143.03794746393172,44.314567484463616],[143.03658307663218,44.315171651058854],[143.03185729365086,44.31207818329041],[143.0308149871304,44.31012064109891],[143.02821192507386,44.30889162193438],[143.02631159982963,44.30642692385734],[143.02217747309933,44.30207029022761],[143.02018557003512,44.3006508624665],[143.01717529280214,44.29956710891852],[143.01415941022088,44.298966655618656],[143.01102667003795,44.29751154557768],[143.0087939768829,44.294551357747295],[143.00762728286503,44.29404360086626],[143.00103021290363,44.29342572309127],[142.99611012243045,44.29749825029699],[142.99154639029572,44.30013222193912],[142.98892097291716,44.302926847641714],[142.98569803197898,44.30456241150512],[142.9844894975451,44.306392664293554],[142.98536892417283,44.31234125616038],[142.98642277387447,44.31505244321938],[142.986572373952,44.3176046353049],[142.98343427473463,44.31974617384375],[142.9827137332532,44.32206069290406],[142.97644828119783,44.323645413923906],[142.97192043984728,44.32401903492846],[142.9681289724281,44.324854797392824],[142.96327461709944,44.326655097748066],[142.96141073354062,44.32687620800523],[142.95865058597482,44.32640968065163],[142.9531470275885,44.32669290182107]]]},"properties":{"KEY_CODE":"015620110","PREF":"01","CITY":"562","CITY_NAME":"西興部村","S_NAME":"字上藻","SETAI":"14"}}]}