{"type":"FeatureCollection","features":[{"type":"Feature","geometry":{"type":"Polygon","coordinates":[[[138.52035783467693,36.055682996412614],[138.517814670349,36.05670839118146],[138.51695343344974,36.05658961532226],[138.514821191591,36.05728322792584],[138.51069794719328,36.05736378718972],[138.50763575723465,36.0588934070578],[138.50754987621613,36.05992903219166],[138.50452625083977,36.060137507065406],[138.50443190243712,36.05970796399405],[138.50422673609492,36.05916150203313],[138.50409887828857,36.05871847997539],[138.50382282500027,36.058448321307154],[138.50379635210902,36.05836850394788],[138.5040458403878,36.057969375034695],[138.50400418242492,36.05739833771255],[138.50402305297655,36.057155795020364],[138.50412143217025,36.05675117477924],[138.50379758378588,36.05650120885437],[138.50363109258913,36.05636975145087],[138.5032023712111,36.056240149637766],[138.5031157130992,36.056219780874464],[138.50278620242335,36.05628181957572],[138.50245552519272,36.05613183968307],[138.50223771956453,36.05585131293414],[138.5019686103467,36.05556616094369],[138.50195374557643,36.055072687252036],[138.5016435461991,36.05435238730492],[138.5014072532376,36.054131869875526],[138.50065182642493,36.053767212871406],[138.50031576820555,36.053844491625924],[138.49881835763333,36.05393264161331],[138.49817151570045,36.05402078164179],[138.49772095556247,36.053828781975966],[138.49748005392823,36.05370078178555],[138.49722726705647,36.05364764516124],[138.49693581228246,36.053647639239045],[138.49664198348964,36.05379493463555],[138.49641155319935,36.05413986859685],[138.4963369991943,36.0541171651925],[138.49618087676387,36.054011201229244],[138.4957490583347,36.053664794037516],[138.49551704099403,36.053441755428224],[138.4953812742528,36.05298426466081],[138.49501860514732,36.05252107689695],[138.49486798549958,36.05206239632454],[138.49462007498198,36.05150432756531],[138.49450920750184,36.051402395809035],[138.49427490940909,36.05072455971404],[138.4937540138578,36.05019961589557],[138.4936201316386,36.050075589021894],[138.49349357722835,36.0498352063115],[138.49307729368476,36.049539597387636],[138.49222544829448,36.04865040440267],[138.49184348746232,36.04793689706596],[138.4915516068118,36.04607339703515],[138.49164439967592,36.04541309934931],[138.49176173109697,36.045007615751665],[138.4920727764716,36.0447727544557],[138.4922283186213,36.0438399202622],[138.4922228634668,36.0436803766291],[138.49222833625186,36.043268236151576],[138.49151091645317,36.04051396334142],[138.49145369144142,36.03886762783464],[138.49138823694207,36.03847321468572],[138.4912191257169,36.03794140732497],[138.49121979249662,36.03791938850628],[138.49285491695136,36.03705109971355],[138.49408868234534,36.0372845107989],[138.49552694914044,36.03707120350557],[138.49679015656145,36.03769088190411],[138.49829100136984,36.038208972583966],[138.498953838186,36.037883901644484],[138.5001170050811,36.03823943892581],[138.5003171172661,36.03831054224482],[138.50124889482169,36.03841718415674],[138.5022119576732,36.03872191776617],[138.50277475453305,36.03856952254524],[138.50317485123384,36.03767554531881],[138.50373746286658,36.036273645367544],[138.5039312359613,36.03568952215226],[138.50445640302294,36.03502919405314],[138.5046188014852,36.03380000459021],[138.50343054929795,36.03237787392664],[138.50276144178574,36.03183442459221],[138.50227350263893,36.02988401718106],[138.50282369167996,36.02951828384938],[138.50351139989132,36.029010321568904],[138.50443039894006,36.02812139800073],[138.50605602086188,36.02787747718598],[138.50649368765937,36.02780632807631],[138.50726896884296,36.02741008253351],[138.5081067234262,36.02605893683488],[138.50991366313536,36.02515973311621],[138.51080148989212,36.023991430977645],[138.5135027611434,36.024255240193526],[138.51484079922824,36.02366587255344],[138.51669916977448,36.02399458202459],[138.51776874466566,36.02644760523389],[138.5193157058535,36.03088777669896],[138.51957039111005,36.03473080905722],[138.5191245752475,36.03569182882187],[138.51918766207575,36.03763352565104],[138.52044792717936,36.04159963278827],[138.52049423134096,36.042410584986676],[138.52247303412298,36.045679790641465],[138.52357082996565,36.04678132619396],[138.52207587591394,36.04944400168303],[138.51991779365707,36.05131318358793],[138.52311818639936,36.05019998800521],[138.52484403554075,36.05055262781166],[138.52715132239769,36.0502146650196],[138.53012980990903,36.05204892138729],[138.5315469448625,36.05419680700921],[138.53047367397767,36.05498260931315],[138.5269959735316,36.05514104016612],[138.52244293420003,36.055148598078624],[138.52035783467693,36.055682996412614]]]},"properties":{"KEY_CODE":"20306001001","PREF":"20","CITY":"306","CITY_NAME":"南相木村","S_NAME":"日向","SETAI":"54"}},{"type":"Feature","geometry":{"type":"Polygon","coordinates":[[[138.5321787216659,36.053731344426716],[138.5315469448625,36.05419680700921],[138.53012980990903,36.05204892138729],[138.52715132239769,36.0502146650196],[138.52484403554075,36.05055262781166],[138.52311818639936,36.05019998800521],[138.51991779365707,36.05131318358793],[138.52207587591394,36.04944400168303],[138.52357082996565,36.04678132619396],[138.52247303412298,36.045679790641465],[138.52049423134096,36.042410584986676],[138.52044792717936,36.04159963278827],[138.51918766207575,36.03763352565104],[138.5191245752475,36.03569182882187],[138.51957039111005,36.03473080905722],[138.5193157058535,36.03088777669896],[138.51776874466566,36.02644760523389],[138.51669916977448,36.02399458202459],[138.51941148804295,36.02309120124392],[138.52069966096738,36.02350746756188],[138.52228767393834,36.02273510675336],[138.52259994408357,36.021343317336004],[138.5244064853035,36.01963118779584],[138.5277580965128,36.02038210869384],[138.5284206906829,36.01985367144752],[138.53061519572097,36.019431503511726],[138.53132779389603,36.01888276116358],[138.53277854836128,36.019380083575086],[138.53441665801245,36.01909203741709],[138.5348629292294,36.01883965504981],[138.5351103001217,36.02091321071042],[138.53409339216384,36.02294450922048],[138.52898244561834,36.0297603664131],[138.5266848336722,36.03250640342171],[138.52618430567847,36.03462251990524],[138.52669741768452,36.03642704611684],[138.52851598922766,36.04051139316568],[138.52938127758625,36.042928468538385],[138.53142094267739,36.04730395617684],[138.5326761075614,36.04921347718716],[138.53513699321658,36.05135691481803],[138.53439112961905,36.05156421698224],[138.53339074230703,36.05325314418382],[138.5321787216659,36.053731344426716]]]},"properties":{"KEY_CODE":"20306001002","PREF":"20","CITY":"306","CITY_NAME":"南相木村","S_NAME":"第八","SETAI":"58"}},{"type":"Feature","geometry":{"type":"Polygon","coordinates":[[[138.54433922767547,36.046319862497974],[138.54367078733543,36.04648844252586],[138.54117239573398,36.04865896226517],[138.54010384601278,36.048919852479386],[138.538055984695,36.050117555764594],[138.53572789539123,36.050799636291224],[138.53513699321658,36.05135691481803],[138.5326761075614,36.04921347718716],[138.53142094267739,36.04730395617684],[138.52938127758625,36.042928468538385],[138.52851598922766,36.04051139316568],[138.52669741768452,36.03642704611684],[138.52618430567847,36.03462251990524],[138.5266848336722,36.03250640342171],[138.52898244561834,36.0297603664131],[138.53409339216384,36.02294450922048],[138.5351103001217,36.02091321071042],[138.5348629292294,36.01883965504981],[138.53548059305814,36.021898912383044],[138.5357024085556,36.029917758071754],[138.53690850103854,36.03641474908616],[138.53897414434476,36.039704857230696],[138.54055049009108,36.040822344433955],[138.53912332852494,36.04061118506466],[138.53863622380658,36.04249235318465],[138.5393129483242,36.0443579002785],[138.54031759841143,36.045042940537705],[138.54433922767547,36.046319862497974]]]},"properties":{"KEY_CODE":"20306001003","PREF":"20","CITY":"306","CITY_NAME":"南相木村","S_NAME":"祝平","SETAI":"58"}},{"type":"Feature","geometry":{"type":"Polygon","coordinates":[[[138.5556624378102,36.046300976493676],[138.55380239989316,36.04658428332354],[138.5519269971665,36.04651983759193],[138.55076307231943,36.04690376730728],[138.54809338831714,36.04612066615805],[138.54596404092288,36.04597663323324],[138.54433922767547,36.046319862497974],[138.54031759841143,36.045042940537705],[138.5393129483242,36.0443579002785],[138.53863622380658,36.04249235318465],[138.53912332852494,36.04061118506466],[138.54055049009108,36.040822344433955],[138.53897414434476,36.039704857230696],[138.53690850103854,36.03641474908616],[138.5357024085556,36.029917758071754],[138.53548059305814,36.021898912383044],[138.5348629292294,36.01883965504981],[138.53647094307192,36.020246189208095],[138.53797842914167,36.02203701240013],[138.538602425159,36.023615586746956],[138.5406992867052,36.02452420788681],[138.54261347029708,36.02609422290513],[138.54363265344887,36.02744431992468],[138.54420603652744,36.029000070275615],[138.54401479213266,36.03192613618188],[138.54475766264048,36.03478027251344],[138.54387209155513,36.037460424496125],[138.54593838373555,36.03850725067718],[138.55000210001305,36.03886951295555],[138.55845561082452,36.039284691113146],[138.56143236696107,36.03988969431796],[138.56364950759843,36.040619886582455],[138.56370972401493,36.041787482402036],[138.56261021779693,36.044330384797284],[138.56057782297404,36.04579164096864],[138.5592851566614,36.04567605752166],[138.55744626854755,36.046199328089976],[138.5556624378102,36.046300976493676]]]},"properties":{"KEY_CODE":"20306001004","PREF":"20","CITY":"306","CITY_NAME":"南相木村","S_NAME":"和田","SETAI":"50"}},{"type":"Feature","geometry":{"type":"Polygon","coordinates":[[[138.56364950759843,36.040619886582455],[138.56143236696107,36.03988969431796],[138.55845561082452,36.039284691113146],[138.55000210001305,36.03886951295555],[138.54593838373555,36.03850725067718],[138.54387209155513,36.037460424496125],[138.54619424092684,36.03672996076633],[138.54751728895724,36.035829602025345],[138.54788415723905,36.03480822516135],[138.5473356233569,36.03383866818768],[138.5461714461329,36.033860223796395],[138.5478812234316,36.03260875218419],[138.54842362420078,36.03419315755451],[138.55068298395642,36.03337696366659],[138.5513569203301,36.033663170642406],[138.55366223375333,36.03315180345368],[138.55605783565562,36.03499569231605],[138.55874476377198,36.037548436852006],[138.56197514382978,36.039428346417225],[138.56364950759843,36.040619886582455]]]},"properties":{"KEY_CODE":"20306001005","PREF":"20","CITY":"306","CITY_NAME":"南相木村","S_NAME":"中島日向","SETAI":"19"}},{"type":"Feature","geometry":{"type":"Polygon","coordinates":[[[138.57477688885015,36.03572784885562],[138.57073243587936,36.03841558896724],[138.56944011632197,36.03858868723952],[138.5679375353216,36.03933635572727],[138.56373981453612,36.04030589207594],[138.56364950759843,36.040619886582455],[138.56197514382978,36.039428346417225],[138.55874476377198,36.037548436852006],[138.55605783565562,36.03499569231605],[138.55366223375333,36.03315180345368],[138.55221348710512,36.03233861077178],[138.55178938543554,36.031554772620254],[138.5521544869544,36.02946517753988],[138.55165323709159,36.0270824224516],[138.55228013868123,36.02593516435069],[138.55335992344533,36.0255370705395],[138.55756707168214,36.02590074383569],[138.5584358096401,36.02512645191546],[138.5617911493811,36.02426111183809],[138.56266242072604,36.02342051110611],[138.5638318722391,36.02327452259074],[138.56531406689373,36.02223261947621],[138.56605862961266,36.02114407554354],[138.5677123820463,36.02326051923002],[138.56826606478322,36.02502285640138],[138.57137991126558,36.031452758723596],[138.57477688885015,36.03572784885562]]]},"properties":{"KEY_CODE":"20306001006","PREF":"20","CITY":"306","CITY_NAME":"南相木村","S_NAME":"栗生川","SETAI":"22"}},{"type":"Feature","geometry":{"type":"Polygon","coordinates":[[[138.60732598335764,36.03343158361291],[138.60687546146596,36.032634439516684],[138.60498932773658,36.03179583436126],[138.60229713627947,36.032655878054975],[138.60066225469515,36.032575793358944],[138.59970639043064,36.033069576540356],[138.59841213731772,36.032864924992445],[138.59576912689982,36.0336633350599],[138.5936645800185,36.03322684951318],[138.59302281723143,36.033497219002214],[138.5878458373145,36.03417854448015],[138.58406509661046,36.035064374957535],[138.58232162020195,36.035093649671246],[138.579260238619,36.03596408549129],[138.57709677977562,36.03587198525824],[138.5758614106128,36.03527160901949],[138.57477688885015,36.03572784885562],[138.57137991126558,36.031452758723596],[138.56826606478322,36.02502285640138],[138.5677123820463,36.02326051923002],[138.56605862961266,36.02114407554354],[138.56759157020605,36.02021569064632],[138.57142947648748,36.019971890954814],[138.5758892704752,36.01892342143968],[138.57889968774683,36.017640508706016],[138.58157632040258,36.01554084053812],[138.5842966136117,36.01411175384738],[138.5885190628769,36.01139732371688],[138.59084807721808,36.0105786714314],[138.59377701331113,36.01046831619057],[138.5996029170319,36.0097642856351],[138.60339563310302,36.0084355703885],[138.6052904360606,36.00812240137165],[138.6146827313026,36.00867235163011],[138.6176071815941,36.00956397674083],[138.62072344280037,36.00936121510011],[138.6225599424042,36.00958942272349],[138.62555209953942,36.01045961535419],[138.6280919183811,36.01067456379034],[138.63575682950432,36.01166096810702],[138.63765908428041,36.012015906094874],[138.6413331479477,36.01624355892286],[138.64337582819638,36.01802467527535],[138.64612353112707,36.01998821313059],[138.64618183071514,36.02124663631877],[138.64514477687135,36.02389713915783],[138.64381019943107,36.0241111584738],[138.64190718914264,36.025852844151096],[138.63961462836915,36.026113358221785],[138.63623133120728,36.02770299411306],[138.6319569054419,36.02709055628289],[138.63145524195775,36.02832017533108],[138.6295211264004,36.02941778155476],[138.62739932236946,36.029493537148724],[138.62424094724875,36.028871632487764],[138.623181660542,36.02942849159602],[138.62102196293904,36.029489473051],[138.6200566836322,36.0290896673598],[138.61839968456607,36.02956558574189],[138.61705109520784,36.03044864141649],[138.61327534106624,36.030906497473566],[138.60911210091038,36.03214744159999],[138.60732598335764,36.03343158361291]]]},"properties":{"KEY_CODE":"20306001007","PREF":"20","CITY":"306","CITY_NAME":"南相木村","S_NAME":"栗生","SETAI":"16"}},{"type":"Feature","geometry":{"type":"Polygon","coordinates":[[[138.64612353112707,36.01998821313059],[138.64337582819638,36.01802467527535],[138.6413331479477,36.01624355892286],[138.63765908428041,36.012015906094874],[138.63575682950432,36.01166096810702],[138.6280919183811,36.01067456379034],[138.62555209953942,36.01045961535419],[138.6225599424042,36.00958942272349],[138.62072344280037,36.00936121510011],[138.6176071815941,36.00956397674083],[138.6146827313026,36.00867235163011],[138.6052904360606,36.00812240137165],[138.60339563310302,36.0084355703885],[138.5996029170319,36.0097642856351],[138.59377701331113,36.01046831619057],[138.59084807721808,36.0105786714314],[138.5885190628769,36.01139732371688],[138.5842966136117,36.01411175384738],[138.58157632040258,36.01554084053812],[138.57889968774683,36.017640508706016],[138.5758892704752,36.01892342143968],[138.57142947648748,36.019971890954814],[138.56759157020605,36.02021569064632],[138.56605862961266,36.02114407554354],[138.56064398706374,36.021417855407485],[138.55926382344072,36.02021821866427],[138.55775925210216,36.01689037382964],[138.5574715762153,36.014209328864],[138.5551827527101,36.01052037430622],[138.55492901635816,36.008729449923244],[138.5541527693983,36.006409360731816],[138.55508405664125,36.00480296486033],[138.55700808658506,36.00278384470141],[138.5570657426789,36.00157301025348],[138.55832645947834,36.000139783137676],[138.55862821091225,35.997566380250404],[138.55808183553475,35.99477997567028],[138.56023510437802,35.99402389190554],[138.5618194601522,35.99357491439051],[138.56258738500657,35.99358207819326],[138.563811279344,35.993441497179894],[138.56419492883347,35.993064971971535],[138.56478128306685,35.99300414297798],[138.56559914208165,35.99280751054547],[138.56570666413845,35.99279888855137],[138.56601447713595,35.9928004318342],[138.5662083735893,35.99271980188434],[138.5663201051104,35.992707743732936],[138.566676209291,35.99247281826098],[138.56699094843998,35.99194408083477],[138.5670246332165,35.99189437174768],[138.56711724199926,35.99169728573699],[138.56757679252652,35.9918286258669],[138.56826845628316,35.991758507965294],[138.5687402764003,35.99168415072526],[138.56933027305098,35.99185812254601],[138.57034917244425,35.991949038284304],[138.57115351253265,35.99196163985759],[138.57164174207932,35.992253319582815],[138.57188040641893,35.99230328937482],[138.57252386351124,35.99225931876371],[138.5735670010146,35.99240901313511],[138.57379233641646,35.99252217598222],[138.57446801621037,35.99253046893823],[138.57597851265288,35.992519529523186],[138.57696295470873,35.99234997926373],[138.57710511750125,35.992287650376355],[138.57752076513412,35.99220737042105],[138.5778437299346,35.9924471944788],[138.57853638807748,35.99313796136517],[138.58102035084795,35.99364748132909],[138.5834737692579,35.99370134050296],[138.58457136493507,35.994458461660955],[138.58542528896396,35.99499572054167],[138.58637719421196,35.99507060883947],[138.58726857068478,35.99482546075206],[138.58908707467293,35.994524064972445],[138.58954117900686,35.99459484591528],[138.5915518359269,35.994902257957236],[138.5919727144511,35.994621884593194],[138.59299230256576,35.99411655339554],[138.59336418896453,35.99404513903846],[138.59458414963112,35.99413307970427],[138.59572402599537,35.99359652346162],[138.5990651583619,35.99271807144775],[138.60012039253218,35.992339343645185],[138.60038840754567,35.99233022116568],[138.60108951797866,35.990922714366725],[138.60433029005404,35.99085403314606],[138.60599497404604,35.991140798904404],[138.60739981807143,35.99095107058044],[138.60926909752433,35.9912043481134],[138.6101835304731,35.99152500219853],[138.61101474291308,35.990847970182244],[138.61189499719936,35.991107668323004],[138.6139402516636,35.991721835321904],[138.6179403923334,35.992543019899195],[138.62141156059985,35.992068358558726],[138.62242119465301,35.99215601451906],[138.62315825526474,35.99242132399096],[138.62419594723633,35.993018901866236],[138.62566745672447,35.99186439661945],[138.6268725630553,35.990471800952804],[138.62747173643132,35.98980598722175],[138.62951957927672,35.98869792972432],[138.6301735813746,35.98821496448717],[138.63056214495217,35.98808150363135],[138.63116918533856,35.98809192246106],[138.6313191940578,35.98806404122299],[138.6318748597546,35.98793871142669],[138.63201816581716,35.987982896804475],[138.6331379121816,35.9887022470784],[138.6335062773143,35.98873509440202],[138.63448524545205,35.98885871599383],[138.6353040218014,35.989040708164026],[138.6357131136113,35.98895709387466],[138.63711081811496,35.98864507024328],[138.63838190828525,35.9880809689148],[138.64045388072051,35.987230430050495],[138.64076078125046,35.987218979965],[138.6426873501504,35.98708640848665],[138.64281354579333,35.987100119209224],[138.64452883493527,35.98782013067605],[138.6452562424873,35.98776927368865],[138.6463317056729,35.987518121081926],[138.64664924782102,35.987467769155344],[138.64807520161958,35.98842367775999],[138.64837351159443,35.98906452897293],[138.64867139559863,35.989463887264385],[138.64954311974319,35.98989583087834],[138.65147508727296,35.990164039122135],[138.6517108426452,35.99020537138541],[138.65203899456515,35.990346524439474],[138.65257296164785,35.99095374505995],[138.6531075398977,35.991877416216],[138.65381451993852,35.99185152003744],[138.6556208579987,35.992026133492786],[138.65696907321652,35.99241158357536],[138.65905322657846,35.993147879041814],[138.65996990721564,35.992934301546576],[138.6606129027509,35.99293135407129],[138.66098684211622,35.99289753692585],[138.66146810701886,35.99272617689589],[138.66206169715883,35.992363124631915],[138.66331210123423,35.99125178101039],[138.6640414024586,35.99086979141698],[138.66431782827402,35.990752823556235],[138.66479359796256,35.99041073778398],[138.66542259367776,35.98984359474963],[138.66707251928722,35.989949543448176],[138.66816183481563,35.99024155899623],[138.66906324930773,35.99010703771448],[138.66919141946573,35.99014432313017],[138.67004758220557,35.991619160964504],[138.67030396104693,35.99171455987396],[138.6705703818529,35.991714178446045],[138.6720127011514,35.99175166043605],[138.67259194416005,35.991884063849746],[138.67311524150387,35.992208074925095],[138.67450315720458,35.99195205087113],[138.67562569153657,35.99164770502054],[138.6760465461704,35.99142450034872],[138.67802167870028,35.992243373261374],[138.67983763861125,35.9925345504133],[138.68039184417398,35.9922711903303],[138.6808684923664,35.99188238358899],[138.68118417880845,35.99174493792934],[138.6830691043096,35.99147667274435],[138.6859313167849,35.99170907055287],[138.68688610199246,35.99158772437915],[138.6874970229534,35.99157534173219],[138.68824177675882,35.99172254949617],[138.688508750051,35.99177349337704],[138.68640900331425,35.99501627668205],[138.6870066215706,35.995846319893445],[138.68655087017586,35.99796855830915],[138.6872185711904,35.99866050947386],[138.68705880813312,35.99981942411818],[138.68563638911388,36.00096255365431],[138.6851220222258,36.00197601392201],[138.68112805389347,36.00414912515019],[138.6812639507236,36.0060086038552],[138.6798683368479,36.00890178215815],[138.68074147473877,36.01073342798553],[138.67981512120232,36.01157382372874],[138.67838378823313,36.01181912726558],[138.67575623051746,36.01146497644518],[138.6706821841132,36.01227394280465],[138.66860340973193,36.01146728308954],[138.6659436310541,36.01142291743616],[138.66388713043406,36.01180784411097],[138.66191812254385,36.01152730507838],[138.66205464014175,36.01392121331755],[138.6611776344405,36.01650351642711],[138.65866591932152,36.01650419847589],[138.65663216248976,36.01683284281155],[138.65543949913152,36.018023407524204],[138.65348236127875,36.018846196429266],[138.65054843847804,36.018451774256754],[138.6477099611548,36.019815267249875],[138.64612353112707,36.01998821313059]]]},"properties":{"KEY_CODE":"20306001008","PREF":"20","CITY":"306","CITY_NAME":"南相木村","S_NAME":"三川立原","SETAI":"29"}},{"type":"Feature","geometry":{"type":"Polygon","coordinates":[[[138.55366223375333,36.03315180345368],[138.5513569203301,36.033663170642406],[138.55068298395642,36.03337696366659],[138.54842362420078,36.03419315755451],[138.5478812234316,36.03260875218419],[138.54737982344383,36.027722848003144],[138.54692456339777,36.02686189473946],[138.5453452507061,36.025581394623465],[138.5388408976024,36.02158749971752],[138.5348629292294,36.01883965504981],[138.53808481206798,36.014517862710385],[138.53955980605284,36.01342031440931],[138.541635321783,36.01307426006337],[138.54339164945972,36.01210353753608],[138.54562849682526,36.00957331385306],[138.54590316869943,36.00882149850372],[138.54753417201786,36.00761710722299],[138.54933722404448,36.00743696545824],[138.5504210566251,36.006736631858345],[138.55132711466575,36.00686016038864],[138.5541527693983,36.006409360731816],[138.55492901635816,36.008729449923244],[138.5551827527101,36.01052037430622],[138.5574715762153,36.014209328864],[138.55775925210216,36.01689037382964],[138.55926382344072,36.02021821866427],[138.56064398706374,36.021417855407485],[138.56605862961266,36.02114407554354],[138.56531406689373,36.02223261947621],[138.5638318722391,36.02327452259074],[138.56266242072604,36.02342051110611],[138.5617911493811,36.02426111183809],[138.5584358096401,36.02512645191546],[138.55756707168214,36.02590074383569],[138.55335992344533,36.0255370705395],[138.55228013868123,36.02593516435069],[138.55165323709159,36.0270824224516],[138.5521544869544,36.02946517753988],[138.55178938543554,36.031554772620254],[138.55221348710512,36.03233861077178],[138.55366223375333,36.03315180345368]]]},"properties":{"KEY_CODE":"20306001009","PREF":"20","CITY":"306","CITY_NAME":"南相木村","S_NAME":"加佐","SETAI":"46"}},{"type":"Feature","geometry":{"type":"Polygon","coordinates":[[[138.5478812234316,36.03260875218419],[138.5461714461329,36.033860223796395],[138.5473356233569,36.03383866818768],[138.54788415723905,36.03480822516135],[138.54751728895724,36.035829602025345],[138.54619424092684,36.03672996076633],[138.54387209155513,36.037460424496125],[138.54475766264048,36.03478027251344],[138.54401479213266,36.03192613618188],[138.54420603652744,36.029000070275615],[138.54363265344887,36.02744431992468],[138.54261347029708,36.02609422290513],[138.5406992867052,36.02452420788681],[138.538602425159,36.023615586746956],[138.53797842914167,36.02203701240013],[138.53647094307192,36.020246189208095],[138.5348629292294,36.01883965504981],[138.5388408976024,36.02158749971752],[138.5453452507061,36.025581394623465],[138.54692456339777,36.02686189473946],[138.54737982344383,36.027722848003144],[138.5478812234316,36.03260875218419]]]},"properties":{"KEY_CODE":"20306001010","PREF":"20","CITY":"306","CITY_NAME":"南相木村","S_NAME":"中島日影","SETAI":"54"}}]}