{"type":"FeatureCollection","features":[{"type":"Feature","geometry":{"type":"Polygon","coordinates":[[[138.0847169097302,36.0874683723634],[138.08479968868116,36.088955291427126],[138.08557306277862,36.09070759044231],[138.08604698292137,36.0935442914427],[138.08723209924028,36.09430392926263],[138.0877778819807,36.09655023461971],[138.09104483918097,36.09920701981228],[138.0914405115028,36.099393624278335],[138.08998180503445,36.10067980404106],[138.08978820327542,36.09990059298982],[138.08753924757724,36.09928406453619],[138.08603425900628,36.097469137309496],[138.08449401290923,36.09382716818812],[138.08533058533683,36.092662252123226],[138.0847573933396,36.09221651504345],[138.0842235101049,36.089701530731084],[138.0828309354705,36.088893340107106],[138.08294698965483,36.087749214206426],[138.0847169097302,36.0874683723634]]]},"properties":{"KEY_CODE":"20361001001","PREF":"20","CITY":"361","CITY_NAME":"下諏訪町","S_NAME":"一区東町上","SETAI":"65"}},{"type":"Feature","geometry":{"type":"Polygon","coordinates":[[[138.08818954202644,36.083340408455356],[138.08683563670053,36.082767723978485],[138.0861790423772,36.083440297918926],[138.08776428046102,36.08398470027204],[138.08853649117756,36.08520408206018],[138.08744531149355,36.085838256055546],[138.0895493653963,36.087732574293554],[138.0889504965488,36.08814694888547],[138.08659409504085,36.08580579992023],[138.08529721541404,36.084044154412275],[138.08479812642028,36.082440285526815],[138.0836760078096,36.08315338435402],[138.0823033251477,36.08463075319461],[138.08219407231272,36.0829963956406],[138.08305873145116,36.08297361136692],[138.08267582462636,36.08130836909137],[138.08398237497184,36.08084229449652],[138.08633598894696,36.08048187610859],[138.08650959309153,36.082002607441986],[138.08818954202644,36.083340408455356]]]},"properties":{"KEY_CODE":"20361001002","PREF":"20","CITY":"361","CITY_NAME":"下諏訪町","S_NAME":"一区東町中一","SETAI":"86"}},{"type":"Feature","geometry":{"type":"Polygon","coordinates":[[[138.0823033251477,36.08463075319461],[138.0836760078096,36.08315338435402],[138.0847169097302,36.0874683723634],[138.08294698965483,36.087749214206426],[138.08274737140513,36.087349040131706],[138.08196988128677,36.085869848117945],[138.0823033251477,36.08463075319461]]]},"properties":{"KEY_CODE":"20361001003","PREF":"20","CITY":"361","CITY_NAME":"下諏訪町","S_NAME":"一区東町中二","SETAI":"99"}},{"type":"Feature","geometry":{"type":"Polygon","coordinates":[[[138.08633598894696,36.08048187610859],[138.08398237497184,36.08084229449652],[138.08415221047477,36.07910329469176],[138.08555124854473,36.07859268074328],[138.0856115356392,36.07903313064811],[138.08641248776567,36.08043385386425],[138.08633598894696,36.08048187610859]]]},"properties":{"KEY_CODE":"20361001004","PREF":"20","CITY":"361","CITY_NAME":"下諏訪町","S_NAME":"一区東町下","SETAI":"67"}},{"type":"Feature","geometry":{"type":"Polygon","coordinates":[[[138.08398237497184,36.08084229449652],[138.08267582462636,36.08130836909137],[138.08213898993694,36.08028482814887],[138.08324212025028,36.07942532589495],[138.08415221047477,36.07910329469176],[138.08398237497184,36.08084229449652]]]},"properties":{"KEY_CODE":"20361001005","PREF":"20","CITY":"361","CITY_NAME":"下諏訪町","S_NAME":"一区仲町","SETAI":"46"}},{"type":"Feature","geometry":{"type":"Polygon","coordinates":[[[138.08267582462636,36.08130836909137],[138.08305873145116,36.08297361136692],[138.08219407231272,36.0829963956406],[138.08092142338532,36.08184407454844],[138.08028544647365,36.081441442337834],[138.0813541043151,36.080497921811705],[138.07993376556638,36.081218799642635],[138.0788141035383,36.08055297835643],[138.07835040098655,36.079999667534885],[138.07939115810797,36.079619123681255],[138.0820264959393,36.07958887061702],[138.08213898993694,36.08028482814887],[138.08267582462636,36.08130836909137]]]},"properties":{"KEY_CODE":"20361001006","PREF":"20","CITY":"361","CITY_NAME":"下諏訪町","S_NAME":"一区大門一","SETAI":"78"}},{"type":"Feature","geometry":{"type":"Polygon","coordinates":[[[138.0820264959393,36.07958887061702],[138.07939115810797,36.079619123681255],[138.07835040098655,36.079999667534885],[138.077583808897,36.078904717834334],[138.0792562709566,36.07882533297931],[138.0795004686724,36.07822019720917],[138.0815657996119,36.07806712043648],[138.0819038272169,36.078057708783476],[138.0820264959393,36.07958887061702]]]},"properties":{"KEY_CODE":"20361001007","PREF":"20","CITY":"361","CITY_NAME":"下諏訪町","S_NAME":"一区大門二","SETAI":"117"}},{"type":"Feature","geometry":{"type":"Polygon","coordinates":[[[138.07993376556638,36.081218799642635],[138.0813541043151,36.080497921811705],[138.08028544647365,36.081441442337834],[138.07993376556638,36.081218799642635]]]},"properties":{"KEY_CODE":"20361001008","PREF":"20","CITY":"361","CITY_NAME":"下諏訪町","S_NAME":"一区大門三","SETAI":"44"}},{"type":"Feature","geometry":{"type":"Polygon","coordinates":[[[138.08324212025028,36.07942532589495],[138.08213898993694,36.08028482814887],[138.0820264959393,36.07958887061702],[138.0819038272169,36.078057708783476],[138.0830711967275,36.07752625605917],[138.08324212025028,36.07942532589495]]]},"properties":{"KEY_CODE":"20361001009","PREF":"20","CITY":"361","CITY_NAME":"下諏訪町","S_NAME":"一区田中町","SETAI":"41"}},{"type":"Feature","geometry":{"type":"Polygon","coordinates":[[[138.0819038272169,36.078057708783476],[138.0815657996119,36.07806712043648],[138.08040144217716,36.07774588368441],[138.08059467483739,36.07691169458184],[138.08090720433307,36.07646922661031],[138.0819598103185,36.07655696806184],[138.08309224476443,36.076664154421174],[138.08329831925738,36.07674836117726],[138.0830711967275,36.07752625605917],[138.0819038272169,36.078057708783476]]]},"properties":{"KEY_CODE":"20361001010","PREF":"20","CITY":"361","CITY_NAME":"下諏訪町","S_NAME":"一区矢木町一","SETAI":"59"}},{"type":"Feature","geometry":{"type":"Polygon","coordinates":[[[138.08344166616803,36.07630342501164],[138.08313366125236,36.07645968567156],[138.08314725867984,36.07607855602364],[138.08323858729804,36.07608752542019],[138.08344166616803,36.07630342501164]]]},"properties":{"KEY_CODE":"20361001010","PREF":"20","CITY":"361","CITY_NAME":"下諏訪町","S_NAME":"一区矢木町一","SETAI":"0"}},{"type":"Feature","geometry":{"type":"Polygon","coordinates":[[[138.0815657996119,36.07806712043648],[138.0795004686724,36.07822019720917],[138.0792562709566,36.07882533297931],[138.077583808897,36.078904717834334],[138.07752231673695,36.07812018870163],[138.07747576518335,36.077525487983],[138.07747308956883,36.07749137548643],[138.08040144217716,36.07774588368441],[138.0815657996119,36.07806712043648]]]},"properties":{"KEY_CODE":"20361001011","PREF":"20","CITY":"361","CITY_NAME":"下諏訪町","S_NAME":"一区矢木町二","SETAI":"64"}},{"type":"Feature","geometry":{"type":"Polygon","coordinates":[[[138.08040144217716,36.07774588368441],[138.07747308956883,36.07749137548643],[138.07742528334455,36.07688087461116],[138.0790677083214,36.07555835667928],[138.08012632278158,36.07592323219251],[138.08059467483739,36.07691169458184],[138.08040144217716,36.07774588368441]]]},"properties":{"KEY_CODE":"20361001012","PREF":"20","CITY":"361","CITY_NAME":"下諏訪町","S_NAME":"一区矢木町三","SETAI":"80"}},{"type":"Feature","geometry":{"type":"Polygon","coordinates":[[[138.08415221047477,36.07910329469176],[138.08324212025028,36.07942532589495],[138.0830711967275,36.07752625605917],[138.08329831925738,36.07674836117726],[138.08348324208703,36.07742049816287],[138.08541676415965,36.07731525926712],[138.08541276290055,36.07794325187814],[138.08555124854473,36.07859268074328],[138.08415221047477,36.07910329469176]]]},"properties":{"KEY_CODE":"20361001013","PREF":"20","CITY":"361","CITY_NAME":"下諏訪町","S_NAME":"一区桜町","SETAI":"110"}},{"type":"Feature","geometry":{"type":"Polygon","coordinates":[[[138.08541676415965,36.07731525926712],[138.08348324208703,36.07742049816287],[138.08329831925738,36.07674836117726],[138.08309224476443,36.076664154421174],[138.08313366125236,36.07645968567156],[138.08344166616803,36.07630342501164],[138.08344400685596,36.076098671036085],[138.08547063018267,36.07644198816004],[138.08546628648688,36.07663271301992],[138.08541676415965,36.07731525926712]]]},"properties":{"KEY_CODE":"20361001014","PREF":"20","CITY":"361","CITY_NAME":"下諏訪町","S_NAME":"一区緑町","SETAI":"59"}},{"type":"Feature","geometry":{"type":"Polygon","coordinates":[[[138.0886252964929,36.076705573569704],[138.08845631177812,36.07664279446852],[138.08834546255838,36.076600800535694],[138.0879730792887,36.07665377058949],[138.08786379939758,36.07661041732302],[138.08785207817726,36.07635565909923],[138.08879328880687,36.07550484103878],[138.08956448028448,36.07485295967267],[138.0898534877087,36.074869049290285],[138.09028991448693,36.0756333600898],[138.0886252964929,36.076705573569704]]]},"properties":{"KEY_CODE":"20361002001","PREF":"20","CITY":"361","CITY_NAME":"下諏訪町","S_NAME":"二区立町一部","SETAI":"29"}},{"type":"Feature","geometry":{"type":"Polygon","coordinates":[[[138.08879328880687,36.07550484103878],[138.0876129282471,36.075058429988836],[138.0888707421369,36.07477435904255],[138.08956448028448,36.07485295967267],[138.08879328880687,36.07550484103878]]]},"properties":{"KEY_CODE":"20361002002","PREF":"20","CITY":"361","CITY_NAME":"下諏訪町","S_NAME":"二区立町二部","SETAI":"28"}},{"type":"Feature","geometry":{"type":"Polygon","coordinates":[[[138.0879730792887,36.07665377058949],[138.0873777692019,36.07664231338399],[138.08786379939758,36.07661041732302],[138.0879730792887,36.07665377058949]]]},"properties":{"KEY_CODE":"20361002003","PREF":"20","CITY":"361","CITY_NAME":"下諏訪町","S_NAME":"二区立町三部","SETAI":"0"}},{"type":"Feature","geometry":{"type":"Polygon","coordinates":[[[138.08879328880687,36.07550484103878],[138.08785207817726,36.07635565909923],[138.0875199358928,36.075060544717736],[138.0876129282471,36.075058429988836],[138.08879328880687,36.07550484103878]]]},"properties":{"KEY_CODE":"20361002003","PREF":"20","CITY":"361","CITY_NAME":"下諏訪町","S_NAME":"二区立町三部","SETAI":"31"}},{"type":"Feature","geometry":{"type":"Polygon","coordinates":[[[138.0923975525249,36.07738134365437],[138.09276405475467,36.077895523483555],[138.09009184664498,36.078599828306196],[138.0899855451575,36.079016178308294],[138.08967891571055,36.07894972909987],[138.0898110069938,36.07707994297962],[138.0906603900785,36.07659710079943],[138.0923975525249,36.07738134365437]]]},"properties":{"KEY_CODE":"20361002004","PREF":"20","CITY":"361","CITY_NAME":"下諏訪町","S_NAME":"二区小湯の上一部","SETAI":"44"}},{"type":"Feature","geometry":{"type":"Polygon","coordinates":[[[138.09386164968367,36.07692125367205],[138.0923975525249,36.07738134365437],[138.0906603900785,36.07659710079943],[138.0908085761995,36.075529550952325],[138.09241398458497,36.075739833723695],[138.09386164968367,36.07692125367205]]]},"properties":{"KEY_CODE":"20361002005","PREF":"20","CITY":"361","CITY_NAME":"下諏訪町","S_NAME":"二区小湯の上二部","SETAI":"42"}},{"type":"Feature","geometry":{"type":"Polygon","coordinates":[[[138.08845631177812,36.07664279446852],[138.08837446144796,36.07677775195797],[138.08834546255838,36.076600800535694],[138.08845631177812,36.07664279446852]]]},"properties":{"KEY_CODE":"20361002006","PREF":"20","CITY":"361","CITY_NAME":"下諏訪町","S_NAME":"二区横町木の下","SETAI":"0"}},{"type":"Feature","geometry":{"type":"Polygon","coordinates":[[[138.0906603900785,36.07659710079943],[138.0898110069938,36.07707994297962],[138.08967891571055,36.07894972909987],[138.08907153446475,36.0782650923619],[138.08938023228689,36.07733552365],[138.0886252964929,36.076705573569704],[138.09028991448693,36.0756333600898],[138.0898534877087,36.074869049290285],[138.0908085761995,36.075529550952325],[138.0906603900785,36.07659710079943]]]},"properties":{"KEY_CODE":"20361002006","PREF":"20","CITY":"361","CITY_NAME":"下諏訪町","S_NAME":"二区横町木の下","SETAI":"16"}},{"type":"Feature","geometry":{"type":"Polygon","coordinates":[[[138.0886252964929,36.076705573569704],[138.08938023228689,36.07733552365],[138.08907153446475,36.0782650923619],[138.08884968858823,36.078200338061094],[138.0883391919242,36.07800742964705],[138.08837446144796,36.07677775195797],[138.08845631177812,36.07664279446852],[138.0886252964929,36.076705573569704]]]},"properties":{"KEY_CODE":"20361002008","PREF":"20","CITY":"361","CITY_NAME":"下諏訪町","S_NAME":"二区湯田町","SETAI":"29"}},{"type":"Feature","geometry":{"type":"Polygon","coordinates":[[[138.0883391919242,36.07800742964705],[138.088048731667,36.07820875783873],[138.0873777692019,36.07664231338399],[138.0879730792887,36.07665377058949],[138.08834546255838,36.076600800535694],[138.08837446144796,36.07677775195797],[138.0883391919242,36.07800742964705]]]},"properties":{"KEY_CODE":"20361002009","PREF":"20","CITY":"361","CITY_NAME":"下諏訪町","S_NAME":"二区湯田仲町","SETAI":"33"}},{"type":"Feature","geometry":{"type":"Polygon","coordinates":[[[138.0899855451575,36.079016178308294],[138.091901710554,36.0798648710278],[138.08965227395473,36.08028268312186],[138.08908760045804,36.081857282695054],[138.08805163061066,36.08156525264506],[138.08818954202644,36.083340408455356],[138.08650959309153,36.082002607441986],[138.08633598894696,36.08048187610859],[138.08641248776567,36.08043385386425],[138.08884968858823,36.078200338061094],[138.08907153446475,36.0782650923619],[138.08967891571055,36.07894972909987],[138.0899855451575,36.079016178308294]]]},"properties":{"KEY_CODE":"20361002010","PREF":"20","CITY":"361","CITY_NAME":"下諏訪町","S_NAME":"二区新町上","SETAI":"55"}},{"type":"Feature","geometry":{"type":"Polygon","coordinates":[[[138.08884968858823,36.078200338061094],[138.08641248776567,36.08043385386425],[138.0856115356392,36.07903313064811],[138.08628049530674,36.0795703220333],[138.088048731667,36.07820875783873],[138.0883391919242,36.07800742964705],[138.08884968858823,36.078200338061094]]]},"properties":{"KEY_CODE":"20361002011","PREF":"20","CITY":"361","CITY_NAME":"下諏訪町","S_NAME":"二区新町下","SETAI":"41"}},{"type":"Feature","geometry":{"type":"Polygon","coordinates":[[[138.088048731667,36.07820875783873],[138.08628049530674,36.0795703220333],[138.0856115356392,36.07903313064811],[138.08555124854473,36.07859268074328],[138.08541276290055,36.07794325187814],[138.08623089142517,36.076837149489315],[138.08546628648688,36.07663271301992],[138.08547063018267,36.07644198816004],[138.0854748501385,36.07629946781211],[138.08569725713858,36.076132567224],[138.08575413699307,36.075905316077],[138.08612963012823,36.075194609454215],[138.0865503947158,36.07486707407227],[138.0875199358928,36.075060544717736],[138.08785207817726,36.07635565909923],[138.08786379939758,36.07661041732302],[138.0873777692019,36.07664231338399],[138.088048731667,36.07820875783873]],[[138.08615411279334,36.07620490958601],[138.0863164574172,36.07620200130704],[138.0861610318117,36.07610957698707],[138.08615411279334,36.07620490958601]]]},"properties":{"KEY_CODE":"20361002012","PREF":"20","CITY":"361","CITY_NAME":"下諏訪町","S_NAME":"二区御田町","SETAI":"69"}},{"type":"Feature","geometry":{"type":"Polygon","coordinates":[[[138.08575413699307,36.075905316077],[138.08569725713858,36.076132567224],[138.08548937023903,36.07589747313291],[138.08575413699307,36.075905316077]]]},"properties":{"KEY_CODE":"20361002014","PREF":"20","CITY":"361","CITY_NAME":"下諏訪町","S_NAME":"二区塚田町","SETAI":"0"}},{"type":"Feature","geometry":{"type":"Polygon","coordinates":[[[138.08615411279334,36.07620490958601],[138.0861610318117,36.07610957698707],[138.0863164574172,36.07620200130704],[138.08615411279334,36.07620490958601]]]},"properties":{"KEY_CODE":"20361002014","PREF":"20","CITY":"361","CITY_NAME":"下諏訪町","S_NAME":"二区塚田町","SETAI":"0"}},{"type":"Feature","geometry":{"type":"Polygon","coordinates":[[[138.08546628648688,36.07663271301992],[138.08623089142517,36.076837149489315],[138.08541276290055,36.07794325187814],[138.08541676415965,36.07731525926712],[138.08546628648688,36.07663271301992]]]},"properties":{"KEY_CODE":"20361002014","PREF":"20","CITY":"361","CITY_NAME":"下諏訪町","S_NAME":"二区塚田町","SETAI":"25"}},{"type":"Feature","geometry":{"type":"Polygon","coordinates":[[[138.0888707421369,36.07477435904255],[138.0876129282471,36.075058429988836],[138.0875199358928,36.075060544717736],[138.0865503947158,36.07486707407227],[138.08654538406188,36.0745864644457],[138.08710589692566,36.073977793329846],[138.0888704041175,36.07416625784497],[138.0888707421369,36.07477435904255]]]},"properties":{"KEY_CODE":"20361003001","PREF":"20","CITY":"361","CITY_NAME":"下諏訪町","S_NAME":"三区大社通","SETAI":"25"}},{"type":"Feature","geometry":{"type":"Polygon","coordinates":[[[138.08612963012823,36.075194609454215],[138.08510947520568,36.07526928809509],[138.08407765679345,36.074744951288636],[138.0834320091777,36.074415997210934],[138.08342781998275,36.073740781620074],[138.08558267772128,36.074138486976686],[138.08606713394673,36.073965892029825],[138.08654538406188,36.0745864644457],[138.0865503947158,36.07486707407227],[138.08612963012823,36.075194609454215]]]},"properties":{"KEY_CODE":"20361003002","PREF":"20","CITY":"361","CITY_NAME":"下諏訪町","S_NAME":"三区友之町","SETAI":"31"}},{"type":"Feature","geometry":{"type":"Polygon","coordinates":[[[138.08558267772128,36.074138486976686],[138.08342781998275,36.073740781620074],[138.08298134371256,36.073743746352726],[138.0821846523909,36.07252654559854],[138.0821812444554,36.07199223317275],[138.08476296355283,36.071725291117374],[138.0863473921277,36.07172537245534],[138.08634869305698,36.07175853327693],[138.08636115141485,36.072342207102636],[138.08505753381914,36.072395097468856],[138.08577636511149,36.07323840675823],[138.08558267772128,36.074138486976686]]]},"properties":{"KEY_CODE":"20361003003","PREF":"20","CITY":"361","CITY_NAME":"下諏訪町","S_NAME":"三区広瀬町","SETAI":"39"}},{"type":"Feature","geometry":{"type":"Polygon","coordinates":[[[138.08606713394673,36.073965892029825],[138.08558267772128,36.074138486976686],[138.08577636511149,36.07323840675823],[138.08505753381914,36.072395097468856],[138.08636115141485,36.072342207102636],[138.08673092217538,36.07310560097004],[138.08606713394673,36.073965892029825]]]},"properties":{"KEY_CODE":"20361003004","PREF":"20","CITY":"361","CITY_NAME":"下諏訪町","S_NAME":"三区富士見町","SETAI":"36"}},{"type":"Feature","geometry":{"type":"Polygon","coordinates":[[[138.08710589692566,36.073977793329846],[138.08654538406188,36.0745864644457],[138.08606713394673,36.073965892029825],[138.08673092217538,36.07310560097004],[138.08636115141485,36.072342207102636],[138.08634869305698,36.07175853327693],[138.08749964503718,36.071781199535984],[138.0890427210015,36.071528602078835],[138.0892462207605,36.071756468892055],[138.08856511691135,36.07232781597466],[138.08729802547876,36.07292495366459],[138.08710589692566,36.073977793329846]]]},"properties":{"KEY_CODE":"20361003005","PREF":"20","CITY":"361","CITY_NAME":"下諏訪町","S_NAME":"三区菅野町","SETAI":"49"}},{"type":"Feature","geometry":{"type":"Polygon","coordinates":[[[138.0888704041175,36.07416625784497],[138.08710589692566,36.073977793329846],[138.08729802547876,36.07292495366459],[138.08856511691135,36.07232781597466],[138.08952985788156,36.07270907037622],[138.08934011319155,36.07379310842685],[138.0888704041175,36.07416625784497]]]},"properties":{"KEY_CODE":"20361003006","PREF":"20","CITY":"361","CITY_NAME":"下諏訪町","S_NAME":"三区上馬場","SETAI":"30"}},{"type":"Feature","geometry":{"type":"Polygon","coordinates":[[[138.08575413699307,36.075905316077],[138.08548937023903,36.07589747313291],[138.08569725713858,36.076132567224],[138.0854748501385,36.07629946781211],[138.08489781285448,36.07594851894941],[138.08510947520568,36.07526928809509],[138.08612963012823,36.075194609454215],[138.08575413699307,36.075905316077]]]},"properties":{"KEY_CODE":"20361003007","PREF":"20","CITY":"361","CITY_NAME":"下諏訪町","S_NAME":"三区平沢町","SETAI":"18"}},{"type":"Feature","geometry":{"type":"Polygon","coordinates":[[[138.08314725867984,36.07607855602364],[138.08313366125236,36.07645968567156],[138.08309224476443,36.076664154421174],[138.0819598103185,36.07655696806184],[138.08185046504073,36.07602089722658],[138.082776921435,36.07521440035833],[138.08314725867984,36.07607855602364]]]},"properties":{"KEY_CODE":"20361003008","PREF":"20","CITY":"361","CITY_NAME":"下諏訪町","S_NAME":"三区中央通","SETAI":"0"}},{"type":"Feature","geometry":{"type":"Polygon","coordinates":[[[138.08344400685596,36.076098671036085],[138.08361572400642,36.07590588578896],[138.08489781285448,36.07594851894941],[138.0854748501385,36.07629946781211],[138.08547063018267,36.07644198816004],[138.08344400685596,36.076098671036085]]]},"properties":{"KEY_CODE":"20361003008","PREF":"20","CITY":"361","CITY_NAME":"下諏訪町","S_NAME":"三区中央通","SETAI":"40"}},{"type":"Feature","geometry":{"type":"Polygon","coordinates":[[[138.08344400685596,36.076098671036085],[138.08344166616803,36.07630342501164],[138.08323858729804,36.07608752542019],[138.08344400685596,36.076098671036085]]]},"properties":{"KEY_CODE":"20361003008","PREF":"20","CITY":"361","CITY_NAME":"下諏訪町","S_NAME":"三区中央通","SETAI":"0"}},{"type":"Feature","geometry":{"type":"Polygon","coordinates":[[[138.08489781285448,36.07594851894941],[138.08361572400642,36.07590588578896],[138.08407765679345,36.074744951288636],[138.08510947520568,36.07526928809509],[138.08489781285448,36.07594851894941]]]},"properties":{"KEY_CODE":"20361003009","PREF":"20","CITY":"361","CITY_NAME":"下諏訪町","S_NAME":"三区花咲町","SETAI":"25"}},{"type":"Feature","geometry":{"type":"Polygon","coordinates":[[[138.08361572400642,36.07590588578896],[138.08344400685596,36.076098671036085],[138.08323858729804,36.07608752542019],[138.08314725867984,36.07607855602364],[138.082776921435,36.07521440035833],[138.08290650396114,36.07496893327721],[138.0834320091777,36.074415997210934],[138.08407765679345,36.074744951288636],[138.08361572400642,36.07590588578896]]]},"properties":{"KEY_CODE":"20361003010","PREF":"20","CITY":"361","CITY_NAME":"下諏訪町","S_NAME":"三区中汐町","SETAI":"26"}},{"type":"Feature","geometry":{"type":"Polygon","coordinates":[[[138.082776921435,36.07521440035833],[138.08185046504073,36.07602089722658],[138.0814478321153,36.075124731661624],[138.08290650396114,36.07496893327721],[138.082776921435,36.07521440035833]]]},"properties":{"KEY_CODE":"20361003011","PREF":"20","CITY":"361","CITY_NAME":"下諏訪町","S_NAME":"三区春日町","SETAI":"28"}},{"type":"Feature","geometry":{"type":"Polygon","coordinates":[[[138.0808959234292,36.074207287453454],[138.0809135586217,36.07434841139344],[138.08051572662805,36.074458954181694],[138.08032111667072,36.074015860600184],[138.0808959234292,36.074207287453454]]]},"properties":{"KEY_CODE":"20361003012","PREF":"20","CITY":"361","CITY_NAME":"下諏訪町","S_NAME":"三区矢木東","SETAI":"0"}},{"type":"Feature","geometry":{"type":"Polygon","coordinates":[[[138.0819598103185,36.07655696806184],[138.08090720433307,36.07646922661031],[138.08129819002238,36.075992973809],[138.08108457582745,36.07429569675501],[138.0834320091777,36.074415997210934],[138.08290650396114,36.07496893327721],[138.0814478321153,36.075124731661624],[138.08185046504073,36.07602089722658],[138.0819598103185,36.07655696806184]]]},"properties":{"KEY_CODE":"20361003012","PREF":"20","CITY":"361","CITY_NAME":"下諏訪町","S_NAME":"三区矢木東","SETAI":"58"}},{"type":"Feature","geometry":{"type":"Polygon","coordinates":[[[138.08090720433307,36.07646922661031],[138.08059467483739,36.07691169458184],[138.08012632278158,36.07592323219251],[138.0790677083214,36.07555835667928],[138.07742528334455,36.07688087461116],[138.07733507279556,36.07572850103522],[138.07867140814875,36.07488727193043],[138.08051572662805,36.074458954181694],[138.0809135586217,36.07434841139344],[138.08108457582745,36.07429569675501],[138.08129819002238,36.075992973809],[138.08090720433307,36.07646922661031]]]},"properties":{"KEY_CODE":"20361003013","PREF":"20","CITY":"361","CITY_NAME":"下諏訪町","S_NAME":"三区矢木西","SETAI":"68"}},{"type":"Feature","geometry":{"type":"Polygon","coordinates":[[[138.08051572662805,36.074458954181694],[138.07867140814875,36.07488727193043],[138.07898211373288,36.07379788369247],[138.0799179675914,36.07366840148315],[138.08032111667072,36.074015860600184],[138.08051572662805,36.074458954181694]]]},"properties":{"KEY_CODE":"20361003014","PREF":"20","CITY":"361","CITY_NAME":"下諏訪町","S_NAME":"三区東弥生町","SETAI":"42"}},{"type":"Feature","geometry":{"type":"Polygon","coordinates":[[[138.07867140814875,36.07488727193043],[138.07733507279556,36.07572850103522],[138.0771211160376,36.07220099534589],[138.07711755617615,36.07215333889928],[138.07980003674538,36.07208041103189],[138.0799179675914,36.07366840148315],[138.07898211373288,36.07379788369247],[138.07867140814875,36.07488727193043]]]},"properties":{"KEY_CODE":"20361003015","PREF":"20","CITY":"361","CITY_NAME":"下諏訪町","S_NAME":"三区西弥生町","SETAI":"189"}},{"type":"Feature","geometry":{"type":"Polygon","coordinates":[[[138.0821846523909,36.07252654559854],[138.08143363784447,36.07251867689177],[138.08032111667072,36.074015860600184],[138.0799179675914,36.07366840148315],[138.07980003674538,36.07208041103189],[138.0802382342664,36.072058646524965],[138.0821812444554,36.07199223317275],[138.0821846523909,36.07252654559854]]]},"properties":{"KEY_CODE":"20361003016","PREF":"20","CITY":"361","CITY_NAME":"下諏訪町","S_NAME":"三区栄町","SETAI":"45"}},{"type":"Feature","geometry":{"type":"Polygon","coordinates":[[[138.08298134371256,36.073743746352726],[138.0808959234292,36.074207287453454],[138.08032111667072,36.074015860600184],[138.08143363784447,36.07251867689177],[138.0821846523909,36.07252654559854],[138.08298134371256,36.073743746352726]]]},"properties":{"KEY_CODE":"20361003017","PREF":"20","CITY":"361","CITY_NAME":"下諏訪町","S_NAME":"三区曙町","SETAI":"46"}},{"type":"Feature","geometry":{"type":"Polygon","coordinates":[[[138.0834320091777,36.074415997210934],[138.08108457582745,36.07429569675501],[138.0809135586217,36.07434841139344],[138.0808959234292,36.074207287453454],[138.08298134371256,36.073743746352726],[138.08342781998275,36.073740781620074],[138.0834320091777,36.074415997210934]]]},"properties":{"KEY_CODE":"20361003018","PREF":"20","CITY":"361","CITY_NAME":"下諏訪町","S_NAME":"三区魁町","SETAI":"35"}},{"type":"Feature","geometry":{"type":"Polygon","coordinates":[[[138.08911976083,36.06959526214715],[138.0890427210015,36.071528602078835],[138.08749964503718,36.071781199535984],[138.0877999412131,36.06955471694996],[138.08911976083,36.06959526214715]]]},"properties":{"KEY_CODE":"20361003019","PREF":"20","CITY":"361","CITY_NAME":"下諏訪町","S_NAME":"三区東四王","SETAI":"55"}},{"type":"Feature","geometry":{"type":"Polygon","coordinates":[[[138.08476296355283,36.071725291117374],[138.08391991487503,36.07044011947931],[138.08318787713523,36.07081608403007],[138.0831783431653,36.070086141676555],[138.0836382147024,36.06998969574681],[138.08347114094278,36.07047137699143],[138.0838009911559,36.07032048471888],[138.08378469137244,36.06997496212264],[138.08387351040184,36.069438920181746],[138.0863785453192,36.06951726111488],[138.0863473921277,36.07172537245534],[138.08476296355283,36.071725291117374]]]},"properties":{"KEY_CODE":"20361003020","PREF":"20","CITY":"361","CITY_NAME":"下諏訪町","S_NAME":"三区西四王一部","SETAI":"82"}},{"type":"Feature","geometry":{"type":"Polygon","coordinates":[[[138.08654356520077,36.06406475535607],[138.08718043654042,36.06443550289362],[138.08711438933096,36.065796852230356],[138.08818830802636,36.06581516612214],[138.0883741426584,36.06822276003784],[138.089735937177,36.0685099468917],[138.08911976083,36.06959526214715],[138.0877999412131,36.06955471694996],[138.0863785453192,36.06951726111488],[138.08642544074127,36.067618105674235],[138.08654356520077,36.06406475535607]]]},"properties":{"KEY_CODE":"20361003021","PREF":"20","CITY":"361","CITY_NAME":"下諏訪町","S_NAME":"三区南四王一部","SETAI":"114"}},{"type":"Feature","geometry":{"type":"Polygon","coordinates":[[[138.0877999412131,36.06955471694996],[138.08749964503718,36.071781199535984],[138.08634869305698,36.07175853327693],[138.0863473921277,36.07172537245534],[138.0863785453192,36.06951726111488],[138.0877999412131,36.06955471694996]]]},"properties":{"KEY_CODE":"20361003022","PREF":"20","CITY":"361","CITY_NAME":"下諏訪町","S_NAME":"三区北四王","SETAI":"53"}},{"type":"Feature","geometry":{"type":"Polygon","coordinates":[[[138.08378469137244,36.06997496212264],[138.0838009911559,36.07032048471888],[138.08347114094278,36.07047137699143],[138.0836382147024,36.06998969574681],[138.08378469137244,36.06997496212264]]]},"properties":{"KEY_CODE":"20361003023","PREF":"20","CITY":"361","CITY_NAME":"下諏訪町","S_NAME":"三区東鷹野町","SETAI":"0"}},{"type":"Feature","geometry":{"type":"Polygon","coordinates":[[[138.0831783431653,36.070086141676555],[138.08318787713523,36.07081608403007],[138.08391991487503,36.07044011947931],[138.08476296355283,36.071725291117374],[138.0821812444554,36.07199223317275],[138.0802382342664,36.072058646524965],[138.0801387414275,36.071010654235046],[138.08127627491132,36.07148941641351],[138.08255328195466,36.07070820802732],[138.08248308427946,36.070139147666914],[138.0831783431653,36.070086141676555]]]},"properties":{"KEY_CODE":"20361003023","PREF":"20","CITY":"361","CITY_NAME":"下諏訪町","S_NAME":"三区東鷹野町","SETAI":"144"}},{"type":"Feature","geometry":{"type":"Polygon","coordinates":[[[138.08248308427946,36.070139147666914],[138.08255328195466,36.07070820802732],[138.08127627491132,36.07148941641351],[138.0801387414275,36.071010654235046],[138.0802382342664,36.072058646524965],[138.07980003674538,36.07208041103189],[138.07711755617615,36.07215333889928],[138.0770317039426,36.071006591105764],[138.0787186294917,36.0709379634264],[138.07920401105156,36.06979557272349],[138.08179073395402,36.0693740844532],[138.08248308427946,36.070139147666914]]]},"properties":{"KEY_CODE":"20361003024","PREF":"20","CITY":"361","CITY_NAME":"下諏訪町","S_NAME":"三区西鷹野町一部","SETAI":"78"}},{"type":"Feature","geometry":{"type":"Polygon","coordinates":[[[138.0831783431653,36.070086141676555],[138.08248308427946,36.070139147666914],[138.08179073395402,36.0693740844532],[138.07920401105156,36.06979557272349],[138.07878406770047,36.06931566077332],[138.0786033757079,36.06686492712802],[138.08222923469987,36.066574611798416],[138.08358161871865,36.06690701980821],[138.0827534372239,36.0678987156176],[138.08387351040184,36.069438920181746],[138.08378469137244,36.06997496212264],[138.0836382147024,36.06998969574681],[138.0831783431653,36.070086141676555]]]},"properties":{"KEY_CODE":"20361003025","PREF":"20","CITY":"361","CITY_NAME":"下諏訪町","S_NAME":"三区西鷹野町二部","SETAI":"202"}},{"type":"Feature","geometry":{"type":"Polygon","coordinates":[[[138.07920401105156,36.06979557272349],[138.0787186294917,36.0709379634264],[138.0770317039426,36.071006591105764],[138.0767699854186,36.066954530520675],[138.0786033757079,36.06686492712802],[138.07878406770047,36.06931566077332],[138.07920401105156,36.06979557272349]]]},"properties":{"KEY_CODE":"20361003026","PREF":"20","CITY":"361","CITY_NAME":"下諏訪町","S_NAME":"三区清水町","SETAI":"170"}},{"type":"Feature","geometry":{"type":"Polygon","coordinates":[[[138.09882739162546,36.06709170366713],[138.0963535628991,36.06723939130965],[138.0939035527689,36.06530057351926],[138.092874382614,36.06510691631319],[138.09141425510765,36.064993932714515],[138.08995111465507,36.06473535873495],[138.08787380922718,36.06482398526328],[138.08718043654042,36.06443550289362],[138.08654356520077,36.06406475535607],[138.08555628247845,36.06361361398929],[138.08405875816499,36.06387391862219],[138.08222923469987,36.066574611798416],[138.0786033757079,36.06686492712802],[138.0767699854186,36.066954530520675],[138.07682200752066,36.06394099810934],[138.07715602658652,36.05980052284849],[138.07690406661047,36.05963768698468],[138.07679254281885,36.05932184308965],[138.0767140254974,36.059263880433406],[138.0766675404601,36.05924028663119],[138.07660521533353,36.059219315429914],[138.078534359761,36.0572299001125],[138.0807649802174,36.05504778057077],[138.08375234837368,36.05223730662659],[138.08601760815563,36.05008370234022],[138.10901066521185,36.06066404247867],[138.10822038173248,36.061292342188274],[138.10620766509413,36.06177605413047],[138.1046676711496,36.06343571938447],[138.10250523861134,36.06583135514557],[138.10093531879872,36.066753572886675],[138.09882739162546,36.06709170366713]]]},"properties":{"KEY_CODE":"20361003027","PREF":"20","CITY":"361","CITY_NAME":"下諏訪町","S_NAME":"三区東赤砂","SETAI":"459"}},{"type":"Feature","geometry":{"type":"Polygon","coordinates":[[[138.07660521533353,36.059219315429914],[138.0766675404601,36.05924028663119],[138.0767140254974,36.059263880433406],[138.07679254281885,36.05932184308965],[138.07690406661047,36.05963768698468],[138.07715602658652,36.05980052284849],[138.07682200752066,36.06394099810934],[138.0767699854186,36.066954530520675],[138.0770317039426,36.071006591105764],[138.07711755617615,36.07215333889928],[138.0771211160376,36.07220099534589],[138.07500263320432,36.072244156224066],[138.07462298329045,36.068917502052884],[138.07339686058884,36.06724444268941],[138.07348228574918,36.06639905659826],[138.07301346441375,36.06506077939296],[138.07563076615222,36.06234201804498],[138.0748425747894,36.061029649030566],[138.0752223699463,36.06051953685825],[138.07525645190654,36.060155437594936],[138.07530887192567,36.0600265028023],[138.07581254440692,36.05968492923125],[138.07619523680634,36.05941721868518],[138.0763400898751,36.05935415977822],[138.07653639142646,36.05931917890203],[138.07660521533353,36.059219315429914]]]},"properties":{"KEY_CODE":"20361003028","PREF":"20","CITY":"361","CITY_NAME":"下諏訪町","S_NAME":"三区西赤砂","SETAI":"394"}},{"type":"Feature","geometry":{"type":"Polygon","coordinates":[[[138.08642544074127,36.067618105674235],[138.0863785453192,36.06951726111488],[138.08387351040184,36.069438920181746],[138.0827534372239,36.0678987156176],[138.08358161871865,36.06690701980821],[138.08421115819988,36.06706434654318],[138.08642544074127,36.067618105674235]]]},"properties":{"KEY_CODE":"20361003029","PREF":"20","CITY":"361","CITY_NAME":"下諏訪町","S_NAME":"三区西四王二部","SETAI":"124"}},{"type":"Feature","geometry":{"type":"Polygon","coordinates":[[[138.08995111465507,36.06473535873495],[138.08974430427872,36.068452090882886],[138.089735937177,36.0685099468917],[138.0883741426584,36.06822276003784],[138.08818830802636,36.06581516612214],[138.08711438933096,36.065796852230356],[138.08718043654042,36.06443550289362],[138.08787380922718,36.06482398526328],[138.08995111465507,36.06473535873495]]]},"properties":{"KEY_CODE":"20361003030","PREF":"20","CITY":"361","CITY_NAME":"下諏訪町","S_NAME":"三区南四王二部","SETAI":"165"}},{"type":"Feature","geometry":{"type":"Polygon","coordinates":[[[138.08654356520077,36.06406475535607],[138.08642544074127,36.067618105674235],[138.08421115819988,36.06706434654318],[138.08555628247845,36.06361361398929],[138.08654356520077,36.06406475535607]]]},"properties":{"KEY_CODE":"20361003031","PREF":"20","CITY":"361","CITY_NAME":"下諏訪町","S_NAME":"三区西四王三部","SETAI":"123"}},{"type":"Feature","geometry":{"type":"Polygon","coordinates":[[[138.08222923469987,36.066574611798416],[138.08405875816499,36.06387391862219],[138.08555628247845,36.06361361398929],[138.08421115819988,36.06706434654318],[138.08358161871865,36.06690701980821],[138.08222923469987,36.066574611798416]]]},"properties":{"KEY_CODE":"20361003032","PREF":"20","CITY":"361","CITY_NAME":"下諏訪町","S_NAME":"三区西四王四部","SETAI":"138"}},{"type":"Feature","geometry":{"type":"Polygon","coordinates":[[[138.0932581084185,36.07343863350112],[138.09170131674094,36.07517781781658],[138.09241398458497,36.075739833723695],[138.0908085761995,36.075529550952325],[138.0898534877087,36.074869049290285],[138.08956448028448,36.07485295967267],[138.0888707421369,36.07477435904255],[138.0888704041175,36.07416625784497],[138.08934011319155,36.07379310842685],[138.09091585382902,36.07417999381183],[138.09071729158603,36.07326684215514],[138.09101665289987,36.07372669309227],[138.0932581084185,36.07343863350112]]]},"properties":{"KEY_CODE":"20361004001","PREF":"20","CITY":"361","CITY_NAME":"下諏訪町","S_NAME":"四区上久保一","SETAI":"39"}},{"type":"Feature","geometry":{"type":"Polygon","coordinates":[[[138.09071729158603,36.07326684215514],[138.09091585382902,36.07417999381183],[138.08934011319155,36.07379310842685],[138.08952985788156,36.07270907037622],[138.08856511691135,36.07232781597466],[138.0892462207605,36.071756468892055],[138.09033076281565,36.072324372029584],[138.09071729158603,36.07326684215514]]]},"properties":{"KEY_CODE":"20361004002","PREF":"20","CITY":"361","CITY_NAME":"下諏訪町","S_NAME":"四区上久保二","SETAI":"33"}},{"type":"Feature","geometry":{"type":"Polygon","coordinates":[[[138.0932581084185,36.07343863350112],[138.09101665289987,36.07372669309227],[138.09071729158603,36.07326684215514],[138.09033076281565,36.072324372029584],[138.09104033408025,36.07284071969344],[138.0917902170706,36.071588914849755],[138.09245828104426,36.07207341297265],[138.09250944876067,36.073005012056946],[138.09343896783764,36.07322505318191],[138.0932581084185,36.07343863350112]]]},"properties":{"KEY_CODE":"20361004003","PREF":"20","CITY":"361","CITY_NAME":"下諏訪町","S_NAME":"四区久保海道一組","SETAI":"37"}},{"type":"Feature","geometry":{"type":"Polygon","coordinates":[[[138.09141425510765,36.064993932714515],[138.09130181080266,36.0687226409781],[138.09080635823292,36.06906831100684],[138.08974430427872,36.068452090882886],[138.08995111465507,36.06473535873495],[138.09141425510765,36.064993932714515]]]},"properties":{"KEY_CODE":"20361004004","PREF":"20","CITY":"361","CITY_NAME":"下諏訪町","S_NAME":"四区湖畔町南","SETAI":"116"}},{"type":"Feature","geometry":{"type":"Polygon","coordinates":[[[138.09535731554038,36.074870862157496],[138.09439203639585,36.07516437394357],[138.09378166808588,36.076317334745355],[138.09386164968367,36.07692125367205],[138.09241398458497,36.075739833723695],[138.09170131674094,36.07517781781658],[138.0932581084185,36.07343863350112],[138.09343896783764,36.07322505318191],[138.09535731554038,36.074870862157496]],[[138.0927856443388,36.07536386016309],[138.09279966432362,36.075537704143976],[138.09312536152558,36.0755544143781],[138.0927856443388,36.07536386016309]]]},"properties":{"KEY_CODE":"20361004005","PREF":"20","CITY":"361","CITY_NAME":"下諏訪町","S_NAME":"四区武居南","SETAI":"64"}},{"type":"Feature","geometry":{"type":"Polygon","coordinates":[[[138.0927856443388,36.07536386016309],[138.09312536152558,36.0755544143781],[138.09279966432362,36.075537704143976],[138.0927856443388,36.07536386016309]]]},"properties":{"KEY_CODE":"20361004006","PREF":"20","CITY":"361","CITY_NAME":"下諏訪町","S_NAME":"四区武居北","SETAI":"0"}},{"type":"Feature","geometry":{"type":"Polygon","coordinates":[[[138.0982221768122,36.07594748185929],[138.1003337484092,36.07731128607821],[138.10152933459952,36.077425308474915],[138.1024119007973,36.07688036458603],[138.1035312525808,36.07717266448796],[138.10309496768656,36.07824493935393],[138.10176740619423,36.07860741882802],[138.09907556194838,36.07851332009165],[138.09755472795294,36.077277902580846],[138.09378166808588,36.076317334745355],[138.09439203639585,36.07516437394357],[138.09535731554038,36.074870862157496],[138.09605187844812,36.07592367451201],[138.0968234545924,36.07532936165691],[138.0982221768122,36.07594748185929]]]},"properties":{"KEY_CODE":"20361004006","PREF":"20","CITY":"361","CITY_NAME":"下諏訪町","S_NAME":"四区武居北","SETAI":"81"}},{"type":"Feature","geometry":{"type":"Polygon","coordinates":[[[138.09080635823292,36.06906831100684],[138.09046081606553,36.07107403903924],[138.0890427210015,36.071528602078835],[138.08911976083,36.06959526214715],[138.089735937177,36.0685099468917],[138.08974430427872,36.068452090882886],[138.09080635823292,36.06906831100684]]]},"properties":{"KEY_CODE":"20361004007","PREF":"20","CITY":"361","CITY_NAME":"下諏訪町","S_NAME":"四区湖畔町北","SETAI":"72"}},{"type":"Feature","geometry":{"type":"Polygon","coordinates":[[[138.0917902170706,36.071588914849755],[138.09104033408025,36.07284071969344],[138.09033076281565,36.072324372029584],[138.0892462207605,36.071756468892055],[138.0890427210015,36.071528602078835],[138.09046081606553,36.07107403903924],[138.0917902170706,36.071588914849755]]]},"properties":{"KEY_CODE":"20361004008","PREF":"20","CITY":"361","CITY_NAME":"下諏訪町","S_NAME":"四区久保海道二組","SETAI":"40"}},{"type":"Feature","geometry":{"type":"Polygon","coordinates":[[[138.16321463382678,36.10645783098054],[138.15808075535983,36.10674451873324],[138.15183398720384,36.106872001880355],[138.1467526439448,36.10684680579262],[138.14163375185902,36.106644676734234],[138.1331471736144,36.106754060024635],[138.1290009079084,36.10659590051914],[138.12546974761472,36.10629411525632],[138.12168898239204,36.105665100775866],[138.1191028623635,36.105260670008924],[138.11520187512616,36.10413872908809],[138.1128642256177,36.10286319249406],[138.10841723037612,36.10046672738039],[138.10638349324375,36.09878372816142],[138.1048606898309,36.09820723451851],[138.09883862157307,36.098005404850625],[138.0934171458722,36.09835954661803],[138.09129062057488,36.09879998710907],[138.09104483918097,36.09920701981228],[138.0877778819807,36.09655023461971],[138.08723209924028,36.09430392926263],[138.08604698292137,36.0935442914427],[138.08557306277862,36.09070759044231],[138.08479968868116,36.088955291427126],[138.0847169097302,36.0874683723634],[138.0836760078096,36.08315338435402],[138.08479812642028,36.082440285526815],[138.08529721541404,36.084044154412275],[138.08659409504085,36.08580579992023],[138.0889504965488,36.08814694888547],[138.0895493653963,36.087732574293554],[138.08744531149355,36.085838256055546],[138.08853649117756,36.08520408206018],[138.08776428046102,36.08398470027204],[138.0861790423772,36.083440297918926],[138.08683563670053,36.082767723978485],[138.08818954202644,36.083340408455356],[138.08805163061066,36.08156525264506],[138.08908760045804,36.081857282695054],[138.08965227395473,36.08028268312186],[138.091901710554,36.0798648710278],[138.0899855451575,36.079016178308294],[138.09009184664498,36.078599828306196],[138.09276405475467,36.077895523483555],[138.0923975525249,36.07738134365437],[138.09386164968367,36.07692125367205],[138.09378166808588,36.076317334745355],[138.09755472795294,36.077277902580846],[138.09907556194838,36.07851332009165],[138.10176740619423,36.07860741882802],[138.10309496768656,36.07824493935393],[138.1035312525808,36.07717266448796],[138.1024119007973,36.07688036458603],[138.10152933459952,36.077425308474915],[138.1003337484092,36.07731128607821],[138.0982221768122,36.07594748185929],[138.0988358442247,36.07512415768928],[138.09799856028184,36.0742898806804],[138.09660075338962,36.07460187665787],[138.09565745595768,36.07297144914324],[138.09599413661456,36.072654042535596],[138.09630044059372,36.0715020127601],[138.0965365388908,36.07038144014185],[138.09978347210924,36.06977510753913],[138.10094471425353,36.06861118008057],[138.10374938009664,36.06802299352962],[138.10466877752282,36.06822883541888],[138.10726182013195,36.067955347238666],[138.1090581884419,36.067207145821484],[138.10822759394054,36.06547802310633],[138.10776382192137,36.06584520417613],[138.10641153868872,36.06510877281497],[138.1066326537472,36.0642531604618],[138.10880846384322,36.064307970099755],[138.11092886310425,36.06262554347949],[138.1111193200952,36.061572431087455],[138.11290821281395,36.06235245212262],[138.11294389355734,36.06253114622661],[138.1130137799002,36.06264963708421],[138.11264657807445,36.06327219517441],[138.11277250583308,36.06346716015816],[138.11269642010006,36.06365003558601],[138.11284659458732,36.063692484216354],[138.11284121570293,36.06382598218716],[138.11277489499355,36.06393640987478],[138.11285433982474,36.064024403346586],[138.11299045963253,36.06405917286339],[138.11300390095676,36.0641927390712],[138.11323811231782,36.06434227706964],[138.11336456321658,36.06443043229415],[138.1137351341587,36.06455751127514],[138.11410287312972,36.06478567858417],[138.1146658669133,36.064962973428415],[138.1150975598026,36.06508643174189],[138.11536831943656,36.06545352715721],[138.11584083489151,36.06587849345742],[138.11620627924,36.066108556305835],[138.11787362651955,36.06723544932554],[138.11816444026366,36.06735082027675],[138.1184740684238,36.067458622530786],[138.11880034681815,36.068009000718526],[138.11889373288815,36.068131374639385],[138.11933652145615,36.068884318332266],[138.119918708883,36.06899297823039],[138.12033164961215,36.069108733984024],[138.12107775901723,36.07031660695113],[138.1210952234407,36.07059134025134],[138.1209438084027,36.07179257912971],[138.1207722243917,36.072295609694805],[138.12086437499545,36.07267738787832],[138.1211621028147,36.0733116175318],[138.12142409292557,36.073556599917595],[138.12264763811834,36.07375400485536],[138.1234410841383,36.074200056682386],[138.1239900387119,36.074672578878875],[138.12434999250945,36.07506473024057],[138.1247399796464,36.07570015949124],[138.12479149773807,36.07595711198079],[138.12494562355477,36.07630583473127],[138.12531906590766,36.07638870337419],[138.12684733992091,36.0770373979788],[138.12715402614182,36.077050030164514],[138.12754244976858,36.07700065491471],[138.1280074084955,36.07699042605681],[138.12872614233098,36.07703934454806],[138.1285451708671,36.0783208195777],[138.1286531323488,36.07880360550709],[138.12866130081784,36.07910322963809],[138.13020211744788,36.080656552277524],[138.13059016477155,36.081208298402096],[138.12843774864834,36.08278329438652],[138.12824540162984,36.082918869665264],[138.12757545142114,36.083691075913336],[138.12697697363836,36.08455299578036],[138.1268464930377,36.08477437430419],[138.12637617660954,36.08539739233433],[138.1253311120698,36.08642522284678],[138.1249801869966,36.08663034180063],[138.12453659170993,36.08672126169104],[138.12386097242668,36.08678767336398],[138.1235317977929,36.08696935710293],[138.1244694720081,36.088003842179816],[138.12579865206922,36.08857134237265],[138.12689512882432,36.08875746450738],[138.12712035371962,36.088735320812376],[138.12863009171767,36.08880850298466],[138.12894008510463,36.08871050166073],[138.12922311481654,36.08836117347054],[138.13093641651702,36.08802766296546],[138.13195979530715,36.08781001635375],[138.13247611432166,36.087712627047225],[138.1345625188657,36.087821752656254],[138.13500439867852,36.08759471342442],[138.13644755396518,36.08786556468627],[138.13743188254753,36.087975116373144],[138.1377698041589,36.08994791050324],[138.13643574000042,36.092440937044245],[138.1370488516362,36.09372938855849],[138.13668122721714,36.09513287797376],[138.1374756993921,36.09575194078855],[138.13770798058744,36.097256210650485],[138.13872504288557,36.09843930949562],[138.13866577477228,36.10011018731401],[138.13997760248654,36.10044149277522],[138.1420764039993,36.10305904244138],[138.14353757133122,36.10253428205436],[138.14506659016132,36.10047568160459],[138.14689456670828,36.10077036860645],[138.15080898518602,36.10020319908852],[138.1543272612129,36.10171123590056],[138.15585656840324,36.10059270543253],[138.15784523275653,36.1000825886857],[138.1595026550118,36.101861136810534],[138.16274982812143,36.102658265811606],[138.17106706487166,36.10250744702934],[138.17408649134808,36.105233659670176],[138.1729536862675,36.10649295324092],[138.16966773680352,36.105956464065535],[138.1673382713581,36.10595002003091],[138.16321463382678,36.10645783098054]]]},"properties":{"KEY_CODE":"20361005001","PREF":"20","CITY":"361","CITY_NAME":"下諏訪町","S_NAME":"五区東高木","SETAI":"116"}},{"type":"Feature","geometry":{"type":"Polygon","coordinates":[[[138.10641153868872,36.06510877281497],[138.10556440413671,36.065854129719334],[138.1038792448583,36.065939689126544],[138.10291424678815,36.06682420769698],[138.10071134587528,36.06771394015913],[138.09942590867922,36.067690585562225],[138.09882739162546,36.06709170366713],[138.10093531879872,36.066753572886675],[138.10250523861134,36.06583135514557],[138.1046676711496,36.06343571938447],[138.1066326537472,36.0642531604618],[138.10641153868872,36.06510877281497]]]},"properties":{"KEY_CODE":"20361005002","PREF":"20","CITY":"361","CITY_NAME":"下諏訪町","S_NAME":"五区西高木","SETAI":"113"}},{"type":"Feature","geometry":{"type":"Polygon","coordinates":[[[138.1111193200952,36.061572431087455],[138.11092886310425,36.06262554347949],[138.10880846384322,36.064307970099755],[138.1066326537472,36.0642531604618],[138.1046676711496,36.06343571938447],[138.10620766509413,36.06177605413047],[138.10822038173248,36.061292342188274],[138.10901066521185,36.06066404247867],[138.10908001436167,36.06069594100083],[138.11037325677447,36.06122515672389],[138.1111193200952,36.061572431087455]]]},"properties":{"KEY_CODE":"20361005003","PREF":"20","CITY":"361","CITY_NAME":"下諏訪町","S_NAME":"五区南高木","SETAI":"123"}},{"type":"Feature","geometry":{"type":"Polygon","coordinates":[[[138.10641153868872,36.06510877281497],[138.10776382192137,36.06584520417613],[138.10822759394054,36.06547802310633],[138.1090581884419,36.067207145821484],[138.10726182013195,36.067955347238666],[138.10466877752282,36.06822883541888],[138.10374938009664,36.06802299352962],[138.10094471425353,36.06861118008057],[138.10071134587528,36.06771394015913],[138.10291424678815,36.06682420769698],[138.1038792448583,36.065939689126544],[138.10556440413671,36.065854129719334],[138.10641153868872,36.06510877281497]]]},"properties":{"KEY_CODE":"20361005004","PREF":"20","CITY":"361","CITY_NAME":"下諏訪町","S_NAME":"五区北高木","SETAI":"153"}},{"type":"Feature","geometry":{"type":"Polygon","coordinates":[[[138.14415534589068,36.14497517197429],[138.14337314758419,36.14485037651059],[138.1412098528959,36.14418877010321],[138.14058997726528,36.1439706355355],[138.14015073850064,36.14383356014724],[138.14008853717837,36.14381442269512],[138.13992484701706,36.14385813378016],[138.1376788484772,36.145540515502574],[138.1373898149844,36.145754330719356],[138.13700314288945,36.146037313039464],[138.137024401868,36.146913533483804],[138.1370619461704,36.14721674125704],[138.13698309478883,36.147434362494046],[138.1367780762758,36.14757108108911],[138.13530038373366,36.14807491639627],[138.1346248513207,36.14809968187154],[138.1340536116201,36.150405918453174],[138.13436740752937,36.15073838068383],[138.1344519605143,36.15097543820338],[138.13430515842717,36.15156855638743],[138.13427835198314,36.15189211164281],[138.13453172159714,36.15266640943501],[138.1348306666514,36.15326879518053],[138.13496092581497,36.15372383551513],[138.13522797843325,36.15448399024221],[138.13531297291976,36.155044671376885],[138.1354351608358,36.15556599653705],[138.13552297829116,36.15593882254889],[138.13468269499674,36.15622199189147],[138.13485729009327,36.15719181810422],[138.13506537870185,36.15807806164287],[138.13380071879968,36.16087314678458],[138.13394532093045,36.16159344181503],[138.13413595663658,36.162043948453125],[138.13415025426542,36.162321826081524],[138.13356299973447,36.16343298771824],[138.1327603324721,36.16397516450611],[138.13261204908983,36.16404732438511],[138.13217552361914,36.16414071050481],[138.1315563614482,36.164154601332164],[138.13134575227446,36.16422656764899],[138.1310622919073,36.16447355157295],[138.13010981456978,36.16499472391731],[138.12975435488843,36.16523357817548],[138.12914621024134,36.16580159174277],[138.12900151029137,36.16593690026622],[138.1277055459605,36.1664690133469],[138.12725113309915,36.16610786073721],[138.1263166446462,36.16551723040834],[138.125853941325,36.16492045947168],[138.1250720923965,36.164439207402964],[138.12426341658906,36.16367668908311],[138.1234309929592,36.163316871917985],[138.1231065404128,36.16322464955879],[138.12250017537679,36.16327847525265],[138.12194438311363,36.16321594016136],[138.12039776942862,36.1628381779026],[138.11917104025594,36.163552857183255],[138.11834034490948,36.16403448451019],[138.11699752880727,36.163854467723695],[138.11590846329943,36.163983748155104],[138.1148427955895,36.16326957065084],[138.1127888119838,36.162766974588536],[138.11121484730896,36.16259395659577],[138.10827818315056,36.16237350134096],[138.1073326302527,36.162698449808175],[138.1069992067334,36.162919953284565],[138.10439742057318,36.16314571075735],[138.10396005146455,36.16392533722021],[138.10303646400686,36.16371138951328],[138.0999809512601,36.163181832218314],[138.098702617868,36.162646422160904],[138.0983009461936,36.162082711290275],[138.09793491101797,36.16114811003582],[138.09660831494602,36.160643764855756],[138.0945027456303,36.16084363603329],[138.09364737595766,36.160489241939935],[138.09289587823105,36.1605257457747],[138.09227243154555,36.160023737051674],[138.09117338122695,36.15930529926806],[138.0892581108937,36.15811544628116],[138.08807877182053,36.15758535860173],[138.08788680120998,36.157361607545795],[138.0875862333088,36.15688570087966],[138.08752695337782,36.15668310995768],[138.08751116215493,36.1563016234431],[138.08742807389754,36.15592990322132],[138.08685616706114,36.1554330587641],[138.08637217009303,36.15516004452234],[138.0858582230614,36.15485356363393],[138.08567411459475,36.154656083757466],[138.08535349586586,36.15409449553846],[138.08518865568095,36.15389042651179],[138.084840677095,36.15331537952804],[138.08430907081882,36.152976589822565],[138.0840618504927,36.15252871033007],[138.08399725461865,36.15204254064695],[138.08380561947214,36.151452498199355],[138.08347503958208,36.15095871889348],[138.08314711886712,36.15073518866685],[138.08308414450266,36.149935427179734],[138.08295100522332,36.149442338344855],[138.08297286152435,36.1489375433996],[138.08300445995224,36.14815034091892],[138.0829308281827,36.14807001865314],[138.08210610867792,36.147942609288336],[138.08191831648762,36.147672841941706],[138.08181049866062,36.14731884901956],[138.08161359502068,36.14695897640577],[138.08136279607695,36.146677872904704],[138.0812510649946,36.14654627120234],[138.08142410371585,36.14648681974345],[138.08330931265436,36.145991839722846],[138.0839070897174,36.14573702883994],[138.08479059128345,36.14563333539812],[138.08553067362553,36.14542795757042],[138.08660539228882,36.144681047881804],[138.08705811792981,36.14463146491038],[138.08766263914663,36.1446480102107],[138.08809822109907,36.1447317947432],[138.08870434669163,36.1447071937945],[138.08894124983564,36.14450116266382],[138.0889620266074,36.143403654825214],[138.08914539254954,36.14268257528751],[138.08936559139954,36.14252319443649],[138.09013882558855,36.14226229016286],[138.09046073364843,36.142049890408536],[138.09053287918758,36.141889992602806],[138.09046487785207,36.14099234506039],[138.09015562722385,36.139285431486904],[138.09033423258984,36.1389513187773],[138.09161317623685,36.137924811458674],[138.09198888971295,36.137912755413765],[138.0926682091823,36.13857338701323],[138.09294282696732,36.13928713288477],[138.09372903495225,36.14102459226842],[138.0936974378872,36.141563822302636],[138.09379660977805,36.143074309505536],[138.09377807300893,36.1437492591216],[138.09368044438006,36.14407140891395],[138.0937683594267,36.14430413036951],[138.09384117219656,36.14453567561349],[138.09387504324994,36.14488720211591],[138.09386926788181,36.14520856255527],[138.0937848357218,36.14563084803393],[138.09355651543936,36.14610298845682],[138.094444936698,36.14644012727978],[138.09476426708554,36.14652765825938],[138.09533569594947,36.1454839931637],[138.09543528415645,36.14488034030531],[138.09561413789004,36.144554993179646],[138.0956585326562,36.144328493280696],[138.09599763865612,36.143918408804005],[138.0961461359004,36.14361282561998],[138.09619255592412,36.14354989212097],[138.09639758908963,36.14317089820009],[138.09647359983566,36.14294917671181],[138.09648710557815,36.14256602572075],[138.09632309546268,36.142248870980126],[138.09617227488852,36.141881528058796],[138.09636434351123,36.141219764035306],[138.09637211322897,36.140829588662754],[138.09635895756955,36.14030498428071],[138.09647881639074,36.13996191280057],[138.09730653284458,36.139484532184014],[138.0976851517831,36.13923579442834],[138.09808700145882,36.138959090667974],[138.0983198896741,36.13875775957787],[138.09857196780555,36.13846887072426],[138.09870408428702,36.138264859222645],[138.0985849584149,36.13789528532203],[138.0980617237226,36.137131817273485],[138.09799389841285,36.13574834607502],[138.09798355507203,36.13551232327845],[138.09782887595867,36.135059685141755],[138.09821229202586,36.13443478133321],[138.0984774245285,36.13411906873577],[138.09859818606859,36.13359375302641],[138.09892128517725,36.132365806821575],[138.09909073337988,36.131892054960964],[138.09922301139923,36.131652997427544],[138.09963185210782,36.13110994952592],[138.09966746830634,36.13090678559992],[138.09958752015712,36.13048010878599],[138.09925485453147,36.12934460269337],[138.0991362072973,36.12889091623026],[138.09902269136086,36.1282725144176],[138.09911648306763,36.12803990951167],[138.0994867165263,36.12771248211766],[138.09990319185152,36.12726905982802],[138.1000534897462,36.12706940203849],[138.10076773090466,36.1258745023121],[138.1008861561614,36.12564384200654],[138.1011241721424,36.12496012488114],[138.10131262822185,36.12412920876051],[138.1014646768197,36.123280868657076],[138.1016024904231,36.12312811430568],[138.10167585991994,36.123078926588384],[138.1016816434813,36.12283554372451],[138.10161483239276,36.12279824887137],[138.10128703835116,36.12286459266999],[138.1011691108334,36.12198544737638],[138.10099581769637,36.12113982884395],[138.1000817615584,36.12050782191659],[138.10039164288335,36.12008632514871],[138.10029924629683,36.119634694069354],[138.0999341139439,36.11928778694491],[138.10055134892357,36.11892493109227],[138.09997277016444,36.11866373811011],[138.09934715407383,36.11833517540867],[138.10013091617833,36.11781923304214],[138.10013971068895,36.11724790447158],[138.09912470915626,36.116687576046914],[138.09913294377208,36.1150647544907],[138.09855562117687,36.11455389301269],[138.09806793591807,36.11387527907864],[138.0988422094917,36.11288878452887],[138.09856023421426,36.112484534104155],[138.09825524875353,36.11195537480515],[138.098293133009,36.11148497418342],[138.09849803950425,36.11074624734809],[138.0978493314008,36.11032156632327],[138.0971668534819,36.10956067606875],[138.09739379090087,36.10914851364482],[138.0971252033144,36.10844662197828],[138.09712792137034,36.108228278226115],[138.09793341563088,36.107893244353825],[138.09851746676074,36.107650314569824],[138.09912427639654,36.1074016320811],[138.0984674186252,36.10594789673677],[138.0985539798624,36.10593815971738],[138.09899752742336,36.10552482731795],[138.09916632901266,36.1054071841901],[138.09979693954514,36.10515810411554],[138.09972890048888,36.10507450812679],[138.0996824006117,36.10491016702517],[138.09968850304838,36.104750270009475],[138.09915982182815,36.10447517216105],[138.09924095244156,36.104235632720794],[138.0991339980262,36.10404091619139],[138.09912094240366,36.10385220003662],[138.09807250330832,36.10358159116772],[138.09801399614926,36.10322836795656],[138.0977940148708,36.10273961815114],[138.0973535009693,36.10185482487785],[138.09733570292423,36.1018059688393],[138.09754709259056,36.10163098610791],[138.09901360630795,36.10178717858502],[138.09947324686917,36.10183104906429],[138.09974864257342,36.101857324985566],[138.10031239961467,36.1017734843348],[138.1010396180079,36.10187114574692],[138.1015193515704,36.10229991600571],[138.10243138177765,36.10283776094529],[138.10327764033963,36.10260243939514],[138.10337684613393,36.10154552570906],[138.10454727087898,36.101020761576095],[138.10623564643794,36.1013596796572],[138.10713687318307,36.10185792455534],[138.10810816769128,36.102322637955524],[138.10860870640138,36.10426977639258],[138.11038674633176,36.1083765443745],[138.1139145869969,36.11611197717619],[138.1150607405299,36.11952480841851],[138.11564525950155,36.12048275884328],[138.12055593732381,36.12684556401372],[138.1239067997378,36.13010040339334],[138.12843556982062,36.13279059363751],[138.13136721868608,36.13400936116796],[138.13735961212018,36.13546648692021],[138.1397964127421,36.13624365308161],[138.1415089573633,36.137293553596486],[138.14330299921173,36.14032322787683],[138.14415534589068,36.14497517197429]]]},"properties":{"KEY_CODE":"20361006002","PREF":"20","CITY":"361","CITY_NAME":"下諏訪町","S_NAME":"六区樋橋","SETAI":"6"}},{"type":"Feature","geometry":{"type":"Polygon","coordinates":[[[138.14783263178234,36.143018123517244],[138.14737782903583,36.14374612792272],[138.14714715351712,36.143972770466455],[138.1467003445684,36.14421613964601],[138.14613492864584,36.144438640433926],[138.145362666539,36.144774191697046],[138.14415534589068,36.14497517197429],[138.14330299921173,36.14032322787683],[138.1415089573633,36.137293553596486],[138.1397964127421,36.13624365308161],[138.13735961212018,36.13546648692021],[138.13136721868608,36.13400936116796],[138.12843556982062,36.13279059363751],[138.1239067997378,36.13010040339334],[138.12055593732381,36.12684556401372],[138.11564525950155,36.12048275884328],[138.1150607405299,36.11952480841851],[138.1139145869969,36.11611197717619],[138.11038674633176,36.1083765443745],[138.10860870640138,36.10426977639258],[138.10810816769128,36.102322637955524],[138.10870882375605,36.10201544352979],[138.1085910011238,36.10092447743445],[138.10841723037612,36.10046672738038],[138.1128642256177,36.10286319249406],[138.11520187512616,36.10413872908809],[138.1191028623635,36.105260670008924],[138.12168898239204,36.105665100775866],[138.12546974761472,36.10629411525632],[138.1290009079084,36.10659590051914],[138.1331471736144,36.106754060024635],[138.14163375185905,36.106644676734234],[138.14675264394478,36.10684680579262],[138.15183398720384,36.106872001880355],[138.15808075535983,36.10674451873324],[138.16321463382678,36.10645783098054],[138.1673382713581,36.10595002003091],[138.16966773680352,36.105956464065535],[138.1729536862675,36.10649295324092],[138.17085483738296,36.10882603114023],[138.16872645587932,36.10990447653259],[138.16361496387523,36.112191687092114],[138.17149482846764,36.11239667330189],[138.16596660556922,36.1226435230006],[138.16484650540633,36.12198611800705],[138.16220030332997,36.12124404451243],[138.1611374186391,36.12121517093077],[138.16063572531735,36.122552385577436],[138.1602837010741,36.12326569453427],[138.1596502040148,36.12389326417237],[138.1590797681925,36.12420959642764],[138.1588483586521,36.1243352525545],[138.15771220535154,36.125732324848805],[138.15728546316853,36.12633217435068],[138.15722708802562,36.126979256057005],[138.15742441533152,36.12724503641111],[138.15748142928769,36.12801399623216],[138.1573469123488,36.12851878649256],[138.15693307536566,36.129258020251896],[138.15663635790773,36.12947186810073],[138.1564764929734,36.129537717069574],[138.1559895749633,36.12963735990384],[138.1550923105953,36.1296742579382],[138.1546169314307,36.129799182673],[138.15433175536137,36.13004148745783],[138.1540947123873,36.13128636968851],[138.15401994534568,36.13191604979348],[138.15378378332136,36.13251841763023],[138.1535338583806,36.13315074909926],[138.15294592084305,36.13452722967812],[138.15287028335845,36.13490904573384],[138.1531697565955,36.13672854973383],[138.15306510818579,36.137514411696316],[138.15293756870068,36.137746110628825],[138.15190540040916,36.138350901749824],[138.15076303219286,36.13965786586041],[138.1504111368051,36.140450896818464],[138.15000861940368,36.141250098340436],[138.14931814224968,36.142029511133536],[138.14885350742014,36.14234703597821],[138.14841645150256,36.1425920244992],[138.14783263178234,36.143018123517244]]]},"properties":{"KEY_CODE":"20361006003","PREF":"20","CITY":"361","CITY_NAME":"下諏訪町","S_NAME":"六区東俣","SETAI":"7"}},{"type":"Feature","geometry":{"type":"Polygon","coordinates":[[[138.0914405115028,36.099393624278335],[138.09362784738835,36.10003639508761],[138.09549026434647,36.10167287648278],[138.09575959955174,36.10264384854167],[138.09312305623524,36.10378141625057],[138.0923862236068,36.102613148849805],[138.08998180503445,36.10067980404106],[138.0914405115028,36.099393624278335]]]},"properties":{"KEY_CODE":"20361006004","PREF":"20","CITY":"361","CITY_NAME":"下諏訪町","S_NAME":"六区町屋敷一組","SETAI":"68"}},{"type":"Feature","geometry":{"type":"Polygon","coordinates":[[[138.09375267234367,36.1050497255928],[138.09312305623524,36.10378141625057],[138.09575959955174,36.10264384854167],[138.0965931256398,36.10307618052132],[138.0964801365884,36.103945549208554],[138.09541115014247,36.104793122641944],[138.09375267234367,36.1050497255928]]]},"properties":{"KEY_CODE":"20361006005","PREF":"20","CITY":"361","CITY_NAME":"下諏訪町","S_NAME":"六区町屋敷二組","SETAI":"57"}},{"type":"Feature","geometry":{"type":"Polygon","coordinates":[[[138.09912427639654,36.1074016320811],[138.09851746676074,36.107650314569824],[138.09793341563088,36.10789324435381],[138.09716496958032,36.10691123822254],[138.0957309589217,36.10520416711772],[138.09541115014247,36.104793122641944],[138.0964801365884,36.103945549208554],[138.0965931256398,36.10307618052132],[138.09724550825175,36.10412665446129],[138.09800350611536,36.103363139425035],[138.09807250330832,36.10358159116772],[138.09912094240366,36.10385220003662],[138.0991339980262,36.10404091619139],[138.09924095244156,36.104235632720794],[138.09915982182815,36.10447517216105],[138.09968850304838,36.104750270009475],[138.0996824006117,36.10491016702517],[138.09972890048888,36.10507450812679],[138.09979693954514,36.10515810411554],[138.09916632901266,36.1054071841901],[138.09899752742336,36.10552482731795],[138.0985539798624,36.10593815971738],[138.0984674186252,36.10594789673677],[138.09912427639654,36.1074016320811]]]},"properties":{"KEY_CODE":"20361006006","PREF":"20","CITY":"361","CITY_NAME":"下諏訪町","S_NAME":"六区町屋敷三組","SETAI":"49"}},{"type":"Feature","geometry":{"type":"Polygon","coordinates":[[[138.09793341563088,36.107893244353825],[138.09712792137034,36.108228278226115],[138.0966265169595,36.10829329334402],[138.0961687845385,36.107777091781685],[138.09528252215267,36.10710294655977],[138.09501913478533,36.10683912294047],[138.094774907843,36.106570409375486],[138.0943302000017,36.10605682374703],[138.09421086647657,36.105833297791435],[138.09423116122392,36.10563245937972],[138.09407558478838,36.10533675019944],[138.09375267234367,36.1050497255928],[138.09541115014247,36.104793122641944],[138.0957309589217,36.10520416711772],[138.09716496958032,36.10691123822254],[138.09793341563088,36.107893244353825]]]},"properties":{"KEY_CODE":"20361006007","PREF":"20","CITY":"361","CITY_NAME":"下諏訪町","S_NAME":"六区下屋敷","SETAI":"38"}},{"type":"Feature","geometry":{"type":"Polygon","coordinates":[[[138.10337684613393,36.10154552570906],[138.10327764033963,36.10260243939514],[138.10243138177765,36.10283776094529],[138.1015193515704,36.10229991600571],[138.1010396180079,36.10187114574692],[138.10031239961467,36.1017734843348],[138.0994732468692,36.10183104906429],[138.09948501462588,36.10132512787302],[138.09948072074027,36.10098350817863],[138.09895946475402,36.10001304755342],[138.09883862157307,36.098005404850625],[138.1048606898309,36.09820723451851],[138.10638349324375,36.09878372816142],[138.10841723037612,36.10046672738039],[138.1085910011238,36.10092447743445],[138.10870882375605,36.10201544352979],[138.10810816769128,36.102322637955524],[138.10713687318307,36.10185792455534],[138.10623564643794,36.1013596796572],[138.10454727087898,36.101020761576095],[138.10337684613393,36.10154552570906]]]},"properties":{"KEY_CODE":"20361006008","PREF":"20","CITY":"361","CITY_NAME":"下諏訪町","S_NAME":"六区萩倉東","SETAI":"55"}},{"type":"Feature","geometry":{"type":"Polygon","coordinates":[[[138.09754709259056,36.10163098610791],[138.09733570292423,36.1018059688393],[138.0973535009693,36.10185482487785],[138.0977940148708,36.10273961815114],[138.09801399614926,36.10322836795656],[138.09800350611536,36.103363139425035],[138.09724550825175,36.10412665446129],[138.0965931256398,36.10307618052132],[138.09575959955174,36.10264384854167],[138.09549026434647,36.10167287648278],[138.09362784738835,36.10003639508761],[138.0914405115028,36.099393624278335],[138.09104483918097,36.09920701981228],[138.09129062057488,36.09879998710907],[138.0934171458722,36.09835954661803],[138.09883862157307,36.098005404850625],[138.09895946475402,36.10001304755342],[138.09948072074027,36.10098350817863],[138.09948501462588,36.10132512787302],[138.0994732468692,36.10183104906429],[138.09901360630795,36.10178717858502],[138.09754709259056,36.10163098610791]]]},"properties":{"KEY_CODE":"20361006009","PREF":"20","CITY":"361","CITY_NAME":"下諏訪町","S_NAME":"六区萩倉西","SETAI":"47"}},{"type":"Feature","geometry":{"type":"Polygon","coordinates":[[[138.08092142338532,36.08184407454844],[138.0809267261397,36.082420043897265],[138.07952216559698,36.08340298843443],[138.0786291654927,36.08327448047611],[138.0788141035383,36.08055297835643],[138.07993376556638,36.081218799642635],[138.08028544647365,36.081441442337834],[138.08092142338532,36.08184407454844]]]},"properties":{"KEY_CODE":"20361007001","PREF":"20","CITY":"361","CITY_NAME":"下諏訪町","S_NAME":"七区東山田第一","SETAI":"49"}},{"type":"Feature","geometry":{"type":"Polygon","coordinates":[[[138.0804375479061,36.08482484143327],[138.07906543780305,36.08544817090061],[138.077026807722,36.08480008725376],[138.07735166319802,36.08389810401645],[138.07800272919752,36.082491833111135],[138.0776541419344,36.080934471843605],[138.07705286344225,36.08142307342464],[138.07615633431985,36.08123828492466],[138.07665102002358,36.08029663403733],[138.07697634468107,36.07861106285572],[138.07752231673695,36.07812018870163],[138.077583808897,36.078904717834334],[138.07835040098655,36.079999667534885],[138.0788141035383,36.08055297835643],[138.0786291654927,36.08327448047611],[138.07952216559698,36.08340298843443],[138.07905751892366,36.08379144018065],[138.0804375479061,36.08482484143327]]]},"properties":{"KEY_CODE":"20361007002","PREF":"20","CITY":"361","CITY_NAME":"下諏訪町","S_NAME":"七区東山田第二","SETAI":"71"}},{"type":"Feature","geometry":{"type":"Polygon","coordinates":[[[138.07735166319802,36.08389810401645],[138.07549516881676,36.084068833557176],[138.07596912567163,36.08152312115703],[138.07705286344225,36.08142307342464],[138.0776541419344,36.080934471843605],[138.07800272919752,36.082491833111135],[138.07735166319802,36.08389810401645]]]},"properties":{"KEY_CODE":"20361007003","PREF":"20","CITY":"361","CITY_NAME":"下諏訪町","S_NAME":"七区東山田第三","SETAI":"49"}},{"type":"Feature","geometry":{"type":"Polygon","coordinates":[[[138.0807620486266,36.085788572645555],[138.078999545408,36.08610597562613],[138.07745593810995,36.0868440027894],[138.07624773693652,36.086877278915914],[138.07582997076042,36.08752680540128],[138.07496797193676,36.08851803958276],[138.0750344851779,36.085589295185514],[138.07549516881676,36.084068833557176],[138.07735166319802,36.08389810401645],[138.077026807722,36.08480008725376],[138.07906543780305,36.08544817090061],[138.0804375479061,36.08482484143327],[138.0807620486266,36.085788572645555]]]},"properties":{"KEY_CODE":"20361007004","PREF":"20","CITY":"361","CITY_NAME":"下諏訪町","S_NAME":"七区東山田第四","SETAI":"84"}},{"type":"Feature","geometry":{"type":"Polygon","coordinates":[[[138.07705286344225,36.08142307342464],[138.07596912567163,36.08152312115703],[138.07549516881676,36.084068833557176],[138.0750344851779,36.085589295185514],[138.07496797193676,36.08851803958276],[138.07451433429517,36.086738318335094],[138.07367612810697,36.085873590807914],[138.0743500405476,36.08477362068768],[138.0748901295533,36.08245443845899],[138.07404112756817,36.08149327757289],[138.07406557489367,36.08066313293346],[138.0751191746324,36.08068091074658],[138.07541284485532,36.07994066733499],[138.07665102002358,36.08029663403733],[138.07615633431985,36.08123828492466],[138.07705286344225,36.08142307342464]]]},"properties":{"KEY_CODE":"20361007005","PREF":"20","CITY":"361","CITY_NAME":"下諏訪町","S_NAME":"七区東山田第五","SETAI":"118"}},{"type":"Feature","geometry":{"type":"Polygon","coordinates":[[[138.080198559298,36.12888368225478],[138.07659386268833,36.12924828374628],[138.07531546539175,36.12693958219172],[138.07521852782872,36.126535448837295],[138.0752897920698,36.126010842334914],[138.0742100483749,36.123649756878365],[138.07440205934827,36.12310569420553],[138.0746916841419,36.122083559306574],[138.07303640720923,36.12090028525701],[138.0726700333181,36.12062038415987],[138.07252147370266,36.11936950791345],[138.07319363598313,36.11846897971796],[138.07345329431385,36.11826841461722],[138.07397152558096,36.11805137057406],[138.0749017998232,36.11741540805093],[138.07480230990686,36.1165361782319],[138.0732589696807,36.116025729207834],[138.0733221204538,36.11550110709184],[138.07328944082929,36.114933030574484],[138.07312787573116,36.11438439683414],[138.07218761994133,36.11328159359273],[138.07198205262844,36.11312829688743],[138.07265212202702,36.1122360582602],[138.07257527240017,36.11189334205605],[138.0728064499846,36.11128310514371],[138.07286337237824,36.11096160549002],[138.0717780052141,36.108350986374845],[138.07233277628166,36.10760593381083],[138.07258864954724,36.10733572820835],[138.07237713317568,36.10658296621648],[138.07311533075455,36.10497379429664],[138.07300899352902,36.10479681447723],[138.0730014922294,36.104675739819655],[138.07313021749596,36.10429646742832],[138.0733230143958,36.103974624958084],[138.0730839169591,36.102464780892916],[138.07295375520718,36.102161684309365],[138.07220046680578,36.10108528202447],[138.07182528328045,36.10075147532798],[138.07123824985516,36.099916115402074],[138.07102942887067,36.09942535321933],[138.0708060158757,36.098609533296305],[138.07056813504556,36.098206558434796],[138.069786264743,36.096758603755745],[138.0695682130972,36.09627693398208],[138.06910801336133,36.09561365490254],[138.06956516173707,36.094965256561004],[138.0698303272323,36.0939264870906],[138.06996231419308,36.093698119012],[138.0699931896245,36.09291387762084],[138.07012970709872,36.09260261536347],[138.0710222692814,36.09117279745812],[138.07095913059746,36.088804527706365],[138.07141260113625,36.08784450361079],[138.07119146256602,36.087479892571665],[138.07093557858437,36.08714802258964],[138.07084853012984,36.086812741896985],[138.0708981720314,36.086586128036494],[138.0710147386217,36.08635961386741],[138.0710430859662,36.08577480155597],[138.07112384218235,36.08539452587156],[138.0711417241547,36.08500267922106],[138.0717206827018,36.08252616424449],[138.07196746051451,36.08060841137649],[138.07353632301206,36.08003108464033],[138.07400240743885,36.07920206704692],[138.07546440084715,36.079267956012416],[138.0754642055196,36.07930413827959],[138.07541284485532,36.07994066733499],[138.0751191746324,36.08068091074658],[138.07406557489367,36.08066313293346],[138.07404112756817,36.08149327757289],[138.0748901295533,36.08245443845899],[138.0743500405476,36.08477362068768],[138.07367612810697,36.085873590807914],[138.07451433429517,36.086738318335094],[138.07496797193676,36.08851803958276],[138.07582997076042,36.08752680540128],[138.07672904270132,36.08886720384593],[138.0804009114024,36.08894109956762],[138.08048392777658,36.08992778702815],[138.08061430468288,36.09014177906641],[138.0814247047147,36.09124399160613],[138.0822662876881,36.092965272594114],[138.0823296565504,36.09536615147627],[138.08449401290923,36.09382716818812],[138.08603425900628,36.097469137309496],[138.08753924757724,36.09928406453619],[138.08978820327542,36.09990059298982],[138.08998180503445,36.10067980404106],[138.0923862236068,36.102613148849805],[138.09312305623524,36.10378141625057],[138.09375267234367,36.1050497255928],[138.09407558478838,36.10533675019944],[138.09423116122392,36.10563245937972],[138.09421086647657,36.105833297791435],[138.0943302000017,36.10605682374703],[138.094774907843,36.106570409375486],[138.09501913478533,36.10683912294047],[138.09528252215267,36.10710294655977],[138.0961687845385,36.107777091781685],[138.0966265169595,36.10829329334402],[138.09712792137034,36.108228278226115],[138.0971252033144,36.10844662197828],[138.09739379090087,36.10914851364482],[138.0971668534819,36.10956067606875],[138.0978493314008,36.11032156632327],[138.09849803950425,36.11074624734809],[138.098293133009,36.11148497418342],[138.09825524875353,36.11195537480515],[138.09856023421426,36.112484534104155],[138.0988422094917,36.11288878452887],[138.09806793591807,36.11387527907864],[138.09855562117687,36.11455389301269],[138.09913294377208,36.1150647544907],[138.09912470915626,36.116687576046914],[138.10013971068895,36.11724790447158],[138.10013091617833,36.11781923304214],[138.09934715407383,36.11833517540867],[138.09997277016444,36.11866373811011],[138.10055134892357,36.11892493109227],[138.0999341139439,36.11928778694491],[138.10029924629683,36.119634694069354],[138.10039164288335,36.12008632514871],[138.1000817615584,36.12050782191659],[138.10099581769637,36.12113982884395],[138.1011691108334,36.12198544737638],[138.10128703835116,36.12286459266999],[138.09907573209344,36.12406862860025],[138.09886738317098,36.124009859460024],[138.09809463210476,36.12442984515966],[138.097539902187,36.12480483192746],[138.09658781786234,36.12603351530164],[138.09628244198223,36.126185696533],[138.0957449837931,36.126753473160576],[138.09548836140564,36.126900879896816],[138.09490862395023,36.12709661413408],[138.09477398338726,36.127219716960894],[138.09444278207494,36.12795375542752],[138.0941529221647,36.12804915219783],[138.09366835815533,36.12808951756702],[138.09309159501714,36.12799983261621],[138.09193117426108,36.12739292478037],[138.0913770800404,36.12704137101678],[138.09110397485938,36.126842734568335],[138.09083331730346,36.12675778951509],[138.0906355281269,36.12672252219599],[138.09027639281442,36.126669398905925],[138.08863598834668,36.12639936307064],[138.08812305649053,36.12633952533563],[138.08720357850183,36.1262647037806],[138.0843717048479,36.124942712341024],[138.0822483439342,36.1252948945269],[138.08099698341073,36.12605288414306],[138.0808146528976,36.1262610602557],[138.08047192763186,36.127129712404404],[138.08030003578514,36.12765917905734],[138.0803079393917,36.128179388768984],[138.08034767970335,36.1285160706644],[138.080198559298,36.12888368225478]]]},"properties":{"KEY_CODE":"20361007006","PREF":"20","CITY":"361","CITY_NAME":"下諏訪町","S_NAME":"七区東山田第六","SETAI":"192"}},{"type":"Feature","geometry":{"type":"Polygon","coordinates":[[[138.0823033251477,36.08463075319461],[138.08196988128677,36.085869848117945],[138.0807620486266,36.085788572645555],[138.0804375479061,36.08482484143327],[138.07905751892366,36.08379144018065],[138.07952216559698,36.08340298843443],[138.0809267261397,36.082420043897265],[138.08092142338532,36.08184407454844],[138.08219407231272,36.0829963956406],[138.0823033251477,36.08463075319461]]]},"properties":{"KEY_CODE":"20361007007","PREF":"20","CITY":"361","CITY_NAME":"下諏訪町","S_NAME":"七区東山田第七","SETAI":"72"}},{"type":"Feature","geometry":{"type":"Polygon","coordinates":[[[138.07733507279556,36.07572850103522],[138.0763431464183,36.07545703612169],[138.07628157188418,36.074514376524085],[138.07425370094222,36.07457402188947],[138.07486089284083,36.07382710344037],[138.07500162178656,36.072246870707794],[138.07500263320432,36.072244156224066],[138.0771211160376,36.07220099534589],[138.07733507279556,36.07572850103522]]]},"properties":{"KEY_CODE":"20361008001","PREF":"20","CITY":"361","CITY_NAME":"下諏訪町","S_NAME":"八区社東町第一","SETAI":"133"}},{"type":"Feature","geometry":{"type":"Polygon","coordinates":[[[138.07747308956883,36.07749137548643],[138.07747576518335,36.077525487983],[138.07637876642787,36.07743930165104],[138.07564638134173,36.07648044039734],[138.07403735212824,36.07693955228739],[138.0739670820034,36.07646209576518],[138.07391138041493,36.075905299927626],[138.07425370094222,36.07457402188947],[138.07628157188418,36.074514376524085],[138.0763431464183,36.07545703612169],[138.07733507279556,36.07572850103522],[138.07742528334455,36.07688087461116],[138.07747308956883,36.07749137548643]]]},"properties":{"KEY_CODE":"20361008002","PREF":"20","CITY":"361","CITY_NAME":"下諏訪町","S_NAME":"八区社東町第二","SETAI":"115"}},{"type":"Feature","geometry":{"type":"Polygon","coordinates":[[[138.07752231673695,36.07812018870163],[138.07697634468107,36.07861106285572],[138.07665102002358,36.08029663403733],[138.07541284485532,36.07994066733499],[138.0754642055196,36.07930413827959],[138.07597127472846,36.07919408656496],[138.0756362367084,36.07765217755754],[138.07512234296317,36.07770270475678],[138.07546440084715,36.079267956012416],[138.07400240743885,36.07920206704692],[138.07403735212824,36.07693955228739],[138.07564638134173,36.07648044039734],[138.07637876642787,36.07743930165104],[138.07747576518335,36.077525487983],[138.07752231673695,36.07812018870163]]]},"properties":{"KEY_CODE":"20361008003","PREF":"20","CITY":"361","CITY_NAME":"下諏訪町","S_NAME":"八区社東町第三","SETAI":"109"}},{"type":"Feature","geometry":{"type":"Polygon","coordinates":[[[138.07546440084715,36.079267956012416],[138.07512234296317,36.07770270475678],[138.0756362367084,36.07765217755754],[138.07597127472846,36.07919408656496],[138.0754642055196,36.07930413827959],[138.07546440084715,36.079267956012416]]]},"properties":{"KEY_CODE":"20361008004","PREF":"20","CITY":"361","CITY_NAME":"下諏訪町","S_NAME":"八区社東町第四","SETAI":"0"}},{"type":"Feature","geometry":{"type":"Polygon","coordinates":[[[138.08274737140513,36.087349040131706],[138.07672904270132,36.08886720384593],[138.07582997076042,36.08752680540128],[138.07624773693652,36.086877278915914],[138.07745593810995,36.0868440027894],[138.078999545408,36.08610597562613],[138.0807620486266,36.085788572645555],[138.08196988128677,36.085869848117945],[138.08274737140513,36.087349040131706]]]},"properties":{"KEY_CODE":"20361009001","PREF":"20","CITY":"361","CITY_NAME":"下諏訪町","S_NAME":"九区星が丘第一","SETAI":"61"}},{"type":"Feature","geometry":{"type":"Polygon","coordinates":[[[138.0828309354705,36.088893340107106],[138.0805681009297,36.089642363154475],[138.08065863983785,36.08990456921631],[138.08052899476382,36.089949003216255],[138.0805021281089,36.08995765992848],[138.08048392777658,36.08992778702815],[138.0804009114024,36.08894109956762],[138.07672904270132,36.08886720384593],[138.08274737140513,36.087349040131706],[138.08294698965483,36.087749214206426],[138.0828309354705,36.088893340107106]]]},"properties":{"KEY_CODE":"20361009002","PREF":"20","CITY":"361","CITY_NAME":"下諏訪町","S_NAME":"九区星が丘第二","SETAI":"67"}},{"type":"Feature","geometry":{"type":"Polygon","coordinates":[[[138.0828309354705,36.088893340107106],[138.0842235101049,36.089701530731084],[138.0814247047147,36.09124399160613],[138.08061430468288,36.09014177906641],[138.0805021281089,36.08995765992848],[138.08052899476382,36.089949003216255],[138.08065863983785,36.08990456921631],[138.0805681009297,36.089642363154475],[138.0828309354705,36.088893340107106]]]},"properties":{"KEY_CODE":"20361009003","PREF":"20","CITY":"361","CITY_NAME":"下諏訪町","S_NAME":"九区星が丘第三","SETAI":"53"}},{"type":"Feature","geometry":{"type":"Polygon","coordinates":[[[138.0842235101049,36.089701530731084],[138.0847573933396,36.09221651504345],[138.08533058533683,36.092662252123226],[138.08449401290923,36.09382716818812],[138.0823296565504,36.09536615147627],[138.0822662876881,36.092965272594114],[138.0814247047147,36.09124399160613],[138.0842235101049,36.089701530731084]]]},"properties":{"KEY_CODE":"20361009005","PREF":"20","CITY":"361","CITY_NAME":"下諏訪町","S_NAME":"九区星が丘第五","SETAI":"62"}},{"type":"Feature","geometry":{"type":"Polygon","coordinates":[[[138.09296143636564,36.068937463999085],[138.09293174997552,36.07026175770208],[138.09046081606553,36.07107403903924],[138.09080635823292,36.06906831100684],[138.09130181080266,36.0687226409781],[138.09141425510765,36.064993932714515],[138.092874382614,36.06510691631319],[138.09274676981852,36.068729501350916],[138.09296143636564,36.068937463999085]]]},"properties":{"KEY_CODE":"20361010001","PREF":"20","CITY":"361","CITY_NAME":"下諏訪町","S_NAME":"一〇区西豊","SETAI":"130"}},{"type":"Feature","geometry":{"type":"Polygon","coordinates":[[[138.09448095765222,36.07020721742095],[138.09293174997552,36.07026175770208],[138.09296143636564,36.068937463999085],[138.09457574894776,36.068022075483185],[138.09482893708423,36.069638839820705],[138.09606400818222,36.06924244602813],[138.09607400122383,36.069519962828664],[138.09525766471145,36.07051307098446],[138.09448095765222,36.07020721742095]]]},"properties":{"KEY_CODE":"20361010002","PREF":"20","CITY":"361","CITY_NAME":"下諏訪町","S_NAME":"一〇区西浜","SETAI":"61"}},{"type":"Feature","geometry":{"type":"Polygon","coordinates":[[[138.09606400818222,36.06924244602813],[138.09482893708423,36.069638839820705],[138.09457574894776,36.068022075483185],[138.09296143636564,36.068937463999085],[138.09274676981852,36.068729501350916],[138.092874382614,36.06510691631319],[138.0939035527689,36.06530057351926],[138.0963535628991,36.06723939130965],[138.09882739162546,36.06709170366713],[138.09942590867922,36.067690585562225],[138.10071134587528,36.06771394015913],[138.09606400818222,36.06924244602813]]]},"properties":{"KEY_CODE":"20361010003","PREF":"20","CITY":"361","CITY_NAME":"下諏訪町","S_NAME":"一〇区高浜","SETAI":"164"}},{"type":"Feature","geometry":{"type":"Polygon","coordinates":[[[138.09439242039053,36.07176259448516],[138.09245828104426,36.07207341297265],[138.0917902170706,36.071588914849755],[138.09046081606553,36.07107403903924],[138.09293174997552,36.07026175770208],[138.09448095765222,36.07020721742095],[138.09439242039053,36.07176259448516]]]},"properties":{"KEY_CODE":"20361010004","PREF":"20","CITY":"361","CITY_NAME":"下諏訪町","S_NAME":"一〇区東豊","SETAI":"58"}},{"type":"Feature","geometry":{"type":"Polygon","coordinates":[[[138.09565745595768,36.07297144914324],[138.09660075338962,36.07460187665787],[138.09799856028184,36.0742898806804],[138.0988358442247,36.07512415768928],[138.0982221768122,36.07594748185929],[138.0968234545924,36.07532936165691],[138.09605187844812,36.07592367451201],[138.09535731554038,36.074870862157496],[138.09343896783764,36.07322505318191],[138.09250944876067,36.073005012056946],[138.09245828104426,36.07207341297265],[138.09439242039053,36.07176259448516],[138.0939105478774,36.07238254725415],[138.09565745595768,36.07297144914324]]]},"properties":{"KEY_CODE":"20361010005","PREF":"20","CITY":"361","CITY_NAME":"下諏訪町","S_NAME":"一〇区本郷","SETAI":"77"}},{"type":"Feature","geometry":{"type":"Polygon","coordinates":[[[138.09630044059372,36.0715020127601],[138.09595180862135,36.07139433868264],[138.09599413661456,36.072654042535596],[138.09565745595768,36.07297144914324],[138.0939105478774,36.07238254725415],[138.09439242039053,36.07176259448516],[138.09448095765222,36.07020721742095],[138.09525766471145,36.07051307098446],[138.09607400122383,36.069519962828664],[138.0965365388908,36.07038144014185],[138.09630044059372,36.0715020127601]]]},"properties":{"KEY_CODE":"20361010006","PREF":"20","CITY":"361","CITY_NAME":"下諏訪町","S_NAME":"一〇区五官","SETAI":"78"}},{"type":"Feature","geometry":{"type":"Polygon","coordinates":[[[138.10094471425353,36.06861118008057],[138.09978347210924,36.06977510753913],[138.0965365388908,36.07038144014185],[138.09607400122383,36.069519962828664],[138.09606400818222,36.06924244602813],[138.10071134587528,36.06771394015913],[138.10094471425353,36.06861118008057]]]},"properties":{"KEY_CODE":"20361010007","PREF":"20","CITY":"361","CITY_NAME":"下諏訪町","S_NAME":"一〇区富ヶ丘","SETAI":"72"}},{"type":"Feature","geometry":{"type":"Polygon","coordinates":[[[138.09599413661456,36.072654042535596],[138.09595180862135,36.07139433868264],[138.09630044059372,36.0715020127601],[138.09599413661456,36.072654042535596]]]},"properties":{"KEY_CODE":"20361010008","PREF":"20","CITY":"361","CITY_NAME":"下諏訪町","S_NAME":"一〇区関屋","SETAI":"70"}}]}