{"type":"FeatureCollection","features":[{"type":"Feature","geometry":{"type":"Polygon","coordinates":[[[137.5752222981462,35.31687138762888],[137.57376385762157,35.31662644361613],[137.57210822681265,35.31826607608757],[137.5700014807379,35.3172287213897],[137.56722873072292,35.31470096180026],[137.5689214106253,35.313780455457476],[137.56882758736052,35.31309736639178],[137.56705126410816,35.31267348685962],[137.56562214292973,35.31346933103727],[137.5643783144874,35.31322587541736],[137.56450401489818,35.31194614341184],[137.5656017507115,35.311233786798454],[137.56503730363818,35.310643578820134],[137.56255442563707,35.31122621701029],[137.56101751524824,35.30965056124768],[137.55968827158247,35.30949687969727],[137.5585938713757,35.31055059484373],[137.55690698768984,35.309983367959354],[137.5566799703399,35.30901683474177],[137.55773806912353,35.30692923427625],[137.5588299905779,35.30556657336298],[137.55930187005822,35.30116052326535],[137.5586328653413,35.300470813917265],[137.55817985252875,35.29889501858823],[137.55807389372248,35.29686520231639],[137.5563621124944,35.29566253492427],[137.55747746195385,35.29477076864554],[137.55859441556046,35.29282908667994],[137.56186068058506,35.28952899452523],[137.5654120224282,35.290268499647965],[137.5667838680388,35.2900970205325],[137.56745117998895,35.28930701129187],[137.5673814141012,35.28741043793599],[137.56897945683926,35.28653119990328],[137.56878213639976,35.285858923457425],[137.57094050816394,35.28280937697385],[137.57025101068353,35.282022118839045],[137.56651734135764,35.281086854777485],[137.565234497202,35.279908444257416],[137.56936099886852,35.279199074273336],[137.57230315376196,35.28016317171408],[137.57647233089278,35.27820325670402],[137.5783260157817,35.27659725186744],[137.57985221423607,35.27458646423862],[137.5775745524465,35.27139517576594],[137.5757792830666,35.26941570322948],[137.5759407159491,35.26777611579363],[137.57698157380605,35.26464728352298],[137.57606616676173,35.26169898730002],[137.57860558060264,35.26098971680735],[137.58011349606673,35.25952212669805],[137.58230662131638,35.257944790574584],[137.5859901232918,35.25626065267634],[137.58808791596704,35.25584880436453],[137.59085395010376,35.26073891396191],[137.59594664970518,35.262681665555384],[137.5979858271564,35.26369718203147],[137.59866188549287,35.26530673900224],[137.59925982739276,35.26793353059423],[137.60087526773077,35.269864372064134],[137.60002110425054,35.27186117110372],[137.60040710681452,35.27305058715449],[137.60162617753394,35.27429746379588],[137.600490748637,35.27421669513526],[137.59873907898793,35.273367311025666],[137.59680470234434,35.27156639964857],[137.59438800323238,35.26886120791909],[137.59257159594455,35.26753505008737],[137.59192942003943,35.268347408933685],[137.59217156077258,35.270750630662896],[137.59290222325055,35.27247124900152],[137.59432475671028,35.27395113613928],[137.5963890211085,35.27471968431111],[137.59598645510414,35.27577659647042],[137.5946993485466,35.27631357751214],[137.5957507758376,35.277672990967574],[137.59811164586608,35.278237459485844],[137.6021248672703,35.2780825501641],[137.60367483800397,35.27839546056319],[137.6058482944725,35.27983563350682],[137.60796135784742,35.28166854907709],[137.60864879027164,35.28188734845583],[137.60992048024133,35.28126066522101],[137.61167737290629,35.27893741140811],[137.61327145374523,35.27872291635215],[137.61520408525496,35.27904382844355],[137.61800834749593,35.278550586855694],[137.62303504633294,35.28056161215687],[137.62438470924846,35.28061066945057],[137.62514916968266,35.28165850457836],[137.62616809308648,35.286756084790106],[137.62572228491774,35.28872396400458],[137.6263620552985,35.29088129224642],[137.62694825692003,35.29170494231406],[137.62740103804123,35.2935235979105],[137.62809114546576,35.29400876984807],[137.63055241351864,35.29441525675796],[137.63233287439755,35.295588206969825],[137.63267619580608,35.29829361643382],[137.63219275626716,35.30021552332457],[137.6299865212108,35.30032829904024],[137.6284243012848,35.29923125959792],[137.62730754028044,35.29958723026024],[137.62639330980514,35.30325014057359],[137.6256707252682,35.30367555768999],[137.62356580793644,35.30383852997482],[137.62137781062964,35.30574806277027],[137.6189554530998,35.305558470695274],[137.61573623187303,35.3058416548149],[137.61512212225293,35.30531675281491],[137.61219599183778,35.30557874872206],[137.6109698230642,35.30659978512304],[137.61120973237757,35.30729392553424],[137.61285175897825,35.3074795003809],[137.61368555798987,35.30847537856831],[137.6127916726376,35.30865473395854],[137.6114531065288,35.309925928505514],[137.60878344664047,35.31125102488513],[137.60551819546384,35.311195178595064],[137.60419141237492,35.31220939248042],[137.60387672552784,35.31321301274553],[137.59949782623158,35.31269324550567],[137.59715786038066,35.31330918939316],[137.59363673078494,35.31243067707477],[137.59197001934209,35.312564391598414],[137.59139877183063,35.31214841090731],[137.58979475373164,35.3125992469801],[137.58943179343365,35.31313338718055],[137.58660019872124,35.313780103178715],[137.58457703732654,35.31386277622143],[137.58305328707263,35.314703254623026],[137.58164252525307,35.31465777624906],[137.58104097186367,35.314152498009754],[137.5780637996608,35.314811383041864],[137.57674977780633,35.316454547624566],[137.5752222981462,35.31687138762888]]]},"properties":{"KEY_CODE":"20410001001","PREF":"20","CITY":"410","CITY_NAME":"根羽村","S_NAME":"","SETAI":"82"}},{"type":"Feature","geometry":{"type":"Polygon","coordinates":[[[137.57606616676173,35.26169898730002],[137.57698157380605,35.26464728352298],[137.5759407159491,35.26777611579363],[137.5757792830666,35.26941570322948],[137.5775745524465,35.27139517576594],[137.57985221423607,35.27458646423862],[137.5783260157817,35.27659725186744],[137.57647233089278,35.27820325670402],[137.57230315376196,35.28016317171408],[137.56936099886852,35.279199074273336],[137.565234497202,35.279908444257416],[137.5651587268145,35.2786323341869],[137.56410660920162,35.2776929440238],[137.5620535074096,35.27753096310265],[137.5601604045467,35.27636536395028],[137.55799456561778,35.2755701983549],[137.55737612889592,35.27482666209856],[137.55548603826696,35.274266626512606],[137.55577676570243,35.272175588915374],[137.55686744661443,35.27149033150689],[137.5577337489492,35.269661865093475],[137.5566468266921,35.268781356788764],[137.5576183422799,35.26767529979073],[137.5577864671818,35.2651099697919],[137.55705090060985,35.264129813406065],[137.5550768720872,35.26284758827835],[137.5538285601595,35.26111749526708],[137.5520835669354,35.25987853748782],[137.5485765232099,35.25983379913165],[137.5476121929075,35.25901690737149],[137.54798064590912,35.25648149521749],[137.54610855997572,35.25374292824796],[137.5458840631241,35.25185840832899],[137.54755600753992,35.25135103015857],[137.54872786530342,35.24998342288651],[137.54918018128922,35.24617514203651],[137.55024986891016,35.24312141872185],[137.55216078075665,35.24142611394973],[137.5526438910357,35.24042165295679],[137.55462035580317,35.238666753599134],[137.55678585545905,35.2377706259731],[137.55748852977524,35.2371308181296],[137.55906492063485,35.23697407667742],[137.56114490910082,35.2358895576276],[137.56342459706227,35.2365226870268],[137.56574290471022,35.237660722819044],[137.56659353004363,35.24086230782031],[137.56959345991,35.243663557196776],[137.5700102510771,35.24559248007956],[137.57078896027835,35.249398524102865],[137.57183427945074,35.25630666611242],[137.57306585128066,35.2564749194766],[137.57423638855127,35.25768395373011],[137.57606616676173,35.26169898730002]]]},"properties":{"KEY_CODE":"20410001002","PREF":"20","CITY":"410","CITY_NAME":"根羽村","S_NAME":"","SETAI":"38"}},{"type":"Feature","geometry":{"type":"Polygon","coordinates":[[[137.58535296371517,35.25067579222917],[137.58594334347887,35.25277284354727],[137.58808791596704,35.25584880436453],[137.5859901232918,35.25626065267634],[137.58230662131638,35.257944790574584],[137.58011349606673,35.25952212669805],[137.57860558060264,35.26098971680735],[137.57606616676173,35.26169898730002],[137.57423638855127,35.25768395373011],[137.57306585128066,35.2564749194766],[137.57183427945074,35.25630666611242],[137.57078896027835,35.249398524102865],[137.5700102510771,35.24559248007956],[137.5714228145505,35.24577208382842],[137.57506713976707,35.2470772572733],[137.58015323880988,35.249368298860475],[137.58262052139645,35.251439449901184],[137.58444287103904,35.251454467927],[137.58535296371517,35.25067579222917]]]},"properties":{"KEY_CODE":"20410001003","PREF":"20","CITY":"410","CITY_NAME":"根羽村","S_NAME":"","SETAI":"112"}},{"type":"Feature","geometry":{"type":"Polygon","coordinates":[[[137.62438470924846,35.28061066945057],[137.62303504633294,35.28056161215687],[137.61800834749593,35.278550586855694],[137.61520408525496,35.27904382844355],[137.61327145374523,35.27872291635215],[137.61167737290629,35.27893741140811],[137.60992048024133,35.28126066522101],[137.60864879027164,35.28188734845583],[137.60796135784742,35.28166854907709],[137.6058482944725,35.27983563350682],[137.60367483800397,35.27839546056319],[137.6021248672703,35.2780825501641],[137.59811164586608,35.278237459485844],[137.5957507758376,35.277672990967574],[137.5946993485466,35.27631357751214],[137.59598645510414,35.27577659647042],[137.5963890211085,35.27471968431111],[137.59432475671028,35.27395113613928],[137.59290222325055,35.27247124900152],[137.59217156077258,35.270750630662896],[137.59192942003943,35.268347408933685],[137.59257159594455,35.26753505008737],[137.59438800323238,35.26886120791909],[137.59680470234434,35.27156639964857],[137.59873907898793,35.273367311025666],[137.600490748637,35.27421669513526],[137.60162617753394,35.27429746379588],[137.60040710681452,35.27305058715449],[137.60002110425054,35.27186117110372],[137.60087526773077,35.269864372064134],[137.59925982739276,35.26793353059423],[137.59866188549287,35.26530673900224],[137.5979858271564,35.26369718203147],[137.59594664970518,35.262681665555384],[137.59085395010376,35.26073891396191],[137.58808791596704,35.25584880436453],[137.58594334347887,35.25277284354727],[137.58535296371517,35.25067579222917],[137.58720235978612,35.24984708657702],[137.58975723657036,35.24952372904922],[137.59124261797652,35.24842828407945],[137.5916236897816,35.246865313682044],[137.5922593955161,35.24615466921329],[137.5942979519623,35.244972916384576],[137.59481941607268,35.24372448943941],[137.59494842904746,35.24196340306798],[137.5944585737594,35.239288032897036],[137.5965520725358,35.237444304155794],[137.60114037662308,35.23610790001011],[137.6022229564305,35.233619404629465],[137.60421241989692,35.232867196243404],[137.60611356409035,35.23176704154975],[137.60639040128106,35.230304360507404],[137.60629890160453,35.227771553481865],[137.60682815133163,35.226242701300315],[137.60769183656615,35.22505878127587],[137.61065018888445,35.223252579034956],[137.61381137596186,35.22208715549395],[137.61509507181208,35.22139534044532],[137.61508604188225,35.21835340203951],[137.61578692584112,35.21605757321069],[137.61478979487606,35.213140383312115],[137.6151759118754,35.210470489371],[137.61744524476126,35.20989859395146],[137.6189114209554,35.21017709262831],[137.62015803918246,35.211020535765186],[137.62232281961454,35.210562436504226],[137.62524207261833,35.210944961189746],[137.6268697014076,35.212081498262116],[137.6288526910216,35.211972458235344],[137.63255119514596,35.21269208326336],[137.63391855391455,35.21248221495748],[137.63537927067085,35.21102975530501],[137.63845718772706,35.21047052726843],[137.64008698378376,35.20990667410533],[137.64391719790086,35.209243992613885],[137.64469120109473,35.209731064824254],[137.64447331717233,35.21057831457892],[137.64490390544142,35.21233279428379],[137.6491739124652,35.212836544307585],[137.65018679258827,35.213463068916084],[137.65042552220237,35.21457717541206],[137.65220960840412,35.216834309945014],[137.6536694644886,35.217478143247874],[137.65385721017728,35.21835850775487],[137.6534605349146,35.22112444517575],[137.6523676684005,35.222673249835346],[137.65250269843867,35.22336550502239],[137.65380632566834,35.22452340962963],[137.65393887127408,35.226594528775216],[137.65518506115342,35.22723807766719],[137.65617924824625,35.22831027217806],[137.65928566356433,35.22802575419215],[137.66108667119258,35.227268102541885],[137.66206050232134,35.22781875000734],[137.66375848962957,35.22794305705693],[137.66536958508883,35.23023801252585],[137.66840799284378,35.23265859801133],[137.66833310479248,35.23442454156383],[137.67027072149662,35.237699964532524],[137.6696065417795,35.23930439856141],[137.67067487792792,35.23979929667645],[137.67135997168145,35.241487155550026],[137.667926516889,35.24594852030982],[137.66787518747574,35.24676544914198],[137.66642149246488,35.24938412440393],[137.66430028403104,35.2504961489633],[137.66459182870776,35.2515609475621],[137.66403980053283,35.25199123513117],[137.66419577499747,35.25408935089944],[137.6637936683386,35.25504357020086],[137.6625530674451,35.25603579382299],[137.66198473297638,35.25806769173247],[137.66202158387833,35.25930396656315],[137.6628205409689,35.26058720135894],[137.66200200773747,35.26121134777329],[137.66227152927502,35.26225568466758],[137.65987986539463,35.2642460105545],[137.65874920051886,35.26606581824573],[137.6572108656873,35.26575863647763],[137.6552491025809,35.26641861345573],[137.65285199377874,35.26668812096349],[137.65233444540232,35.26748618254648],[137.65016821255995,35.26924612199182],[137.64984121039345,35.27066529692367],[137.64734271380664,35.271189972761036],[137.64655449963465,35.271938920223775],[137.6444186371077,35.27195080693768],[137.6441150813549,35.271133523736204],[137.6429934670182,35.27048833497287],[137.64172367204824,35.268772158502536],[137.63974304043273,35.26890717717005],[137.63872840002833,35.26848834084056],[137.6360275665678,35.266039510323466],[137.63444859975354,35.265005619782784],[137.63261674242653,35.264396168394846],[137.63117090173014,35.26480784048786],[137.629854247211,35.26391640951565],[137.62839017084224,35.26491791784227],[137.6254323274678,35.26539404596259],[137.62461997013648,35.265250074725024],[137.62514928904525,35.267256647312685],[137.62394061119798,35.26758022861941],[137.62406168046635,35.270029906340774],[137.62495072064792,35.27089091503947],[137.62488964248865,35.27183864246326],[137.62614260058425,35.27311952102745],[137.62608456377663,35.275259943453925],[137.62508611427864,35.276261326933316],[137.6255548822136,35.27868181575354],[137.62438470924846,35.28061066945057]]]},"properties":{"KEY_CODE":"20410001004","PREF":"20","CITY":"410","CITY_NAME":"根羽村","S_NAME":"","SETAI":"72"}},{"type":"Feature","geometry":{"type":"Polygon","coordinates":[[[137.6151759118754,35.210470489371],[137.61478979487606,35.213140383312115],[137.61578692584112,35.21605757321069],[137.61508604188225,35.21835340203951],[137.61509507181208,35.22139534044532],[137.61381137596186,35.22208715549395],[137.61065018888445,35.223252579034956],[137.60769183656615,35.22505878127587],[137.60682815133163,35.226242701300315],[137.60629890160453,35.227771553481865],[137.60639040128106,35.230304360507404],[137.60611356409035,35.23176704154975],[137.60421241989692,35.232867196243404],[137.6022229564305,35.233619404629465],[137.60114037662308,35.23610790001011],[137.5965520725358,35.237444304155794],[137.5944585737594,35.239288032897036],[137.59494842904746,35.24196340306798],[137.59481941607268,35.24372448943941],[137.5942979519623,35.244972916384576],[137.5922593955161,35.24615466921329],[137.5916236897816,35.246865313682044],[137.59124261797652,35.24842828407945],[137.58975723657036,35.24952372904922],[137.58720235978612,35.24984708657702],[137.58535296371517,35.25067579222917],[137.58444287103904,35.251454467927],[137.58262052139645,35.251439449901184],[137.58015323880988,35.249368298860475],[137.57506713976707,35.2470772572733],[137.5714228145505,35.24577208382842],[137.5700102510771,35.24559248007956],[137.56959345991,35.243663557196776],[137.56659353004363,35.24086230782031],[137.56574290471022,35.237660722819044],[137.56342459706227,35.2365226870268],[137.56114490910082,35.2358895576276],[137.56244340013475,35.23520225284716],[137.5631461247229,35.23420700159458],[137.5649261656558,35.23298142834607],[137.5656687083899,35.23143569030424],[137.56767948969826,35.22935804615066],[137.56827734938724,35.22797638004212],[137.5724995060078,35.22631962510894],[137.57255737158937,35.22396018243718],[137.57460674850836,35.22337936271786],[137.57570034548323,35.22131708593665],[137.57551668913874,35.22056679638708],[137.57654751096536,35.22050708430873],[137.57883614470694,35.219488578364164],[137.57779990819364,35.216919349843614],[137.57838628206468,35.21575401816393],[137.57687374338713,35.21199507145902],[137.57771772807277,35.21142665091858],[137.578156029914,35.209486171293676],[137.57649833976947,35.206768124244185],[137.57701403801045,35.20530634353135],[137.57683560986436,35.20222529325385],[137.5776941109614,35.20184423739083],[137.57761035717735,35.19929863207654],[137.578834868925,35.19845675667278],[137.58075992904236,35.19836372969597],[137.58221497782804,35.199533749456876],[137.58339433848715,35.19979178703881],[137.58569443390792,35.199688008796336],[137.58725701273022,35.19993834794617],[137.58845120411812,35.19949629623185],[137.59130753880495,35.19941491898572],[137.59568725306062,35.20080484583916],[137.5981858813593,35.20236150371201],[137.59899061409018,35.202490604376614],[137.60009275805453,35.203600033885046],[137.60316333588796,35.20473378854107],[137.60381225301532,35.20560995496197],[137.60305417079547,35.20597293436213],[137.60552024672114,35.2069639638314],[137.60784143881634,35.207138786948406],[137.6094268892095,35.208014710110774],[137.61316202487836,35.2091169331047],[137.61385984909745,35.210038675700446],[137.6151759118754,35.210470489371]]]},"properties":{"KEY_CODE":"20410001005","PREF":"20","CITY":"410","CITY_NAME":"根羽村","S_NAME":"","SETAI":"79"}}]}