{"type":"FeatureCollection","features":[{"type":"Feature","geometry":{"type":"Polygon","coordinates":[[[137.73498842892792,35.285006931793866],[137.734549504733,35.28740320727794],[137.73235417947524,35.28988005805866],[137.7321675661617,35.290641048468736],[137.73048075832685,35.292083470538444],[137.7312628170715,35.29237309257799],[137.7327543521507,35.29172603058724],[137.7327212679871,35.293146863398576],[137.73110170569154,35.29472252709862],[137.72995317673167,35.29539731031622],[137.7285158329501,35.29691559026713],[137.72672730625666,35.29788865936857],[137.72710552649792,35.30056283600216],[137.72580927612375,35.30178940646606],[137.7250323555184,35.30175492661483],[137.72120832117733,35.300167615952425],[137.71518729879995,35.29800762502528],[137.71278916761602,35.2985608735215],[137.71182749596232,35.29790920079917],[137.7102083367795,35.29753619710149],[137.70796209051258,35.297662571763574],[137.70655994258905,35.298098376005825],[137.70528517091174,35.29730304223408],[137.7033777847623,35.2966840245262],[137.70214928116354,35.297797879286776],[137.69989674629974,35.29818672079739],[137.69841977675725,35.29919409636046],[137.69767072891813,35.30055500788024],[137.6960470766496,35.301769251368924],[137.6943899194505,35.302127637956204],[137.69274746886177,35.302058223828226],[137.69136331138355,35.30151468765593],[137.68836935002608,35.302681823788895],[137.68596074676725,35.302722304801684],[137.68377258026825,35.303781379284814],[137.68165230046807,35.30390963584279],[137.68039478141532,35.30494741694381],[137.6779392571833,35.30590147232138],[137.67674885398318,35.305893363458964],[137.6747304818146,35.30671631855108],[137.67406993870873,35.306522160995456],[137.67326839239797,35.304538300021356],[137.67231546724173,35.303818703135455],[137.67253679160984,35.30156684761758],[137.67121699723555,35.300976352578466],[137.6701301154362,35.299490857449136],[137.6707009871208,35.29774672605646],[137.6701943042075,35.295257979189955],[137.67132004144474,35.29396593912709],[137.6714380979033,35.292940434855524],[137.67072335950658,35.292648221793655],[137.66993845009821,35.29115963647353],[137.66910428698034,35.290991168635635],[137.66627275928354,35.28880139431016],[137.66653761217628,35.286638128747825],[137.66759184979364,35.285184844032464],[137.6678747773281,35.283627306661316],[137.6670548305545,35.282665059817376],[137.66695991778252,35.28110485145603],[137.66579559346755,35.28007959033545],[137.66435663705963,35.27981029920921],[137.6625923143541,35.27882128367519],[137.66121034606627,35.27900037083268],[137.66031110499375,35.27856970197823],[137.6587425225818,35.276527708526366],[137.6584316381403,35.27521528163514],[137.6589975684705,35.27450513805282],[137.6588132921503,35.27285676323447],[137.66027581447952,35.27202482018497],[137.66046446761922,35.27085734184013],[137.66010974871983,35.26940644224152],[137.66065596138807,35.26821115777304],[137.6597054114294,35.267588154056384],[137.65874920051886,35.26606581824573],[137.65987986539463,35.2642460105545],[137.66227152927502,35.26225568466758],[137.66200200773747,35.26121134777329],[137.6628205409689,35.26058720135894],[137.66202158387833,35.25930396656315],[137.66198473297638,35.25806769173247],[137.6625530674451,35.25603579382299],[137.6637936683386,35.25504357020086],[137.66419577499747,35.25408935089944],[137.66403980053283,35.25199123513117],[137.66459182870776,35.2515609475621],[137.66430028403104,35.2504961489633],[137.66642149246488,35.24938412440393],[137.66787518747574,35.24676544914198],[137.667926516889,35.24594852030982],[137.67135997168145,35.241487155550026],[137.67067487792792,35.23979929667645],[137.6696065417795,35.23930439856141],[137.67027072149662,35.237699964532524],[137.66833310479248,35.23442454156383],[137.66840799284378,35.23265859801133],[137.66536958508883,35.23023801252585],[137.66375848962957,35.22794305705693],[137.66518022944507,35.22736868853065],[137.668021469558,35.227320465904626],[137.6692592479384,35.228166762444026],[137.67225131249373,35.22926999114465],[137.67367622871126,35.231281785598235],[137.67438177349803,35.23100373974626],[137.67864749390594,35.23073371307967],[137.67934427776316,35.23132600772244],[137.67966749602735,35.23281336176598],[137.681249374181,35.23506541208089],[137.68224609528306,35.23484373661479],[137.6828705121512,35.23340093176146],[137.68498058936947,35.231902910324],[137.68627894392705,35.23063893269936],[137.68872470530005,35.23068161383219],[137.6904153697465,35.232750089804405],[137.69419220772122,35.233651234200444],[137.69508624507114,35.23308051780861],[137.69726499005114,35.23267074680788],[137.6989864081825,35.2315723926827],[137.70091135215208,35.23202577945564],[137.7044730233097,35.23395331701127],[137.70768217691366,35.232234412776066],[137.71174530242618,35.23191077580201],[137.7126478246587,35.23218680223281],[137.7151507909902,35.231763426639446],[137.71664898659918,35.23310746401801],[137.71866555494006,35.23379849104117],[137.7209513673862,35.23580294280689],[137.7214963682779,35.237207546687394],[137.7229837104478,35.2397266087885],[137.72497663006104,35.242403957379885],[137.72509302556637,35.24386332971861],[137.72429677245736,35.24412119364156],[137.7231195024863,35.24612594034275],[137.72313483726788,35.2475384622759],[137.722192110192,35.24870546585205],[137.72133992292888,35.24878216542393],[137.7200352451406,35.25073674876172],[137.72021201721986,35.2516274861794],[137.72291284675234,35.253244197266596],[137.72353576997978,35.25396824173748],[137.72508436663122,35.25455024596626],[137.72557225456362,35.25749725159114],[137.7262569936621,35.25857913874984],[137.72643860209152,35.260032665785886],[137.72753441935822,35.26174448393769],[137.72792165381517,35.26341049965133],[137.7268948687119,35.26525876491866],[137.72750853343834,35.26798337853131],[137.730488040515,35.269209683290384],[137.73058373270393,35.27000519708172],[137.731867782447,35.27018269962077],[137.73271635564734,35.27487008084087],[137.73361885491687,35.275605139609326],[137.73365130570429,35.27746009250666],[137.73436088681476,35.279234684089786],[137.73397806642362,35.28344718935606],[137.73498842892792,35.285006931793866]]]},"properties":{"KEY_CODE":"204120010","PREF":"20","CITY":"412","CITY_NAME":"売木村","S_NAME":"","SETAI":"279"}}]}