{"type":"FeatureCollection","features":[{"type":"Feature","geometry":{"type":"Polygon","coordinates":[[[137.9769346536872,36.460837331066735],[137.97408248567598,36.46140601396113],[137.97339845454232,36.46201156710535],[137.9719708666097,36.46206458268379],[137.97180419688883,36.46134142814799],[137.9705137181856,36.461142229593676],[137.96824061451804,36.46142321793578],[137.9659793693369,36.46274407851997],[137.96357845889477,36.463368918547815],[137.96481886323775,36.466461328486254],[137.96477174081278,36.46808315652553],[137.96130187895122,36.466626987749216],[137.9619515019964,36.46496624210793],[137.96042985100152,36.46376225331706],[137.96029672534698,36.462233936091344],[137.96032917508032,36.461692600922014],[137.96047334504988,36.46119891030439],[137.9601947946123,36.460233481107906],[137.96034132659238,36.45981432444613],[137.96082017474166,36.45961514407478],[137.96152887853538,36.45978219511669],[137.96242571072239,36.460250410287415],[137.96315535265686,36.460135963039036],[137.96332905786048,36.458043462817294],[137.9634056978334,36.45656255361649],[137.96291618611863,36.454957284298835],[137.96261167430472,36.45438935549552],[137.9600965821592,36.44866966241763],[137.95864565514617,36.44433892394847],[137.95772663501418,36.44012462753447],[137.95624546181543,36.43333095545627],[137.95476652928994,36.424989648299736],[137.95503755779205,36.421405433759816],[137.9559928472139,36.41414906232006],[137.95629816246608,36.41361165504542],[137.95739634594645,36.41316765826687],[137.95854002931583,36.41303175102951],[137.96241844045656,36.41333790591619],[137.96461716973516,36.41325156759511],[137.96722073986564,36.41432154612488],[137.9681460889633,36.41478106975255],[137.9689873896096,36.41515670632383],[137.9690792889648,36.41621538162422],[137.96816701899277,36.41771544854853],[137.9667854427798,36.41891126043656],[137.96553248102026,36.41911586585166],[137.96316609123025,36.41874072230675],[137.96214342706068,36.41972792703517],[137.96185538017372,36.42083991546872],[137.96078466076935,36.421715215778086],[137.96056838720068,36.42418191376966],[137.96162839941806,36.42502366622355],[137.96257435647374,36.42835834038472],[137.96515948975718,36.43478196977175],[137.9649316540759,36.4356631489484],[137.96563061587412,36.4361082276273],[137.9660651634131,36.4380659736913],[137.96764671184397,36.441419101913475],[137.96779111544035,36.44234542448631],[137.9660388909723,36.44317454173995],[137.96578227745047,36.444165176843136],[137.96612867023737,36.447058644488244],[137.96534594745833,36.44687418445806],[137.96422206817778,36.44776173844683],[137.9650536197517,36.44836404123561],[137.96469845882226,36.45148228767319],[137.96424810632038,36.452136232634295],[137.9644468247975,36.45448075916435],[137.96499228805055,36.4554011971322],[137.96695838833946,36.45536280036147],[137.9691229678104,36.45569425215595],[137.96954106612438,36.45438555389441],[137.96721711372282,36.45277831264458],[137.9699196327605,36.45189894764188],[137.97207950580903,36.45182890080213],[137.97360726385645,36.45227499988956],[137.9743219339045,36.454886447621924],[137.97528161391523,36.45736953332931],[137.97625687360173,36.45866362930346],[137.9769346536872,36.460837331066735]]]},"properties":{"KEY_CODE":"20448001001","PREF":"20","CITY":"448","CITY_NAME":"生坂村","S_NAME":"下生坂","SETAI":"0"}},{"type":"Feature","geometry":{"type":"Polygon","coordinates":[[[137.9384685570681,36.43075866267363],[137.93927411473516,36.43199215445486],[137.9407871197905,36.436948340560846],[137.94159464171577,36.438671099727166],[137.9425112250642,36.43938546630055],[137.94483411961312,36.44288786016005],[137.94523462049884,36.443457199105495],[137.94545069373015,36.443652419612825],[137.94648009127658,36.445577703572106],[137.94654163531703,36.445784277362186],[137.9462978718203,36.446495762836136],[137.94786472895558,36.45041821390219],[137.9481694164022,36.451462050440426],[137.948480901496,36.452736039481806],[137.94854959222053,36.45284541522633],[137.94958676012996,36.454130593214835],[137.9505133832968,36.45704580160742],[137.95033310823086,36.458043285969936],[137.95170502298643,36.46006483126747],[137.94989287457636,36.46069561262744],[137.9484264373058,36.4622656326202],[137.94690440740777,36.46379913138662],[137.94335204640498,36.46304006015906],[137.94181750372215,36.46241189644276],[137.94009603979515,36.46082602407017],[137.94008810522092,36.45977909244806],[137.94140798356275,36.45860131916306],[137.94325041594772,36.45770008626734],[137.94429125143748,36.45669544739393],[137.94545942003995,36.454118811383424],[137.9456348094924,36.45165953840699],[137.94521944502534,36.45065753300681],[137.94307311148705,36.44926764095944],[137.940275855215,36.44799635698973],[137.9389186263769,36.44667360899474],[137.93790882859935,36.44515347265597],[137.93802079664158,36.44319419206053],[137.93861533275566,36.44161723077889],[137.93581379453053,36.436877315677876],[137.93615923260944,36.435040564757735],[137.9358454040598,36.434230588691925],[137.93354124433728,36.432522186779124],[137.9357455794334,36.43053714624226],[137.9382969422259,36.430549167488614],[137.9384685570681,36.43075866267363]]]},"properties":{"KEY_CODE":"20448001001","PREF":"20","CITY":"448","CITY_NAME":"生坂村","S_NAME":"下生坂","SETAI":"70"}},{"type":"Feature","geometry":{"type":"Polygon","coordinates":[[[137.9470610331737,36.41387992088757],[137.95109265281678,36.41604489636382],[137.95132733555474,36.41680768105332],[137.95089753328298,36.41959602859108],[137.9502568200847,36.42019319323683],[137.9468318981787,36.42126131128224],[137.94343029396796,36.42223756150284],[137.94282982928036,36.42146210953221],[137.93950264527373,36.41922651139797],[137.93760824859388,36.417042700439886],[137.93672206210442,36.41492129118524],[137.93596281645716,36.41407913026616],[137.93685583425327,36.413695615918506],[137.94007259986486,36.41378135728016],[137.9419536146121,36.41222687682171],[137.9425196948647,36.412427082531856],[137.9428121830227,36.41242401120486],[137.9439428175265,36.41174724284744],[137.94413082115523,36.41169460910921],[137.9445665562725,36.41172782604596],[137.94609963911753,36.41242968579686],[137.9467975058005,36.413673462928365],[137.9470610331737,36.41387992088757]]]},"properties":{"KEY_CODE":"20448001002","PREF":"20","CITY":"448","CITY_NAME":"生坂村","S_NAME":"上生坂","SETAI":"0"}},{"type":"Feature","geometry":{"type":"Polygon","coordinates":[[[137.93354124433728,36.432522186779124],[137.93047761446954,36.431933971409066],[137.92904854465505,36.43206803656257],[137.92548499890736,36.43341298964173],[137.9238355786976,36.43358954745078],[137.92249694057398,36.43327779561552],[137.92048179360785,36.43182551244219],[137.91979864503438,36.42989657285646],[137.91992359858463,36.42816279287069],[137.92077106191786,36.42528520357508],[137.9210451218844,36.424712848508356],[137.92346873386646,36.422544000539155],[137.927094949128,36.42108203692384],[137.92979601286035,36.42123919881977],[137.93159796813842,36.42231461281613],[137.93484398237953,36.42289698081439],[137.9379399216734,36.424211818403265],[137.93774090501594,36.42469436943125],[137.9377507144018,36.428981851657625],[137.93810502487932,36.43038245441581],[137.9382969422259,36.430549167488614],[137.9357455794334,36.43053714624226],[137.93354124433728,36.432522186779124]]]},"properties":{"KEY_CODE":"20448001002","PREF":"20","CITY":"448","CITY_NAME":"生坂村","S_NAME":"上生坂","SETAI":"203"}},{"type":"Feature","geometry":{"type":"Polygon","coordinates":[[[137.9419536146121,36.41222687682171],[137.94007259986486,36.41378135728016],[137.93685583425327,36.413695615918506],[137.93596281645716,36.41407913026616],[137.93288796094248,36.412077719935034],[137.92737976590334,36.41070378137961],[137.92549114250502,36.41062061747441],[137.9227178690808,36.41007855113671],[137.92189858901088,36.40959119294916],[137.92139362281702,36.40895809038144],[137.92107528232117,36.40774812745995],[137.9215193729455,36.40649277146486],[137.92242223772834,36.405787205448725],[137.92490439944487,36.404852315655404],[137.9252678303627,36.40473230100547],[137.92656141661203,36.404292935837994],[137.92761693607375,36.403795767270694],[137.928311781627,36.403398843817286],[137.92925361845727,36.40245926483179],[137.92980723272785,36.40155181926418],[137.9300409471427,36.40079865316452],[137.93245569345495,36.40186668058699],[137.93624866808253,36.40262410505571],[137.9370383007923,36.40245313924725],[137.93750435451588,36.40142271391326],[137.94003798478803,36.401451463981054],[137.9418933195431,36.3990609103227],[137.9458304471958,36.39919257049154],[137.94975260841088,36.39984188456096],[137.94954339783698,36.40111789571763],[137.94913580538312,36.40202419266646],[137.94965069772175,36.40411529486191],[137.94944830869053,36.40665065818541],[137.94900974767515,36.40728836010145],[137.9488698935104,36.408100360535606],[137.9487766631057,36.40815410826509],[137.9482220453136,36.407793141949305],[137.94717580609475,36.408002382825906],[137.9458804035956,36.4084828669337],[137.943202650861,36.4103775108198],[137.94284385818403,36.411180170798424],[137.9419536146121,36.41222687682171]]]},"properties":{"KEY_CODE":"20448001003","PREF":"20","CITY":"448","CITY_NAME":"生坂村","S_NAME":"下生野","SETAI":"116"}},{"type":"Feature","geometry":{"type":"Polygon","coordinates":[[[137.94975260841088,36.39984188456096],[137.9458304471958,36.39919257049154],[137.9418933195431,36.3990609103227],[137.94003798478803,36.401451463981054],[137.93750435451588,36.40142271391326],[137.9370383007923,36.40245313924725],[137.93624866808253,36.40262410505571],[137.93245569345495,36.40186668058699],[137.9300409471427,36.40079865316452],[137.93009659956738,36.39969146259698],[137.92949471718092,36.39824224626506],[137.92668430046655,36.39516987852304],[137.9261705871666,36.393830591933416],[137.92639946722988,36.392574160352865],[137.9266663223944,36.39188058018559],[137.92789172898253,36.38986611860994],[137.9293256818727,36.3880895926717],[137.9304303243683,36.38530127536692],[137.9307155140576,36.38353152498115],[137.9301991507981,36.382071455581226],[137.93040267238817,36.38181567830186],[137.93064487914378,36.38164010291457],[137.9332634048831,36.38182925715562],[137.93354845732622,36.38359778055363],[137.93624946448955,36.385268697640505],[137.9397970723593,36.385067317340116],[137.94318335803027,36.38659839230833],[137.94487036960513,36.38463037119892],[137.9467496876607,36.38342085710369],[137.94772353378843,36.383744492974174],[137.94912735071404,36.38397934361056],[137.95007066212068,36.384133941896735],[137.95023986411962,36.38439914206247],[137.9504018335192,36.38463431369891],[137.95092349663838,36.385532212817665],[137.950964594479,36.3855947495269],[137.9512856839824,36.38593274403297],[137.95194059866478,36.387110735444715],[137.9529013833524,36.38814912604445],[137.95320717422388,36.38834228391529],[137.95387061081908,36.388642334767916],[137.9541124758674,36.38866223853196],[137.9545721843982,36.388768787317204],[137.9546034196732,36.38891013502035],[137.95468714507308,36.389167509622155],[137.95479334169298,36.38940537709655],[137.9550210033849,36.389821123463506],[137.95522798200315,36.38999935711359],[137.95527972002265,36.39004166207233],[137.95531640299563,36.39011396420021],[137.9555908555346,36.3907522727547],[137.95576402160745,36.390984458020895],[137.95587095499886,36.391117173528514],[137.95619679842756,36.39167992048423],[137.95659936103385,36.392149510100936],[137.95682998091718,36.39232327142082],[137.95694841895838,36.39241122168189],[137.95740384517083,36.39254882433891],[137.95757556381258,36.392683554722794],[137.95761869998455,36.39278003442434],[137.95750184865435,36.39387119462032],[137.95730155048545,36.39481292125215],[137.9573869651381,36.39498524796719],[137.956241468794,36.396044456993664],[137.953420565113,36.39890883874671],[137.95215748128197,36.39849859820669],[137.95202875995284,36.3984795969825],[137.95166274583133,36.3987843408661],[137.95052051855188,36.399520615948866],[137.94975260841088,36.39984188456096]]]},"properties":{"KEY_CODE":"20448001004","PREF":"20","CITY":"448","CITY_NAME":"生坂村","S_NAME":"小立野","SETAI":"43"}},{"type":"Feature","geometry":{"type":"Polygon","coordinates":[[[137.96042985100152,36.46376225331706],[137.95952142343154,36.46390317637805],[137.9580772647866,36.464314321213216],[137.95434050097836,36.464902665299356],[137.95108301915727,36.46610031026868],[137.94973205156288,36.46584079616142],[137.94742892781753,36.464114859834055],[137.94690440740777,36.46379913138662],[137.9484264373058,36.4622656326202],[137.94989287457636,36.46069561262744],[137.95170502298643,36.46006483126747],[137.95033310823086,36.458043285969936],[137.9505133832968,36.45704580160742],[137.94958676012996,36.454130593214835],[137.94854959222053,36.45284541522633],[137.948480901496,36.452736039481806],[137.9481694164022,36.451462050440426],[137.94786472895558,36.45041821390219],[137.9462978718203,36.446495762836136],[137.94654163531703,36.445784277362186],[137.94648009127658,36.445577703572106],[137.94545069373015,36.443652419612825],[137.94523462049884,36.443457199105495],[137.94483411961312,36.44288786016005],[137.9425112250642,36.43938546630055],[137.9415946417158,36.438671099727166],[137.9407871197905,36.436948340560846],[137.93927411473516,36.43199215445486],[137.9384685570681,36.43075866267363],[137.9382969422259,36.430549167488614],[137.93810502487932,36.43038245441581],[137.9377507144018,36.428981851657625],[137.93774090501594,36.42469436943125],[137.9379399216734,36.424211818403265],[137.93888357011795,36.42472681845005],[137.9403385917068,36.4255703705521],[137.94091775512268,36.42576856997762],[137.94200534771673,36.4259026791482],[137.94333687732754,36.425072209584556],[137.94374025204874,36.424135739879326],[137.94370730625053,36.42333016267769],[137.94343029396796,36.42223756150284],[137.9468318981787,36.42126131128224],[137.9502568200847,36.420193193236805],[137.95089753328298,36.41959602859108],[137.95132733555474,36.41680768105332],[137.95109265281678,36.41604489636382],[137.9470610331737,36.41387992088757],[137.9467975058005,36.413673462928365],[137.94609963911753,36.41242968579686],[137.9445665562725,36.41172782604596],[137.94413082115523,36.41169460910921],[137.9439428175265,36.41174724284744],[137.9428121830227,36.41242401120486],[137.9425196948647,36.412427082531856],[137.9419536146121,36.41222687682171],[137.94284385818403,36.411180170798424],[137.943202650861,36.4103775108198],[137.9458804035956,36.4084828669337],[137.94717580609475,36.408002382825906],[137.9482220453136,36.407793141949305],[137.9487766631057,36.40815410826509],[137.9488698935104,36.408100360535606],[137.94900974767515,36.40728836010145],[137.94944830869053,36.40665065818541],[137.94965069772175,36.40411529486191],[137.94913580538312,36.40202419266646],[137.94954339783698,36.40111789571763],[137.94975260841088,36.399841884560935],[137.95052051855188,36.399520615948866],[137.95166274583133,36.3987843408661],[137.95202875995284,36.3984795969825],[137.95215748128197,36.39849859820669],[137.953420565113,36.39890883874671],[137.956241468794,36.396044456993664],[137.9573869651381,36.39498524796719],[137.95988671264016,36.39557070958117],[137.96102999290696,36.39746008722774],[137.9630408666726,36.39989690840293],[137.96452251124737,36.40034508928526],[137.96707603384297,36.4026006726913],[137.96936635974788,36.40272450029818],[137.97031311997563,36.403579727507065],[137.97261312300105,36.404408903022436],[137.97140404639447,36.40574913515811],[137.97013469052297,36.406163537291306],[137.96938602918166,36.40642273571775],[137.96900470853555,36.40677977326442],[137.9691296254001,36.40751539609934],[137.96913953535477,36.407646680820335],[137.96924812194635,36.40839532589756],[137.9688244149301,36.41021354136176],[137.9684724683509,36.41102575983143],[137.96837773348366,36.41142346427794],[137.96884984759512,36.412046843847726],[137.96952489775597,36.413073646419676],[137.96942407479906,36.41379762540323],[137.9692087403888,36.41499018894222],[137.9681460889633,36.41478106975255],[137.96722073986564,36.41432154612488],[137.96461716973516,36.413251567595076],[137.96241844045656,36.41333790591619],[137.95854002931583,36.41303175102951],[137.95739634594645,36.41316765826687],[137.95629816246608,36.41361165504542],[137.9559928472139,36.41414906232006],[137.95503755779205,36.421405433759816],[137.95476652928994,36.424989648299736],[137.95624546181543,36.433330955456256],[137.95772663501418,36.44012462753447],[137.95864565514617,36.44433892394847],[137.96009658215917,36.448669662417615],[137.96261167430472,36.45438935549552],[137.96291618611863,36.454957284298835],[137.9634056978334,36.45656255361649],[137.96332905786048,36.458043462817294],[137.96315535265686,36.460135963039036],[137.96242571072239,36.460250410287415],[137.96152887853538,36.45978219511669],[137.96082017474166,36.45961514407478],[137.96034132659238,36.45981432444613],[137.9601947946123,36.460233481107906],[137.96047334504988,36.46119891030439],[137.96032917508032,36.461692600922014],[137.96029672534698,36.462233936091344],[137.96042985100152,36.46376225331706]]]},"properties":{"KEY_CODE":"20448001005","PREF":"20","CITY":"448","CITY_NAME":"生坂村","S_NAME":"","SETAI":"0"}},{"type":"Feature","geometry":{"type":"Polygon","coordinates":[[[137.93354124433728,36.432522186779124],[137.9358454040598,36.434230588691925],[137.93615923260944,36.435040564757735],[137.93581379453053,36.436877315677876],[137.93861533275566,36.44161723077889],[137.9368323603616,36.441503447943184],[137.93623765774117,36.44065523511773],[137.93548959665293,36.44089876268585],[137.9344504215772,36.44025498087767],[137.93324880987942,36.440480400051655],[137.9294131643878,36.43966390794742],[137.9275307836214,36.441042845720744],[137.92497062343585,36.441359959130686],[137.92209556965526,36.440687322621336],[137.91811420424912,36.441130164519876],[137.9156307610335,36.440852412148196],[137.91452807509998,36.44032169182804],[137.91429079372682,36.4381036314735],[137.9140285763889,36.43673115059986],[137.9138463824568,36.43542415135344],[137.91357783429842,36.43490237463836],[137.9125187018829,36.43409647976449],[137.91039103418404,36.433196898132195],[137.90976693611165,36.433114071473014],[137.90913119049205,36.43286611192408],[137.9089842468373,36.432785258321495],[137.9086981652533,36.43245573617508],[137.91701021058077,36.42834782197705],[137.92077106191786,36.42528520357508],[137.91992359858463,36.42816279287069],[137.91979864503438,36.42989657285646],[137.92048179360785,36.43182551244219],[137.92249694057398,36.43327779561552],[137.9238355786976,36.43358954745078],[137.92548499890736,36.43341298964173],[137.92904854465505,36.43206803656257],[137.93047761446954,36.431933971409066],[137.93354124433728,36.432522186779124]]]},"properties":{"KEY_CODE":"20448002001","PREF":"20","CITY":"448","CITY_NAME":"生坂村","S_NAME":"大字北陸郷草尾","SETAI":"56"}},{"type":"Feature","geometry":{"type":"Polygon","coordinates":[[[137.93596281645716,36.41407913026616],[137.93672206210442,36.41492129118524],[137.93760824859388,36.417042700439886],[137.93950264527373,36.41922651139797],[137.94282982928036,36.42146210953221],[137.94343029396796,36.42223756150284],[137.94370730625053,36.42333016267769],[137.94374025204874,36.424135739879326],[137.94333687732754,36.425072209584535],[137.94200534771673,36.4259026791482],[137.94091775512268,36.42576856997762],[137.9403385917068,36.4255703705521],[137.93888357011795,36.42472681845005],[137.9379399216734,36.424211818403265],[137.93484398237953,36.42289698081439],[137.93159796813842,36.42231461281613],[137.92979601286035,36.42123919881977],[137.927094949128,36.42108203692384],[137.92346873386646,36.422544000539155],[137.9210451218844,36.424712848508356],[137.92077106191786,36.42528520357508],[137.91675487297064,36.42452947644518],[137.9140814525745,36.42354122534189],[137.91411429946345,36.421589268348264],[137.91535509877414,36.421230370331536],[137.91674742007052,36.42000332567927],[137.9172437507676,36.4183905319215],[137.91984220507698,36.41617222995583],[137.92188686092754,36.414883667057524],[137.92386371458778,36.41410633144382],[137.92480188971828,36.41319218953217],[137.92544552926051,36.41173818519955],[137.92557716613746,36.411640638432026],[137.92561601702707,36.4114444593949],[137.92549114250502,36.41062061747441],[137.92737976590334,36.41070378137961],[137.93288796094248,36.412077719935034],[137.93596281645716,36.41407913026616]]]},"properties":{"KEY_CODE":"20448002002","PREF":"20","CITY":"448","CITY_NAME":"生坂村","S_NAME":"大字北陸郷日岐","SETAI":"61"}},{"type":"Feature","geometry":{"type":"Polygon","coordinates":[[[137.92613318861544,36.44978135646393],[137.92261625321262,36.450035779273115],[137.92134138492148,36.44590097424665],[137.91922038114586,36.4449565479888],[137.91735423177937,36.44277452714447],[137.9148101023935,36.44208232239833],[137.9140713422472,36.44110481424429],[137.9128286097721,36.440878116550664],[137.9130043217057,36.44075707118308],[137.9132157878351,36.44063803091826],[137.91358203637571,36.44052721387711],[137.91452807509998,36.44032169182804],[137.9156307610335,36.440852412148196],[137.91811420424912,36.441130164519876],[137.92209556965526,36.440687322621336],[137.92497062343585,36.441359959130686],[137.9275307836214,36.441042845720744],[137.9294131643878,36.43966390794742],[137.93324880987942,36.440480400051655],[137.9344504215772,36.44025498087767],[137.93548959665293,36.44089876268585],[137.93623765774117,36.44065523511773],[137.9368323603616,36.441503447943184],[137.93861533275566,36.44161723077889],[137.93802079664158,36.44319419206053],[137.93790882859935,36.44515347265597],[137.9389186263769,36.44667360899474],[137.93668910802668,36.44711348290163],[137.93391498689292,36.4481662031406],[137.93292847067173,36.44765242050338],[137.93200379858766,36.44625211593716],[137.9302572942417,36.445314337201715],[137.92921624545278,36.44617671499994],[137.92650370675779,36.44637735714462],[137.92699341151746,36.447808146476056],[137.92613318861544,36.44978135646393]]]},"properties":{"KEY_CODE":"20448003001","PREF":"20","CITY":"448","CITY_NAME":"生坂村","S_NAME":"大字東広津昭津","SETAI":"15"}},{"type":"Feature","geometry":{"type":"Polygon","coordinates":[[[137.94895332158347,36.4892274956843],[137.94621738481112,36.48936745852917],[137.9449357817129,36.48916404674207],[137.9425696461502,36.48810711314396],[137.93900889394394,36.4879167917366],[137.93864856976307,36.487758430382385],[137.93822642172722,36.487582701038],[137.93768079519558,36.487227794660384],[137.93753129328942,36.48707211886572],[137.93706964190042,36.48652997004622],[137.93693327419064,36.48634865685952],[137.93752391112142,36.485472391786345],[137.9378041078497,36.48492679790501],[137.93815547231574,36.48437794642368],[137.9383427687953,36.4842550211775],[137.93836816079806,36.48407063807665],[137.93830101306958,36.48379355338687],[137.93932941485653,36.48247692933093],[137.93939182295267,36.48155700051783],[137.9392832368358,36.48105867503766],[137.93913810398305,36.48082339676881],[137.94018138848278,36.48056687371885],[137.9403619140138,36.48039578491181],[137.94052269182095,36.47985362819851],[137.94095123612806,36.479466527848324],[137.94121030671965,36.479277709356886],[137.941302155675,36.47818777071649],[137.94155280007513,36.47760984229529],[137.94261873287388,36.477397645836305],[137.94340659342012,36.47690364371643],[137.94403872226206,36.47624602482327],[137.94521864581688,36.47654555817566],[137.945627863089,36.47572404209687],[137.94573221231778,36.47522685232654],[137.9460608407782,36.474703558131935],[137.94725920831343,36.47477243145421],[137.94862706676514,36.474642994983284],[137.95031320661988,36.473863518179265],[137.95166322400829,36.47307339079869],[137.95286680828866,36.472400259616805],[137.95333589512404,36.47180969713777],[137.95301887659033,36.47115493021707],[137.95213129281134,36.46997167638112],[137.95245015749137,36.46970058238715],[137.95343760968592,36.46941585619165],[137.95537897471135,36.469691654393465],[137.957302715566,36.470909223879666],[137.9582695196772,36.47195872180909],[137.9577316320281,36.47239976766424],[137.95740960572428,36.47273194545505],[137.95730848067234,36.4729708451495],[137.95709079982805,36.47381262782137],[137.9566968163945,36.47516654070184],[137.95653638885372,36.47544494977195],[137.95605956736642,36.47618883922551],[137.95564720434731,36.47663920200343],[137.95544844067865,36.47681875474784],[137.95480892950516,36.477229280762785],[137.95271338705217,36.47849984119386],[137.95200179447258,36.478995006678474],[137.95121408209639,36.4795947290087],[137.95074572486453,36.48005217164955],[137.95031239989515,36.480610142949665],[137.949726300608,36.48165861887559],[137.9493604596442,36.48250458785418],[137.94967084405542,36.48505297887198],[137.95014595405254,36.48540602476571],[137.95120429544937,36.485357327503294],[137.9525632812657,36.485233717736655],[137.95290843259048,36.485203162847355],[137.95310101360124,36.485648615171904],[137.9513772832996,36.48818605395625],[137.95116222630313,36.48840730685286],[137.94895332158347,36.4892274956843]]]},"properties":{"KEY_CODE":"20448003002","PREF":"20","CITY":"448","CITY_NAME":"生坂村","S_NAME":"大字東広津古坂","SETAI":"11"}},{"type":"Feature","geometry":{"type":"Polygon","coordinates":[[[137.94403872226206,36.47624602482327],[137.94340659342012,36.47690364371643],[137.94261873287388,36.477397645836305],[137.94155280007513,36.47760984229529],[137.941302155675,36.47818777071649],[137.94121030671965,36.479277709356886],[137.94095123612806,36.479466527848324],[137.94052269182095,36.47985362819851],[137.9403619140138,36.48039578491181],[137.94018138848278,36.48056687371885],[137.93913810398305,36.48082339676881],[137.93721155531978,36.47948497704101],[137.93695955834391,36.47797226573143],[137.93440443720945,36.47702725281395],[137.93461175746182,36.47553565300431],[137.93333885121535,36.47537980603597],[137.9325733459507,36.47464124133486],[137.93127694174638,36.47496099758891],[137.93058450259227,36.473986095969515],[137.92906001747426,36.47311441597553],[137.92808841659377,36.47174663783991],[137.92682729635098,36.47156500900817],[137.92681227609802,36.469359632705306],[137.9282687143688,36.46795315612681],[137.9295257382703,36.46725083198872],[137.93312238768576,36.468327685037494],[137.93502580325836,36.46811670107543],[137.9360734629118,36.46718920698044],[137.9383133636353,36.46681094711739],[137.9381462478333,36.46618879098319],[137.93614193359852,36.46461381142916],[137.93884501841833,36.46564567855352],[137.9379390285404,36.46469013285993],[137.93922949233098,36.46477535284164],[137.94181750372215,36.46241189644276],[137.94335204640498,36.46304006015906],[137.94690440740777,36.46379913138662],[137.94742892781753,36.464114859834055],[137.94973205156288,36.46584079616142],[137.95108301915727,36.46610031026868],[137.95434050097836,36.464902665299356],[137.9580772647866,36.464314321213216],[137.95952142343154,36.46390317637805],[137.96042985100152,36.46376225331706],[137.9619515019964,36.46496624210793],[137.96130187895122,36.466626987749216],[137.95922891910135,36.46754274722481],[137.9589500218851,36.468803489111984],[137.95904440435788,36.471388731325234],[137.9582695196772,36.471958721809116],[137.957302715566,36.470909223879666],[137.95537897471135,36.469691654393465],[137.95343760968592,36.46941585619165],[137.95245015749137,36.46970058238715],[137.95213129281134,36.46997167638112],[137.95301887659033,36.47115493021707],[137.95333589512404,36.47180969713777],[137.95286680828866,36.472400259616805],[137.95166322400829,36.47307339079869],[137.95031320661988,36.473863518179265],[137.94862706676514,36.47464299498328],[137.94725920831343,36.47477243145421],[137.9460608407782,36.474703558131935],[137.94573221231778,36.47522685232654],[137.945627863089,36.47572404209687],[137.94521864581688,36.47654555817566],[137.94403872226206,36.47624602482327]]]},"properties":{"KEY_CODE":"20448003003","PREF":"20","CITY":"448","CITY_NAME":"生坂村","S_NAME":"大字東広津宇留賀","SETAI":"46"}},{"type":"Feature","geometry":{"type":"Polygon","coordinates":[[[137.94181750372215,36.46241189644276],[137.93922949233098,36.46477535284164],[137.9379390285404,36.46469013285993],[137.93884501841833,36.46564567855352],[137.93614193359852,36.46461381142916],[137.93433492070676,36.46218552021052],[137.93380731131103,36.461002841458594],[137.93298454434682,36.460811032849804],[137.93267151441168,36.45979458387186],[137.93369133351575,36.45827200412903],[137.93116924725035,36.45635236662732],[137.93108508801498,36.455371463561384],[137.93021511622283,36.45504109871277],[137.92918413613717,36.45353478405683],[137.92824522511665,36.453178834766305],[137.92784653310562,36.45051204060669],[137.92613318861544,36.44978135646393],[137.92699341151746,36.447808146476056],[137.92650370675779,36.44637735714462],[137.92921624545278,36.44617671499994],[137.9302572942417,36.445314337201715],[137.93200379858766,36.44625211593716],[137.93292847067173,36.44765242050338],[137.93391498689292,36.4481662031406],[137.93668910802668,36.44711348290163],[137.9389186263769,36.44667360899474],[137.940275855215,36.44799635698973],[137.94307311148705,36.44926764095944],[137.94521944502534,36.45065753300681],[137.9456348094924,36.45165953840699],[137.94545942003995,36.454118811383424],[137.94429125143748,36.45669544739393],[137.94325041594772,36.45770008626734],[137.94140798356275,36.45860131916306],[137.94008810522092,36.45977909244806],[137.94009603979515,36.46082602407017],[137.94181750372215,36.46241189644276]]]},"properties":{"KEY_CODE":"20448003004","PREF":"20","CITY":"448","CITY_NAME":"生坂村","S_NAME":"大字東広津大日向","SETAI":"43"}},{"type":"Feature","geometry":{"type":"Polygon","coordinates":[[[137.91452807509998,36.44032169182804],[137.91358203637571,36.44052721387711],[137.9132157878351,36.44063803091826],[137.9130043217057,36.44075707118308],[137.91253626316902,36.44077321358334],[137.91187105611374,36.44057497684711],[137.9115591185895,36.44054351478344],[137.91132649084963,36.44052184436715],[137.910502011462,36.44025870658366],[137.91020359128962,36.44026064752892],[137.90985997753666,36.44035642793011],[137.90941154234423,36.44046277660655],[137.9084335146934,36.44063320461637],[137.9081317778177,36.4407907567331],[137.90798229834178,36.44096786476354],[137.9074461798418,36.441472242050736],[137.90742746526698,36.441429375118645],[137.90725833546267,36.440848831487884],[137.90711294940323,36.44006232139423],[137.9071187385961,36.43986228631411],[137.9070776902732,36.43969106137082],[137.9069429414785,36.439598051326406],[137.90601132115623,36.439287487394424],[137.90535628734239,36.43893612319655],[137.906632645526,36.43656041272018],[137.90690405076893,36.43523111752609],[137.90976693611165,36.433114071473014],[137.91039103418404,36.433196898132195],[137.9125187018829,36.43409647976449],[137.91357783429842,36.43490237463836],[137.9138463824568,36.43542415135344],[137.9140285763889,36.43673115059986],[137.91429079372682,36.4381036314735],[137.91452807509998,36.44032169182804]]]},"properties":{"KEY_CODE":"20448003005","PREF":"20","CITY":"448","CITY_NAME":"生坂村","S_NAME":"大字東広津草尾","SETAI":"1"}}]}