{"type":"FeatureCollection","features":[{"type":"Feature","geometry":{"type":"Polygon","coordinates":[[[138.17288862531728,36.4736358976994],[138.16838921656066,36.47424271132723],[138.16586982400443,36.47416605646945],[138.1609573585193,36.473489581334746],[138.1594171525288,36.47200908099143],[138.1571736476412,36.47001769079281],[138.16044282331038,36.468258057943025],[138.16266497592605,36.46722868154329],[138.16432315462973,36.46693638755101],[138.16907217210286,36.46444616927292],[138.17054918109332,36.46501310127837],[138.17157205893693,36.4675461218737],[138.1716653590017,36.46918682910279],[138.1728194677107,36.47196936477362],[138.17288862531728,36.4736358976994]]]},"properties":{"KEY_CODE":"20521001001","PREF":"20","CITY":"521","CITY_NAME":"坂城町","S_NAME":"大字坂城苅屋原","SETAI":"61"}},{"type":"Feature","geometry":{"type":"Polygon","coordinates":[[[138.17742756008874,36.465930174037126],[138.17847984560635,36.468000897120284],[138.17929797784362,36.468170856511136],[138.1795320837156,36.47103076047989],[138.1774856064303,36.47249106852678],[138.17288862531728,36.4736358976994],[138.1728194677107,36.47196936477362],[138.1716653590017,36.46918682910279],[138.17157205893693,36.4675461218737],[138.17054918109332,36.46501310127837],[138.16907217210286,36.46444616927292],[138.17495949941414,36.45979737021391],[138.17556585810672,36.46049971865395],[138.17713768866537,36.462281404382445],[138.17663558541088,36.462613818995194],[138.1797823603128,36.46521648557897],[138.17958747738126,36.465528721795906],[138.17718129612942,36.465398403232406],[138.17742756008874,36.465930174037126]]]},"properties":{"KEY_CODE":"20521001002","PREF":"20","CITY":"521","CITY_NAME":"坂城町","S_NAME":"大字坂城坂端","SETAI":"75"}},{"type":"Feature","geometry":{"type":"Polygon","coordinates":[[[138.18330270248399,36.47122510394794],[138.1835727163569,36.473646894554115],[138.1816935704635,36.47300339839268],[138.18100557678483,36.47379743315565],[138.18166399660117,36.47616433457805],[138.18124636915545,36.478224833881605],[138.17912471112643,36.47968501043806],[138.17594684053503,36.480728704140915],[138.17634867797605,36.479949259704036],[138.17623437853342,36.477571538732285],[138.17288862531728,36.4736358976994],[138.1774856064303,36.47249106852678],[138.1795320837156,36.47103076047989],[138.17929797784362,36.468170856511136],[138.17847984560635,36.468000897120284],[138.17742756008874,36.465930174037126],[138.1796462313025,36.4672244259086],[138.18080587208993,36.46748608937971],[138.18090376649332,36.466685964701696],[138.18281678815035,36.46717669818439],[138.18165517551446,36.47013454745644],[138.18330270248399,36.47122510394794]]]},"properties":{"KEY_CODE":"20521001003","PREF":"20","CITY":"521","CITY_NAME":"坂城町","S_NAME":"大字坂城大宮","SETAI":"97"}},{"type":"Feature","geometry":{"type":"Polygon","coordinates":[[[138.18281678815035,36.46717669818439],[138.18090376649332,36.466685964701696],[138.18080587208993,36.46748608937971],[138.1796462313025,36.4672244259086],[138.17742756008874,36.465930174037126],[138.17718129612942,36.465398403232406],[138.17958747738126,36.465528721795906],[138.1797823603128,36.46521648557897],[138.18144020077634,36.46553587859457],[138.1831129378632,36.46682621042148],[138.18281678815035,36.46717669818439]]]},"properties":{"KEY_CODE":"20521001004","PREF":"20","CITY":"521","CITY_NAME":"坂城町","S_NAME":"大字坂城新町","SETAI":"75"}},{"type":"Feature","geometry":{"type":"Polygon","coordinates":[[[138.18643798990604,36.4690278969252],[138.18462211467568,36.46952418092691],[138.18551337465522,36.47115572216957],[138.18330270248399,36.47122510394794],[138.18165517551446,36.47013454745644],[138.18281678815035,36.46717669818439],[138.1831129378632,36.46682621042148],[138.1853268146054,36.468472567152794],[138.1865020388705,36.46878462369472],[138.18643798990604,36.4690278969252]]]},"properties":{"KEY_CODE":"20521001005","PREF":"20","CITY":"521","CITY_NAME":"坂城町","S_NAME":"大字坂城日名沢","SETAI":"105"}},{"type":"Feature","geometry":{"type":"Polygon","coordinates":[[[138.19032573339328,36.4900784380504],[138.18679769577832,36.488227318360565],[138.1844504147034,36.48780443900491],[138.1830770468214,36.48821448394913],[138.18123570343462,36.487894353580494],[138.1791735481904,36.48687643074432],[138.17740530225637,36.486920888423505],[138.17762864085438,36.48605945272054],[138.1763175938104,36.485636032465266],[138.1755398231691,36.48383334707442],[138.17544127247564,36.48265829842547],[138.17594684053503,36.480728704140915],[138.17912471112643,36.47968501043806],[138.18124636915545,36.478224833881605],[138.18166399660117,36.47616433457805],[138.18100557678483,36.47379743315565],[138.1816935704635,36.47300339839268],[138.1835727163569,36.473646894554115],[138.18330270248399,36.47122510394794],[138.18551337465522,36.47115572216957],[138.18462211467568,36.46952418092691],[138.18643798990604,36.4690278969252],[138.187739719718,36.469339568549806],[138.18795460921305,36.469948081340796],[138.18936443213914,36.470014917186624],[138.19182055804853,36.47111711079914],[138.19229795649218,36.472137244066815],[138.19434768009947,36.472602968133344],[138.19599773439134,36.473630329693215],[138.19677169465217,36.475598403150975],[138.19420870130256,36.480169066144406],[138.19457102835997,36.48031650073517],[138.1951052715492,36.48045666163069],[138.1955923297852,36.48045789647019],[138.19587775583324,36.48072855234516],[138.19595174509612,36.48134569700251],[138.19661981627272,36.481455351820756],[138.19873930645352,36.482868160789494],[138.19891488502228,36.48304810090809],[138.19891905573297,36.48306265116533],[138.19891503337396,36.48311034080738],[138.1988202265857,36.48320187345139],[138.1988109584625,36.483269790093864],[138.1989078374974,36.48330685768052],[138.19902093830976,36.48329781477556],[138.19915270553145,36.48328723487598],[138.1993469609938,36.483311592805656],[138.19955653834427,36.48335929422441],[138.19952369284465,36.48338047350109],[138.19950369897475,36.48339858742937],[138.19945914564659,36.48345448133746],[138.19938572132162,36.483501467549765],[138.199313623961,36.48353757952639],[138.19903939042405,36.48359704679408],[138.1989846417312,36.483628520002924],[138.19895297347026,36.483677723224204],[138.1989415170198,36.48373158856882],[138.19889480822556,36.483847638284445],[138.1988762621422,36.483991746307105],[138.19887243427283,36.48414623834912],[138.1987897000842,36.48427152598758],[138.19870278899634,36.48432213757413],[138.19866276074657,36.484368679906034],[138.19861941798996,36.48447100909534],[138.19854155818308,36.48458743735445],[138.19854965164896,36.484965355721535],[138.19861470107634,36.48542822154585],[138.19827948858958,36.485666465832786],[138.1970163889821,36.486264793659636],[138.19663230639196,36.48678051464375],[138.1967178814195,36.48688098353426],[138.19688891983512,36.48710504829288],[138.1969550200577,36.487298015401784],[138.19683055298134,36.48737479027501],[138.19621157856955,36.48691054483062],[138.19606421273846,36.48673666595024],[138.19598878519818,36.486489677626324],[138.1959990609973,36.48630464513208],[138.19591451024735,36.48594966153733],[138.195762409482,36.48577189400353],[138.19544927992897,36.48525440036817],[138.19538316465218,36.48506142866145],[138.1950409104195,36.48466724608545],[138.19458408070724,36.484265061083825],[138.1942518738919,36.48373980404705],[138.1936429263603,36.48316758675585],[138.19308422572217,36.48196307931274],[138.19073505182743,36.48670769106773],[138.19032573339328,36.4900784380504]]]},"properties":{"KEY_CODE":"20521001006","PREF":"20","CITY":"521","CITY_NAME":"坂城町","S_NAME":"大字坂城北日名","SETAI":"151"}},{"type":"Feature","geometry":{"type":"Polygon","coordinates":[[[138.19677169465217,36.475598403150975],[138.19599773439134,36.473630329693215],[138.19434768009947,36.472602968133344],[138.19229795649218,36.472137244066815],[138.19182055804853,36.47111711079914],[138.18936443213914,36.470014917186624],[138.18795460921305,36.469948081340796],[138.187739719718,36.469339568549806],[138.18643798990604,36.4690278969252],[138.1865020388705,36.46878462369472],[138.1869564907192,36.4663786385904],[138.18967337512652,36.46658708240159],[138.1920825550743,36.46729725316225],[138.19313158011687,36.46672566199159],[138.19571835618595,36.466211863296905],[138.19587808259038,36.46576956923973],[138.19735586993588,36.46593545561509],[138.19856919078083,36.46667154442975],[138.2007076738618,36.46655799973071],[138.19956489768114,36.47070443662768],[138.19677169465217,36.475598403150975]]]},"properties":{"KEY_CODE":"20521001007","PREF":"20","CITY":"521","CITY_NAME":"坂城町","S_NAME":"大字坂城南日名","SETAI":"129"}},{"type":"Feature","geometry":{"type":"Polygon","coordinates":[[[138.1865020388705,36.46878462369472],[138.1853268146054,36.468472567152794],[138.1831129378632,36.46682621042148],[138.18322728465128,36.466472175745366],[138.18466077074734,36.466573852851695],[138.18469767186068,36.466049711089454],[138.1869564907192,36.4663786385904],[138.1865020388705,36.46878462369472]]]},"properties":{"KEY_CODE":"20521001008","PREF":"20","CITY":"521","CITY_NAME":"坂城町","S_NAME":"大字坂城旭ヶ丘","SETAI":"68"}},{"type":"Feature","geometry":{"type":"Polygon","coordinates":[[[138.1820720179284,36.46341466621153],[138.18118473110275,36.46460609766752],[138.182734155499,36.4649293726797],[138.18322728465128,36.466472175745366],[138.1831129378632,36.46682621042148],[138.18144020077634,36.46553587859457],[138.1797823603128,36.46521648557897],[138.17663558541088,36.462613818995194],[138.17713768866537,36.462281404382445],[138.18203082214697,36.45921991692756],[138.1832991081778,36.46034941579441],[138.18044683536885,36.46299918797754],[138.1813141800355,36.46266699483732],[138.1820720179284,36.46341466621153]]]},"properties":{"KEY_CODE":"20521001009","PREF":"20","CITY":"521","CITY_NAME":"坂城町","S_NAME":"大字坂城立町","SETAI":"114"}},{"type":"Feature","geometry":{"type":"Polygon","coordinates":[[[138.19587808259038,36.46576956923973],[138.19571835618595,36.466211863296905],[138.19313158011687,36.46672566199159],[138.1920825550743,36.46729725316225],[138.18967337512652,36.46658708240159],[138.1869564907192,36.4663786385904],[138.18469767186068,36.466049711089454],[138.18466077074734,36.466573852851695],[138.18322728465128,36.466472175745366],[138.182734155499,36.4649293726797],[138.18118473110275,36.46460609766752],[138.1820720179284,36.46341466621153],[138.18343420360833,36.46370183986258],[138.1845130006891,36.46316835360445],[138.1852069742313,36.46311365153727],[138.1870764018931,36.46356586001501],[138.18741060469645,36.461458554262435],[138.19163941862558,36.46357473569459],[138.192704383025,36.46511576802232],[138.19402574081133,36.46582970892677],[138.19587808259038,36.46576956923973]]]},"properties":{"KEY_CODE":"20521001010","PREF":"20","CITY":"521","CITY_NAME":"坂城町","S_NAME":"大字坂城込山","SETAI":"231"}},{"type":"Feature","geometry":{"type":"Polygon","coordinates":[[[138.18741060469645,36.461458554262435],[138.1870764018931,36.46356586001501],[138.1852069742313,36.46311365153727],[138.18733193937888,36.46146334564407],[138.18741060469645,36.461458554262435]]]},"properties":{"KEY_CODE":"20521001011","PREF":"20","CITY":"521","CITY_NAME":"坂城町","S_NAME":"大字坂城横町","SETAI":"0"}},{"type":"Feature","geometry":{"type":"Polygon","coordinates":[[[138.1845130006891,36.46316835360445],[138.18343420360833,36.46370183986258],[138.1820720179284,36.46341466621153],[138.1813141800355,36.46266699483732],[138.18044683536885,36.46299918797754],[138.1832991081778,36.46034941579441],[138.1840728688179,36.460624243597685],[138.1839672582716,36.46170177477776],[138.18464320452702,36.46205435248256],[138.1845130006891,36.46316835360445]]]},"properties":{"KEY_CODE":"20521001011","PREF":"20","CITY":"521","CITY_NAME":"坂城町","S_NAME":"大字坂城横町","SETAI":"94"}},{"type":"Feature","geometry":{"type":"Polygon","coordinates":[[[138.1852069742313,36.46311365153727],[138.1845130006891,36.46316835360445],[138.18464320452702,36.46205435248256],[138.1839672582716,36.46170177477776],[138.1840728688179,36.460624243597685],[138.1832991081778,36.46034941579441],[138.18428344471482,36.4591376903501],[138.18514948351412,36.45927274345769],[138.1856834978906,36.458374971585755],[138.18701866159142,36.4588854135386],[138.1867917318103,36.4595848415339],[138.18788237655787,36.45988998162364],[138.18733193937888,36.46146334564407],[138.1852069742313,36.46311365153727]]]},"properties":{"KEY_CODE":"20521001012","PREF":"20","CITY":"521","CITY_NAME":"坂城町","S_NAME":"大字坂城田町","SETAI":"97"}},{"type":"Feature","geometry":{"type":"Polygon","coordinates":[[[138.2007076738618,36.46655799973071],[138.19856919078083,36.46667154442975],[138.19735586993588,36.46593545561509],[138.19587808259038,36.46576956923973],[138.19402574081133,36.46582970892677],[138.192704383025,36.46511576802232],[138.19163941862558,36.46357473569459],[138.18741060469645,36.461458554262435],[138.18733193937888,36.46146334564407],[138.18788237655787,36.45988998162364],[138.19004861665624,36.46000037811214],[138.1909007165374,36.45767068840547],[138.195248958999,36.45911617258749],[138.1984491210264,36.45870233424892],[138.19878083881164,36.4581003468377],[138.1995852840252,36.45630913764608],[138.2031614117011,36.45758603911001],[138.20222673169715,36.46233302543422],[138.20143466562496,36.46497488988528],[138.2007076738618,36.46655799973071]]]},"properties":{"KEY_CODE":"20521001013","PREF":"20","CITY":"521","CITY_NAME":"坂城町","S_NAME":"大字坂城御所沢","SETAI":"160"}},{"type":"Feature","geometry":{"type":"Polygon","coordinates":[[[138.1832991081778,36.46034941579441],[138.18203082214697,36.45921991692756],[138.17713768866537,36.462281404382445],[138.17556585810672,36.46049971865395],[138.177877792072,36.45708360384055],[138.17907243447496,36.45471996615193],[138.17965670162545,36.45356394855101],[138.18642404484046,36.453036007102426],[138.1889362336873,36.45313096058602],[138.18957498212527,36.45356984578807],[138.19067387562092,36.4530842991286],[138.1913485322865,36.45211683903868],[138.19427285306674,36.45227396995737],[138.19354149932562,36.45346182954084],[138.19665197091896,36.45694338456452],[138.19878083881164,36.4581003468377],[138.1984491210264,36.45870233424892],[138.195248958999,36.45911617258749],[138.1909007165374,36.45767068840547],[138.19004861665624,36.46000037811214],[138.18788237655787,36.45988998162364],[138.1867917318103,36.4595848415339],[138.18701866159142,36.4588854135386],[138.1856834978906,36.458374971585755],[138.18514948351412,36.45927274345769],[138.18428344471482,36.4591376903501],[138.1832991081778,36.46034941579441]]]},"properties":{"KEY_CODE":"20521001014","PREF":"20","CITY":"521","CITY_NAME":"坂城町","S_NAME":"大字坂城四ツ屋","SETAI":"437"}},{"type":"Feature","geometry":{"type":"Polygon","coordinates":[[[138.19427285306674,36.45227396995737],[138.1972351477015,36.45248104454867],[138.19869996100857,36.45411543153345],[138.1988123476297,36.45601819077338],[138.1995852840252,36.45630913764608],[138.19878083881164,36.4581003468377],[138.19665197091896,36.45694338456452],[138.19354149932562,36.45346182954084],[138.19427285306674,36.45227396995737]]]},"properties":{"KEY_CODE":"20521001015","PREF":"20","CITY":"521","CITY_NAME":"坂城町","S_NAME":"大字坂城戌久保","SETAI":"66"}},{"type":"Feature","geometry":{"type":"Polygon","coordinates":[[[138.22135631175166,36.48329255968771],[138.22180383766334,36.486102300953306],[138.22079479924864,36.48761938661586],[138.22014749425938,36.48821119492367],[138.21905427148923,36.488577896517704],[138.21859078301304,36.48897062357073],[138.21940814336176,36.49010220571781],[138.2195356055429,36.49035122743519],[138.21945756142776,36.49064123110734],[138.2185054394675,36.49127112121809],[138.21791524580397,36.4912075372724],[138.21747694750357,36.49173500272741],[138.21624276971997,36.49227093122814],[138.21589502943294,36.49259135975987],[138.21467176291432,36.49364545169397],[138.21316365737766,36.493615859257034],[138.21278966027336,36.49409166601295],[138.21255699825187,36.49452634794521],[138.2118492615805,36.49500133465842],[138.21050557765116,36.49562500282346],[138.20965690392498,36.49602707580389],[138.20785402939092,36.49756673288835],[138.20658156392554,36.49799879227926],[138.20411427445413,36.49868688977895],[138.20382190544586,36.499613629425376],[138.20358829757456,36.50027628375717],[138.2019241667636,36.50095454610385],[138.20179233067455,36.501052877429125],[138.20147727904217,36.50080012337261],[138.20126656951237,36.500466848404436],[138.20126397982224,36.500121405329494],[138.20120999215553,36.49987407847557],[138.20123117808734,36.49896299946284],[138.20087401092226,36.49742347851253],[138.2004911393396,36.49644483639504],[138.20028836127617,36.49609571458264],[138.20021059173598,36.49590535540073],[138.20000832725054,36.494920846246565],[138.1996026722066,36.494756615558806],[138.19874942383439,36.49411425881045],[138.1978114939513,36.493555672023646],[138.19740818951658,36.49330111713283],[138.19690752826904,36.49284031198227],[138.19682132743537,36.4928084141856],[138.19538172953,36.49258297272466],[138.1948248519238,36.49246115045091],[138.194229728943,36.49208887362961],[138.1925444239913,36.490983362059886],[138.19181818090254,36.49052357529718],[138.19059665474214,36.49025584533941],[138.19043622154703,36.4901350093984],[138.1907350518274,36.48670769106773],[138.1930842257222,36.48196307931274],[138.1936429263603,36.48316758675585],[138.1942518738919,36.48373980404705],[138.19458408070724,36.484265061083825],[138.1950409104195,36.48466724608545],[138.19538316465218,36.48506142866145],[138.19544927992897,36.48525440036817],[138.195762409482,36.48577189400353],[138.19591451024735,36.48594966153733],[138.1959990609973,36.48630464513208],[138.19598878519818,36.486489677626324],[138.19606421273846,36.48673666595024],[138.19621157856955,36.48691054483062],[138.19683055298134,36.48737479027501],[138.1969550200577,36.487298015401784],[138.19688891983512,36.48710504829288],[138.1967178814195,36.48688098353426],[138.19663230639196,36.48678051464375],[138.1970163889821,36.486264793659636],[138.19827948858958,36.485666465832786],[138.19861470107634,36.48542822154585],[138.19854965164896,36.484965355721535],[138.19854155818308,36.48458743735445],[138.19861941798996,36.48447100909534],[138.19866276074657,36.484368679906034],[138.19870278899634,36.48432213757413],[138.1987897000842,36.48427152598758],[138.19887243427283,36.48414623834912],[138.1988762621422,36.483991746307105],[138.19889480822556,36.483847638284445],[138.1989415170198,36.48373158856882],[138.19895297347026,36.483677723224204],[138.1989846417312,36.483628520002924],[138.19903939042405,36.48359704679408],[138.199313623961,36.48353757952639],[138.19938572132162,36.483501467549765],[138.19945914564659,36.48345448133746],[138.19950369897475,36.48339858742937],[138.19952369284465,36.48338047350109],[138.19955653834427,36.48335929422441],[138.1993469609938,36.483311592805656],[138.19915270553145,36.48328723487598],[138.19902093830976,36.48329781477556],[138.1989078374974,36.48330685768052],[138.1988109584625,36.483269790093864],[138.1988202265857,36.48320187345139],[138.19891503337396,36.48311034080738],[138.19891905573297,36.48306265116533],[138.19891488502228,36.48304810090809],[138.19873930645352,36.482868160789494],[138.19661981627272,36.481455351820756],[138.19595174509612,36.48134569700251],[138.19587775583324,36.48072855234516],[138.1955923297852,36.48045789647019],[138.1951052715492,36.48045666163069],[138.19457102835997,36.48031650073517],[138.19420870130256,36.480169066144406],[138.19956489768114,36.47070443662768],[138.200004918872,36.46927490363108],[138.20187736968228,36.47106214151581],[138.2038216267376,36.4719518166771],[138.2061497182478,36.472519383336014],[138.2077282374927,36.47357659117544],[138.21115590947707,36.47541764015315],[138.21242147548784,36.47647397766029],[138.21445431392124,36.4769844106625],[138.21673316597895,36.479187769956724],[138.21638222864553,36.48242411721034],[138.2179618515945,36.4832705261404],[138.22135631175166,36.48329255968771]]]},"properties":{"KEY_CODE":"20521001016","PREF":"20","CITY":"521","CITY_NAME":"坂城町","S_NAME":"大字坂城和平","SETAI":"3"}},{"type":"Feature","geometry":{"type":"Polygon","coordinates":[[[138.23048636101515,36.4797492177103],[138.22862207643206,36.481132718253214],[138.2268996323573,36.48175108114921],[138.22589464988116,36.482168422508934],[138.22548164524108,36.48241348242029],[138.2227201710548,36.48291359633541],[138.22187789251197,36.48292611087055],[138.22145611504544,36.48310600158622],[138.22135631175166,36.48329255968771],[138.2179618515945,36.4832705261404],[138.21638222864553,36.48242411721034],[138.21673316597895,36.479187769956724],[138.21445431392124,36.4769844106625],[138.21242147548784,36.47647397766029],[138.21115590947707,36.47541764015315],[138.2077282374927,36.47357659117544],[138.2061497182478,36.472519383336014],[138.2038216267376,36.4719518166771],[138.20187736968228,36.47106214151581],[138.200004918872,36.46927490363108],[138.2007076738618,36.46655799973071],[138.20143466562496,36.46497488988528],[138.20222673169715,36.46233302543422],[138.2031614117011,36.45758603911001],[138.2039058902237,36.45808052079849],[138.20457175079542,36.45770719266726],[138.20588362950508,36.457386921626245],[138.20699493364492,36.45715433459164],[138.20734056411618,36.45722136895156],[138.20904647696665,36.45740568189973],[138.20996693909655,36.45709172050201],[138.21028622255457,36.45689399682606],[138.2112515952333,36.456734539093844],[138.21175249976656,36.45664751104646],[138.21350135644548,36.45628402069679],[138.2148536475731,36.45609239407989],[138.21624600042412,36.456147147194926],[138.21658276785513,36.45614057885882],[138.21749297908698,36.45612799687153],[138.21853779622296,36.456645144980115],[138.21866400475002,36.45698366028035],[138.2190086595481,36.4573226838355],[138.21918036910435,36.45766130196508],[138.2194616319776,36.45791195169742],[138.2197203765397,36.45809269882807],[138.22087552554132,36.458308579278885],[138.2207918274661,36.458808374092875],[138.22192858432373,36.45908302749707],[138.22302110202858,36.45900465535081],[138.224386158277,36.459066550449634],[138.22629795258078,36.460258347044366],[138.2272689741887,36.46109137545462],[138.22765903716018,36.46151027678461],[138.22815605819125,36.462258340474555],[138.228653194112,36.46297630455615],[138.22882426169787,36.46424506758991],[138.22887205088387,36.465952812955614],[138.22880009949168,36.46860819613028],[138.22899369596018,36.46960716080073],[138.22892804517164,36.470453589997575],[138.22907047393764,36.470714391521625],[138.22938768979523,36.472234584251474],[138.22924218331545,36.4728565409577],[138.22875422501764,36.47405656836679],[138.22891321259266,36.47470811278018],[138.22972492538557,36.47573017437396],[138.22950241525174,36.4778859094302],[138.23076122015365,36.47918391491709],[138.23077844050928,36.47938655855484],[138.23048636101515,36.4797492177103]]]},"properties":{"KEY_CODE":"20521001017","PREF":"20","CITY":"521","CITY_NAME":"坂城町","S_NAME":"大字坂城平沢","SETAI":"2"}},{"type":"Feature","geometry":{"type":"Polygon","coordinates":[[[138.23995317564757,36.45881611095715],[138.23880040315615,36.45823414847772],[138.23633685161823,36.459855051325384],[138.23403586063466,36.46217990880313],[138.23250180194353,36.462849502349876],[138.23063749539426,36.463163750803076],[138.22915158942783,36.463922927179475],[138.228653194112,36.46297630455615],[138.22815605819125,36.462258340474555],[138.22765903716018,36.46151027678461],[138.2272689741887,36.46109137545462],[138.22629795258078,36.460258347044366],[138.224386158277,36.459066550449634],[138.22302110202858,36.45900465535081],[138.22192858432373,36.45908302749707],[138.2207918274661,36.458808374092875],[138.22087552554132,36.458308579278885],[138.2197203765397,36.45809269882807],[138.2194616319776,36.45791195169742],[138.21918036910435,36.45766130196508],[138.2190086595481,36.4573226838355],[138.21866400475002,36.45698366028035],[138.21853779622296,36.456645144980115],[138.21749297908698,36.45612799687153],[138.21658276785513,36.45614057885882],[138.21624600042412,36.456147147194926],[138.2148536475731,36.45609239407989],[138.21350135644548,36.45628402069679],[138.21175249976656,36.45664751104646],[138.2112515952333,36.456734539093844],[138.21028622255457,36.45689399682606],[138.20996693909655,36.45709172050201],[138.20904647696665,36.45740568189973],[138.20734056411618,36.45722136895156],[138.20699493364492,36.45715433459164],[138.20588362950508,36.457386921626245],[138.20457175079542,36.45770719266726],[138.2039058902237,36.45808052079849],[138.2031614117011,36.45758603911001],[138.1995852840252,36.45630913764608],[138.1988123476297,36.45601819077338],[138.19869996100857,36.45411543153345],[138.1972351477015,36.45248104454867],[138.19427285306674,36.45227396995737],[138.1913485322865,36.45211683903868],[138.19067387562092,36.4530842991286],[138.18957498212527,36.45356984578807],[138.1889362336873,36.45313096058602],[138.18642404484046,36.453036007102426],[138.17965670162545,36.45356394855101],[138.18086555050613,36.44855709742596],[138.18086892794173,36.44773210027026],[138.17991714033303,36.44385214342694],[138.1823215911215,36.443346706950855],[138.1858250432795,36.44216497539575],[138.18792932791692,36.44184358393016],[138.1876155798402,36.44341724915531],[138.1903368093926,36.44296093862237],[138.190392691851,36.442664444475376],[138.19090092507872,36.44403859241972],[138.19234000220564,36.44381256378238],[138.1953698366015,36.442627445831576],[138.1999832226583,36.44248312393228],[138.20104528170515,36.44336588263219],[138.20439173876477,36.44470225513422],[138.20632528014093,36.445099283283525],[138.20795531547694,36.445900928770854],[138.21015791519244,36.446414888255966],[138.2146538310811,36.44680097611139],[138.21762517388592,36.44735812983975],[138.21763060111857,36.44786362505259],[138.22130756546326,36.44937697295754],[138.22351637100505,36.449740109272774],[138.22620188772288,36.449156681197856],[138.22984016053678,36.450309754441854],[138.23097326705616,36.45047791459789],[138.23391519784855,36.4516171049065],[138.23533801046247,36.45172741223166],[138.23688207256274,36.452537074283946],[138.23878938495756,36.452933337062],[138.2418793981506,36.45443180306797],[138.24109444497478,36.45542613907005],[138.24120134598897,36.456882895930065],[138.2398072930526,36.45773699364139],[138.23995317564757,36.45881611095715]]]},"properties":{"KEY_CODE":"205210020","PREF":"20","CITY":"521","CITY_NAME":"坂城町","S_NAME":"大字中之条","SETAI":"862"}},{"type":"Feature","geometry":{"type":"Polygon","coordinates":[[[138.1953698366015,36.442627445831576],[138.19234000220564,36.44381256378238],[138.19090092507872,36.44403859241972],[138.190392691851,36.442664444475376],[138.19065841234288,36.4412543175498],[138.19492439488562,36.4408662184181],[138.19665006178414,36.44089695533818],[138.19539267727063,36.441877562397494],[138.1953698366015,36.442627445831576]]]},"properties":{"KEY_CODE":"20521003001","PREF":"20","CITY":"521","CITY_NAME":"坂城町","S_NAME":"大字南条町横尾","SETAI":"111"}},{"type":"Feature","geometry":{"type":"Polygon","coordinates":[[[138.1999832226583,36.44248312393228],[138.1953698366015,36.442627445831576],[138.19539267727063,36.441877562397494],[138.19665006178414,36.44089695533818],[138.20062146941663,36.44048594017534],[138.2022898617506,36.44121371389922],[138.2025474771781,36.44246062510924],[138.1999832226583,36.44248312393228]]]},"properties":{"KEY_CODE":"20521003002","PREF":"20","CITY":"521","CITY_NAME":"坂城町","S_NAME":"大字南条泉区","SETAI":"158"}},{"type":"Feature","geometry":{"type":"Polygon","coordinates":[[[138.25026674768463,36.44116635785316],[138.25034408710474,36.442598239688266],[138.24955257573686,36.444238422605764],[138.2487648619426,36.44472110074214],[138.24825270786113,36.44652673640487],[138.24736056032947,36.44686132651512],[138.2454548139647,36.44904975800347],[138.24510421276304,36.45082541644681],[138.24236348766155,36.450855836436226],[138.24190535692898,36.451267298926005],[138.24237038018657,36.452842074115004],[138.2418793981506,36.45443180306797],[138.23878938495756,36.452933337062],[138.23688207256274,36.452537074283946],[138.23533801046247,36.45172741223166],[138.23391519784855,36.4516171049065],[138.23097326705616,36.45047791459789],[138.22984016053678,36.450309754441854],[138.22620188772288,36.449156681197856],[138.22351637100505,36.449740109272774],[138.22130756546326,36.44937697295754],[138.21763060111857,36.44786362505259],[138.21762517388592,36.44735812983975],[138.2146538310811,36.44680097611139],[138.21015791519244,36.446414888255966],[138.20795531547694,36.445900928770854],[138.20632528014093,36.445099283283525],[138.20439173876477,36.44470225513422],[138.20104528170515,36.44336588263219],[138.1999832226583,36.44248312393228],[138.2025474771781,36.44246062510924],[138.2022898617506,36.44121371389922],[138.20062146941663,36.44048594017534],[138.2034159798091,36.44030835182172],[138.20589900434328,36.440570775315926],[138.20556565091945,36.439967167536636],[138.2077189610643,36.439591205255894],[138.21136867833945,36.44038310889922],[138.21580918866792,36.43851827030416],[138.2154803683214,36.43708931407216],[138.21762786696112,36.43629566249832],[138.22146381968227,36.43063467661338],[138.22158808436913,36.429975066561894],[138.22306653408637,36.429591504895974],[138.22481812289496,36.42980462119399],[138.22632323688555,36.43000514342266],[138.22936574611688,36.43165506850241],[138.2344974788746,36.43167809243187],[138.23927041302045,36.431927633468426],[138.24194716433615,36.432514545017504],[138.24356748693882,36.43301073117679],[138.24573040015366,36.43283873189031],[138.24859921299662,36.433326804304166],[138.2479940503618,36.434850749670105],[138.2487103408235,36.43857238021058],[138.25026674768463,36.44116635785316]]]},"properties":{"KEY_CODE":"20521003003","PREF":"20","CITY":"521","CITY_NAME":"坂城町","S_NAME":"大字南条入横尾","SETAI":"144"}},{"type":"Feature","geometry":{"type":"Polygon","coordinates":[[[138.190392691851,36.442664444475376],[138.1903368093926,36.44296093862237],[138.1876155798402,36.44341724915531],[138.18792932791692,36.44184358393016],[138.1858250432795,36.44216497539575],[138.1823215911215,36.443346706950855],[138.17991714033303,36.44385214342694],[138.17825012519233,36.44184820983832],[138.17828215186876,36.43512507335966],[138.1787877262077,36.43417827679311],[138.18032811840877,36.43189345854414],[138.1862731625811,36.43409799436798],[138.18952330732648,36.43427703184068],[138.19206583182358,36.43411988643446],[138.19193538176177,36.434745812511224],[138.19510834196905,36.4342943286396],[138.19550674573495,36.43291537550992],[138.1964037622057,36.433287456398084],[138.19883184343817,36.43189037613698],[138.19849197925788,36.432453896478336],[138.19974121018817,36.432611475477636],[138.20053253416947,36.433307350269445],[138.202289363584,36.432228136684756],[138.20165121815262,36.43068906559809],[138.19953685772512,36.430359552061056],[138.1998442739839,36.429410446546726],[138.19842138017486,36.4280270854917],[138.19619310634943,36.42659745570892],[138.19483604854796,36.42481477138616],[138.19556302200056,36.422304119857536],[138.19772547460215,36.423491543735054],[138.1984602779657,36.42350395397439],[138.20129887229453,36.424677003237164],[138.20224807227953,36.424692456733816],[138.2044689315602,36.42570437709171],[138.21030429600995,36.426058208993496],[138.21112310643193,36.426220991075716],[138.2134351373907,36.428056574390546],[138.2159949927625,36.42944420969807],[138.2176219300469,36.429305802658995],[138.2194787432068,36.430171693008774],[138.22158808436913,36.429975066561894],[138.22146381968227,36.43063467661338],[138.21762786696112,36.43629566249832],[138.2154803683214,36.43708931407216],[138.21580918866792,36.43851827030416],[138.21136867833945,36.44038310889922],[138.2077189610643,36.439591205255894],[138.20556565091945,36.439967167536636],[138.20589900434328,36.440570775315926],[138.2034159798091,36.44030835182172],[138.20062146941663,36.44048594017534],[138.19665006178414,36.44089695533818],[138.19492439488562,36.4408662184181],[138.19065841234288,36.4412543175498],[138.190392691851,36.442664444475376]]]},"properties":{"KEY_CODE":"20521003004","PREF":"20","CITY":"521","CITY_NAME":"坂城町","S_NAME":"大字南条金井","SETAI":"485"}},{"type":"Feature","geometry":{"type":"Polygon","coordinates":[[[138.19953685772512,36.430359552061056],[138.20165121815262,36.43068906559809],[138.202289363584,36.432228136684756],[138.20053253416947,36.433307350269445],[138.19974121018817,36.432611475477636],[138.19849197925788,36.432453896478336],[138.19883184343817,36.43189037613698],[138.1964037622057,36.433287456398084],[138.19550674573495,36.43291537550992],[138.19510834196905,36.4342943286396],[138.19193538176177,36.434745812511224],[138.19206583182358,36.43411988643446],[138.18952330732648,36.43427703184068],[138.1862731625811,36.43409799436798],[138.18032811840877,36.43189345854414],[138.1808233511069,36.431324085521545],[138.1860899956445,36.42515504444485],[138.18974533270637,36.427115736081674],[138.19292273452515,36.428566691067545],[138.19498694415662,36.428710622993826],[138.19498822560377,36.429442188935454],[138.19700058612608,36.42902826734228],[138.19635760943288,36.430389638810595],[138.197613600807,36.4307709195883],[138.19953685772512,36.430359552061056]]]},"properties":{"KEY_CODE":"20521003005","PREF":"20","CITY":"521","CITY_NAME":"坂城町","S_NAME":"大字南条新地","SETAI":"312"}},{"type":"Feature","geometry":{"type":"Polygon","coordinates":[[[138.19953685772512,36.430359552061056],[138.197613600807,36.4307709195883],[138.19635760943288,36.430389638810595],[138.19700058612608,36.42902826734228],[138.19498822560377,36.429442188935454],[138.19498694415662,36.428710622993826],[138.19292273452515,36.428566691067545],[138.18974533270637,36.427115736081674],[138.1860899956445,36.42515504444485],[138.1808233511069,36.431324085521545],[138.18492615538455,36.42473335385327],[138.18760006410884,36.42151666131855],[138.1911881001949,36.42193276239413],[138.19556302200056,36.422304119857536],[138.19483604854796,36.42481477138616],[138.19619310634943,36.42659745570892],[138.19842138017486,36.4280270854917],[138.1998442739839,36.429410446546726],[138.19953685772512,36.430359552061056]]]},"properties":{"KEY_CODE":"20521003006","PREF":"20","CITY":"521","CITY_NAME":"坂城町","S_NAME":"大字南条鼠","SETAI":"234"}},{"type":"Feature","geometry":{"type":"Polygon","coordinates":[[[138.16907217210286,36.46444616927292],[138.1694106790512,36.46084512272783],[138.16831558722882,36.459928188136345],[138.16699492180916,36.45984878318865],[138.1669012766771,36.45983139617127],[138.16667032703074,36.459830747553475],[138.16660565519834,36.45982155325399],[138.16615802604912,36.45966332791123],[138.16609470348638,36.459576333158246],[138.16586389371724,36.459257080970964],[138.1656507231912,36.45927360464518],[138.1656646625245,36.45836427367093],[138.165654031142,36.45824167274721],[138.16517846532187,36.457267873767016],[138.16512187258073,36.457196515019206],[138.16510858126668,36.4571739460553],[138.1651054743309,36.45711805914083],[138.16512480368178,36.45703339513143],[138.16511415785817,36.45691439938756],[138.1648337832255,36.454445519939945],[138.16481285881946,36.45265496103541],[138.1657726290181,36.45103455580695],[138.16819776468674,36.44994353960056],[138.16909524782946,36.44859520720009],[138.1697192103863,36.44790223235796],[138.17153896044752,36.448102661321904],[138.17058277268185,36.45137620690313],[138.17008375167,36.45218169531117],[138.17133524773413,36.45279178997883],[138.17204798250629,36.45047054705704],[138.17320232630857,36.45069168115175],[138.17351182250695,36.44960756680378],[138.17574883783035,36.449987040547335],[138.17691092154922,36.452804039925844],[138.17849787193992,36.45312078850728],[138.17907243447496,36.45471996615193],[138.177877792072,36.45708360384055],[138.17556585810672,36.46049971865395],[138.17495949941414,36.45979737021391],[138.16907217210286,36.46444616927292]]]},"properties":{"KEY_CODE":"205210040","PREF":"20","CITY":"521","CITY_NAME":"坂城町","S_NAME":"大字上五明","SETAI":"351"}},{"type":"Feature","geometry":{"type":"Polygon","coordinates":[[[138.1648337832255,36.454445519939945],[138.1623727764552,36.454895027342836],[138.1607197835293,36.45608898826558],[138.15804716256255,36.456647764418705],[138.15898366262815,36.45561535857833],[138.15818680504933,36.45491729179653],[138.15550090435406,36.45403529357236],[138.15398332353288,36.45295902662188],[138.1503265747013,36.45215671331741],[138.14755500530336,36.45076045466017],[138.1436717798973,36.44932769850422],[138.14195573425798,36.44950288065921],[138.14288634073577,36.44795389420152],[138.14319305970227,36.44664393035568],[138.13912309261715,36.44770376300545],[138.13798949427638,36.44841443698994],[138.1368287269925,36.44699314050836],[138.1350232017194,36.44662085715628],[138.13370128327497,36.4450337832259],[138.1324959641641,36.44427337396076],[138.13154068216554,36.44254901102459],[138.1303904158367,36.44151928624544],[138.12892447510416,36.43928433756577],[138.1286373586244,36.43829104622031],[138.13056411979488,36.437007412755975],[138.13260986763527,36.434866258400824],[138.1346682447357,36.43432618954381],[138.13627043668944,36.434445868461765],[138.13938300159268,36.43407285879258],[138.1413083654792,36.431867110577635],[138.14445225975172,36.432552472570464],[138.14954457853347,36.434218541425196],[138.15118081950527,36.433837400090134],[138.15375468424486,36.43383206861553],[138.15562153995018,36.43529120222832],[138.1567171385559,36.4335576404576],[138.1557244312502,36.43243124368224],[138.1560139577817,36.429361684383984],[138.1568605866218,36.428708048046346],[138.15791546279488,36.430169060269925],[138.15954729880147,36.43076553148866],[138.15907920699803,36.43222646733205],[138.1588909855238,36.43521486500441],[138.15841350107345,36.436995254734924],[138.1588536609176,36.43828298418336],[138.16162735320415,36.44057013252974],[138.1629276690679,36.44301811887904],[138.16524140986593,36.44433685424218],[138.16638292570198,36.44610899132396],[138.16803586974353,36.44558187065883],[138.1681891590124,36.44698030720778],[138.16899751691383,36.44723339806402],[138.16849029853879,36.44793528582961],[138.16723377353082,36.44759729078205],[138.16759418709194,36.44833803412775],[138.16909524782946,36.44859520720009],[138.16819776468674,36.44994353960056],[138.1657726290181,36.45103455580695],[138.16481285881946,36.45265496103541],[138.1648337832255,36.454445519939945]]]},"properties":{"KEY_CODE":"20521005001","PREF":"20","CITY":"521","CITY_NAME":"坂城町","S_NAME":"大字上平","SETAI":"330"}},{"type":"Feature","geometry":{"type":"Polygon","coordinates":[[[138.18032811840877,36.43189345854414],[138.1787877262077,36.43417827679311],[138.17267391084295,36.43257594850441],[138.17181261246907,36.4326251108673],[138.16948836995869,36.43359154528957],[138.16866002568037,36.43338309569446],[138.1679330251481,36.431847711091955],[138.1664745305151,36.42984641973303],[138.1648203607317,36.42887538222319],[138.16346531272853,36.42695807295975],[138.16296256457184,36.425229986382845],[138.1601865722879,36.42378536192596],[138.15891415411176,36.42116294086326],[138.15925326305666,36.419808797418995],[138.1602663524954,36.42006308028687],[138.16305231732687,36.42000538577761],[138.164248939311,36.41846778995861],[138.16474266291598,36.41843090869474],[138.16584452272852,36.416903947363785],[138.16752726039076,36.41549881568272],[138.16833128510157,36.41533854830214],[138.1692939701247,36.415598771321086],[138.1693488416146,36.41680171489221],[138.17226627815276,36.41958379013438],[138.1775416512083,36.4198457474808],[138.17982378861026,36.42079780894632],[138.18188897910795,36.42130995693888],[138.18760006410884,36.42151666131855],[138.18492615538455,36.42473335385327],[138.1808233511069,36.431324085521545],[138.18032811840877,36.43189345854414]]]},"properties":{"KEY_CODE":"20521005002","PREF":"20","CITY":"521","CITY_NAME":"坂城町","S_NAME":"大字上平小網","SETAI":"48"}},{"type":"Feature","geometry":{"type":"Polygon","coordinates":[[[138.17574883783035,36.449987040547335],[138.17351182250695,36.44960756680378],[138.17320232630857,36.45069168115175],[138.17204798250629,36.45047054705704],[138.17133524773413,36.45279178997883],[138.17008375167,36.45218169531117],[138.17058277268185,36.45137620690313],[138.17153896044752,36.448102661321904],[138.1697192103863,36.44790223235796],[138.16909524782946,36.44859520720009],[138.16759418709194,36.44833803412775],[138.16723377353082,36.44759729078205],[138.16849029853879,36.44793528582961],[138.16899751691383,36.44723339806402],[138.1681891590124,36.44698030720778],[138.16803586974353,36.44558187065883],[138.16638292570198,36.44610899132396],[138.16524140986593,36.44433685424218],[138.1629276690679,36.44301811887904],[138.16162735320415,36.44057013252974],[138.1588536609176,36.43828298418336],[138.15841350107345,36.436995254734924],[138.1588909855238,36.43521486500441],[138.15907920699803,36.43222646733205],[138.15954729880147,36.43076553148866],[138.15791546279488,36.430169060269925],[138.1568605866218,36.428708048046346],[138.1560139577817,36.429361684383984],[138.1557244312502,36.43243124368224],[138.1567171385559,36.4335576404576],[138.15562153995018,36.43529120222832],[138.15375468424486,36.43383206861553],[138.15118081950527,36.433837400090134],[138.14954457853347,36.434218541425196],[138.14445225975172,36.432552472570464],[138.1413083654792,36.431867110577635],[138.1429823310845,36.42930228565893],[138.1443963333344,36.42914805776484],[138.14604942742804,36.42846444651712],[138.1497284212123,36.426272407539585],[138.15236908688323,36.42609506201045],[138.15375190382227,36.42533405422524],[138.15429698696101,36.42440665446259],[138.1560776295364,36.4238926651755],[138.15716593706807,36.4224313082075],[138.15891415411176,36.42116294086326],[138.1601865722879,36.42378536192596],[138.16296256457184,36.425229986382845],[138.16346531272853,36.42695807295975],[138.1648203607317,36.42887538222319],[138.1664745305151,36.42984641973303],[138.1679330251481,36.431847711091955],[138.16866002568037,36.43338309569446],[138.16948836995869,36.43359154528957],[138.17181261246907,36.4326251108673],[138.17267391084295,36.43257594850441],[138.1787877262077,36.43417827679311],[138.17828215186876,36.43512507335966],[138.17825012519233,36.44184820983832],[138.17991714033303,36.44385214342694],[138.18086892794173,36.44773210027026],[138.18086555050613,36.44855709742596],[138.1786888508736,36.44869269474514],[138.1783993146803,36.44683816417853],[138.1774857396969,36.44773938264313],[138.17453789989852,36.447123670543334],[138.17574883783035,36.449987040547335]]]},"properties":{"KEY_CODE":"20521006001","PREF":"20","CITY":"521","CITY_NAME":"坂城町","S_NAME":"大字網掛","SETAI":"251"}},{"type":"Feature","geometry":{"type":"Polygon","coordinates":[[[138.17965670162545,36.45356394855101],[138.17907243447496,36.45471996615193],[138.17849787193992,36.45312078850728],[138.17691092154922,36.452804039925844],[138.17574883783035,36.449987040547335],[138.17453789989852,36.447123670543334],[138.1774857396969,36.44773938264313],[138.1783993146803,36.44683816417853],[138.1786888508736,36.44869269474514],[138.18086555050613,36.44855709742596],[138.17965670162545,36.45356394855101]]]},"properties":{"KEY_CODE":"20521006002","PREF":"20","CITY":"521","CITY_NAME":"坂城町","S_NAME":"大字網掛月見区","SETAI":"210"}}]}