{"type":"FeatureCollection","features":[{"type":"Feature","geometry":{"type":"Polygon","coordinates":[[[135.70210142634824,34.92607316716839],[135.7025066462852,34.92691204090434],[135.7011495927843,34.927644832319004],[135.7007772579761,34.92810853355087],[135.7004676755585,34.92851576231022],[135.70025665688377,34.928752796370965],[135.69990226477825,34.9287714330014],[135.6992477542001,34.92925675935664],[135.69911111694537,34.92915789345872],[135.69892918699176,34.9285115486457],[135.6988332582575,34.9262366874484],[135.6998974221318,34.926174874525245],[135.70092517386385,34.926107961504215],[135.70200969006456,34.926074703848336],[135.70210142634824,34.92607316716839]]]},"properties":{"KEY_CODE":"26209001001","PREF":"26","CITY":"209","CITY_NAME":"長岡京市","S_NAME":"馬場一丁目","SETAI":"500"}},{"type":"Feature","geometry":{"type":"Polygon","coordinates":[[[135.70123258326421,34.92921741035498],[135.700851414056,34.92935817613181],[135.70030998832476,34.92954756610947],[135.6997346281412,34.92962503030062],[135.6992477542001,34.92925675935664],[135.69990226477825,34.9287714330014],[135.70025665688377,34.928752796370965],[135.7004676755585,34.92851576231022],[135.7007772579761,34.92810853355087],[135.7011495927843,34.927644832319004],[135.7025066462852,34.92691204090434],[135.70377472537652,34.9292076246233],[135.7034831002766,34.92921424033058],[135.70123258326421,34.92921741035498]]]},"properties":{"KEY_CODE":"26209001002","PREF":"26","CITY":"209","CITY_NAME":"長岡京市","S_NAME":"馬場二丁目","SETAI":"180"}},{"type":"Feature","geometry":{"type":"Polygon","coordinates":[[[135.70412776790243,34.92919573488673],[135.7038617418569,34.92920565326758],[135.70377472537652,34.9292076246233],[135.7025066462852,34.92691204090434],[135.70210142634824,34.92607316716839],[135.70341236741316,34.9263668135381],[135.7035829924855,34.926086644371985],[135.70438911817334,34.92618354164992],[135.71072227587155,34.92606931783841],[135.71449640489146,34.92606902043426],[135.71443650084896,34.92811510891599],[135.7144124273734,34.92902354601339],[135.71264172042495,34.929096997658704],[135.71205410612006,34.92908434421944],[135.71203833094728,34.929083673154636],[135.7107972606622,34.92903221397496],[135.7106957732081,34.92903302977007],[135.70955339159335,34.929061444127335],[135.70822878280273,34.92908103040848],[135.70732651256475,34.929098235111766],[135.70604959592802,34.92911819339153],[135.70412776790243,34.92919573488673]]]},"properties":{"KEY_CODE":"26209001003","PREF":"26","CITY":"209","CITY_NAME":"長岡京市","S_NAME":"馬場馬場","SETAI":"821"}},{"type":"Feature","geometry":{"type":"Polygon","coordinates":[[[135.70069423251064,34.92526669230148],[135.70063414872706,34.924835242588465],[135.69963787318272,34.92487455012854],[135.69970763893204,34.92617891385184],[135.6988332582575,34.9262366874484],[135.6988327895445,34.92620069738009],[135.6987644818232,34.92486971315783],[135.69873702900375,34.92439108458955],[135.69872342996797,34.92406672743804],[135.69868609083005,34.92344278035547],[135.69923791624302,34.92343027247679],[135.70092094693192,34.923652542628815],[135.70181400713992,34.9256595439977],[135.70200969006456,34.926074703848336],[135.70092517386385,34.926107961504215],[135.70087420927734,34.92571428411207],[135.70069423251064,34.92526669230148]]]},"properties":{"KEY_CODE":"26209002001","PREF":"26","CITY":"209","CITY_NAME":"長岡京市","S_NAME":"神足一丁目","SETAI":"440"}},{"type":"Feature","geometry":{"type":"Polygon","coordinates":[[[135.70075797435598,34.92331084683003],[135.70092094693192,34.923652542628815],[135.69923791624302,34.92343027247679],[135.69868609083005,34.92344278035542],[135.6979850255152,34.92347611280443],[135.69788421703154,34.92200482150161],[135.6978469616199,34.92057481791844],[135.69776798967996,34.91971039266651],[135.69676767535043,34.918700066078976],[135.69678969454182,34.9186642020131],[135.69795070254747,34.91740896608605],[135.69861451189857,34.918782986761585],[135.70075797435598,34.92331084683003]]]},"properties":{"KEY_CODE":"26209002002","PREF":"26","CITY":"209","CITY_NAME":"長岡京市","S_NAME":"神足二丁目","SETAI":"636"}},{"type":"Feature","geometry":{"type":"Polygon","coordinates":[[[135.69676767535043,34.918700066078976],[135.69776798967996,34.91971039266651],[135.6978469616199,34.92057481791844],[135.69788421703154,34.92200482150161],[135.6979850255152,34.92347611280443],[135.69766259629907,34.92350637001723],[135.69621186159233,34.92359973268002],[135.69604257487143,34.91984116564572],[135.69425589373125,34.91983217292702],[135.6949080104721,34.918566099403776],[135.69489522267767,34.917926787889044],[135.69676767535043,34.918700066078976]]]},"properties":{"KEY_CODE":"26209002003","PREF":"26","CITY":"209","CITY_NAME":"長岡京市","S_NAME":"神足三丁目","SETAI":"454"}},{"type":"Feature","geometry":{"type":"Polygon","coordinates":[[[135.71449640489146,34.92606902043426],[135.71072227587155,34.92606931783841],[135.70438911817334,34.92618354164992],[135.7035829924855,34.926086644371985],[135.70426456457474,34.92422717673441],[135.70419977696332,34.92216390446577],[135.70513052494414,34.92185558228746],[135.70538814618823,34.92202136085479],[135.70558468919393,34.92226164352235],[135.70588013136017,34.92226235947794],[135.70668155790725,34.92226204429918],[135.70685145663006,34.92421604626895],[135.70833372534287,34.924177072625476],[135.70869622315377,34.92318477507761],[135.7087255215572,34.92217878920522],[135.710206383552,34.92220438316419],[135.70984291971283,34.92124457266378],[135.71490073299864,34.92114712365053],[135.71501173881953,34.92307156461891],[135.71596339945958,34.924077440114786],[135.71684321270638,34.92509496603575],[135.71449402820343,34.92511037577627],[135.71449640489146,34.92606902043426]]]},"properties":{"KEY_CODE":"26209002004","PREF":"26","CITY":"209","CITY_NAME":"長岡京市","S_NAME":"神足古市","SETAI":"1039"}},{"type":"Feature","geometry":{"type":"Polygon","coordinates":[[[135.70720216078755,34.92224963776094],[135.70668155790725,34.92226204429918],[135.70588013136017,34.92226235947794],[135.70558468919393,34.92226164352235],[135.70538814618823,34.92202136085479],[135.70513052494414,34.92185558228746],[135.70419977696332,34.92216390446577],[135.70402283314155,34.92142398025889],[135.70409067709414,34.919383073757594],[135.70384088357403,34.918152718400876],[135.70345706391936,34.91740784816558],[135.70423255937905,34.91706704056391],[135.7057204276361,34.91727272114421],[135.70832912440866,34.91727691647011],[135.70817370416856,34.91688503416739],[135.70830397682465,34.91621177511178],[135.7120353101847,34.91614235386083],[135.71424937805088,34.916154322587246],[135.71432052016536,34.91667558679365],[135.7144449145557,34.916854908941346],[135.71440088491022,34.916935725992225],[135.71441055260001,34.91815041698841],[135.7147079415107,34.9181667578859],[135.7148690291345,34.919164748530065],[135.71490073299864,34.92114712365053],[135.70984291971283,34.92124457266378],[135.710206383552,34.92220438316419],[135.7087255215572,34.92217878920522],[135.70858306853185,34.922185068131995],[135.70756245950056,34.9222010658671],[135.70720216078755,34.92224963776094]]]},"properties":{"KEY_CODE":"26209002005","PREF":"26","CITY":"209","CITY_NAME":"長岡京市","S_NAME":"神足神足","SETAI":"714"}},{"type":"Feature","geometry":{"type":"Polygon","coordinates":[[[135.69999206939917,34.91854666542139],[135.69861451189857,34.918782986761585],[135.69795070254747,34.91740896608605],[135.69684274411657,34.915228199624124],[135.6971264325769,34.91370561106059],[135.69821280456807,34.914130331634816],[135.7016073255831,34.914224950948174],[135.70161043928246,34.914668938353195],[135.70168681152035,34.91517620993842],[135.70345706391936,34.91740784816558],[135.70384088357403,34.918152718400876],[135.70053439232512,34.91863935195811],[135.69999206939917,34.91854666542139]]]},"properties":{"KEY_CODE":"26209003001","PREF":"26","CITY":"209","CITY_NAME":"長岡京市","S_NAME":"勝竜寺勝竜寺","SETAI":"512"}},{"type":"Feature","geometry":{"type":"Polygon","coordinates":[[[135.7120353101847,34.91614235386083],[135.70830397682465,34.91621177511178],[135.70817370416856,34.91688503416739],[135.70755013520778,34.91524467256332],[135.70685104506143,34.91530523980449],[135.70168681152035,34.91517620993842],[135.70161043928246,34.914668938353195],[135.7016073255831,34.914224950948174],[135.70163885249437,34.91250911379538],[135.7014166035525,34.91115746836083],[135.701395926808,34.90972215676023],[135.7016271142005,34.90913993160565],[135.7023282337942,34.909010663123205],[135.7026775792763,34.90906110442888],[135.7030014975696,34.90913387902566],[135.7034675492784,34.90912734585767],[135.7034589909544,34.90889040434859],[135.7048112698513,34.90890237623475],[135.7060095320202,34.908608089056585],[135.70615071685398,34.90784611654832],[135.70629862586733,34.907818234351794],[135.70680279400878,34.90827928474799],[135.70701581811815,34.909327915153035],[135.7069974927734,34.91021082962017],[135.70845407977495,34.91014230205854],[135.70838779124767,34.90924854927156],[135.70888967019903,34.90940512406],[135.70952619512232,34.909654843503255],[135.7096643794792,34.90979927144098],[135.70971793955266,34.91236981320328],[135.71192174908361,34.91466964824494],[135.7120353101847,34.91614235386083]]]},"properties":{"KEY_CODE":"26209003002","PREF":"26","CITY":"209","CITY_NAME":"長岡京市","S_NAME":"勝竜寺住居表示以外","SETAI":"592"}},{"type":"Feature","geometry":{"type":"Polygon","coordinates":[[[135.69406945550014,34.920139969903026],[135.6919955242908,34.919304232292156],[135.6914718703959,34.92021291272022],[135.69125756242136,34.91999777181647],[135.69104297654079,34.91982890120384],[135.6909360675787,34.91960741203569],[135.6905000054054,34.91953206949293],[135.69041713622926,34.91942769469455],[135.69026617872368,34.91946322782458],[135.69017391328936,34.91903527865117],[135.69004020352213,34.91852735730154],[135.68985650470566,34.91785725189228],[135.68962972562397,34.91705385384904],[135.68934829948947,34.916026352588005],[135.69217772482892,34.9159826441104],[135.6926049114859,34.916129162483244],[135.69329911519478,34.917080438858825],[135.69489522267767,34.917926787889044],[135.6949080104721,34.918566099403776],[135.69425589373125,34.91983217292702],[135.69406945550014,34.920139969903026]]]},"properties":{"KEY_CODE":"26209004001","PREF":"26","CITY":"209","CITY_NAME":"長岡京市","S_NAME":"友岡一丁目","SETAI":"366"}},{"type":"Feature","geometry":{"type":"Polygon","coordinates":[[[135.69465188270345,34.915273905609766],[135.69480011546128,34.91705569907846],[135.69678969454182,34.9186642020131],[135.69676767535043,34.918700066078976],[135.69489522267767,34.917926787889044],[135.69329911519478,34.917080438858825],[135.6926049114859,34.916129162483244],[135.69233457170805,34.9157573185793],[135.69313296899878,34.915331486182374],[135.69459185407175,34.91522417274709],[135.69465188270345,34.915273905609766]]]},"properties":{"KEY_CODE":"26209004002","PREF":"26","CITY":"209","CITY_NAME":"長岡京市","S_NAME":"友岡二丁目","SETAI":"363"}},{"type":"Feature","geometry":{"type":"Polygon","coordinates":[[[135.6901679727746,34.91238889870114],[135.69062358778348,34.91283313007369],[135.69459185407175,34.91522417274709],[135.69313296899878,34.915331486182374],[135.69233457170805,34.9157573185793],[135.69128513116792,34.91428776199913],[135.69076351558903,34.91359277989967],[135.68997869562733,34.912495466561964],[135.6901679727746,34.91238889870114]]]},"properties":{"KEY_CODE":"26209004003","PREF":"26","CITY":"209","CITY_NAME":"長岡京市","S_NAME":"友岡三丁目","SETAI":"296"}},{"type":"Feature","geometry":{"type":"Polygon","coordinates":[[[135.69233457170805,34.9157573185793],[135.6926049114859,34.916129162483244],[135.69217772482892,34.9159826441104],[135.68934829948947,34.916026352588005],[135.68911893050833,34.915157588778456],[135.68894060186847,34.914484746767954],[135.68893371705767,34.914457191425186],[135.68888682324445,34.91429142245144],[135.68828524277387,34.91208383311225],[135.68946890520527,34.91189713617998],[135.68997869562733,34.912495466561964],[135.69076351558903,34.91359277989967],[135.69128513116792,34.91428776199913],[135.69233457170805,34.9157573185793]]]},"properties":{"KEY_CODE":"26209004004","PREF":"26","CITY":"209","CITY_NAME":"長岡京市","S_NAME":"友岡四丁目","SETAI":"369"}},{"type":"Feature","geometry":{"type":"Polygon","coordinates":[[[135.6884041116963,34.91431919980362],[135.6878039198457,34.91451295608049],[135.6877342728314,34.91466321292454],[135.68771164703836,34.914643081877195],[135.68764067571647,34.91423645438234],[135.686151195998,34.91342788648899],[135.68565628278992,34.912948250469064],[135.68713702571702,34.91282178733536],[135.68821048259161,34.911939895393985],[135.68824360849433,34.91192934584074],[135.68828524277387,34.91208383311225],[135.68888682324445,34.91429142245144],[135.68874619943165,34.914264016916185],[135.6884041116963,34.91431919980362]]]},"properties":{"KEY_CODE":"26209004005","PREF":"26","CITY":"209","CITY_NAME":"長岡京市","S_NAME":"友岡友岡","SETAI":"0"}},{"type":"Feature","geometry":{"type":"Polygon","coordinates":[[[135.68962972562397,34.91705385384904],[135.68890038745556,34.91705438087646],[135.6888309137082,34.919005645099105],[135.68883043412882,34.91906550780842],[135.68785733347104,34.91900800500676],[135.68769053573658,34.91598664264002],[135.68807137557314,34.91558171051241],[135.68811037508635,34.91543108087335],[135.68799316005922,34.91529400598441],[135.68874021909298,34.91461593461677],[135.68894060186847,34.914484746767954],[135.68911893050833,34.915157588778456],[135.68934829948947,34.916026352588005],[135.68962972562397,34.91705385384904]]]},"properties":{"KEY_CODE":"26209004005","PREF":"26","CITY":"209","CITY_NAME":"長岡京市","S_NAME":"友岡友岡","SETAI":"391"}},{"type":"Feature","geometry":{"type":"Polygon","coordinates":[[[135.6899084366898,34.921326567677156],[135.68939002462278,34.92164097625167],[135.68874239417246,34.92139345114493],[135.68861655776155,34.92098626038398],[135.68867747451225,34.920490385679614],[135.6887354579384,34.92005852283256],[135.69041349573715,34.91996885943117],[135.69056322701593,34.92053999699845],[135.69008139093268,34.921246298044466],[135.6899084366898,34.921326567677156]]]},"properties":{"KEY_CODE":"26209005001","PREF":"26","CITY":"209","CITY_NAME":"長岡京市","S_NAME":"花山一丁目","SETAI":"53"}},{"type":"Feature","geometry":{"type":"Polygon","coordinates":[[[135.6888309137082,34.919005645099105],[135.69017391328936,34.91903527865117],[135.69026617872368,34.91946322782458],[135.69041349573715,34.91996885943117],[135.6887354579384,34.92005852283256],[135.68883043412882,34.91906550780842],[135.6888309137082,34.919005645099105]]]},"properties":{"KEY_CODE":"26209005002","PREF":"26","CITY":"209","CITY_NAME":"長岡京市","S_NAME":"花山二丁目","SETAI":"45"}},{"type":"Feature","geometry":{"type":"Polygon","coordinates":[[[135.68962972562397,34.91705385384904],[135.68985650470566,34.91785725189228],[135.69004020352213,34.91852735730154],[135.69017391328936,34.91903527865117],[135.6888309137082,34.919005645099105],[135.68890038745556,34.91705438087646],[135.68962972562397,34.91705385384904]]]},"properties":{"KEY_CODE":"26209005003","PREF":"26","CITY":"209","CITY_NAME":"長岡京市","S_NAME":"花山三丁目","SETAI":"61"}},{"type":"Feature","geometry":{"type":"Polygon","coordinates":[[[135.6835066052789,34.92769713503231],[135.68437376570134,34.92838382074186],[135.6842533283253,34.92851711154533],[135.6835066052789,34.92769713503231]]]},"properties":{"KEY_CODE":"26209006001","PREF":"26","CITY":"209","CITY_NAME":"長岡京市","S_NAME":"奥海印寺奥海印寺","SETAI":"0"}},{"type":"Feature","geometry":{"type":"Polygon","coordinates":[[[135.6745658027439,34.91931483318853],[135.67518677200997,34.918922371130634],[135.67550853822547,34.9192172045257],[135.6773853881195,34.91986704365275],[135.67873728919602,34.919403553731385],[135.67918495531242,34.920001766011886],[135.67893556576854,34.92163703817272],[135.68072630398098,34.921723243946346],[135.68126470980195,34.92179614345679],[135.68151573929538,34.921872442807626],[135.68120621731126,34.92214306507659],[135.6804320032858,34.92291511832148],[135.679633349833,34.9225815755638],[135.67737428529406,34.925083300648744],[135.6779542896234,34.92508547311839],[135.67792120774206,34.92652657826414],[135.67952141917198,34.926824991475556],[135.67983649475306,34.926834625049345],[135.68007218888113,34.92672812300226],[135.68042322513065,34.92658544157431],[135.6805107285895,34.92672329077789],[135.6811107967043,34.92793913568836],[135.68065470756432,34.92912164318165],[135.67894538776358,34.929383786576686],[135.6780590230977,34.929143460945504],[135.67652195867595,34.929164242771094],[135.6747427452579,34.92989414574673],[135.67432154963407,34.930966928606814],[135.67172275535484,34.93130447907159],[135.671043319339,34.930350075613575],[135.67094174323438,34.931188194512885],[135.66889696367627,34.93183980467776],[135.66940961467617,34.934065370702726],[135.66628124509322,34.93407447330564],[135.66585997012103,34.934187407617884],[135.66368232818147,34.933634356922305],[135.65989525645736,34.933029432860316],[135.65890050922266,34.93319840662678],[135.65677047226063,34.9343777003763],[135.65516456273954,34.9340694336488],[135.65427080936797,34.93441296988136],[135.6529311147802,34.93427798776095],[135.65213282443338,34.933737819949954],[135.65146051056647,34.93250793794385],[135.65047651855448,34.93216210097281],[135.64836701688472,34.93235853193535],[135.64774610886252,34.93045560685068],[135.64690863325882,34.92976217077535],[135.64599381835953,34.9295833411239],[135.6445166770458,34.930280193335605],[135.64327664900983,34.92996079157451],[135.6436636868366,34.928672015027374],[135.6443667474566,34.92834469020454],[135.64500801917544,34.92732578871719],[135.64659340906385,34.927079015055895],[135.64764355585572,34.92636610915975],[135.6485903352485,34.926127016476514],[135.64945359555486,34.92494794266781],[135.65065969211443,34.9244933677659],[135.6505073607085,34.923865618027726],[135.65081699496272,34.922735495430366],[135.65024461817475,34.920974316662765],[135.6518087979366,34.91846043899198],[135.6524689535937,34.918236189096206],[135.65199614009572,34.91764337186574],[135.6521860198366,34.91712619648239],[135.65129493810522,34.91665148094675],[135.65160513680547,34.91657560578563],[135.65194255545256,34.91661397390841],[135.65324935828818,34.91678160940671],[135.65400213953507,34.91629611264433],[135.65468339389554,34.91661216959275],[135.65514555164066,34.91667813937385],[135.6556463216159,34.9168143655292],[135.65565163404955,34.91729815620155],[135.65640416954946,34.91602221937886],[135.65721782761446,34.91618411636954],[135.65798434816983,34.915563408518416],[135.6583755581778,34.914782255266445],[135.65913186583302,34.91464739979565],[135.65967062455124,34.91442790674819],[135.6605921357404,34.914248921924184],[135.66154085111827,34.914806695340346],[135.6626457901311,34.91474025966122],[135.6631969499167,34.91580111949513],[135.6639173847992,34.9161299104359],[135.66427790131092,34.91730137508616],[135.66644055326665,34.918276454575306],[135.66840543144073,34.91769460431785],[135.67046700856775,34.91781326515573],[135.6721914068516,34.91813895964016],[135.67439952082245,34.91893526411243],[135.6745658027439,34.91931483318853],[135.6730830125349,34.91931338537711],[135.67306320231532,34.919269032293954],[135.6724421020262,34.918677015608786],[135.67174071788375,34.91885027858998],[135.6700806367446,34.918404105386045],[135.66946712127677,34.91880803878041],[135.6705028079842,34.91895059165603],[135.67121679324848,34.919511954317336],[135.6713216209355,34.91956034168738],[135.67141976771356,34.91962779786776],[135.67148872543416,34.91975158961766],[135.67202155385658,34.91980381304806],[135.67224330540353,34.91973947639909],[135.67250035555512,34.91971720970053],[135.67400638169897,34.92061226308692],[135.67444081896505,34.921372586345036],[135.67489022378672,34.92070942976222],[135.67631901851138,34.92021904318316],[135.6745658027439,34.91931483318853]],[[135.67542339809842,34.92683510280993],[135.67570418788836,34.92608768271708],[135.6746767524272,34.925287396158346],[135.6720403812051,34.92536848521956],[135.67212542834227,34.92633500517209],[135.6716971327511,34.9274288808654],[135.67105438705272,34.92815960284224],[135.67273756576958,34.929244968019674],[135.67365889425764,34.93012154630842],[135.6744520429952,34.929908932666144],[135.67427998530422,34.92911289909312],[135.67517868963137,34.927872083345754],[135.67542339809842,34.92683510280993]]]},"properties":{"KEY_CODE":"26209006001","PREF":"26","CITY":"209","CITY_NAME":"長岡京市","S_NAME":"奥海印寺奥海印寺","SETAI":"1204"}},{"type":"Feature","geometry":{"type":"Polygon","coordinates":[[[135.68212420576415,34.922089409518],[135.68103830073926,34.92400336410189],[135.6804320032858,34.92291511832148],[135.68120621731126,34.92214306507659],[135.68151573929538,34.921872442807626],[135.6816252418524,34.92190850787473],[135.68174862804779,34.92194749736143],[135.68212420576415,34.922089409518]]]},"properties":{"KEY_CODE":"26209006002","PREF":"26","CITY":"209","CITY_NAME":"長岡京市","S_NAME":"奥海印寺東山","SETAI":"97"}},{"type":"Feature","geometry":{"type":"Polygon","coordinates":[[[135.68103830073926,34.92400336410189],[135.68070687759044,34.925353888109804],[135.68075571750452,34.925912097696255],[135.67992993351132,34.925426076444126],[135.67966015887978,34.92519703467984],[135.6779542896234,34.92508547311839],[135.67737428529406,34.925083300648744],[135.679633349833,34.9225815755638],[135.6804320032858,34.92291511832148],[135.68103830073926,34.92400336410189]]]},"properties":{"KEY_CODE":"26209006003","PREF":"26","CITY":"209","CITY_NAME":"長岡京市","S_NAME":"奥海印寺太鼓山","SETAI":"292"}},{"type":"Feature","geometry":{"type":"Polygon","coordinates":[[[135.68072630398098,34.921723243946346],[135.67893556576854,34.92163703817272],[135.67918495531242,34.920001766011886],[135.68148185374466,34.920111272142776],[135.6814394535823,34.92087292334095],[135.6812592275223,34.921079723727495],[135.68077163649343,34.92109048616036],[135.68072630398098,34.921723243946346]]]},"properties":{"KEY_CODE":"26209006004","PREF":"26","CITY":"209","CITY_NAME":"長岡京市","S_NAME":"奥海印寺森ノ下","SETAI":"175"}},{"type":"Feature","geometry":{"type":"Polygon","coordinates":[[[135.68007218888113,34.92672812300226],[135.67983649475306,34.926834625049345],[135.67952141917198,34.926824991475556],[135.67792120774206,34.92652657826414],[135.6779542896234,34.92508547311839],[135.67966015887978,34.92519703467984],[135.67992993351132,34.925426076444126],[135.68075571750452,34.925912097696255],[135.68142939404913,34.92663555315444],[135.68065440544902,34.926585345004646],[135.6805107285895,34.92672329077789],[135.68042322513065,34.92658544157431],[135.68007218888113,34.92672812300226]]]},"properties":{"KEY_CODE":"26209006005","PREF":"26","CITY":"209","CITY_NAME":"長岡京市","S_NAME":"奥海印寺谷田","SETAI":"238"}},{"type":"Feature","geometry":{"type":"Polygon","coordinates":[[[135.6816252418524,34.92190850787473],[135.68151573929538,34.921872442807626],[135.68126470980195,34.92179614345679],[135.68072630398098,34.921723243946346],[135.68077163649343,34.92109048616036],[135.6812592275223,34.921079723727495],[135.6814394535823,34.92087292334095],[135.68148185374466,34.920111272142776],[135.67918495531242,34.920001766011886],[135.67873728919602,34.919403553731385],[135.6773853881195,34.91986704365275],[135.67550853822547,34.9192172045257],[135.6756886885142,34.919120634396464],[135.67604632440413,34.919099403186145],[135.67655214833343,34.91858781344808],[135.6771699998261,34.918256396923844],[135.67750761199602,34.917952828276974],[135.67763938178152,34.917333745150124],[135.67787659752022,34.91588726705372],[135.67841924337986,34.91617274828567],[135.67766418067816,34.9151174009586],[135.6777483514958,34.91420147789682],[135.67728236688376,34.913916900858744],[135.6771402302196,34.91384510680565],[135.67718955513172,34.913770160296195],[135.67752356710506,34.91351382219588],[135.67860767503007,34.91280024118186],[135.67950946098867,34.912596624360916],[135.68033844305353,34.91303589889414],[135.68265806250466,34.91313489149213],[135.6822484977842,34.91345187656366],[135.6812400071723,34.915710993652425],[135.68275387069855,34.916019569566124],[135.68341266407285,34.91648992610142],[135.6843415443402,34.916027585247406],[135.68492301873897,34.915247053029006],[135.68522767066767,34.91511205683801],[135.6852958113415,34.914672756586924],[135.68548492438413,34.914488581731604],[135.68567971580143,34.91343117258049],[135.686151195998,34.91342788648899],[135.68764067571647,34.91423645438234],[135.68771164703836,34.914643081877195],[135.6877342728314,34.91466321292454],[135.6878039198457,34.91451295608049],[135.6884041116963,34.91431919980362],[135.68874619943165,34.914264016916185],[135.68893371705767,34.914457191425186],[135.68874021909298,34.91461593461677],[135.68799316005922,34.91529400598441],[135.68811037508635,34.91543108087335],[135.68807137557314,34.91558171051241],[135.68769053573658,34.91598664264002],[135.68785733347104,34.91900800500676],[135.68673040916127,34.91897031117728],[135.68482682996927,34.91898799224419],[135.684007525872,34.91898706007889],[135.68400253002514,34.91943969394805],[135.68400536435874,34.9195032987407],[135.68364254011723,34.91980393134747],[135.68331173154607,34.919947730638654],[135.68321257871622,34.920208271380304],[135.68306421303092,34.919848554654145],[135.68275215963453,34.91952066773213],[135.68251807252764,34.91983902951548],[135.6825040196244,34.92043447163021],[135.68213923085378,34.9216370821492],[135.6819216089623,34.92170088425149],[135.68174957943472,34.92169909608118],[135.6816252418524,34.92190850787473]]]},"properties":{"KEY_CODE":"262090070","PREF":"26","CITY":"209","CITY_NAME":"長岡京市","S_NAME":"下海印寺","SETAI":"1163"}},{"type":"Feature","geometry":{"type":"Polygon","coordinates":[[[135.68861655776155,34.92098626038398],[135.68785917906226,34.92102122130526],[135.68723808350094,34.92043935925646],[135.68662552111283,34.92062399421085],[135.68673040916127,34.91897031117728],[135.68785733347104,34.91900800500676],[135.68883043412882,34.91906550780842],[135.6887354579384,34.92005852283256],[135.68867747451225,34.920490385679614],[135.68861655776155,34.92098626038398]]]},"properties":{"KEY_CODE":"26209008001","PREF":"26","CITY":"209","CITY_NAME":"長岡京市","S_NAME":"梅が丘一丁目","SETAI":"93"}},{"type":"Feature","geometry":{"type":"Polygon","coordinates":[[[135.68673040916127,34.91897031117728],[135.68662552111283,34.92062399421085],[135.68488771600346,34.92104186227332],[135.68482682996927,34.91898799224419],[135.68673040916127,34.91897031117728]]]},"properties":{"KEY_CODE":"26209008002","PREF":"26","CITY":"209","CITY_NAME":"長岡京市","S_NAME":"梅が丘二丁目","SETAI":"97"}},{"type":"Feature","geometry":{"type":"Polygon","coordinates":[[[135.68488771600346,34.92104186227332],[135.6837825256711,34.92164749827264],[135.68212420576415,34.922089409518],[135.68174862804779,34.92194749736143],[135.68174957943472,34.92169909608118],[135.6819216089623,34.92170088425149],[135.68213923085378,34.9216370821492],[135.6825040196244,34.92043447163021],[135.68251807252764,34.91983902951548],[135.68275215963453,34.91952066773213],[135.68306421303092,34.919848554654145],[135.68321257871622,34.920208271380304],[135.68331173154607,34.919947730638654],[135.68364254011723,34.91980393134747],[135.68400536435874,34.9195032987407],[135.68400253002514,34.91943969394805],[135.684007525872,34.91898706007889],[135.68482682996927,34.91898799224419],[135.68488771600346,34.92104186227332]]]},"properties":{"KEY_CODE":"26209008003","PREF":"26","CITY":"209","CITY_NAME":"長岡京市","S_NAME":"梅が丘三丁目","SETAI":"122"}},{"type":"Feature","geometry":{"type":"Polygon","coordinates":[[[135.67600106437314,34.91645993457889],[135.67560278904082,34.917406641373844],[135.6756472414231,34.91821515096042],[135.67448399228562,34.918192880372644],[135.67439952082245,34.91893526411243],[135.6721914068516,34.91813895964016],[135.67046700856775,34.91781326515573],[135.66840543144073,34.91769460431785],[135.66644055326665,34.918276454575306],[135.66427790131092,34.91730137508616],[135.6639173847992,34.9161299104359],[135.6631969499167,34.91580111949513],[135.6626457901311,34.91474025966122],[135.66393304771375,34.91506442707707],[135.66614367512577,34.915059050555506],[135.6670282071956,34.91436429974568],[135.6672061608555,34.91365612475513],[135.66760980617718,34.912256456003064],[135.66845048824797,34.91148987442362],[135.66872621969608,34.91057751081815],[135.66836215877402,34.9102797979594],[135.66952093334933,34.9090188888084],[135.6712396084275,34.90905411641529],[135.6732337105607,34.91003882880196],[135.6744155918974,34.91024224398918],[135.67554110368954,34.91201734226741],[135.67641325612354,34.91244971909601],[135.67736159514834,34.913370430102624],[135.6773731158674,34.91338062404304],[135.67752356710506,34.91351382219588],[135.67718955513172,34.913770160296195],[135.67696238781733,34.913289391711295],[135.6764768824941,34.9137979060631],[135.6757404404678,34.91347774152951],[135.6746678680326,34.91374214840521],[135.675059058184,34.91450461230434],[135.67651421922687,34.91441990323736],[135.67658184300808,34.91531749764747],[135.67607477660604,34.91520725961275],[135.67600106437314,34.91645993457889]],[[135.67149533489942,34.916149476920204],[135.67114905927951,34.91642258011052],[135.6717399944638,34.91738068882451],[135.67257934967327,34.917717991419345],[135.6732631990799,34.916910878273285],[135.67335286926303,34.91605004562933],[135.6725358638842,34.915503914010635],[135.67150442290873,34.915803831559586],[135.6713033821544,34.91580082237357],[135.67141700278532,34.91602326526283],[135.67149533489942,34.916149476920204]]]},"properties":{"KEY_CODE":"262090090","PREF":"26","CITY":"209","CITY_NAME":"長岡京市","S_NAME":"金ケ原","SETAI":"352"}},{"type":"Feature","geometry":{"type":"Polygon","coordinates":[[[135.67550853822547,34.9192172045257],[135.67518677200997,34.918922371130634],[135.6752942217411,34.9188808233437],[135.67580832917227,34.91883641844777],[135.67655214833343,34.91858781344808],[135.67604632440413,34.919099403186145],[135.6756886885142,34.919120634396464],[135.67550853822547,34.9192172045257]]]},"properties":{"KEY_CODE":"262090090","PREF":"26","CITY":"209","CITY_NAME":"長岡京市","S_NAME":"金ケ原","SETAI":"0"}},{"type":"Feature","geometry":{"type":"Polygon","coordinates":[[[135.6626457901311,34.91474025966122],[135.66154085111827,34.914806695340346],[135.6605921357404,34.914248921924184],[135.65967062455124,34.91442790674819],[135.65913186583302,34.91464739979565],[135.6583755581778,34.914782255266445],[135.65798434816983,34.915563408518416],[135.65721782761446,34.91618411636954],[135.65640416954946,34.91602221937886],[135.65565163404955,34.91729815620155],[135.6556463216159,34.9168143655292],[135.65514555164066,34.91667813937385],[135.65468339389554,34.91661216959275],[135.65400213953507,34.91629611264433],[135.65324935828818,34.91678160940671],[135.65194255545256,34.91661397390841],[135.65160513680547,34.91657560578563],[135.65129493810522,34.91665148094675],[135.6497919809878,34.91670010731857],[135.64871596777581,34.917061176348405],[135.64811365042945,34.91622421868721],[135.64880981811845,34.914824290101855],[135.64817091249762,34.913137508703954],[135.64837440864792,34.91237761280875],[135.64810266164653,34.91046745048403],[135.64836949829083,34.909391453007245],[135.65086628376906,34.90929899984156],[135.65110107248015,34.91006649470685],[135.65250651930012,34.91041597471636],[135.65275969223183,34.90981594699989],[135.65485510085455,34.908717957058094],[135.6557436777943,34.907322474320644],[135.65759914899886,34.90639221164204],[135.65767162468032,34.90592336190971],[135.6598685280931,34.90531503362469],[135.6617210028171,34.903726812648095],[135.6624717504458,34.90375925048894],[135.66299873845733,34.90449288988367],[135.6644641319005,34.90495247265664],[135.66413782304687,34.90226408149425],[135.66464394473084,34.90347127997306],[135.66480917943747,34.90465360692944],[135.66537871170328,34.904894773166006],[135.667345070497,34.90449970111975],[135.66804442063747,34.90535246726921],[135.66825873918125,34.90628976252055],[135.6686469800346,34.906468443456305],[135.66871441315632,34.90745323085684],[135.6688503555643,34.90757819073994],[135.66909688710047,34.90797418168171],[135.66941018316803,34.908905477926155],[135.66952093334933,34.9090188888084],[135.66836215877402,34.91027979795941],[135.66872621969608,34.91057751081815],[135.66845048824797,34.91148987442362],[135.66760980617718,34.912256456003064],[135.6672061608555,34.91365612475513],[135.6670282071956,34.91436429974568],[135.66614367512577,34.915059050555506],[135.66393304771375,34.91506442707707],[135.6626457901311,34.91474025966122]]]},"properties":{"KEY_CODE":"262090100","PREF":"26","CITY":"209","CITY_NAME":"長岡京市","S_NAME":"浄土谷","SETAI":"13"}},{"type":"Feature","geometry":{"type":"Polygon","coordinates":[[[135.69194006976971,34.9335671069312],[135.68804460306217,34.933498466730015],[135.68805970033375,34.93205823441872],[135.6906628623234,34.93210621195459],[135.69136744674992,34.93292363171294],[135.69193914263212,34.93288007432519],[135.69194006976971,34.9335671069312]]]},"properties":{"KEY_CODE":"26209011001","PREF":"26","CITY":"209","CITY_NAME":"長岡京市","S_NAME":"今里一丁目","SETAI":"54"}},{"type":"Feature","geometry":{"type":"Polygon","coordinates":[[[135.69163714454646,34.934838704264415],[135.6880825484181,34.93482452724611],[135.68732057263813,34.93475503545385],[135.68736537511086,34.93404550921174],[135.6867374810092,34.93352039966658],[135.68804460306217,34.933498466730015],[135.69194006976971,34.9335671069312],[135.69240751825862,34.934052624507785],[135.69163714454646,34.934838704264415]]]},"properties":{"KEY_CODE":"26209011002","PREF":"26","CITY":"209","CITY_NAME":"長岡京市","S_NAME":"今里二丁目","SETAI":"210"}},{"type":"Feature","geometry":{"type":"Polygon","coordinates":[[[135.69169234999362,34.9365965302473],[135.68884872090578,34.93655424298777],[135.68844214506007,34.93612654791399],[135.68839741253666,34.93588197534252],[135.68833466343494,34.93561848179156],[135.68829745828006,34.9354538650495],[135.6880825484181,34.93482452724611],[135.69163714454646,34.934838704264415],[135.6916916181773,34.934839546211485],[135.69169234999362,34.9365965302473]]]},"properties":{"KEY_CODE":"26209011003","PREF":"26","CITY":"209","CITY_NAME":"長岡京市","S_NAME":"今里三丁目","SETAI":"178"}},{"type":"Feature","geometry":{"type":"Polygon","coordinates":[[[135.69169234999362,34.9365965302473],[135.69170468123363,34.93827290539725],[135.69171336142585,34.938714403642614],[135.69171648640696,34.93971559739547],[135.69008779902958,34.93944180687776],[135.68928805737048,34.93934413415476],[135.6891500770814,34.93934061456751],[135.68835587563993,34.93930534966686],[135.68825502785836,34.93797511148058],[135.6884733267927,34.93656504676508],[135.68884872090578,34.93655424298777],[135.69169234999362,34.9365965302473]]]},"properties":{"KEY_CODE":"26209011004","PREF":"26","CITY":"209","CITY_NAME":"長岡京市","S_NAME":"今里四丁目","SETAI":"286"}},{"type":"Feature","geometry":{"type":"Polygon","coordinates":[[[135.6884733267927,34.93656504676508],[135.68825502785836,34.93797511148058],[135.68835587563993,34.93930534966686],[135.6858108828247,34.93915036859378],[135.68584931616584,34.937420657448854],[135.68589118080698,34.936108671181735],[135.68593463559304,34.935283777799576],[135.6861600901728,34.934766845712474],[135.68732057263813,34.93475503545385],[135.6880825484181,34.93482452724611],[135.68829745828006,34.9354538650495],[135.68833466343494,34.93561848179156],[135.68839741253666,34.93588197534252],[135.68844214506007,34.93612654791399],[135.6884733267927,34.93656504676508]]]},"properties":{"KEY_CODE":"26209011005","PREF":"26","CITY":"209","CITY_NAME":"長岡京市","S_NAME":"今里五丁目","SETAI":"243"}},{"type":"Feature","geometry":{"type":"Polygon","coordinates":[[[135.68593463559304,34.935283777799576],[135.68583208432338,34.93352412662751],[135.6859281970027,34.93207536801959],[135.68677585034231,34.93210043850573],[135.6867611603399,34.93157788873248],[135.68808856160774,34.931618127800995],[135.68812996381777,34.93119805507928],[135.68884533330444,34.93120671645625],[135.68805970033375,34.93205823441872],[135.68804460306217,34.933498466730015],[135.6867374810092,34.93352039966658],[135.68736537511086,34.93404550921174],[135.68732057263813,34.93475503545385],[135.6861600901728,34.934766845712474],[135.68593463559304,34.935283777799576]]]},"properties":{"KEY_CODE":"26209011006","PREF":"26","CITY":"209","CITY_NAME":"長岡京市","S_NAME":"今里今里","SETAI":"0"}},{"type":"Feature","geometry":{"type":"Polygon","coordinates":[[[135.68401436193705,34.928748061734545],[135.6831080144989,34.927920553963034],[135.6815803731446,34.92924492744285],[135.68065470756432,34.92912164318165],[135.6811107967043,34.92793913568836],[135.6805107285895,34.92672329077789],[135.68065440544902,34.926585345004646],[135.68142939404913,34.92663555315444],[135.68277802296774,34.927114195874196],[135.6835066052789,34.92769713503231],[135.6842533283253,34.92851711154533],[135.68401436193705,34.928748061734545]]]},"properties":{"KEY_CODE":"26209011006","PREF":"26","CITY":"209","CITY_NAME":"長岡京市","S_NAME":"今里今里","SETAI":"0"}},{"type":"Feature","geometry":{"type":"Polygon","coordinates":[[[135.6945487725598,34.941133107551906],[135.69064312081832,34.94113737818143],[135.69055899991451,34.94015750063798],[135.69029066589545,34.94009364660859],[135.69030143780066,34.93996162045015],[135.69003667605614,34.939937848834134],[135.6900015513611,34.9398845150384],[135.69008779902958,34.93944180687776],[135.69171648640696,34.93971559739547],[135.69171336142585,34.938714403642614],[135.69170468123363,34.93827290539725],[135.69169234999362,34.9365965302473],[135.6916916181773,34.934839546211485],[135.69536898063882,34.9349763290415],[135.695956999501,34.93501026247126],[135.69597631326235,34.93712879396264],[135.69700122540533,34.9374675658638],[135.69672930703447,34.93798637070211],[135.69746322264655,34.93844801442233],[135.69801797083835,34.93797441407712],[135.69899211535886,34.935581973136216],[135.69931583469346,34.93596145911373],[135.69904911452113,34.93717385744086],[135.69885970391576,34.93787506857276],[135.6976469659256,34.939307129551075],[135.6945487725598,34.941133107551906]]]},"properties":{"KEY_CODE":"26209011006","PREF":"26","CITY":"209","CITY_NAME":"長岡京市","S_NAME":"今里今里","SETAI":"1418"}},{"type":"Feature","geometry":{"type":"Polygon","coordinates":[[[135.6858248699733,34.930907950957426],[135.68506109191011,34.930629826021054],[135.68508347131336,34.93164878175703],[135.6845235788136,34.9311171421751],[135.68381932439829,34.93184566440431],[135.68374034886105,34.93088895995563],[135.68476888282893,34.93080035371423],[135.68467017370284,34.92992043874241],[135.68569990527885,34.93028566948687],[135.6858248699733,34.930907950957426]]]},"properties":{"KEY_CODE":"26209011006","PREF":"26","CITY":"209","CITY_NAME":"長岡京市","S_NAME":"今里今里","SETAI":"0"}},{"type":"Feature","geometry":{"type":"Polygon","coordinates":[[[135.67888048446113,34.94126181452701],[135.67768200884754,34.94490577003228],[135.6756466865657,34.94544578361381],[135.67483169003813,34.94551397307625],[135.6732138856014,34.94382856444268],[135.67281921483172,34.944028230211316],[135.67197178138463,34.94335553105574],[135.67218332396268,34.942246553606545],[135.67157951756263,34.941860796577586],[135.6713812756901,34.94098629710715],[135.6722045870831,34.939426253532005],[135.673271420662,34.939950791524026],[135.67399399217123,34.93969727902082],[135.6740369642944,34.940200894879325],[135.6749534680707,34.93989232578751],[135.67487158039174,34.93998465237417],[135.67502688469244,34.94071042041075],[135.6752249356334,34.940608192119655],[135.6755312324728,34.940475191221],[135.67558634761025,34.94039434394429],[135.67557231603712,34.94038987008015],[135.6757353748049,34.94024606430196],[135.67590351264423,34.940209183349914],[135.67674412483206,34.94042974803622],[135.67695509876197,34.94045707009651],[135.67705220110412,34.94026709789577],[135.67712169374525,34.94018896441808],[135.67918663967194,34.94035922201896],[135.67888048446113,34.94126181452701]]]},"properties":{"KEY_CODE":"26209011006","PREF":"26","CITY":"209","CITY_NAME":"長岡京市","S_NAME":"今里今里","SETAI":"0"}},{"type":"Feature","geometry":{"type":"Polygon","coordinates":[[[135.68593463559304,34.935283777799576],[135.68589118080698,34.936108671181735],[135.68584931616584,34.937420657448854],[135.6858108828247,34.93915036859378],[135.68835587563993,34.93930534966686],[135.6891500770814,34.93934061456751],[135.6890179734034,34.93984863427597],[135.6881381525821,34.93980878337907],[135.68500646784955,34.939692363806984],[135.68497906857502,34.939542067204854],[135.6849934367154,34.93941181080231],[135.68499342769522,34.93937455374203],[135.6849973085526,34.93919609564591],[135.68496370849445,34.93913670820991],[135.68490282047813,34.938518111923436],[135.684889362044,34.93846391715852],[135.68492384072312,34.938245393849165],[135.68299331706933,34.93814890033395],[135.68299971433356,34.937196923680254],[135.68339838531725,34.93720049611873],[135.6834367886539,34.93630980692385],[135.68347235526008,34.9358967621051],[135.6834957327779,34.93570849537617],[135.68535791811865,34.935241655049715],[135.68593463559304,34.935283777799576]]]},"properties":{"KEY_CODE":"26209011006","PREF":"26","CITY":"209","CITY_NAME":"長岡京市","S_NAME":"今里今里","SETAI":"0"}},{"type":"Feature","geometry":{"type":"Polygon","coordinates":[[[135.68593463559304,34.935283777799576],[135.68535791811865,34.935241655049715],[135.6834957327779,34.93570849537617],[135.68341343230952,34.93540712640824],[135.68350041109002,34.93527086088914],[135.68405398819397,34.93518567099096],[135.68455027395981,34.93353483206015],[135.68583208432338,34.93352412662751],[135.68593463559304,34.935283777799576]]]},"properties":{"KEY_CODE":"26209011007","PREF":"26","CITY":"209","CITY_NAME":"長岡京市","S_NAME":"今里薬師堂","SETAI":"156"}},{"type":"Feature","geometry":{"type":"Polygon","coordinates":[[[135.67894538776358,34.929383786576686],[135.68065470756432,34.92912164318165],[135.6815803731446,34.92924492744285],[135.6831080144989,34.927920553963034],[135.68401436193705,34.928748061734545],[135.68435658089797,34.92959579121837],[135.6845994798257,34.929857080438566],[135.68467017370284,34.92992043874241],[135.68476888282893,34.93080035371423],[135.68374034886105,34.93088895995563],[135.68381932439829,34.93184566440431],[135.68358598643152,34.9342438038943],[135.68354175017382,34.93450307943274],[135.683526840953,34.93490420507075],[135.68351612920296,34.935112577048656],[135.68350041109002,34.93527086088914],[135.68341343230952,34.93540712640824],[135.6827405659546,34.935769001158185],[135.68012811964715,34.93600000485544],[135.67413225048668,34.934650381498344],[135.67309970943413,34.934350540685756],[135.67261805119387,34.93325237508757],[135.67205935463136,34.93307444306884],[135.67073126514273,34.93437611307146],[135.66940961467617,34.934065370702726],[135.66889696367627,34.93183980467776],[135.67094174323438,34.931188194512885],[135.671043319339,34.930350075613575],[135.67172275535484,34.93130447907159],[135.67432154963407,34.930966928606814],[135.6747427452579,34.92989414574673],[135.67652195867595,34.929164242771094],[135.6780590230977,34.929143460945504],[135.67894538776358,34.929383786576686],[135.67839214976385,34.929628404698605],[135.67747359623155,34.92939094773747],[135.67717818225634,34.92994902152838],[135.6765280767097,34.929438017990414],[135.67618038914185,34.930049829178294],[135.6774138494825,34.93068478967677],[135.67814139319339,34.93074623084638],[135.67868331622202,34.93130292870772],[135.67881839075798,34.931301807012304],[135.67885742604074,34.93116443193067],[135.67886583625486,34.930996127906724],[135.6794397797668,34.93102849012792],[135.68058017062518,34.93074653359883],[135.67939176085756,34.93051310175668],[135.6803768727711,34.92983999655668],[135.68006066257922,34.92982916337448],[135.6800507895502,34.92958312767341],[135.67953610704902,34.92952613346876],[135.6791123793507,34.92953783342021],[135.67894538776358,34.929383786576686]]]},"properties":{"KEY_CODE":"262090120","PREF":"26","CITY":"209","CITY_NAME":"長岡京市","S_NAME":"長法寺","SETAI":"823"}},{"type":"Feature","geometry":{"type":"Polygon","coordinates":[[[135.6749534680707,34.93989232578751],[135.6740369642944,34.940200894879325],[135.67399399217123,34.93969727902082],[135.673271420662,34.939950791524026],[135.6722045870831,34.939426253532005],[135.6713812756901,34.94098629710715],[135.67157951756263,34.941860796577586],[135.66951739208957,34.940762617016226],[135.66936769112135,34.93998945351141],[135.66827226193817,34.940254938938374],[135.66749704219907,34.93936413139486],[135.6667280011916,34.93911248555681],[135.66541193492472,34.939283807781734],[135.66457370667024,34.93909682411019],[135.6638058478274,34.937821179974335],[135.66415863336937,34.93710658893476],[135.66376250454533,34.936146659311405],[135.66071465964558,34.935554513475275],[135.66014167973125,34.935864275574914],[135.65951273077226,34.935577691788076],[135.65890050922266,34.93319840662678],[135.65989525645736,34.933029432860316],[135.66368232818147,34.933634356922305],[135.66585997012103,34.934187407617884],[135.66628124509322,34.93407447330564],[135.66940961467617,34.934065370702726],[135.67073126514273,34.93437611307146],[135.67205935463136,34.93307444306884],[135.67261805119387,34.93325237508757],[135.67309970943413,34.934350540685756],[135.67413225048668,34.934650381498344],[135.68012811964715,34.93600000485544],[135.68049098364455,34.93673053515573],[135.6814417795806,34.93674661832631],[135.68132892059162,34.93716368804717],[135.68299971433356,34.937196923680254],[135.68299331706933,34.93814890033395],[135.68492384072312,34.938245393849165],[135.684889362044,34.93846391715852],[135.68490282047813,34.938518111923436],[135.68496370849445,34.93913670820991],[135.68296206078566,34.938952417126075],[135.68291996125103,34.939245363256475],[135.68195264961005,34.939577452484684],[135.68158931879555,34.93911730441543],[135.68108392638013,34.93987922496929],[135.68084084216235,34.94137014184713],[135.67916867424015,34.94102670471958],[135.67888048446113,34.94126181452701],[135.67918663967194,34.94035922201896],[135.67712169374525,34.94018896441808],[135.67705220110412,34.94026709789577],[135.67695509876197,34.94045707009651],[135.67674412483206,34.94042974803622],[135.67590351264423,34.940209183349914],[135.6757353748049,34.94024606430196],[135.67557231603712,34.94038987008015],[135.67558634761025,34.94039434394429],[135.6755312324728,34.940475191221],[135.6752249356334,34.940608192119655],[135.67502688469244,34.94071042041075],[135.67487158039174,34.93998465237417],[135.6749534680707,34.93989232578751]]]},"properties":{"KEY_CODE":"26209013001","PREF":"26","CITY":"209","CITY_NAME":"長岡京市","S_NAME":"粟生粟生","SETAI":"262"}},{"type":"Feature","geometry":{"type":"Polygon","coordinates":[[[135.68475775530277,34.940084365368335],[135.68443491214606,34.93984843733638],[135.68291996125103,34.939245363256475],[135.68296206078566,34.938952417126075],[135.68496370849445,34.93913670820991],[135.6849973085526,34.93919609564591],[135.68499342769522,34.93937455374203],[135.6849934367154,34.93941181080231],[135.68497906857502,34.939542067204854],[135.6848217945546,34.93968759103245],[135.68475775530277,34.940084365368335]]]},"properties":{"KEY_CODE":"26209013002","PREF":"26","CITY":"209","CITY_NAME":"長岡京市","S_NAME":"粟生畑ケ田","SETAI":"101"}},{"type":"Feature","geometry":{"type":"Polygon","coordinates":[[[135.68299971433356,34.937196923680254],[135.68132892059162,34.93716368804717],[135.6814417795806,34.93674661832631],[135.68049098364455,34.93673053515573],[135.68012811964715,34.93600000485544],[135.6827405659546,34.935769001158185],[135.68341343230952,34.93540712640824],[135.6834957327779,34.93570849537617],[135.68347235526008,34.9358967621051],[135.6834367886539,34.93630980692385],[135.68339838531725,34.93720049611873],[135.68299971433356,34.937196923680254]]]},"properties":{"KEY_CODE":"26209013003","PREF":"26","CITY":"209","CITY_NAME":"長岡京市","S_NAME":"粟生田内","SETAI":"178"}},{"type":"Feature","geometry":{"type":"Polygon","coordinates":[[[135.69223778562832,34.94541635043295],[135.6910087903153,34.9451202021747],[135.68810128838632,34.945373562897515],[135.68573935497503,34.94526244535608],[135.6853823321343,34.944789794311845],[135.68279292599186,34.94471189253064],[135.67871770644015,34.94438366215202],[135.67768200884754,34.94490577003228],[135.67888048446113,34.94126181452701],[135.67916867424015,34.94102670471958],[135.68084084216235,34.94137014184713],[135.68108392638013,34.93987922496929],[135.68158931879555,34.93911730441543],[135.68195264961005,34.939577452484684],[135.68291996125103,34.939245363256475],[135.68443491214606,34.93984843733638],[135.68475775530277,34.940084365368335],[135.6848217945546,34.93968759103245],[135.68500646784955,34.939692363806984],[135.6881381525821,34.93980878337907],[135.6890179734034,34.93984863427597],[135.6891500770814,34.93934061456751],[135.68928805737048,34.93934413415476],[135.69008779902958,34.93944180687776],[135.6900015513611,34.9398845150384],[135.69003667605614,34.939937848834134],[135.69030143780066,34.93996162045015],[135.69029066589545,34.94009364660859],[135.69055899991451,34.94015750063798],[135.69064312081832,34.94113737818143],[135.6945487725598,34.941133107551906],[135.69433260217423,34.94133244366116],[135.6939460325694,34.942041748243085],[135.6933672439966,34.94207135829678],[135.69299744418046,34.94210071539683],[135.6928442161168,34.9421075850315],[135.6925761267125,34.942114166522146],[135.69233752800102,34.94211356687441],[135.6916568404563,34.9421238259138],[135.69192304778116,34.943161135728076],[135.69181775954505,34.94457620476627],[135.69223778562832,34.94541635043295]]]},"properties":{"KEY_CODE":"262090140","PREF":"26","CITY":"209","CITY_NAME":"長岡京市","S_NAME":"井ノ内","SETAI":"1020"}},{"type":"Feature","geometry":{"type":"Polygon","coordinates":[[[135.68583208432338,34.93352412662751],[135.68455027395981,34.93353483206015],[135.68405398819397,34.93518567099096],[135.68350041109002,34.93527086088914],[135.68351612920296,34.935112577048656],[135.683526840953,34.93490420507075],[135.68354175017382,34.93450307943274],[135.68358598643152,34.9342438038943],[135.68381932439829,34.93184566440431],[135.6845235788136,34.9311171421751],[135.68508347131336,34.93164878175703],[135.68506109191011,34.930629826021054],[135.6858248699733,34.930907950957426],[135.68812996381777,34.93119805507928],[135.68808856160774,34.931618127800995],[135.6867611603399,34.93157788873248],[135.68677585034231,34.93210043850573],[135.6859281970027,34.93207536801959],[135.68583208432338,34.93352412662751]]]},"properties":{"KEY_CODE":"262090150","PREF":"26","CITY":"209","CITY_NAME":"長岡京市","S_NAME":"うぐいす台","SETAI":"240"}},{"type":"Feature","geometry":{"type":"Polygon","coordinates":[[[135.67224330540353,34.91973947639909],[135.67202155385658,34.91980381304806],[135.67148872543416,34.91975158961766],[135.67141976771356,34.91962779786776],[135.6713216209355,34.91956034168738],[135.67121679324848,34.919511954317336],[135.6705028079842,34.91895059165603],[135.66946712127677,34.91880803878041],[135.6700806367446,34.918404105386045],[135.67174071788375,34.91885027858998],[135.6724421020262,34.918677015608786],[135.67306320231532,34.919269032293954],[135.6729752618087,34.919447405313626],[135.67250035555512,34.91971720970053],[135.67224330540353,34.91973947639909]]]},"properties":{"KEY_CODE":"262090170","PREF":"26","CITY":"209","CITY_NAME":"長岡京市","S_NAME":"こがねが丘","SETAI":"131"}},{"type":"Feature","geometry":{"type":"Polygon","coordinates":[[[135.6914718703959,34.92021291272022],[135.6919955242908,34.919304232292156],[135.69406945550014,34.920139969903026],[135.69346991958656,34.92103135430698],[135.69243528211715,34.92124882962305],[135.6914762399207,34.9203948416118],[135.6914718703959,34.92021291272022]]]},"properties":{"KEY_CODE":"262090190","PREF":"26","CITY":"209","CITY_NAME":"長岡京市","S_NAME":"竹の台","SETAI":"343"}},{"type":"Feature","geometry":{"type":"Polygon","coordinates":[[[135.70869622315377,34.92318477507761],[135.70833372534287,34.924177072625476],[135.70685145663006,34.92421604626895],[135.70668155790725,34.92226204429918],[135.70720216078755,34.92224963776094],[135.70756245950056,34.9222010658671],[135.70858306853185,34.922185068131995],[135.70869622315377,34.92318477507761]]]},"properties":{"KEY_CODE":"262090200","PREF":"26","CITY":"209","CITY_NAME":"長岡京市","S_NAME":"東和苑","SETAI":"255"}},{"type":"Feature","geometry":{"type":"Polygon","coordinates":[[[135.69899211535886,34.935581973136216],[135.69801797083835,34.93797441407712],[135.69746322264655,34.93844801442233],[135.69672930703447,34.93798637070211],[135.69700122540533,34.9374675658638],[135.69597631326235,34.93712879396264],[135.695956999501,34.93501026247126],[135.6984605763216,34.93497392697881],[135.69899211535886,34.935581973136216]]]},"properties":{"KEY_CODE":"262090210","PREF":"26","CITY":"209","CITY_NAME":"長岡京市","S_NAME":"柴の里","SETAI":"312"}},{"type":"Feature","geometry":{"type":"Polygon","coordinates":[[[135.69357789552978,34.94574769710528],[135.69223778562832,34.94541635043295],[135.69181775954505,34.94457620476627],[135.69192304778116,34.943161135728076],[135.6916568404563,34.9421238259138],[135.69233752800102,34.94211356687441],[135.6925761267125,34.942114166522146],[135.6928442161168,34.9421075850315],[135.69299744418046,34.94210071539683],[135.6933672439966,34.94207135829678],[135.6939460325694,34.942041748243085],[135.6938188334433,34.94256098124609],[135.6935330842931,34.943896295866075],[135.69357789552978,34.94574769710528]]]},"properties":{"KEY_CODE":"262090220","PREF":"26","CITY":"209","CITY_NAME":"長岡京市","S_NAME":"西の京","SETAI":"369"}},{"type":"Feature","geometry":{"type":"Polygon","coordinates":[[[135.68940350576068,34.92952207478469],[135.6884284272294,34.929346680308186],[135.68813013737875,34.92985420186426],[135.687934088069,34.928228833891566],[135.6878944307588,34.92792138027385],[135.68914082985253,34.92786576355334],[135.6893629260823,34.92919616810573],[135.68940350576068,34.92952207478469]]]},"properties":{"KEY_CODE":"26209023001","PREF":"26","CITY":"209","CITY_NAME":"長岡京市","S_NAME":"八条が丘一丁目","SETAI":"215"}},{"type":"Feature","geometry":{"type":"Polygon","coordinates":[[[135.6893629260823,34.92919616810573],[135.69034504845274,34.92927677534789],[135.69039138459598,34.931151565671584],[135.68891289818745,34.931119134686895],[135.68940350576068,34.92952207478469],[135.6893629260823,34.92919616810573]]]},"properties":{"KEY_CODE":"26209023002","PREF":"26","CITY":"209","CITY_NAME":"長岡京市","S_NAME":"八条が丘二丁目","SETAI":"205"}},{"type":"Feature","geometry":{"type":"Polygon","coordinates":[[[135.70817370416856,34.91688503416739],[135.70832912440866,34.91727691647011],[135.7057204276361,34.91727272114421],[135.70423255937905,34.91706704056391],[135.70345706391936,34.91740784816558],[135.70168681152035,34.91517620993842],[135.70685104506143,34.91530523980449],[135.70755013520778,34.91524467256332],[135.70817370416856,34.91688503416739]]]},"properties":{"KEY_CODE":"262090240","PREF":"26","CITY":"209","CITY_NAME":"長岡京市","S_NAME":"城の里","SETAI":"322"}},{"type":"Feature","geometry":{"type":"Polygon","coordinates":[[[135.68492301873897,34.915247053029006],[135.6843415443402,34.916027585247406],[135.68341266407285,34.91648992610142],[135.68275387069855,34.916019569566124],[135.6812400071723,34.915710993652425],[135.6822484977842,34.91345187656366],[135.68265806250466,34.91313489149213],[135.6841093974108,34.91339376901626],[135.6850356472828,34.91273478903153],[135.68565628278992,34.912948250469064],[135.686151195998,34.91342788648899],[135.68567971580143,34.91343117258049],[135.68548492438413,34.914488581731604],[135.6852958113415,34.914672756586924],[135.68522767066767,34.91511205683801],[135.68492301873897,34.915247053029006]]]},"properties":{"KEY_CODE":"262090250","PREF":"26","CITY":"209","CITY_NAME":"長岡京市","S_NAME":"泉が丘","SETAI":"260"}},{"type":"Feature","geometry":{"type":"Polygon","coordinates":[[[135.70092517386385,34.926107961504215],[135.6998974221318,34.926174874525245],[135.69970763893204,34.92617891385184],[135.69963787318272,34.92487455012854],[135.70063414872706,34.924835242588465],[135.70069423251064,34.92526669230148],[135.70087420927734,34.92571428411207],[135.70092517386385,34.926107961504215]]]},"properties":{"KEY_CODE":"262090270","PREF":"26","CITY":"209","CITY_NAME":"長岡京市","S_NAME":"一里塚","SETAI":"180"}},{"type":"Feature","geometry":{"type":"Polygon","coordinates":[[[135.6745658027439,34.91931483318853],[135.67631901851138,34.92021904318316],[135.67489022378672,34.92070942976222],[135.67444081896505,34.921372586345036],[135.67400638169897,34.92061226308692],[135.67250035555512,34.91971720970053],[135.6729752618087,34.919447405313626],[135.6730830125349,34.91931338537711],[135.6745658027439,34.91931483318853]]]},"properties":{"KEY_CODE":"26209029001","PREF":"26","CITY":"209","CITY_NAME":"長岡京市","S_NAME":"高台一丁目","SETAI":"91"}},{"type":"Feature","geometry":{"type":"Polygon","coordinates":[[[135.6771699998261,34.918256396923844],[135.67655214833343,34.91858781344808],[135.67580832917227,34.91883641844777],[135.6752942217411,34.9188808233437],[135.67518677200997,34.918922371130634],[135.6745658027439,34.91931483318853],[135.67439952082245,34.91893526411243],[135.67448399228562,34.918192880372644],[135.6756472414231,34.91821515096042],[135.67560278904082,34.917406641373844],[135.67600106437314,34.91645993457889],[135.6759365452517,34.91663668136189],[135.67763938178152,34.917333745150124],[135.67750761199602,34.917952828276974],[135.6771699998261,34.918256396923844]]]},"properties":{"KEY_CODE":"26209029002","PREF":"26","CITY":"209","CITY_NAME":"長岡京市","S_NAME":"高台二丁目","SETAI":"142"}},{"type":"Feature","geometry":{"type":"Polygon","coordinates":[[[135.67728236688376,34.913916900858744],[135.6777483514958,34.91420147789682],[135.67766418067816,34.9151174009586],[135.67841924337986,34.91617274828567],[135.67787659752022,34.91588726705372],[135.67763938178152,34.917333745150124],[135.6759365452517,34.91663668136189],[135.67600106437314,34.91645993457889],[135.67607477660604,34.91520725961275],[135.67658184300808,34.91531749764747],[135.67651421922687,34.91441990323736],[135.67675124792603,34.914193259833915],[135.67728236688376,34.913916900858744]]]},"properties":{"KEY_CODE":"26209029003","PREF":"26","CITY":"209","CITY_NAME":"長岡京市","S_NAME":"高台三丁目","SETAI":"164"}},{"type":"Feature","geometry":{"type":"Polygon","coordinates":[[[135.67651421922687,34.91441990323736],[135.675059058184,34.91450461230434],[135.6746678680326,34.91374214840521],[135.6757404404678,34.91347774152951],[135.6764768824941,34.9137979060631],[135.67696238781733,34.913289391711295],[135.67718955513172,34.913770160296195],[135.6771402302196,34.91384510680565],[135.67675124792603,34.914193259833915],[135.67651421922687,34.91441990323736]]]},"properties":{"KEY_CODE":"26209029004","PREF":"26","CITY":"209","CITY_NAME":"長岡京市","S_NAME":"高台四丁目","SETAI":"62"}},{"type":"Feature","geometry":{"type":"Polygon","coordinates":[[[135.67150442290873,34.915803831559586],[135.6725358638842,34.915503914010635],[135.67335286926303,34.91605004562933],[135.6732631990799,34.916910878273285],[135.67257934967327,34.917717991419345],[135.6717399944638,34.91738068882451],[135.67114905927951,34.91642258011052],[135.67149533489942,34.916149476920204],[135.67141700278532,34.91602326526283],[135.6713033821544,34.91580082237357],[135.67150442290873,34.915803831559586]]]},"properties":{"KEY_CODE":"262090330","PREF":"26","CITY":"209","CITY_NAME":"長岡京市","S_NAME":"高台西","SETAI":"108"}},{"type":"Feature","geometry":{"type":"Polygon","coordinates":[[[135.67183367813254,34.92737931570755],[135.6716971327511,34.9274288808654],[135.67212542834227,34.92633500517209],[135.6720403812051,34.92536848521956],[135.6746767524272,34.925287396158346],[135.67570418788836,34.92608768271708],[135.67542339809842,34.92683510280993],[135.67297702297458,34.927356412191315],[135.67279464951716,34.927285421621036],[135.67229168229784,34.92735794670635],[135.67211478913273,34.92739866976883],[135.67183367813254,34.92737931570755]]]},"properties":{"KEY_CODE":"26209034001","PREF":"26","CITY":"209","CITY_NAME":"長岡京市","S_NAME":"河陽が丘一丁目","SETAI":"186"}},{"type":"Feature","geometry":{"type":"Polygon","coordinates":[[[135.67542339809842,34.92683510280993],[135.67517868963137,34.927872083345754],[135.67427998530422,34.92911289909312],[135.6744520429952,34.929908932666144],[135.67365889425764,34.93012154630842],[135.67273756576958,34.929244968019674],[135.67105438705272,34.92815960284224],[135.6716971327511,34.9274288808654],[135.67183367813254,34.92737931570755],[135.67211478913273,34.92739866976883],[135.67229168229784,34.92735794670635],[135.67279464951716,34.927285421621036],[135.67297702297458,34.927356412191315],[135.67542339809842,34.92683510280993]]]},"properties":{"KEY_CODE":"26209034002","PREF":"26","CITY":"209","CITY_NAME":"長岡京市","S_NAME":"河陽が丘二丁目","SETAI":"188"}},{"type":"Feature","geometry":{"type":"Polygon","coordinates":[[[135.6988332582575,34.9262366874484],[135.69892918699176,34.9285115486457],[135.69911111694537,34.92915789345872],[135.6983391648204,34.9298920308822],[135.6980783084287,34.93012703753707],[135.69745320107737,34.93036776201696],[135.6963140022375,34.93141804234506],[135.6962356438722,34.93129593620165],[135.69592491062275,34.93078223112255],[135.69574258032185,34.93046858159317],[135.6932304787174,34.926265226837934],[135.69339820035762,34.92626107189479],[135.6937304592249,34.92626451489258],[135.696433150935,34.92622051215977],[135.6988327895445,34.92620069738009],[135.6988332582575,34.9262366874484]]]},"properties":{"KEY_CODE":"26209041001","PREF":"26","CITY":"209","CITY_NAME":"長岡京市","S_NAME":"開田一丁目","SETAI":"543"}},{"type":"Feature","geometry":{"type":"Polygon","coordinates":[[[135.6988327895445,34.92620069738009],[135.696433150935,34.92622051215977],[135.69621186159233,34.92359973268002],[135.69766259629907,34.92350637001723],[135.6979850255152,34.92347611280443],[135.69868609083005,34.92344278035542],[135.69872342996797,34.92406672743804],[135.69873702900375,34.92439108458955],[135.6987644818232,34.92486971315783],[135.6988327895445,34.92620069738009]]]},"properties":{"KEY_CODE":"26209041002","PREF":"26","CITY":"209","CITY_NAME":"長岡京市","S_NAME":"開田二丁目","SETAI":"443"}},{"type":"Feature","geometry":{"type":"Polygon","coordinates":[[[135.696433150935,34.92622051215977],[135.6937304592249,34.92626451489258],[135.69339820035762,34.92626107189479],[135.69314000480153,34.92562747764113],[135.6928669043872,34.92505490666139],[135.69188813697573,34.923658996825615],[135.69370160169748,34.92367555260675],[135.69493071262792,34.923679630273554],[135.69621186159233,34.92359973268002],[135.696433150935,34.92622051215977]]]},"properties":{"KEY_CODE":"26209041003","PREF":"26","CITY":"209","CITY_NAME":"長岡京市","S_NAME":"開田三丁目","SETAI":"476"}},{"type":"Feature","geometry":{"type":"Polygon","coordinates":[[[135.69493071262792,34.923679630273554],[135.69370160169748,34.92367555260675],[135.69188813697573,34.923658996825615],[135.69112115147126,34.92244447645462],[135.69056322701593,34.92053999699845],[135.69041349573715,34.91996885943117],[135.69026617872368,34.91946322782458],[135.69041713622926,34.91942769469455],[135.6905000054054,34.91953206949293],[135.6909360675787,34.91960741203569],[135.69104297654079,34.91982890120384],[135.69125756242136,34.91999777181647],[135.6914718703959,34.92021291272022],[135.6914762399207,34.9203948416118],[135.69243528211715,34.92124882962305],[135.69346991958656,34.92103135430698],[135.69406945550014,34.920139969903026],[135.69425589373125,34.91983217292702],[135.69604257487143,34.91984116564572],[135.69621186159233,34.92359973268002],[135.69493071262792,34.923679630273554]]]},"properties":{"KEY_CODE":"26209041004","PREF":"26","CITY":"209","CITY_NAME":"長岡京市","S_NAME":"開田四丁目","SETAI":"655"}},{"type":"Feature","geometry":{"type":"Polygon","coordinates":[[[135.6922471883205,34.92627873061232],[135.68886900160143,34.926220553641784],[135.6887741323697,34.92607649504193],[135.68890463999273,34.92369809165691],[135.68874239417246,34.92139345114493],[135.68939002462278,34.92164097625167],[135.6899084366898,34.921326567677156],[135.69008139093268,34.921246298044466],[135.69056322701593,34.92053999699845],[135.69112115147126,34.92244447645462],[135.69188813697573,34.923658996825615],[135.6928669043872,34.92505490666139],[135.69314000480153,34.92562747764113],[135.69339820035762,34.92626107189479],[135.6932304787174,34.926265226837934],[135.69293798695242,34.926277518609666],[135.6923762691635,34.92627771846787],[135.6922471883205,34.92627873061232]]]},"properties":{"KEY_CODE":"26209045001","PREF":"26","CITY":"209","CITY_NAME":"長岡京市","S_NAME":"天神一丁目","SETAI":"837"}},{"type":"Feature","geometry":{"type":"Polygon","coordinates":[[[135.68826084805266,34.92604517714202],[135.6874303575608,34.926100797809006],[135.68717863829514,34.92611740515283],[135.68636899984952,34.9261365894829],[135.6832433402834,34.92549194733017],[135.68070687759044,34.925353888109804],[135.68103830073926,34.92400336410189],[135.68212420576415,34.922089409518],[135.6837825256711,34.92164749827264],[135.68488771600346,34.92104186227332],[135.68662552111283,34.92062399421085],[135.68723808350094,34.92043935925646],[135.68785917906226,34.92102122130526],[135.68861655776155,34.92098626038398],[135.68874239417246,34.92139345114493],[135.68890463999273,34.92369809165691],[135.6887741323697,34.92607649504193],[135.68826084805266,34.92604517714202]]]},"properties":{"KEY_CODE":"26209045002","PREF":"26","CITY":"209","CITY_NAME":"長岡京市","S_NAME":"天神二丁目","SETAI":"290"}},{"type":"Feature","geometry":{"type":"Polygon","coordinates":[[[135.68644248829895,34.92614973791631],[135.6857134366129,34.92695095911668],[135.68547719374635,34.92720452696637],[135.68437376570134,34.92838382074186],[135.6835066052789,34.92769713503231],[135.68277802296774,34.927114195874196],[135.68142939404913,34.92663555315444],[135.68075571750452,34.925912097696255],[135.68070687759044,34.925353888109804],[135.6832433402834,34.92549194733017],[135.68636899984952,34.9261365894829],[135.68644248829895,34.92614973791631]]]},"properties":{"KEY_CODE":"26209045003","PREF":"26","CITY":"209","CITY_NAME":"長岡京市","S_NAME":"天神三丁目","SETAI":"380"}},{"type":"Feature","geometry":{"type":"Polygon","coordinates":[[[135.6864561017443,34.928260038123895],[135.68665313307784,34.928774606553105],[135.68580920140545,34.92939361523857],[135.68569990527885,34.93028566948687],[135.68467017370284,34.92992043874241],[135.6845994798257,34.929857080438566],[135.68435658089797,34.92959579121837],[135.68401436193705,34.928748061734545],[135.6842533283253,34.92851711154533],[135.68437376570134,34.92838382074186],[135.68547719374635,34.92720452696637],[135.6857134366129,34.92695095911668],[135.68644248829895,34.92614973791631],[135.68717863829514,34.92611740515283],[135.6874303575608,34.926100797809006],[135.68826084805266,34.92604517714202],[135.6887741323697,34.92607649504193],[135.68886900160143,34.926220553641784],[135.68914082985253,34.92786576355334],[135.6878944307588,34.92792138027385],[135.687934088069,34.928228833891566],[135.68750924814404,34.92826697250406],[135.6864561017443,34.928260038123895]]]},"properties":{"KEY_CODE":"26209045004","PREF":"26","CITY":"209","CITY_NAME":"長岡京市","S_NAME":"天神四丁目","SETAI":"267"}},{"type":"Feature","geometry":{"type":"Polygon","coordinates":[[[135.68884533330444,34.93120671645625],[135.68812996381777,34.93119805507928],[135.6858248699733,34.930907950957426],[135.68569990527885,34.93028566948687],[135.68580920140545,34.92939361523857],[135.68665313307784,34.928774606553105],[135.6864561017443,34.928260038123895],[135.68750924814404,34.92826697250406],[135.687934088069,34.928228833891566],[135.68813013737875,34.92985420186426],[135.6884284272294,34.929346680308186],[135.68940350576068,34.92952207478469],[135.68891289818745,34.931119134686895],[135.68884533330444,34.93120671645625]]]},"properties":{"KEY_CODE":"26209045005","PREF":"26","CITY":"209","CITY_NAME":"長岡京市","S_NAME":"天神五丁目","SETAI":"372"}},{"type":"Feature","geometry":{"type":"Polygon","coordinates":[[[135.69523356144393,34.932832292728605],[135.69429225913962,34.933080590727535],[135.69361842873013,34.93365500414505],[135.69311351331848,34.933391811605794],[135.6930902242261,34.931079936629736],[135.69285790106687,34.92960978904194],[135.6925146224703,34.927071870873625],[135.69247965702542,34.92686091878716],[135.69237626916353,34.92627771846787],[135.69293798695242,34.926277518609666],[135.6932304787174,34.926265226837934],[135.69574258032185,34.93046858159317],[135.69592491062275,34.93078223112255],[135.6962356438722,34.93129593620165],[135.69596845532251,34.932433742742916],[135.69523356144393,34.932832292728605]]]},"properties":{"KEY_CODE":"26209050001","PREF":"26","CITY":"209","CITY_NAME":"長岡京市","S_NAME":"長岡一丁目","SETAI":"914"}},{"type":"Feature","geometry":{"type":"Polygon","coordinates":[[[135.69228993008153,34.93108474995759],[135.69039138459598,34.931151565671584],[135.69034504845274,34.92927677534789],[135.6893629260823,34.92919616810573],[135.68914082985253,34.92786576355334],[135.68886900160143,34.926220553641784],[135.6922471883205,34.92627873061232],[135.69237626916353,34.92627771846787],[135.69247965702542,34.92686091878716],[135.6925146224703,34.927071870873625],[135.69285790106687,34.92960978904194],[135.6930902242261,34.931079936629736],[135.69228993008153,34.93108474995759]]]},"properties":{"KEY_CODE":"26209050002","PREF":"26","CITY":"209","CITY_NAME":"長岡京市","S_NAME":"長岡二丁目","SETAI":"1067"}},{"type":"Feature","geometry":{"type":"Polygon","coordinates":[[[135.6930902242261,34.931079936629736],[135.69311351331848,34.933391811605794],[135.69361842873013,34.93365500414505],[135.69240751825862,34.934052624507785],[135.69194006976971,34.9335671069312],[135.69193914263212,34.93288007432519],[135.69136744674992,34.93292363171294],[135.6906628623234,34.93210621195459],[135.68805970033375,34.93205823441872],[135.68884533330444,34.93120671645625],[135.68891289818745,34.931119134686895],[135.69039138459598,34.931151565671584],[135.69228993008153,34.93108474995759],[135.6930902242261,34.931079936629736]]]},"properties":{"KEY_CODE":"26209050003","PREF":"26","CITY":"209","CITY_NAME":"長岡京市","S_NAME":"長岡三丁目","SETAI":"688"}},{"type":"Feature","geometry":{"type":"Polygon","coordinates":[[[135.7035829924855,34.926086644371985],[135.70341236741316,34.9263668135381],[135.70210142634824,34.92607316716839],[135.70200969006456,34.926074703848336],[135.70181400713992,34.9256595439977],[135.70092094693192,34.923652542628815],[135.70075797435598,34.92331084683003],[135.70419977696332,34.92216390446577],[135.70426456457474,34.92422717673441],[135.7035829924855,34.926086644371985]]]},"properties":{"KEY_CODE":"26209053001","PREF":"26","CITY":"209","CITY_NAME":"長岡京市","S_NAME":"東神足一丁目","SETAI":"288"}},{"type":"Feature","geometry":{"type":"Polygon","coordinates":[[[135.70384088357403,34.918152718400876],[135.70409067709414,34.919383073757594],[135.70402283314155,34.92142398025889],[135.70419977696332,34.92216390446577],[135.70075797435598,34.92331084683003],[135.69861451189857,34.918782986761585],[135.69999206939917,34.91854666542139],[135.70053439232512,34.91863935195811],[135.70384088357403,34.918152718400876]]]},"properties":{"KEY_CODE":"26209053002","PREF":"26","CITY":"209","CITY_NAME":"長岡京市","S_NAME":"東神足二丁目","SETAI":"414"}},{"type":"Feature","geometry":{"type":"Polygon","coordinates":[[[135.6975422568592,34.91129074187446],[135.6971264325769,34.91370561106059],[135.69684274411657,34.915228199624124],[135.69625305039438,34.914079091445075],[135.69495090139097,34.912229537297925],[135.69423985949604,34.91150430249068],[135.6975422568592,34.91129074187446]]]},"properties":{"KEY_CODE":"26209056001","PREF":"26","CITY":"209","CITY_NAME":"長岡京市","S_NAME":"久貝一丁目","SETAI":"254"}},{"type":"Feature","geometry":{"type":"Polygon","coordinates":[[[135.7016073255831,34.914224950948174],[135.69821280456807,34.914130331634816],[135.6971264325769,34.91370561106059],[135.6975422568592,34.91129074187446],[135.7014166035525,34.91115746836083],[135.70163885249437,34.91250911379538],[135.7016073255831,34.914224950948174]]]},"properties":{"KEY_CODE":"26209056002","PREF":"26","CITY":"209","CITY_NAME":"長岡京市","S_NAME":"久貝二丁目","SETAI":"765"}},{"type":"Feature","geometry":{"type":"Polygon","coordinates":[[[135.7016271142005,34.90913993160565],[135.701395926808,34.90972215676023],[135.7014166035525,34.91115746836083],[135.6975422568592,34.91129074187446],[135.6975110899505,34.91051362551908],[135.69810617043174,34.90991675147413],[135.70067077073315,34.90936103709094],[135.70071122220926,34.90935127779832],[135.70089429448626,34.90930517708548],[135.70126385359174,34.90922643678018],[135.7016271142005,34.90913993160565]]]},"properties":{"KEY_CODE":"26209056003","PREF":"26","CITY":"209","CITY_NAME":"長岡京市","S_NAME":"久貝三丁目","SETAI":"305"}},{"type":"Feature","geometry":{"type":"Polygon","coordinates":[[[135.69684274411657,34.915228199624124],[135.69465188270345,34.915273905609766],[135.69459185407175,34.91522417274709],[135.69062358778348,34.91283313007369],[135.6901679727746,34.91238889870114],[135.6914368270151,34.91166263421126],[135.69423985949604,34.91150430249068],[135.69495090139097,34.912229537297925],[135.69625305039438,34.914079091445075],[135.69684274411657,34.915228199624124]]]},"properties":{"KEY_CODE":"26209059001","PREF":"26","CITY":"209","CITY_NAME":"長岡京市","S_NAME":"調子一丁目","SETAI":"542"}},{"type":"Feature","geometry":{"type":"Polygon","coordinates":[[[135.6901679727746,34.91238889870114],[135.68997869562733,34.912495466561964],[135.68946890520527,34.91189713617998],[135.68828524277387,34.91208383311225],[135.68824360849433,34.91192934584074],[135.68900000464166,34.91128933054218],[135.68924617151796,34.90944859967115],[135.68945930955266,34.909281525006655],[135.6898505402263,34.909035955936496],[135.69017872460043,34.90881233909417],[135.69065528525658,34.9080594057985],[135.69423985949604,34.91150430249068],[135.6914368270151,34.91166263421126],[135.6901679727746,34.91238889870114]]]},"properties":{"KEY_CODE":"26209059002","PREF":"26","CITY":"209","CITY_NAME":"長岡京市","S_NAME":"調子二丁目","SETAI":"140"}},{"type":"Feature","geometry":{"type":"Polygon","coordinates":[[[135.6975422568592,34.91129074187446],[135.69423985949604,34.91150430249068],[135.69065528525658,34.9080594057985],[135.69068990464902,34.907980613930185],[135.6917007632156,34.90721086927775],[135.69237567246242,34.90748253878902],[135.69486914192944,34.90743673048759],[135.69506196212149,34.907738722009405],[135.69495051523123,34.909099686945694],[135.6949386904529,34.9091302232108],[135.69490709044155,34.90975378953898],[135.69539107320384,34.91027343281089],[135.69589000836254,34.910767756546484],[135.696399026859,34.910962078462525],[135.69659460367996,34.91100574053955],[135.69702647312417,34.91053818936295],[135.6975110899505,34.91051362551908],[135.6975422568592,34.91129074187446]]]},"properties":{"KEY_CODE":"26209059003","PREF":"26","CITY":"209","CITY_NAME":"長岡京市","S_NAME":"調子三丁目","SETAI":"0"}},{"type":"Feature","geometry":{"type":"Polygon","coordinates":[[[135.69864906618014,34.94230871148776],[135.6985655268413,34.94228519462336],[135.69779151967194,34.94205496347662],[135.69595553286902,34.94195780637123],[135.6939460325694,34.942041748243085],[135.69433260217423,34.94133244366116],[135.6945487725598,34.941133107551906],[135.6976469659256,34.939307129551075],[135.6978444812634,34.93950960529948],[135.69834075280994,34.93982592258635],[135.6990343610823,34.93948111999907],[135.69904592334876,34.94073103755625],[135.69899029318347,34.94170442988019],[135.69892496586968,34.9420569035308],[135.698921433366,34.942075980901954],[135.69887476071028,34.94220559511093],[135.69864906618014,34.94230871148776]]]},"properties":{"KEY_CODE":"26209066001","PREF":"26","CITY":"209","CITY_NAME":"長岡京市","S_NAME":"滝ノ町一丁目","SETAI":"357"}},{"type":"Feature","geometry":{"type":"Polygon","coordinates":[[[135.69574759921204,34.94590030052437],[135.69520219259434,34.946684790489876],[135.6949781836183,34.94629715583695],[135.69357789552978,34.94574769710528],[135.6935330842931,34.943896295866075],[135.6938188334433,34.94256098124609],[135.6939460325694,34.942041748243085],[135.69595553286902,34.94195780637123],[135.69779151967194,34.94205496347662],[135.6985655268413,34.94228519462336],[135.69633167788263,34.94334871401685],[135.69584358670883,34.9440950291601],[135.69566693628548,34.94458519489804],[135.69562042744343,34.945208583547554],[135.6955320514846,34.94548507973606],[135.69574000859424,34.94584746000106],[135.69574759921204,34.94590030052437]]]},"properties":{"KEY_CODE":"26209066002","PREF":"26","CITY":"209","CITY_NAME":"長岡京市","S_NAME":"滝ノ町二丁目","SETAI":"763"}},{"type":"Feature","geometry":{"type":"Polygon","coordinates":[[[135.69684274411657,34.915228199624124],[135.69795070254747,34.91740896608605],[135.69678969454182,34.9186642020131],[135.69480011546128,34.91705569907846],[135.69465188270345,34.915273905609766],[135.69684274411657,34.915228199624124]]]},"properties":{"KEY_CODE":"262090680","PREF":"26","CITY":"209","CITY_NAME":"長岡京市","S_NAME":"緑が丘","SETAI":"559"}},{"type":"Feature","geometry":{"type":"Polygon","coordinates":[[[135.6984605763216,34.93497392697881],[135.695956999501,34.93501026247126],[135.69536898063882,34.9349763290415],[135.69523356144393,34.932832292728605],[135.69596845532251,34.932433742742916],[135.6962356438722,34.93129593620165],[135.6963140022375,34.93141804234506],[135.69643992934192,34.93163436020116],[135.69674118151974,34.93215846203315],[135.69676385127156,34.932203240919264],[135.69743849481887,34.933342401426735],[135.69817521243078,34.93451994841375],[135.6984605763216,34.93497392697881]]]},"properties":{"KEY_CODE":"26209069001","PREF":"26","CITY":"209","CITY_NAME":"長岡京市","S_NAME":"野添一丁目","SETAI":"376"}},{"type":"Feature","geometry":{"type":"Polygon","coordinates":[[[135.69536898063882,34.9349763290415],[135.6916916181773,34.934839546211485],[135.69163714454646,34.934838704264415],[135.69240751825862,34.934052624507785],[135.69361842873013,34.93365500414505],[135.69429225913962,34.933080590727535],[135.69523356144393,34.932832292728605],[135.69536898063882,34.9349763290415]]]},"properties":{"KEY_CODE":"26209069002","PREF":"26","CITY":"209","CITY_NAME":"長岡京市","S_NAME":"野添二丁目","SETAI":"234"}},{"type":"Feature","geometry":{"type":"Polygon","coordinates":[[[135.70088885348227,34.931842327839426],[135.69999618815532,34.93208072026307],[135.69728139473546,34.93214550737574],[135.69674118151974,34.93215846203315],[135.69643992934192,34.93163436020116],[135.6963140022375,34.93141804234506],[135.69745320107737,34.93036776201696],[135.6980783084287,34.93012703753707],[135.6983391648204,34.9298920308822],[135.69911111694537,34.92915789345872],[135.6992477542001,34.92925675935664],[135.6997346281412,34.92962503030062],[135.70030998832476,34.92954756610947],[135.70035856067295,34.930179634382135],[135.70088885348227,34.931842327839426]]]},"properties":{"KEY_CODE":"26209071001","PREF":"26","CITY":"209","CITY_NAME":"長岡京市","S_NAME":"一文橋一丁目","SETAI":"749"}},{"type":"Feature","geometry":{"type":"Polygon","coordinates":[[[135.70090953458137,34.93189998843148],[135.70117286921314,34.932968177159566],[135.7010404562825,34.93378397100737],[135.7002638387571,34.93479207525186],[135.69931583469346,34.93596145911373],[135.69899211535886,34.935581973136216],[135.6984605763216,34.93497392697881],[135.69817521243078,34.93451994841375],[135.69743849481887,34.933342401426735],[135.69676385127156,34.932203240919264],[135.69728139473546,34.93214550737574],[135.69999618815532,34.93208072026307],[135.70088885348227,34.931842327839426],[135.70090857177038,34.93190019790757],[135.70090953458137,34.93189998843148]]]},"properties":{"KEY_CODE":"26209071002","PREF":"26","CITY":"209","CITY_NAME":"長岡京市","S_NAME":"一文橋二丁目","SETAI":"541"}},{"type":"Feature","geometry":{"type":"Polygon","coordinates":[[[135.67886583625486,34.930996127906724],[135.67885742604074,34.93116443193067],[135.67881839075798,34.931301807012304],[135.67868331622202,34.93130292870772],[135.67814139319339,34.93074623084638],[135.6774138494825,34.93068478967677],[135.67618038914185,34.930049829178294],[135.6765280767097,34.929438017990414],[135.67717818225634,34.92994902152838],[135.67747359623155,34.92939094773747],[135.67839214976385,34.929628404698605],[135.67894538776358,34.929383786576686],[135.6791123793507,34.92953783342021],[135.67953610704902,34.92952613346876],[135.6800507895502,34.92958312767341],[135.68006066257922,34.92982916337448],[135.6803768727711,34.92983999655668],[135.67939176085756,34.93051310175668],[135.68058017062518,34.93074653359883],[135.6794397797668,34.93102849012792],[135.67886583625486,34.930996127906724]]]},"properties":{"KEY_CODE":"262090780","PREF":"26","CITY":"209","CITY_NAME":"長岡京市","S_NAME":"光風台","SETAI":"129"}}]}